14840KMKG MKG20101109171009111/09/10 17:10:31  5-MIN KMKG 092210Z 10011KT 8SM CLR 16/03 A3002 540 43 800 100/11 RMK AO2
14840KMKG MKG20101109171509111/09/10 17:15:31  5-MIN KMKG 092215Z 09009KT 8SM CLR 16/03 A3002 540 42 800 100/09 RMK AO2
14840KMKG MKG20101109172009111/09/10 17:20:31  5-MIN KMKG 092220Z 09008KT 8SM CLR 16/03 A3002 540 43 800 090/08 RMK AO2
14840KMKG MKG20101109172509111/09/10 17:25:31  5-MIN KMKG 092225Z 09008KT 8SM CLR 15/03 A3002 540 45 700 100/08 RMK AO2
14840KMKG MKG20101109173009111/09/10 17:30:31  5-MIN KMKG 092230Z 09008KT 8SM CLR 15/03 A3002 540 45 700 100/08 RMK AO2
14840KMKG MKG20101109173509111/09/10 17:35:31  5-MIN KMKG 092235Z 09007KT 8SM CLR 15/03 A3002 540 45 700 090/07 RMK AO2
14840KMKG MKG20101109174009111/09/10 17:40:31  5-MIN KMKG 092240Z 08006KT 8SM CLR 14/03 A3002 540 47 600 090/06 RMK AO2
14840KMKG MKG20101109174509111/09/10 17:45:31  5-MIN KMKG 092245Z 08006KT 8SM CLR 14/03 A3002 540 48 600 090/06 RMK AO2
14840KMKG MKG20101109175010811/09/10 17:50:31  5-MIN KMKG 092250Z 09007KT 9SM CLR 14/04 A3002 530 50 600 090/07 RMK AO2 SLP170 T01390039
14840KMKG MKG20101109175510811/09/10 17:55:31  5-MIN KMKG 092255Z 09006KT 9SM CLR 14/04 A3003 530 50 600 090/06 RMK AO2 SLP170 T01390039
14840KMKG MKG20101109180009111/09/10 18:00:31  5-MIN KMKG 092300Z 09007KT 9SM CLR 14/04 A3003 530 50 600 090/07 RMK AO2
14840KMKG MKG20101109180509111/09/10 18:05:31  5-MIN KMKG 092305Z 09007KT 9SM CLR 14/04 A3003 530 50 600 090/07 RMK AO2
14840KMKG MKG20101109181009111/09/10 18:10:31  5-MIN KMKG 092310Z 09007KT 9SM CLR 13/04 A3003 530 52 500 090/07 RMK AO2
14840KMKG MKG20101109181509111/09/10 18:15:31  5-MIN KMKG 092315Z 09007KT 9SM CLR 14/04 A3003 530 50 600 090/07 RMK AO2
14840KMKG MKG20101109182009111/09/10 18:20:31  5-MIN KMKG 092320Z 09007KT 9SM CLR 14/04 A3003 530 50 600 090/07 RMK AO2
14840KMKG MKG20101109182509111/09/10 18:25:31  5-MIN KMKG 092325Z 09008KT 9SM CLR 13/04 A3003 530 52 500 090/08 RMK AO2
14840KMKG MKG20101109183009111/09/10 18:30:31  5-MIN KMKG 092330Z 09008KT 9SM CLR 13/04 A3003 530 52 500 090/08 RMK AO2
14840KMKG MKG20101109183509111/09/10 18:35:31  5-MIN KMKG 092335Z 09008KT 9SM CLR 13/03 A3003 530 50 500 090/08 RMK AO2
14840KMKG MKG20101109184009111/09/10 18:40:31  5-MIN KMKG 092340Z 09008KT 9SM CLR 13/03 A3003 530 50 500 090/08 RMK AO2
14840KMKG MKG20101109184509111/09/10 18:45:31  5-MIN KMKG 092345Z 09008KT 9SM CLR 13/03 A3003 530 50 500 090/08 RMK AO2
14840KMKG MKG20101109185012611/09/10 18:50:31  5-MIN KMKG 092350Z 09008KT 9SM CLR 13/03 A3003 530 50 500 090/08 RMK AO2 SLP172 T01330033 10183 20133 55003
14840KMKG MKG20101109185512611/09/10 18:55:31  5-MIN KMKG 092355Z 09008KT 9SM CLR 13/03 A3003 530 50 500 090/08 RMK AO2 SLP172 T01330033 10183 20128 51009
14840KMKG MKG20101109190009111/09/10 19:00:31  5-MIN KMKG 100000Z 09007KT 9SM CLR 13/03 A3003 530 52 400 090/07 RMK AO2
14840KMKG MKG20101109190509111/09/10 19:05:31  5-MIN KMKG 100005Z 09008KT 9SM CLR 13/03 A3004 520 52 400 090/08 RMK AO2
14840KMKG MKG20101109191009111/09/10 19:10:31  5-MIN KMKG 100010Z 09008KT 9SM CLR 13/03 A3004 520 52 400 090/08 RMK AO2
14840KMKG MKG20101109191509111/09/10 19:15:31  5-MIN KMKG 100015Z 09008KT 9SM CLR 13/03 A3004 520 52 400 090/08 RMK AO2
14840KMKG MKG20101109192009111/09/10 19:20:31  5-MIN KMKG 100020Z 09008KT 9SM CLR 13/03 A3004 520 52 400 090/08 RMK AO2
14840KMKG MKG20101109192509111/09/10 19:25:31  5-MIN KMKG 100025Z 09008KT 9SM CLR 13/03 A3004 520 52 400 090/08 RMK AO2
14840KMKG MKG20101109193009111/09/10 19:30:31  5-MIN KMKG 100030Z 09007KT 9SM CLR 13/03 A3004 520 52 400 090/07 RMK AO2
14840KMKG MKG20101109193509111/09/10 19:35:31  5-MIN KMKG 100035Z 09008KT 9SM CLR 12/03 A3004 520 54 400 100/08 RMK AO2
14840KMKG MKG20101109194009111/09/10 19:40:31  5-MIN KMKG 100040Z 10006KT 9SM CLR 12/03 A3004 520 54 400 100/06 RMK AO2
14840KMKG MKG20101109194509111/09/10 19:45:31  5-MIN KMKG 100045Z 09007KT 9SM CLR 12/03 A3004 520 54 400 100/07 RMK AO2
14840KMKG MKG20101109195010811/09/10 19:50:31  5-MIN KMKG 100050Z 10007KT 9SM CLR 12/03 A3004 520 54 400 100/07 RMK AO2 SLP175 T01220033
14840KMKG MKG20101109195510811/09/10 19:55:31  5-MIN KMKG 100055Z 10008KT 9SM CLR 12/03 A3004 520 56 300 100/08 RMK AO2 SLP175 T01170033
14840KMKG MKG20101109200009111/09/10 20:00:31  5-MIN KMKG 100100Z 09007KT 9SM CLR 12/03 A3004 520 56 300 100/07 RMK AO2
14840KMKG MKG20101109200509111/09/10 20:05:31  5-MIN KMKG 100105Z 10006KT 9SM CLR 12/03 A3004 520 56 300 100/06 RMK AO2
14840KMKG MKG20101109201009111/09/10 20:10:31  5-MIN KMKG 100110Z 10006KT 9SM CLR 12/03 A3004 520 56 300 100/06 RMK AO2
14840KMKG MKG20101109201509111/09/10 20:15:31  5-MIN KMKG 100115Z 10007KT 9SM CLR 12/03 A3004 520 56 300 110/07 RMK AO2
14840KMKG MKG20101109202009111/09/10 20:20:31  5-MIN KMKG 100120Z 11007KT 9SM CLR 12/03 A3004 520 56 300 110/07 RMK AO2
14840KMKG MKG20101109202509111/09/10 20:25:31  5-MIN KMKG 100125Z 10007KT 9SM CLR 12/03 A3004 520 56 300 100/07 RMK AO2
14840KMKG MKG20101109203009111/09/10 20:30:31  5-MIN KMKG 100130Z 10007KT 9SM CLR 12/03 A3004 520 56 300 110/07 RMK AO2
14840KMKG MKG20101109203509211/09/10 20:35:31  5-MIN KMKG 100135Z 11007KT 10SM CLR 12/03 A3004 520 56 300 110/07 RMK AO2
14840KMKG MKG20101109204009211/09/10 20:40:31  5-MIN KMKG 100140Z 11007KT 10SM CLR 11/03 A3005 510 58 200 110/07 RMK AO2
14840KMKG MKG20101109204509211/09/10 20:45:31  5-MIN KMKG 100145Z 11008KT 10SM CLR 11/03 A3005 510 58 200 110/08 RMK AO2
14840KMKG MKG20101109205010911/09/10 20:50:31  5-MIN KMKG 100150Z 11008KT 10SM CLR 11/03 A3005 510 58 200 110/08 RMK AO2 SLP178 T01110033
14840KMKG MKG20101109205510911/09/10 20:55:31  5-MIN KMKG 100155Z 10008KT 10SM CLR 11/03 A3005 510 58 200 110/08 RMK AO2 SLP179 T01110033
14840KMKG MKG20101109210009211/09/10 21:00:31  5-MIN KMKG 100200Z 11007KT 10SM CLR 12/03 A3005 510 56 300 110/07 RMK AO2
14840KMKG MKG20101109210509211/09/10 21:05:31  5-MIN KMKG 100205Z 10007KT 10SM CLR 11/03 A3006 510 58 200 110/07 RMK AO2
14840KMKG MKG20101109211009211/09/10 21:10:31  5-MIN KMKG 100210Z 10007KT 10SM CLR 11/03 A3006 500 58 200 100/07 RMK AO2
14840KMKG MKG20101109211509211/09/10 21:15:31  5-MIN KMKG 100215Z 09006KT 10SM CLR 11/03 A3006 500 58 200 100/06 RMK AO2
14840KMKG MKG20101109212009211/09/10 21:20:31  5-MIN KMKG 100220Z 09006KT 10SM CLR 11/03 A3006 500 61 100 100/06 RMK AO2
14840KMKG MKG20101109212509211/09/10 21:25:31  5-MIN KMKG 100225Z 09005KT 10SM CLR 11/03 A3006 500 58 100 090/05 RMK AO2
14840KMKG MKG20101109213009211/09/10 21:30:31  5-MIN KMKG 100230Z 09006KT 10SM CLR 10/03 A3006 500 60 100 090/06 RMK AO2
14840KMKG MKG20101109213509111/09/10 21:35:31  5-MIN KMKG 100235Z 09006KT 9SM CLR 10/03 A3006 500 60 100 090/06 RMK AO2
14840KMKG MKG20101109214009211/09/10 21:40:31  5-MIN KMKG 100240Z 09008KT 10SM CLR 11/03 A3006 500 58 100 090/08 RMK AO2
14840KMKG MKG20101109214509211/09/10 21:45:31  5-MIN KMKG 100245Z 09007KT 10SM CLR 11/03 A3006 500 58 100 100/07 RMK AO2
14840KMKG MKG20101109215011511/09/10 21:50:31  5-MIN KMKG 100250Z 09008KT 10SM CLR 10/03 A3006 500 60 100 100/08 RMK AO2 SLP183 T01000028 51009
14840KMKG MKG20101109215511511/09/10 21:55:31  5-MIN KMKG 100255Z 09008KT 10SM CLR 10/03 A3006 500 60 100 090/08 RMK AO2 SLP183 T01000028 53010
14840KMKG MKG20101109220009211/09/10 22:00:31  5-MIN KMKG 100300Z 09008KT 10SM CLR 10/03 A3006 500 60 100 090/08 RMK AO2
14840KMKG MKG20101109220509211/09/10 22:05:31  5-MIN KMKG 100305Z 09008KT 10SM CLR 10/03 A3007 500 60 100 090/08 RMK AO2
14840KMKG MKG20101109221009211/09/10 22:10:31  5-MIN KMKG 100310Z 09009KT 10SM CLR 10/03 A3006 500 60 100 100/09 RMK AO2
14840KMKG MKG20101109221509211/09/10 22:15:31  5-MIN KMKG 100315Z 09008KT 10SM CLR 10/03 A3007 500 60 100 100/08 RMK AO2
14840KMKG MKG20101109222009211/09/10 22:20:31  5-MIN KMKG 100320Z 09008KT 10SM CLR 10/03 A3007 500 63 100 100/08 RMK AO2
14840KMKG MKG20101109222509011/09/10 22:25:31  5-MIN KMKG 100325Z 10008KT 10SM CLR 09/03 A3007 500 65 0 100/08 RMK AO2
14840KMKG MKG20101109223009011/09/10 22:30:31  5-MIN KMKG 100330Z 09008KT 10SM CLR 09/03 A3007 490 65 0 100/08 RMK AO2
14840KMKG MKG20101109223509011/09/10 22:35:31  5-MIN KMKG 100335Z 09008KT 10SM CLR 09/03 A3007 490 65 0 100/08 RMK AO2
14840KMKG MKG20101109224009011/09/10 22:40:31  5-MIN KMKG 100340Z 09007KT 10SM CLR 09/03 A3007 490 65 0 090/07 RMK AO2
14840KMKG MKG20101109224509011/09/10 22:45:31  5-MIN KMKG 100345Z 09007KT 10SM CLR 09/03 A3007 490 65 0 090/07 RMK AO2
14840KMKG MKG20101109225010711/09/10 22:50:31  5-MIN KMKG 100350Z 10008KT 10SM CLR 09/03 A3007 490 65 0 100/08 RMK AO2 SLP184 T00940033
14840KMKG MKG20101109225510711/09/10 22:55:31  5-MIN KMKG 100355Z 09008KT 10SM CLR 09/03 A3007 490 65 0 100/08 RMK AO2 SLP184 T00940033
14840KMKG MKG20101109230009011/09/10 23:00:31  5-MIN KMKG 100400Z 10008KT 10SM CLR 09/03 A3007 490 68 0 100/08 RMK AO2
14840KMKG MKG20101109230509011/09/10 23:05:31  5-MIN KMKG 100405Z 10007KT 10SM CLR 09/03 A3007 490 68 0 100/07 RMK AO2
14840KMKG MKG20101109231009011/09/10 23:10:31  5-MIN KMKG 100410Z 09008KT 10SM CLR 09/03 A3007 490 68 0 100/08 RMK AO2
14840KMKG MKG20101109231509011/09/10 23:15:31  5-MIN KMKG 100415Z 10008KT 10SM CLR 09/03 A3007 490 68 0 100/08 RMK AO2
14840KMKG MKG20101109232009011/09/10 23:20:31  5-MIN KMKG 100420Z 10007KT 10SM CLR 09/03 A3007 490 68 0 110/07 RMK AO2
14840KMKG MKG20101109232509011/09/10 23:25:31  5-MIN KMKG 100425Z 10007KT 10SM CLR 09/03 A3007 490 68 0 110/07 RMK AO2
14840KMKG MKG20101109233009311/09/10 23:30:31  5-MIN KMKG 100430Z 10007KT 10SM CLR 08/03 A3007 490 70 -100 110/07 RMK AO2
14840KMKG MKG20101109233509011/09/10 23:35:31  5-MIN KMKG 100435Z 10007KT 10SM CLR 09/03 A3007 490 65 0 110/07 RMK AO2
14840KMKG MKG20101109234009311/09/10 23:40:31  5-MIN KMKG 100440Z 11006KT 10SM CLR 08/03 A3007 490 68 -100 110/06 RMK AO2
14840KMKG MKG20101109234509311/09/10 23:45:31  5-MIN KMKG 100445Z 11007KT 10SM CLR 08/03 A3007 490 68 -100 110/07 RMK AO2
14840KMKG MKG20101109235011711/09/10 23:50:31  5-MIN KMKG 100450Z 10008KT 10SM CLR 09/03 A3007 490 65 0 110/08 RMK AO2 SLP184 T00890028 401830033
14840KMKG MKG20101109235511711/09/10 23:55:31  5-MIN KMKG 100455Z 10007KT 10SM CLR 09/03 A3007 490 65 0 110/07 RMK AO2 SLP185 T00890028 401830033
14840KMKG MKG20101110000009311/10/10 00:00:32  5-MIN KMKG 100500Z 10007KT 10SM CLR 08/03 A3007 490 68 -100 100/07 RMK AO2
14840KMKG MKG20101110000509011/10/10 00:05:31  5-MIN KMKG 100505Z 10007KT 10SM CLR 09/03 A3008 490 65 0 100/07 RMK AO2
14840KMKG MKG20101110001009311/10/10 00:10:31  5-MIN KMKG 100510Z 10006KT 10SM CLR 08/03 A3008 480 68 -100 100/06 RMK AO2
14840KMKG MKG20101110001509311/10/10 00:15:31  5-MIN KMKG 100515Z 10006KT 10SM CLR 08/03 A3008 480 68 -100 100/06 RMK AO2
14840KMKG MKG20101110002009311/10/10 00:20:31  5-MIN KMKG 100520Z 10006KT 10SM CLR 08/03 A3008 480 68 -100 100/06 RMK AO2
14840KMKG MKG20101110002509311/10/10 00:25:31  5-MIN KMKG 100525Z 10007KT 10SM CLR 08/03 A3008 480 68 -100 100/07 RMK AO2
14840KMKG MKG20101110003009311/10/10 00:30:31  5-MIN KMKG 100530Z 09007KT 10SM CLR 08/03 A3008 480 68 -100 100/07 RMK AO2
14840KMKG MKG20101110003509311/10/10 00:35:31  5-MIN KMKG 100535Z 10008KT 10SM CLR 08/03 A3008 480 68 -100 100/08 RMK AO2
14840KMKG MKG20101110004009311/10/10 00:40:31  5-MIN KMKG 100540Z 09007KT 10SM CLR 08/03 A3008 480 68 -100 100/07 RMK AO2
14840KMKG MKG20101110004509311/10/10 00:45:31  5-MIN KMKG 100545Z 09007KT 10SM CLR 08/03 A3009 480 70 -200 090/07 RMK AO2
14840KMKG MKG20101110005012811/10/10 00:50:31  5-MIN KMKG 100550Z 09007KT 10SM CLR 08/03 A3009 470 70 -200 090/07 RMK AO2 SLP191 T00780028 10133 20078 53010
14840KMKG MKG20101110005512811/10/10 00:55:31  5-MIN KMKG 100555Z 09007KT 10SM CLR 08/03 A3009 470 70 -200 100/07 RMK AO2 SLP191 T00780028 10133 20078 53009
14840KMKG MKG20101110010009311/10/10 01:00:31  5-MIN KMKG 100600Z 09007KT 10SM CLR 08/03 A3009 470 70 -200 090/07 RMK AO2
14840KMKG MKG20101110010509311/10/10 01:05:31  5-MIN KMKG 100605Z 09007KT 10SM CLR 08/03 A3009 470 70 -200 100/07 RMK AO2
14840KMKG MKG20101110011009311/10/10 01:10:31  5-MIN KMKG 100610Z 09007KT 10SM CLR 07/03 A3010 470 73 -300 100/07 RMK AO2
14840KMKG MKG20101110011509311/10/10 01:15:31  5-MIN KMKG 100615Z 09007KT 10SM CLR 07/03 A3010 470 73 -300 090/07 RMK AO2
14840KMKG MKG20101110012009311/10/10 01:20:31  5-MIN KMKG 100620Z 09007KT 10SM CLR 07/03 A3010 470 73 -300 090/07 RMK AO2
14840KMKG MKG20101110012509311/10/10 01:25:31  5-MIN KMKG 100625Z 09006KT 10SM CLR 07/03 A3010 470 73 -300 090/06 RMK AO2
14840KMKG MKG20101110013009311/10/10 01:30:31  5-MIN KMKG 100630Z 09006KT 10SM CLR 07/03 A3010 460 73 -300 100/06 RMK AO2
14840KMKG MKG20101110013509311/10/10 01:35:31  5-MIN KMKG 100635Z 09006KT 10SM CLR 07/03 A3010 460 73 -300 100/06 RMK AO2
14840KMKG MKG20101110014009311/10/10 01:40:31  5-MIN KMKG 100640Z 09005KT 10SM CLR 07/03 A3010 460 73 -300 100/05 RMK AO2
14840KMKG MKG20101110014509311/10/10 01:45:31  5-MIN KMKG 100645Z 09006KT 10SM CLR 07/03 A3010 460 73 -300 100/06 RMK AO2
14840KMKG MKG20101110015011011/10/10 01:50:31  5-MIN KMKG 100650Z 09006KT 10SM CLR 07/03 A3010 460 76 -300 100/06 RMK AO2 SLP195 T00670028
14840KMKG MKG20101110015510911/10/10 01:55:31  5-MIN KMKG 100655Z 09005KT 9SM CLR 07/03 A3010 460 76 -300 100/05 RMK AO2 SLP195 T00670028
14840KMKG MKG20101110020009211/10/10 02:00:31  5-MIN KMKG 100700Z 09005KT 9SM CLR 07/03 A3010 460 76 -300 090/05 RMK AO2
14840KMKG MKG20101110020509211/10/10 02:05:31  5-MIN KMKG 100705Z 09006KT 9SM CLR 07/03 A3010 460 76 -300 100/06 RMK AO2
14840KMKG MKG20101110021009211/10/10 02:10:31  5-MIN KMKG 100710Z 09005KT 9SM CLR 07/03 A3011 460 76 -300 100/05 RMK AO2
14840KMKG MKG20101110021509211/10/10 02:15:31  5-MIN KMKG 100715Z 09005KT 9SM CLR 07/03 A3011 460 76 -300 090/05 RMK AO2
14840KMKG MKG20101110022009211/10/10 02:20:31  5-MIN KMKG 100720Z 09005KT 9SM CLR 07/03 A3011 460 76 -300 100/05 RMK AO2
14840KMKG MKG20101110022509211/10/10 02:25:31  5-MIN KMKG 100725Z 09006KT 9SM CLR 07/03 A3011 450 76 -400 100/06 RMK AO2
14840KMKG MKG20101110023009211/10/10 02:30:31  5-MIN KMKG 100730Z 10007KT 9SM CLR 07/03 A3011 450 76 -400 100/07 RMK AO2
14840KMKG MKG20101110023509211/10/10 02:35:31  5-MIN KMKG 100735Z 10007KT 9SM CLR 07/03 A3011 450 76 -400 100/07 RMK AO2
14840KMKG MKG20101110024009211/10/10 02:40:31  5-MIN KMKG 100740Z 10006KT 8SM CLR 07/03 A3011 450 76 -400 100/06 RMK AO2
14840KMKG MKG20101110024509211/10/10 02:45:31  5-MIN KMKG 100745Z 10007KT 8SM CLR 07/03 A3012 450 76 -400 110/07 RMK AO2
14840KMKG MKG20101110025010911/10/10 02:50:31  5-MIN KMKG 100750Z 10006KT 8SM CLR 07/03 A3012 450 76 -400 100/06 RMK AO2 SLP200 T00670028
14840KMKG MKG20101110025510911/10/10 02:55:31  5-MIN KMKG 100755Z 10007KT 8SM CLR 07/03 A3012 450 76 -400 100/07 RMK AO2 SLP201 T00670028
14840KMKG MKG20101110030009211/10/10 03:00:31  5-MIN KMKG 100800Z 10007KT 8SM CLR 07/03 A3012 450 76 -400 100/07 RMK AO2
14840KMKG MKG20101110030509211/10/10 03:05:31  5-MIN KMKG 100805Z 09006KT 8SM CLR 07/03 A3012 440 76 -400 100/06 RMK AO2
14840KMKG MKG20101110031009211/10/10 03:10:31  5-MIN KMKG 100810Z 10006KT 7SM CLR 07/02 A3012 440 73 -400 100/06 RMK AO2
14840KMKG MKG20101110031509211/10/10 03:15:31  5-MIN KMKG 100815Z 10007KT 7SM CLR 07/02 A3012 440 73 -400 100/07 RMK AO2
14840KMKG MKG20101110032009211/10/10 03:20:31  5-MIN KMKG 100820Z 10006KT 7SM CLR 07/02 A3013 440 73 -400 100/06 RMK AO2
14840KMKG MKG20101110032509211/10/10 03:25:31  5-MIN KMKG 100825Z 10006KT 7SM CLR 07/02 A3012 440 73 -400 100/06 RMK AO2
14840KMKG MKG20101110033009211/10/10 03:30:31  5-MIN KMKG 100830Z 10006KT 7SM CLR 07/02 A3013 440 73 -400 100/06 RMK AO2
14840KMKG MKG20101110033509211/10/10 03:35:31  5-MIN KMKG 100835Z 10006KT 7SM CLR 07/02 A3013 440 73 -400 100/06 RMK AO2
14840KMKG MKG20101110034009211/10/10 03:40:31  5-MIN KMKG 100840Z 10007KT 7SM CLR 07/02 A3013 440 73 -400 100/07 RMK AO2
14840KMKG MKG20101110034509211/10/10 03:45:31  5-MIN KMKG 100845Z 10006KT 7SM CLR 07/02 A3013 440 73 -400 100/06 RMK AO2
14840KMKG MKG20101110035011511/10/10 03:50:31  5-MIN KMKG 100850Z 10007KT 7SM CLR 07/02 A3013 440 73 -400 110/07 RMK AO2 SLP203 T00670022 53009
14840KMKG MKG20101110035511511/10/10 03:55:31  5-MIN KMKG 100855Z 10007KT 7SM CLR 07/02 A3013 440 73 -400 100/07 RMK AO2 SLP203 T00670022 51012
14840KMKG MKG20101110040009211/10/10 04:00:31  5-MIN KMKG 100900Z 10008KT 7SM CLR 07/02 A3013 440 73 -400 100/08 RMK AO2
14840KMKG MKG20101110040509211/10/10 04:05:31  5-MIN KMKG 100905Z 10008KT 7SM CLR 07/02 A3013 440 73 -400 100/08 RMK AO2
14840KMKG MKG20101110041009211/10/10 04:10:31  5-MIN KMKG 100910Z 10007KT 7SM CLR 07/02 A3013 440 73 -400 100/07 RMK AO2
14840KMKG MKG20101110041509211/10/10 04:15:31  5-MIN KMKG 100915Z 10008KT 7SM CLR 07/02 A3013 440 73 -400 110/08 RMK AO2
14840KMKG MKG20101110042009211/10/10 04:20:31  5-MIN KMKG 100920Z 10007KT 7SM CLR 07/02 A3013 440 73 -400 100/07 RMK AO2
14840KMKG MKG20101110042509211/10/10 04:25:31  5-MIN KMKG 100925Z 10007KT 7SM CLR 07/02 A3013 440 73 -400 110/07 RMK AO2
14840KMKG MKG20101110043009211/10/10 04:30:31  5-MIN KMKG 100930Z 10007KT 7SM CLR 07/02 A3013 440 73 -400 100/07 RMK AO2
14840KMKG MKG20101110043509211/10/10 04:35:31  5-MIN KMKG 100935Z 10007KT 7SM CLR 07/02 A3013 440 70 -400 100/07 RMK AO2
14840KMKG MKG20101110044009211/10/10 04:40:31  5-MIN KMKG 100940Z 10008KT 7SM CLR 07/02 A3013 430 70 -400 110/08 RMK AO2
14840KMKG MKG20101110044509211/10/10 04:45:31  5-MIN KMKG 100945Z 10008KT 7SM CLR 07/02 A3013 440 70 -400 100/08 RMK AO2
14840KMKG MKG20101110045010911/10/10 04:50:31  5-MIN KMKG 100950Z 10008KT 7SM CLR 07/02 A3013 440 70 -400 110/08 RMK AO2 SLP205 T00670017
14840KMKG MKG20101110045510911/10/10 04:55:31  5-MIN KMKG 100955Z 11008KT 7SM CLR 07/02 A3013 430 70 -400 110/08 RMK AO2 SLP206 T00670017
14840KMKG MKG20101110050009211/10/10 05:00:31  5-MIN KMKG 101000Z 11008KT 7SM CLR 07/02 A3013 430 70 -400 110/08 RMK AO2
14840KMKG MKG20101110050509211/10/10 05:05:31  5-MIN KMKG 101005Z 11007KT 7SM CLR 06/02 A3014 430 73 -400 110/07 RMK AO2
14840KMKG MKG20101110052509211/10/10 05:25:31  5-MIN KMKG 101025Z 10008KT 7SM CLR 06/02 A3013 430 73 -400 110/08 RMK AO2
14840KMKG MKG20101110053009211/10/10 05:30:31  5-MIN KMKG 101030Z 10007KT 7SM CLR 06/01 A3013 430 70 -400 110/07 RMK AO2
14840KMKG MKG20101110053509211/10/10 05:35:31  5-MIN KMKG 101035Z 10007KT 7SM CLR 06/01 A3013 430 70 -400 110/07 RMK AO2
14840KMKG MKG20101110054009211/10/10 05:40:31  5-MIN KMKG 101040Z 10006KT 7SM CLR 06/01 A3013 430 70 -400 110/06 RMK AO2
14840KMKG MKG20101110054509211/10/10 05:45:31  5-MIN KMKG 101045Z 10008KT 7SM CLR 06/01 A3013 430 70 -400 110/08 RMK AO2
14840KMKG MKG20101110055010911/10/10 05:50:31  5-MIN KMKG 101050Z 10008KT 7SM CLR 06/01 A3013 430 70 -400 110/08 RMK AO2 SLP207 T00610011
14840KMKG MKG20101110055510911/10/10 05:55:31  5-MIN KMKG 101055Z 10008KT 7SM CLR 06/01 A3013 430 70 -400 110/08 RMK AO2 SLP207 T00610011
14840KMKG MKG20101110060009211/10/10 06:00:31  5-MIN KMKG 101100Z 10007KT 7SM CLR 06/01 A3013 430 70 -400 110/07 RMK AO2
14840KMKG MKG20101110060509211/10/10 06:05:31  5-MIN KMKG 101105Z 11008KT 7SM CLR 06/01 A3013 430 70 -400 110/08 RMK AO2
14840KMKG MKG20101110061009211/10/10 06:10:31  5-MIN KMKG 101110Z 10007KT 7SM CLR 06/01 A3013 440 70 -400 110/07 RMK AO2
14840KMKG MKG20101110061509211/10/10 06:15:31  5-MIN KMKG 101115Z 10008KT 7SM CLR 06/01 A3013 440 70 -400 110/08 RMK AO2
14840KMKG MKG20101110062009211/10/10 06:20:31  5-MIN KMKG 101120Z 10007KT 7SM CLR 06/01 A3013 440 70 -400 110/07 RMK AO2
14840KMKG MKG20101110062509211/10/10 06:25:31  5-MIN KMKG 101125Z 11008KT 7SM CLR 06/01 A3013 440 70 -400 110/08 RMK AO2
14840KMKG MKG20101110063009211/10/10 06:30:31  5-MIN KMKG 101130Z 11008KT 7SM CLR 06/01 A3013 440 70 -400 110/08 RMK AO2
14840KMKG MKG20101110063509211/10/10 06:35:31  5-MIN KMKG 101135Z 11007KT 7SM CLR 06/01 A3013 440 73 -500 110/07 RMK AO2
14840KMKG MKG20101110064009211/10/10 06:40:31  5-MIN KMKG 101140Z 11008KT 7SM CLR 06/01 A3013 430 73 -500 110/08 RMK AO2
14840KMKG MKG20101110064509211/10/10 06:45:31  5-MIN KMKG 101145Z 11007KT 7SM CLR 06/01 A3013 430 73 -500 110/07 RMK AO2
14840KMKG MKG20101110065012711/10/10 06:50:31  5-MIN KMKG 101150Z 10007KT 7SM CLR 06/01 A3014 430 73 -500 110/07 RMK AO2 SLP207 T00560011 10078 20056 51012
14840KMKG MKG20101110065512711/10/10 06:55:31  5-MIN KMKG 101155Z 10007KT 7SM CLR 06/01 A3014 430 73 -500 110/07 RMK AO2 SLP208 T00560011 10078 20056 51003
14840KMKG MKG20101110070009211/10/10 07:00:31  5-MIN KMKG 101200Z 10007KT 7SM CLR 06/01 A3014 430 73 -500 110/07 RMK AO2
14840KMKG MKG20101110070509211/10/10 07:05:31  5-MIN KMKG 101205Z 10008KT 7SM CLR 06/01 A3014 430 70 -400 110/08 RMK AO2
14840KMKG MKG20101110071009211/10/10 07:10:31  5-MIN KMKG 101210Z 11006KT 7SM CLR 06/01 A3014 430 73 -500 110/06 RMK AO2
14840KMKG MKG20101110071509211/10/10 07:15:31  5-MIN KMKG 101215Z 10007KT 7SM CLR 06/01 A3014 430 70 -500 110/07 RMK AO2
14840KMKG MKG20101110072009211/10/10 07:20:31  5-MIN KMKG 101220Z 10007KT 7SM CLR 06/01 A3014 430 73 -500 110/07 RMK AO2
14840KMKG MKG20101110072509211/10/10 07:25:31  5-MIN KMKG 101225Z 10008KT 7SM CLR 06/01 A3014 430 70 -500 110/08 RMK AO2
14840KMKG MKG20101110073009511/10/10 07:30:31  5-MIN KMKG 101230Z 11008KT 6SM HZ CLR 06/01 A3014 430 70 -500 110/08 RMK AO2
14840KMKG MKG20101110073509511/10/10 07:35:31  5-MIN KMKG 101235Z 11010KT 6SM HZ CLR 06/01 A3014 430 70 -500 110/10 RMK AO2
14840KMKG MKG20101110074009511/10/10 07:40:31  5-MIN KMKG 101240Z 10010KT 6SM HZ CLR 06/01 A3014 430 70 -500 110/10 RMK AO2
14840KMKG MKG20101110074509511/10/10 07:45:31  5-MIN KMKG 101245Z 10009KT 6SM HZ CLR 06/01 A3014 430 70 -500 100/09 RMK AO2
14840KMKG MKG20101110075011211/10/10 07:50:31  5-MIN KMKG 101250Z 10010KT 6SM HZ CLR 06/02 A3014 430 73 -500 100/10 RMK AO2 SLP210 T00610017
14840KMKG MKG20101110075511211/10/10 07:55:31  5-MIN KMKG 101255Z 10010KT 6SM HZ CLR 07/02 A3014 430 70 -400 100/10 RMK AO2 SLP209 T00670017
14840KMKG MKG20101110080009511/10/10 08:00:31  5-MIN KMKG 101300Z 10009KT 6SM HZ CLR 07/02 A3014 430 70 -400 100/09 RMK AO2
14840KMKG MKG20101110080509511/10/10 08:05:31  5-MIN KMKG 101305Z 10009KT 6SM HZ CLR 07/02 A3014 420 70 -400 110/09 RMK AO2
14840KMKG MKG20101110081009511/10/10 08:10:31  5-MIN KMKG 101310Z 10009KT 6SM HZ CLR 07/02 A3014 420 70 -400 100/09 RMK AO2
14840KMKG MKG20101110081509511/10/10 08:15:31  5-MIN KMKG 101315Z 10009KT 6SM HZ CLR 07/02 A3014 420 70 -400 100/09 RMK AO2
14840KMKG MKG20101110082009511/10/10 08:20:31  5-MIN KMKG 101320Z 10010KT 6SM HZ CLR 07/02 A3015 420 70 -400 100/10 RMK AO2
14840KMKG MKG20101110082509511/10/10 08:25:31  5-MIN KMKG 101325Z 10009KT 6SM HZ CLR 07/02 A3014 420 70 -400 100/09 RMK AO2
14840KMKG MKG20101110083009511/10/10 08:30:31  5-MIN KMKG 101330Z 10010KT 6SM HZ CLR 07/02 A3015 420 73 -400 110/10 RMK AO2
14840KMKG MKG20101110083509511/10/10 08:35:31  5-MIN KMKG 101335Z 10010KT 6SM HZ CLR 07/02 A3015 420 70 -300 110/10 RMK AO2
14840KMKG MKG20101110084009511/10/10 08:40:31  5-MIN KMKG 101340Z 10011KT 6SM HZ CLR 07/02 A3014 420 70 -300 110/11 RMK AO2
14840KMKG MKG20101110084509511/10/10 08:45:31  5-MIN KMKG 101345Z 11010KT 6SM HZ CLR 07/02 A3014 420 70 -300 110/10 RMK AO2
14840KMKG MKG20101110085011211/10/10 08:50:31  5-MIN KMKG 101350Z 11011KT 6SM HZ CLR 08/03 A3015 420 70 -300 110/11 RMK AO2 SLP211 T00780028
14840KMKG MKG20101110085511211/10/10 08:55:31  5-MIN KMKG 101355Z 11012KT 6SM HZ CLR 08/03 A3015 420 70 -300 120/12 RMK AO2 SLP212 T00780028
14840KMKG MKG20101110090009511/10/10 09:00:31  5-MIN KMKG 101400Z 11012KT 6SM HZ CLR 08/03 A3015 420 70 -300 110/12 RMK AO2
14840KMKG MKG20101110090509511/10/10 09:05:31  5-MIN KMKG 101405Z 11010KT 6SM HZ CLR 08/03 A3015 420 68 -200 120/10 RMK AO2
14840KMKG MKG20101110091009511/10/10 09:10:31  5-MIN KMKG 101410Z 11010KT 6SM HZ CLR 08/03 A3015 420 68 -200 120/10 RMK AO2
14840KMKG MKG20101110091509511/10/10 09:15:31  5-MIN KMKG 101415Z 11011KT 6SM HZ CLR 08/03 A3015 420 70 -200 110/11 RMK AO2
14840KMKG MKG20101110092009511/10/10 09:20:31  5-MIN KMKG 101420Z 11009KT 6SM HZ CLR 08/03 A3015 420 70 -200 120/09 RMK AO2
14840KMKG MKG20101110092509511/10/10 09:25:31  5-MIN KMKG 101425Z 11009KT 6SM HZ CLR 09/03 A3015 420 68 -100 110/09 RMK AO2
14840KMKG MKG20101110093009511/10/10 09:30:31  5-MIN KMKG 101430Z 11010KT 6SM HZ CLR 09/03 A3015 420 68 -100 110/10 RMK AO2
14840KMKG MKG20101110093509511/10/10 09:35:31  5-MIN KMKG 101435Z 11009KT 6SM HZ CLR 09/03 A3015 420 68 -100 110/09 RMK AO2
14840KMKG MKG20101110094009511/10/10 09:40:31  5-MIN KMKG 101440Z 11010KT 6SM HZ CLR 09/03 A3015 420 65 -100 120/10 RMK AO2
14840KMKG MKG20101110094509211/10/10 09:45:31  5-MIN KMKG 101445Z 11010KT 6SM HZ CLR 10/03 A3015 420 63 0 120/10 RMK AO2
14840KMKG MKG20101110095011511/10/10 09:50:31  5-MIN KMKG 101450Z 11007KT 6SM HZ CLR 10/03 A3015 420 63 0 110/07 RMK AO2 SLP214 T01000033 51003
14840KMKG MKG20101110095511511/10/10 09:55:31  5-MIN KMKG 101455Z 11010KT 6SM HZ CLR 10/03 A3015 410 63 0 120/10 RMK AO2 SLP214 T01000033 53006
14840KMKG MKG20101110100009211/10/10 10:00:31  5-MIN KMKG 101500Z 11008KT 6SM HZ CLR 10/04 A3016 410 65 0 120/08 RMK AO2
14840KMKG MKG20101110100509211/10/10 10:05:31  5-MIN KMKG 101505Z 12010KT 6SM HZ CLR 11/04 A3016 410 63 0 120/10 RMK AO2
14840KMKG MKG20101110101009211/10/10 10:10:31  5-MIN KMKG 101510Z 13011KT 6SM HZ CLR 11/04 A3016 410 63 0 130/11 RMK AO2
14840KMKG MKG20101110101509211/10/10 10:15:31  5-MIN KMKG 101515Z 12010KT 6SM HZ CLR 11/04 A3016 410 63 0 120/10 RMK AO2
14840KMKG MKG20101110102009411/10/10 10:20:31  5-MIN KMKG 101520Z 12010KT 6SM HZ CLR 11/04 A3016 410 61 100 120/10 RMK AO2
14840KMKG MKG20101110102509411/10/10 10:25:31  5-MIN KMKG 101525Z 11009KT 6SM HZ CLR 11/04 A3016 410 61 100 120/09 RMK AO2
14840KMKG MKG20101110103009111/10/10 10:30:31  5-MIN KMKG 101530Z 12010KT 7SM CLR 12/04 A3016 410 58 100 120/10 RMK AO2
14840KMKG MKG20101110103509111/10/10 10:35:31  5-MIN KMKG 101535Z 11010KT 7SM CLR 12/04 A3016 410 58 200 120/10 RMK AO2
14840KMKG MKG20101110104009111/10/10 10:40:31  5-MIN KMKG 101540Z 11009KT 7SM CLR 12/04 A3016 410 59 200 120/09 RMK AO2
14840KMKG MKG20101110104509111/10/10 10:45:31  5-MIN KMKG 101545Z 12009KT 7SM CLR 12/04 A3016 410 56 200 130/09 RMK AO2
14840KMKG MKG20101110105010811/10/10 10:50:31  5-MIN KMKG 101550Z 11009KT 7SM CLR 12/04 A3016 410 59 200 110/09 RMK AO2 SLP213 T01220044
14840KMKG MKG20101110105510811/10/10 10:55:31  5-MIN KMKG 101555Z 11009KT 7SM CLR 13/04 A3016 410 56 300 110/09 RMK AO2 SLP213 T01280044
14840KMKG MKG20101110110009111/10/10 11:00:31  5-MIN KMKG 101600Z 12010KT 7SM CLR 13/04 A3015 420 54 300 120/10 RMK AO2
14840KMKG MKG20101110110509111/10/10 11:05:31  5-MIN KMKG 101605Z 12009KT 7SM CLR 13/04 A3015 420 54 400 120/09 RMK AO2
14840KMKG MKG20101110111009111/10/10 11:10:31  5-MIN KMKG 101610Z 12010KT 7SM CLR 13/04 A3015 420 52 400 120/10 RMK AO2
14840KMKG MKG20101110111509111/10/10 11:15:31  5-MIN KMKG 101615Z 11011KT 7SM CLR 13/04 A3015 420 52 400 120/11 RMK AO2
14840KMKG MKG20101110112009111/10/10 11:20:31  5-MIN KMKG 101620Z 12010KT 7SM CLR 14/04 A3015 420 50 400 120/10 RMK AO2
14840KMKG MKG20101110112509111/10/10 11:25:31  5-MIN KMKG 101625Z 11009KT 8SM CLR 14/04 A3015 420 50 400 120/09 RMK AO2
14840KMKG MKG20101110113009111/10/10 11:30:31  5-MIN KMKG 101630Z 11009KT 8SM CLR 14/04 A3015 420 52 400 110/09 RMK AO2
14840KMKG MKG20101110113509111/10/10 11:35:31  5-MIN KMKG 101635Z 11010KT 8SM CLR 14/04 A3015 420 51 500 110/10 RMK AO2
14840KMKG MKG20101110114009111/10/10 11:40:31  5-MIN KMKG 101640Z 11011KT 8SM CLR 14/04 A3015 420 51 500 120/11 RMK AO2
14840KMKG MKG20101110114509111/10/10 11:45:31  5-MIN KMKG 101645Z 11009KT 8SM CLR 15/04 A3015 420 49 600 110/09 RMK AO2
14840KMKG MKG20101110115010811/10/10 11:50:31  5-MIN KMKG 101650Z 11009KT 8SM CLR 15/04 A3015 420 47 600 120/09 RMK AO2 SLP211 T01500039
14840KMKG MKG20101110115510811/10/10 11:55:31  5-MIN KMKG 101655Z 11010KT 8SM CLR 15/04 A3015 420 49 600 110/10 RMK AO2 SLP211 T01500044
14840KMKG MKG20101110120009111/10/10 12:00:31  5-MIN KMKG 101700Z 11011KT 8SM CLR 16/04 A3015 420 47 600 110/11 RMK AO2
14840KMKG MKG20101110120509111/10/10 12:05:31  5-MIN KMKG 101705Z 13012KT 8SM CLR 16/04 A3015 420 45 600 130/12 RMK AO2
14840KMKG MKG20101110121009111/10/10 12:10:31  5-MIN KMKG 101710Z 12009KT 8SM CLR 16/04 A3015 420 47 600 120/09 RMK AO2
14840KMKG MKG20101110121509111/10/10 12:15:31  5-MIN KMKG 101715Z 11010KT 8SM CLR 16/04 A3015 420 47 600 110/10 RMK AO2
14840KMKG MKG20101110122009111/10/10 12:20:31  5-MIN KMKG 101720Z 10012KT 8SM CLR 16/04 A3015 420 47 600 100/12 RMK AO2
14840KMKG MKG20101110122509111/10/10 12:25:31  5-MIN KMKG 101725Z 09009KT 8SM CLR 16/04 A3014 420 47 600 100/09 RMK AO2
14840KMKG MKG20101110123009111/10/10 12:30:31  5-MIN KMKG 101730Z 10008KT 8SM CLR 16/04 A3014 430 47 600 100/08 RMK AO2
14840KMKG MKG20101110123509111/10/10 12:35:31  5-MIN KMKG 101735Z 11007KT 8SM CLR 16/04 A3014 430 45 700 110/07 RMK AO2
14840KMKG MKG20101110124009111/10/10 12:40:31  5-MIN KMKG 101740Z 12012KT 8SM CLR 16/04 A3014 430 45 700 120/12 RMK AO2
14840KMKG MKG20101110124509111/10/10 12:45:31  5-MIN KMKG 101745Z 12011KT 8SM CLR 16/04 A3014 430 45 700 120/11 RMK AO2
14840KMKG MKG20101110125012611/10/10 12:50:31  5-MIN KMKG 101750Z 12011KT 8SM CLR 16/04 A3014 430 45 700 120/11 RMK AO2 SLP207 T01610044 10161 20056 53006
14840KMKG MKG20101110125512611/10/10 12:55:31  5-MIN KMKG 101755Z 10010KT 9SM CLR 16/04 A3013 430 45 700 100/10 RMK AO2 SLP206 T01610044 10161 20056 58007
14840KMKG MKG20101110130009111/10/10 13:00:31  5-MIN KMKG 101800Z 10010KT 8SM CLR 16/04 A3013 430 45 700 100/10 RMK AO2
14840KMKG MKG20101110130509711/10/10 13:05:31  5-MIN KMKG 101805Z 12013G16KT 8SM CLR 17/04 A3013 440 44 800 120/13G16 RMK AO2
14840KMKG MKG20101110131009111/10/10 13:10:31  5-MIN KMKG 101810Z 12011KT 9SM CLR 17/04 A3013 440 44 800 120/11 RMK AO2
14840KMKG MKG20101110131509111/10/10 13:15:31  5-MIN KMKG 101815Z 12013KT 9SM CLR 17/04 A3013 440 44 800 120/13 RMK AO2
14840KMKG MKG20101110132009111/10/10 13:20:31  5-MIN KMKG 101820Z 11012KT 9SM CLR 17/04 A3013 440 44 800 110/12 RMK AO2
14840KMKG MKG20101110132509111/10/10 13:25:31  5-MIN KMKG 101825Z 10010KT 9SM CLR 17/04 A3013 440 44 800 110/10 RMK AO2
14840KMKG MKG20101110133009111/10/10 13:30:31  5-MIN KMKG 101830Z 10010KT 9SM CLR 17/05 A3013 440 45 800 110/10 RMK AO2
14840KMKG MKG20101110133509111/10/10 13:35:31  5-MIN KMKG 101835Z 10011KT 9SM CLR 17/05 A3013 440 45 800 110/11 RMK AO2
14840KMKG MKG20101110134009111/10/10 13:40:31  5-MIN KMKG 101840Z 12012KT 9SM CLR 17/05 A3013 440 45 800 130/12 RMK AO2
14840KMKG MKG20101110134509111/10/10 13:45:31  5-MIN KMKG 101845Z 11012KT 9SM CLR 17/05 A3013 440 44 800 120/12 RMK AO2
14840KMKG MKG20101110135010811/10/10 13:50:31  5-MIN KMKG 101850Z 10013KT 9SM CLR 17/05 A3013 440 44 800 110/13 RMK AO2 SLP203 T01720050
14840KMKG MKG20101110135511411/10/10 13:55:31  5-MIN KMKG 101855Z 11009G16KT 9SM CLR 17/05 A3013 440 44 800 110/09G16 RMK AO2 SLP204 T01720050
14840KMKG MKG20101110140009111/10/10 14:00:31  5-MIN KMKG 101900Z 10011KT 9SM CLR 17/05 A3013 440 45 800 110/11 RMK AO2
14840KMKG MKG20101110140509111/10/10 14:05:31  5-MIN KMKG 101905Z 11010KT 9SM CLR 17/06 A3013 440 46 800 110/10 RMK AO2
14840KMKG MKG20101110141009711/10/10 14:10:31  5-MIN KMKG 101910Z 12012G16KT 9SM CLR 17/05 A3013 440 45 800 120/12G16 RMK AO2
14840KMKG MKG20101110141509111/10/10 14:15:31  5-MIN KMKG 101915Z 11011KT 9SM CLR 17/05 A3013 440 45 800 110/11 RMK AO2
14840KMKG MKG20101110142009111/10/10 14:20:31  5-MIN KMKG 101920Z 10012KT 9SM CLR 17/06 A3013 440 46 800 100/12 RMK AO2
14840KMKG MKG20101110142509111/10/10 14:25:31  5-MIN KMKG 101925Z 12013KT 9SM CLR 17/06 A3013 440 46 800 130/13 RMK AO2
14840KMKG MKG20101110143009111/10/10 14:30:31  5-MIN KMKG 101930Z 12010KT 9SM CLR 17/06 A3013 440 46 800 120/10 RMK AO2
14840KMKG MKG20101110143509111/10/10 14:35:31  5-MIN KMKG 101935Z 12012KT 9SM CLR 17/06 A3013 440 46 800 120/12 RMK AO2
14840KMKG MKG20101110144009111/10/10 14:40:31  5-MIN KMKG 101940Z 12011KT 9SM CLR 17/06 A3013 440 47 800 120/11 RMK AO2
14840KMKG MKG20101110144509111/10/10 14:45:31  5-MIN KMKG 101945Z 11011KT 8SM CLR 17/06 A3013 430 47 800 110/11 RMK AO2
14840KMKG MKG20101110145010811/10/10 14:50:31  5-MIN KMKG 101950Z 10009KT 8SM CLR 17/06 A3013 440 47 800 110/09 RMK AO2 SLP205 T01670056
14840KMKG MKG20101110145510811/10/10 14:55:31  5-MIN KMKG 101955Z 10011KT 8SM CLR 17/06 A3013 440 49 800 110/11 RMK AO2 SLP204 T01670061
14840KMKG MKG20101110150009111/10/10 15:00:31  5-MIN KMKG 102000Z 10010KT 8SM CLR 17/06 A3013 440 47 800 110/10 RMK AO2
14840KMKG MKG20101110150509111/10/10 15:05:31  5-MIN KMKG 102005Z 10009KT 8SM CLR 17/06 A3013 440 47 800 100/09 RMK AO2
14840KMKG MKG20101110151009111/10/10 15:10:31  5-MIN KMKG 102010Z 11010KT 8SM CLR 17/06 A3013 440 47 800 110/10 RMK AO2
14840KMKG MKG20101110151509111/10/10 15:15:31  5-MIN KMKG 102015Z 10010KT 8SM CLR 17/06 A3013 440 47 800 110/10 RMK AO2
14840KMKG MKG20101110152009111/10/10 15:20:31  5-MIN KMKG 102020Z 11011KT 8SM CLR 17/06 A3013 430 49 800 110/11 RMK AO2
14840KMKG MKG20101110152509111/10/10 15:25:31  5-MIN KMKG 102025Z 11010KT 8SM CLR 17/06 A3013 430 49 800 110/10 RMK AO2
14840KMKG MKG20101110153009111/10/10 15:30:31  5-MIN KMKG 102030Z 11009KT 8SM CLR 17/06 A3014 430 47 800 110/09 RMK AO2
14840KMKG MKG20101110153509111/10/10 15:35:31  5-MIN KMKG 102035Z 11010KT 8SM CLR 16/06 A3014 430 51 700 120/10 RMK AO2
14840KMKG MKG20101110154009111/10/10 15:40:31  5-MIN KMKG 102040Z 11012KT 8SM CLR 16/06 A3014 430 51 700 110/12 RMK AO2
14840KMKG MKG20101110154509111/10/10 15:45:31  5-MIN KMKG 102045Z 11010KT 8SM CLR 16/06 A3014 430 49 700 120/10 RMK AO2
14840KMKG MKG20101110155011411/10/10 15:50:31  5-MIN KMKG 102050Z 10010KT 8SM CLR 16/06 A3014 430 49 700 110/10 RMK AO2 SLP208 T01610056 58007
14840KMKG MKG20101110155511411/10/10 15:55:31  5-MIN KMKG 102055Z 10008KT 8SM CLR 16/06 A3014 430 49 700 110/08 RMK AO2 SLP209 T01610056 53002
14840KMKG MKG20101110160009111/10/10 16:00:31  5-MIN KMKG 102100Z 11010KT 8SM CLR 16/06 A3014 430 49 700 110/10 RMK AO2
14840KMKG MKG20101110160509111/10/10 16:05:31  5-MIN KMKG 102105Z 10009KT 8SM CLR 16/06 A3014 430 49 700 100/09 RMK AO2
14840KMKG MKG20101110161009111/10/10 16:10:31  5-MIN KMKG 102110Z 09007KT 8SM CLR 16/06 A3014 430 51 700 100/07 RMK AO2
14840KMKG MKG20101110161509111/10/10 16:15:31  5-MIN KMKG 102115Z 09010KT 8SM CLR 16/06 A3014 430 53 600 100/10 RMK AO2
14840KMKG MKG20101110162009111/10/10 16:20:31  5-MIN KMKG 102120Z 09009KT 8SM CLR 16/06 A3014 430 53 600 090/09 RMK AO2
14840KMKG MKG20101110162509111/10/10 16:25:31  5-MIN KMKG 102125Z 09008KT 7SM CLR 16/06 A3014 420 53 600 100/08 RMK AO2
14840KMKG MKG20101110163009111/10/10 16:30:31  5-MIN KMKG 102130Z 10008KT 7SM CLR 15/06 A3015 420 55 600 110/08 RMK AO2
14840KMKG MKG20101110163509111/10/10 16:35:31  5-MIN KMKG 102135Z 09008KT 7SM CLR 15/06 A3015 420 55 600 100/08 RMK AO2
14840KMKG MKG20101110164009111/10/10 16:40:31  5-MIN KMKG 102140Z 09008KT 7SM CLR 15/06 A3015 420 55 600 100/08 RMK AO2
14840KMKG MKG20101110164509111/10/10 16:45:31  5-MIN KMKG 102145Z 10009KT 7SM CLR 15/06 A3015 420 55 600 100/09 RMK AO2
14840KMKG MKG20101110165010811/10/10 16:50:31  5-MIN KMKG 102150Z 09008KT 7SM CLR 15/06 A3015 420 55 600 100/08 RMK AO2 SLP211 T01500061
14840KMKG MKG20101110165510811/10/10 16:55:31  5-MIN KMKG 102155Z 09008KT 7SM CLR 14/06 A3015 420 57 500 100/08 RMK AO2 SLP212 T01440061
14840KMKG MKG20101110170009111/10/10 17:00:31  5-MIN KMKG 102200Z 09008KT 7SM CLR 14/06 A3015 420 57 500 090/08 RMK AO2
14840KMKG MKG20101110170509111/10/10 17:05:31  5-MIN KMKG 102205Z 09008KT 7SM CLR 14/06 A3015 420 57 500 090/08 RMK AO2
14840KMKG MKG20101110171009111/10/10 17:10:31  5-MIN KMKG 102210Z 09009KT 7SM CLR 14/06 A3015 420 57 500 100/09 RMK AO2
14840KMKG MKG20101110171509111/10/10 17:15:31  5-MIN KMKG 102215Z 10007KT 7SM CLR 14/06 A3015 420 57 500 100/07 RMK AO2
14840KMKG MKG20101110172009111/10/10 17:20:31  5-MIN KMKG 102220Z 10008KT 7SM CLR 14/06 A3015 410 59 400 100/08 RMK AO2
14840KMKG MKG20101112014511511/12/10 01:45:31  5-MIN KMKG 120645Z 03003KT 4SM -RA BKN047 OVC060 12/08 A3039 200 77 0 040/03 RMK AO2 RAB39 P0000
14840KMKG MKG20101112015013511/12/10 01:50:31  5-MIN KMKG 120650Z 04004KT 5SM -RA BKN047 OVC055 12/08 A3039 200 80 -100 040/04 RMK AO2 RAB39 SLP291 P0000 T01170083
14840KMKG MKG20101112015513411/12/10 01:55:31  5-MIN KMKG 120655Z 02005KT 8SM BKN047 OVC055 12/08 A3038 200 77 -100 030/05 RMK AO2 RAB39E55 SLP290 P0000 T01170078
14840KMKG MKG20101112020010211/12/10 02:00:31  5-MIN KMKG 120700Z 01006KT 8SM BKN045 OVC055 12/08 A3038 210 77 -100 010/06 RMK AO2
14840KMKG MKG20101112020509511/12/10 02:05:31  5-MIN KMKG 120705Z 01005KT 8SM OVC045 12/08 A3038 200 77 -100 020/05 RMK AO2
14840KMKG MKG20101112021009211/12/10 02:10:31  5-MIN KMKG 120710Z 02004KT 8SM OVC045 12/08 A3039 200 74 0 030/04 RMK AO2
14840KMKG MKG20101112021509211/12/10 02:15:31  5-MIN KMKG 120715Z 01003KT 8SM OVC045 12/07 A3039 200 71 0 010/03 RMK AO2
14840KMKG MKG20101112022009211/12/10 02:20:31  5-MIN KMKG 120720Z 36005KT 8SM OVC043 12/07 A3039 200 71 0 010/05 RMK AO2
14840KMKG MKG20101112022509211/12/10 02:25:31  5-MIN KMKG 120725Z 01004KT 8SM OVC043 12/07 A3039 200 71 0 010/04 RMK AO2
14840KMKG MKG20101112023009511/12/10 02:30:31  5-MIN KMKG 120730Z 01003KT 8SM OVC043 12/07 A3039 200 74 -100 020/03 RMK AO2
14840KMKG MKG20101112023509211/12/10 02:35:31  5-MIN KMKG 120735Z 36003KT 8SM OVC043 12/07 A3039 200 71 0 360/03 RMK AO2
14840KMKG MKG20101112024009911/12/10 02:40:31  5-MIN KMKG 120740Z 00000KT 8SM BKN039 OVC046 12/08 A3039 200 74 0 000/00 RMK AO2
14840KMKG MKG20101112024509911/12/10 02:45:31  5-MIN KMKG 120745Z 00000KT 8SM BKN039 OVC046 12/07 A3039 200 71 0 000/00 RMK AO2
14840KMKG MKG20101112025011611/12/10 02:50:31  5-MIN KMKG 120750Z 01003KT 8SM BKN039 OVC046 12/07 A3039 200 71 0 020/03 RMK AO2 SLP291 T01220072
14840KMKG MKG20101112025513511/12/10 02:55:31  5-MIN KMKG 120755Z 36005KT 8SM -RA BKN037 OVC046 12/08 A3039 200 77 -100 360/05 RMK AO2 RAB51 SLP292 P0000 T01170078
14840KMKG MKG20101112030010511/12/10 03:00:31  5-MIN KMKG 120800Z 36005KT 8SM -RA OVC037 12/08 A3039 200 77 -100 360/05 RMK AO2 P0000
14840KMKG MKG20101112030510711/12/10 03:05:31  5-MIN KMKG 120805Z 01005KT 8SM OVC037 12/08 A3039 200 77 -100 010/05 RMK AO2 RAE01 P0000
14840KMKG MKG20101112031010711/12/10 03:10:31  5-MIN KMKG 120810Z 01004KT 8SM OVC037 12/08 A3039 200 77 -100 020/04 RMK AO2 RAE01 P0000
14840KMKG MKG20101112031510711/12/10 03:15:31  5-MIN KMKG 120815Z 36003KT 8SM OVC037 12/08 A3039 200 77 -100 010/03 RMK AO2 RAE01 P0000
14840KMKG MKG20101112032010711/12/10 03:20:31  5-MIN KMKG 120820Z 35004KT 8SM OVC037 12/08 A3039 200 77 -100 360/04 RMK AO2 RAE01 P0000
14840KMKG MKG20101112032510711/12/10 03:25:31  5-MIN KMKG 120825Z 01004KT 7SM OVC037 12/08 A3039 200 77 -100 010/04 RMK AO2 RAE01 P0000
14840KMKG MKG20101112033010711/12/10 03:30:31  5-MIN KMKG 120830Z 02004KT 7SM OVC037 12/08 A3038 210 77 -100 030/04 RMK AO2 RAE01 P0000
14840KMKG MKG20101112033511111/12/10 03:35:31  5-MIN KMKG 120835Z 01005KT 7SM BKN037 OVC046 12/08 A3038 210 77 0 020/05 RMK AO2 RAE01 P0000
14840KMKG MKG20101112034011111/12/10 03:40:31  5-MIN KMKG 120840Z 02005KT 7SM BKN037 OVC046 12/08 A3038 210 77 0 030/05 RMK AO2 RAE01 P0000
14840KMKG MKG20101112034511111/12/10 03:45:31  5-MIN KMKG 120845Z 02004KT 7SM SCT037 OVC046 12/08 A3038 210 77 0 020/04 RMK AO2 RAE01 P0000
14840KMKG MKG20101112035014011/12/10 03:50:31  5-MIN KMKG 120850Z 04004KT 7SM SCT037 OVC046 12/08 A3038 210 77 0 040/04 RMK AO2 RAE01 SLP288 P0000 60000 T01170078 55002
14840KMKG MKG20101112035514011/12/10 03:55:31  5-MIN KMKG 120855Z 04004KT 7SM FEW038 OVC044 12/08 A3038 210 77 0 040/04 RMK AO2 RAE01 SLP288 P0000 60000 T01170078 58003
14840KMKG MKG20101112040011011/12/10 04:00:31  5-MIN KMKG 120900Z 04005KT 8SM -RA OVC044 12/07 A3038 210 74 0 050/05 RMK AO2 RAB0859 P0000
14840KMKG MKG20101112040511011/12/10 04:05:31  5-MIN KMKG 120905Z 01003KT 8SM -RA OVC044 12/07 A3038 210 74 0 020/03 RMK AO2 RAB0859 P0000
14840KMKG MKG20101112041011311/12/10 04:10:31  5-MIN KMKG 120910Z 02004KT 9SM -RA OVC044 12/07 A3038 210 74 -100 020/04 RMK AO2 RAB0859 P0000
14840KMKG MKG20101112041511211/12/10 04:15:31  5-MIN KMKG 120915Z 03004KT 9SM OVC044 12/07 A3038 210 74 -100 030/04 RMK AO2 RAB0859E12 P0000
14840KMKG MKG20101112042011211/12/10 04:20:31  5-MIN KMKG 120920Z 01005KT 9SM OVC044 12/07 A3039 200 71 -100 020/05 RMK AO2 RAB0859E12 P0000
14840KMKG MKG20101112042511211/12/10 04:25:31  5-MIN KMKG 120925Z 36004KT 9SM OVC042 12/07 A3039 200 71 -100 010/04 RMK AO2 RAB0859E12 P0000
14840KMKG MKG20101112043011311/12/10 04:30:31  5-MIN KMKG 120930Z 03005KT 10SM OVC042 12/07 A3039 200 71 -100 030/05 RMK AO2 RAB0859E12 P0000
14840KMKG MKG20101112043511311/12/10 04:35:31  5-MIN KMKG 120935Z 02005KT 10SM OVC042 12/06 A3039 200 68 -100 020/05 RMK AO2 RAB0859E12 P0000
14840KMKG MKG20101112044011311/12/10 04:40:31  5-MIN KMKG 120940Z 04005KT 10SM OVC042 12/06 A3039 200 68 -100 040/05 RMK AO2 RAB0859E12 P0000
14840KMKG MKG20101112044511311/12/10 04:45:31  5-MIN KMKG 120945Z 04005KT 10SM OVC042 12/06 A3038 210 68 -100 050/05 RMK AO2 RAB0859E12 P0000
14840KMKG MKG20101112045013011/12/10 04:50:31  5-MIN KMKG 120950Z 04005KT 10SM OVC042 12/06 A3038 210 66 -100 040/05 RMK AO2 RAB0859E12 SLP290 P0000 T01170056
14840KMKG MKG20101112045513011/12/10 04:55:31  5-MIN KMKG 120955Z 03006KT 10SM OVC042 12/06 A3038 210 66 -100 030/06 RMK AO2 RAB0859E12 SLP290 P0000 T01170056
14840KMKG MKG20101112050009611/12/10 05:00:31  5-MIN KMKG 121000Z 03005KT 10SM OVC042 12/06 A3038 210 66 -100 030/05 RMK AO2
14840KMKG MKG20101112050509611/12/10 05:05:31  5-MIN KMKG 121005Z 03004KT 10SM OVC044 12/06 A3038 210 66 -100 030/04 RMK AO2
14840KMKG MKG20101112051009611/12/10 05:10:31  5-MIN KMKG 121010Z 02005KT 10SM OVC044 12/06 A3038 200 66 -100 030/05 RMK AO2
14840KMKG MKG20101112051509611/12/10 05:15:31  5-MIN KMKG 121015Z 03004KT 10SM OVC044 12/06 A3038 200 66 -100 030/04 RMK AO2
14840KMKG MKG20101112052009611/12/10 05:20:31  5-MIN KMKG 121020Z 01005KT 10SM OVC044 12/06 A3039 200 66 -100 010/05 RMK AO2
14840KMKG MKG20101112052509611/12/10 05:25:31  5-MIN KMKG 121025Z 36005KT 10SM OVC044 12/06 A3039 200 66 -100 010/05 RMK AO2
14840KMKG MKG20101112053009611/12/10 05:30:31  5-MIN KMKG 121030Z 01007KT 10SM OVC044 12/05 A3039 200 63 -100 010/07 RMK AO2
14840KMKG MKG20101112053509611/12/10 05:35:31  5-MIN KMKG 121035Z 01005KT 10SM OVC044 12/05 A3039 200 63 -100 010/05 RMK AO2
14840KMKG MKG20101112054009611/12/10 05:40:31  5-MIN KMKG 121040Z 01005KT 10SM OVC044 12/05 A3039 200 63 -100 010/05 RMK AO2
14840KMKG MKG20101112054509611/12/10 05:45:31  5-MIN KMKG 121045Z 04004KT 10SM OVC042 12/05 A3039 200 63 -100 040/04 RMK AO2
14840KMKG MKG20101112055011311/12/10 05:50:31  5-MIN KMKG 121050Z 05006KT 10SM OVC042 12/05 A3038 200 63 -100 050/06 RMK AO2 SLP291 T01170050
14840KMKG MKG20101112055511311/12/10 05:55:31  5-MIN KMKG 121055Z 06005KT 10SM OVC042 12/05 A3038 210 63 -100 060/05 RMK AO2 SLP290 T01170050
14840KMKG MKG20101112060010311/12/10 06:00:31  5-MIN KMKG 121100Z 06006KT 10SM BKN042 OVC060 12/05 A3038 210 63 -100 060/06 RMK AO2
14840KMKG MKG20101112060510011/12/10 06:05:31  5-MIN KMKG 121105Z 05005KT 10SM BKN040 OVC060 12/05 A3038 210 63 0 060/05 RMK AO2
14840KMKG MKG20101112061011811/12/10 06:10:31  5-MIN KMKG 121110Z 03006KT 10SM SCT040 OVC060 11/05 A3038 210 66 -100 040/06 RMK AO2 CIG 041 RWY 14
14840KMKG MKG20101112061510311/12/10 06:15:31  5-MIN KMKG 121115Z 03006KT 10SM SCT040 OVC060 11/04 A3038 210 63 -100 040/06 RMK AO2
14840KMKG MKG20101112062011811/12/10 06:20:31  5-MIN KMKG 121120Z 03006KT 10SM SCT040 OVC060 11/04 A3038 210 63 -100 030/06 RMK AO2 CIG 039 RWY 14
14840KMKG MKG20101112062511811/12/10 06:25:31  5-MIN KMKG 121125Z 03007KT 10SM SCT040 BKN060 11/04 A3038 210 63 -100 040/07 RMK AO2 CIG 039 RWY 14
14840KMKG MKG20101112063011811/12/10 06:30:31  5-MIN KMKG 121130Z 02004KT 10SM SCT040 BKN060 11/04 A3038 200 63 -100 020/04 RMK AO2 CIG 039 RWY 14
14840KMKG MKG20101112063510311/12/10 06:35:31  5-MIN KMKG 121135Z 36005KT 10SM SCT040 BKN060 11/04 A3039 200 63 -100 360/05 RMK AO2
14840KMKG MKG20101112064010311/12/10 06:40:31  5-MIN KMKG 121140Z 36006KT 10SM SCT040 BKN055 11/04 A3039 200 63 -100 360/06 RMK AO2
14840KMKG MKG20101112064510311/12/10 06:45:31  5-MIN KMKG 121145Z 36006KT 10SM SCT040 BKN050 11/04 A3039 200 63 -100 010/06 RMK AO2
14840KMKG MKG20101112065015011/12/10 06:50:31  5-MIN KMKG 121150Z 01005KT 10SM SCT040 BKN055 11/04 A3038 200 63 -100 020/05 RMK AO2 SLP291 60000 70002 T01110044 10122 20111 58003
14840KMKG MKG20101112065515011/12/10 06:55:31  5-MIN KMKG 121155Z 02006KT 10SM FEW040 OVC055 11/04 A3038 210 63 -100 030/06 RMK AO2 SLP290 60000 70002 T01110044 10122 20111 50001
14840KMKG MKG20101112070011011/12/10 07:00:31  5-MIN KMKG 121200Z 03007KT 10SM FEW040 BKN050 OVC060 11/04 A3038 210 61 -100 030/07 RMK AO2
14840KMKG MKG20101112070510311/12/10 07:05:31  5-MIN KMKG 121205Z 04005KT 10SM FEW040 OVC055 11/04 A3038 210 61 -100 040/05 RMK AO2
14840KMKG MKG20101112071011011/12/10 07:10:31  5-MIN KMKG 121210Z 04008KT 10SM FEW040 BKN050 OVC060 11/04 A3037 210 61 -100 050/08 RMK AO2
14840KMKG MKG20101112071510311/12/10 07:15:31  5-MIN KMKG 121215Z 04007KT 10SM BKN050 OVC065 11/04 A3037 210 61 -100 050/07 RMK AO2
14840KMKG MKG20101112072010311/12/10 07:20:31  5-MIN KMKG 121220Z 03007KT 10SM SCT050 OVC065 11/04 A3037 210 61 -100 040/07 RMK AO2
14840KMKG MKG20101112072510311/12/10 07:25:31  5-MIN KMKG 121225Z 04007KT 10SM SCT050 OVC065 11/03 A3037 210 58 -100 040/07 RMK AO2
14840KMKG MKG20101112073010311/12/10 07:30:31  5-MIN KMKG 121230Z 03006KT 10SM FEW050 OVC065 11/03 A3038 210 58 -100 030/06 RMK AO2
14840KMKG MKG20101112073510311/12/10 07:35:31  5-MIN KMKG 121235Z 02007KT 10SM FEW050 OVC065 11/03 A3038 210 58 -100 020/07 RMK AO2
14840KMKG MKG20101112074010311/12/10 07:40:31  5-MIN KMKG 121240Z 02007KT 10SM FEW050 OVC065 11/03 A3038 210 58 -100 030/07 RMK AO2
14840KMKG MKG20101112074509611/12/10 07:45:31  5-MIN KMKG 121245Z 02004KT 10SM OVC065 11/03 A3038 200 58 -100 020/04 RMK AO2
14840KMKG MKG20101112075011311/12/10 07:50:31  5-MIN KMKG 121250Z 03004KT 10SM OVC065 11/03 A3038 200 58 -100 030/04 RMK AO2 SLP291 T01110033
14840KMKG MKG20101112075512011/12/10 07:55:31  5-MIN KMKG 121255Z 03005KT 10SM FEW050 OVC070 11/03 A3039 200 58 -100 030/05 RMK AO2 SLP291 T01110033
14840KMKG MKG20101112080010311/12/10 08:00:31  5-MIN KMKG 121300Z 01004KT 10SM FEW050 OVC065 11/03 A3039 200 58 -100 020/04 RMK AO2
14840KMKG MKG20101112080510311/12/10 08:05:31  5-MIN KMKG 121305Z 35004KT 10SM FEW048 OVC060 11/03 A3039 190 58 -100 360/04 RMK AO2
14840KMKG MKG20101112081011011/12/10 08:10:31  5-MIN KMKG 121310Z 01005KT 10SM SCT048 BKN060 OVC075 11/03 A3039 190 58 -100 010/05 RMK AO2
14840KMKG MKG20101112081512511/12/10 08:15:31  5-MIN KMKG 121315Z 03005KT 10SM SCT046 BKN065 OVC075 11/03 A3039 200 58 -100 030/05 RMK AO2 CIG 047 RWY 14
14840KMKG MKG20101112082011011/12/10 08:20:31  5-MIN KMKG 121320Z 04005KT 10SM BKN046 BKN065 OVC080 11/03 A3039 200 58 -100 040/05 RMK AO2
14840KMKG MKG20101112082511011/12/10 08:25:31  5-MIN KMKG 121325Z 02006KT 10SM SCT046 BKN060 OVC080 11/03 A3039 200 58 -100 020/06 RMK AO2
14840KMKG MKG20101112083011011/12/10 08:30:31  5-MIN KMKG 121330Z 02005KT 10SM BKN046 BKN060 OVC080 11/03 A3039 190 58 -100 030/05 RMK AO2
14840KMKG MKG20101112083511011/12/10 08:35:31  5-MIN KMKG 121335Z 02006KT 10SM BKN049 BKN060 OVC080 11/03 A3040 190 58 -100 030/06 RMK AO2
14840KMKG MKG20101112084011011/12/10 08:40:31  5-MIN KMKG 121340Z 02005KT 10SM BKN047 BKN060 OVC080 12/03 A3040 190 56 -100 030/05 RMK AO2
14840KMKG MKG20101112084512511/12/10 08:45:31  5-MIN KMKG 121345Z 01005KT 10SM SCT045 BKN060 OVC085 12/03 A3040 190 56 -100 020/05 RMK AO2 CIG 047 RWY 14
14840KMKG MKG20101112085012711/12/10 08:50:31  5-MIN KMKG 121350Z 01005KT 10SM BKN043 BKN055 OVC085 12/03 A3040 190 56 -100 010/05 RMK AO2 SLP297 T01170033
14840KMKG MKG20101112085512711/12/10 08:55:31  5-MIN KMKG 121355Z 01006KT 10SM BKN043 BKN050 OVC060 12/03 A3040 190 56 -100 020/06 RMK AO2 SLP296 T01170033
14840KMKG MKG20101112090011011/12/10 09:00:31  5-MIN KMKG 121400Z 02004KT 10SM BKN043 BKN055 OVC085 12/03 A3040 190 56 -100 030/04 RMK AO2
14840KMKG MKG20101112090511011/12/10 09:05:31  5-MIN KMKG 121405Z 01006KT 10SM BKN043 BKN055 OVC085 12/03 A3040 190 56 -100 020/06 RMK AO2
14840KMKG MKG20101112091011011/12/10 09:10:31  5-MIN KMKG 121410Z 01006KT 10SM SCT043 BKN055 OVC085 12/03 A3040 190 56 -100 010/06 RMK AO2
14840KMKG MKG20101112091510011/12/10 09:15:31  5-MIN KMKG 121415Z 36006KT 10SM SCT043 OVC085 12/03 A3040 190 54 0 360/06 RMK AO2
14840KMKG MKG20101112092010011/12/10 09:20:31  5-MIN KMKG 121420Z 01005KT 10SM FEW043 OVC085 12/03 A3040 190 54 0 020/05 RMK AO2
14840KMKG MKG20101112092510011/12/10 09:25:31  5-MIN KMKG 121425Z 02006KT 10SM FEW043 OVC085 12/03 A3040 190 54 0 020/06 RMK AO2
14840KMKG MKG20101112093009311/12/10 09:30:31  5-MIN KMKG 121430Z 01006KT 10SM OVC085 12/03 A3040 190 54 0 020/06 RMK AO2
14840KMKG MKG20101112093509311/12/10 09:35:31  5-MIN KMKG 121435Z 02006KT 10SM OVC080 12/04 A3040 190 56 0 020/06 RMK AO2
14840KMKG MKG20101112094009311/12/10 09:40:31  5-MIN KMKG 121440Z 04006KT 10SM OVC080 13/04 A3040 190 54 0 040/06 RMK AO2
14840KMKG MKG20101112094509311/12/10 09:45:31  5-MIN KMKG 121445Z 04006KT 10SM OVC080 13/04 A3040 190 54 0 040/06 RMK AO2
14840KMKG MKG20101112095011611/12/10 09:50:31  5-MIN KMKG 121450Z 04007KT 10SM OVC080 13/04 A3039 200 54 0 050/07 RMK AO2 SLP294 T01280039 50001
14840KMKG MKG20101112095512311/12/10 09:55:31  5-MIN KMKG 121455Z 05008KT 10SM BKN075 OVC085 12/04 A3039 200 56 0 060/08 RMK AO2 SLP293 T01220039 50003
14840KMKG MKG20101112100010011/12/10 10:00:31  5-MIN KMKG 121500Z 05008KT 10SM BKN075 OVC085 12/04 A3039 200 56 0 060/08 RMK AO2
14840KMKG MKG20101112100510011/12/10 10:05:31  5-MIN KMKG 121505Z 05007KT 10SM BKN075 OVC085 12/04 A3039 200 56 0 060/07 RMK AO2
14840KMKG MKG20101112101009311/12/10 10:10:31  5-MIN KMKG 121510Z 06008KT 10SM OVC080 12/04 A3039 200 56 0 060/08 RMK AO2
14840KMKG MKG20101112101510611/12/10 10:15:31  5-MIN KMKG 121515Z 07010G15KT 10SM FEW060 OVC080 12/04 A3039 200 56 0 070/10G15 RMK AO2
14840KMKG MKG20101112102010011/12/10 10:20:31  5-MIN KMKG 121520Z 05009KT 10SM FEW055 OVC075 12/04 A3039 200 56 0 050/09 RMK AO2
14840KMKG MKG20101112102510011/12/10 10:25:31  5-MIN KMKG 121525Z 05006KT 10SM FEW055 OVC080 12/04 A3039 200 56 0 060/06 RMK AO2
14840KMKG MKG20101112103010011/12/10 10:30:31  5-MIN KMKG 121530Z 05008KT 10SM SCT055 OVC080 12/04 A3039 200 56 0 050/08 RMK AO2
14840KMKG MKG20101112103510011/12/10 10:35:31  5-MIN KMKG 121535Z 05007KT 10SM SCT055 OVC080 13/04 A3039 200 54 0 060/07 RMK AO2
14840KMKG MKG20101112104010011/12/10 10:40:31  5-MIN KMKG 121540Z 06009KT 10SM BKN060 OVC080 13/04 A3039 200 56 0 060/09 RMK AO2
14840KMKG MKG20101112104510011/12/10 10:45:31  5-MIN KMKG 121545Z 06009KT 10SM BKN060 OVC080 13/04 A3039 200 54 0 060/09 RMK AO2
14840KMKG MKG20101112105011711/12/10 10:50:31  5-MIN KMKG 121550Z 05007KT 10SM BKN060 OVC080 13/04 A3039 200 56 0 060/07 RMK AO2 SLP292 T01280044
14840KMKG MKG20101112105511711/12/10 10:55:31  5-MIN KMKG 121555Z 06007KT 10SM BKN060 OVC085 13/04 A3039 200 56 0 060/07 RMK AO2 SLP293 T01280044
14840KMKG MKG20101112110010011/12/10 11:00:31  5-MIN KMKG 121600Z 06009KT 10SM BKN060 OVC085 13/04 A3039 200 56 0 060/09 RMK AO2
14840KMKG MKG20101112110510011/12/10 11:05:31  5-MIN KMKG 121605Z 05007KT 10SM BKN065 OVC090 13/04 A3039 200 56 0 060/07 RMK AO2
14840KMKG MKG20101112111010011/12/10 11:10:31  5-MIN KMKG 121610Z 05008KT 10SM BKN065 OVC090 13/04 A3038 200 56 0 050/08 RMK AO2
14840KMKG MKG20101112111510711/12/10 11:15:31  5-MIN KMKG 121615Z 05009KT 10SM BKN065 BKN080 OVC090 13/04 A3038 200 56 0 060/09 RMK AO2
14840KMKG MKG20101112112010711/12/10 11:20:31  5-MIN KMKG 121620Z 06007KT 10SM FEW050 BKN070 OVC085 13/05 A3038 210 59 0 060/07 RMK AO2
14840KMKG MKG20101112112510711/12/10 11:25:31  5-MIN KMKG 121625Z 06007KT 10SM FEW050 BKN075 OVC090 13/05 A3038 210 59 0 060/07 RMK AO2
14840KMKG MKG20101112113010911/12/10 11:30:31  5-MIN KMKG 121630Z 05007KT 10SM FEW050 BKN075 BKN090 13/05 A3038 210 57 100 050/07 RMK AO2
14840KMKG MKG20101112113510911/12/10 11:35:31  5-MIN KMKG 121635Z 06009KT 10SM SCT060 BKN075 BKN090 13/05 A3037 220 57 100 060/09 RMK AO2
14840KMKG MKG20101112114010911/12/10 11:40:31  5-MIN KMKG 121640Z 06006KT 10SM SCT060 BKN080 BKN100 13/05 A3037 220 57 100 070/06 RMK AO2
14840KMKG MKG20101112114510911/12/10 11:45:31  5-MIN KMKG 121645Z 07008KT 10SM SCT060 BKN080 OVC090 14/06 A3037 220 57 200 070/08 RMK AO2
14840KMKG MKG20101112115011911/12/10 11:50:31  5-MIN KMKG 121650Z 08008KT 10SM SCT060 BKN090 14/06 A3036 220 57 200 090/08 RMK AO2 SLP283 T01390056
14840KMKG MKG20101112115512611/12/10 11:55:31  5-MIN KMKG 121655Z 07007KT 10SM FEW060 SCT075 BKN095 13/06 A3036 220 59 100 070/07 RMK AO2 SLP284 T01330056
14840KMKG MKG20101112120010211/12/10 12:00:31  5-MIN KMKG 121700Z 06010KT 10SM FEW060 BKN095 13/06 A3036 230 59 100 070/10 RMK AO2
14840KMKG MKG20101112120510211/12/10 12:05:31  5-MIN KMKG 121705Z 06009KT 10SM FEW060 BKN090 14/06 A3035 230 57 200 070/09 RMK AO2
14840KMKG MKG20101112121009511/12/10 12:10:31  5-MIN KMKG 121710Z 07006KT 10SM BKN095 14/06 A3035 230 57 200 070/06 RMK AO2
14840KMKG MKG20101112121509511/12/10 12:15:31  5-MIN KMKG 121715Z 07006KT 10SM BKN095 14/06 A3035 240 55 300 070/06 RMK AO2
14840KMKG MKG20101112122009511/12/10 12:20:31  5-MIN KMKG 121720Z 05008KT 10SM OVC090 15/06 A3035 240 55 300 050/08 RMK AO2
14840KMKG MKG20101112122509511/12/10 12:25:31  5-MIN KMKG 121725Z 05007KT 10SM BKN090 14/06 A3035 240 57 300 060/07 RMK AO2
14840KMKG MKG20101112123010211/12/10 12:30:31  5-MIN KMKG 121730Z 05009KT 10SM FEW065 BKN090 14/06 A3034 240 55 300 050/09 RMK AO2
14840KMKG MKG20101112123510211/12/10 12:35:31  5-MIN KMKG 121735Z 05010KT 10SM FEW065 BKN090 14/06 A3034 250 57 300 060/10 RMK AO2
14840KMKG MKG20101112124010211/12/10 12:40:31  5-MIN KMKG 121740Z 08008KT 10SM SCT065 BKN090 14/06 A3034 250 57 300 080/08 RMK AO2
14840KMKG MKG20101112124510211/12/10 12:45:31  5-MIN KMKG 121745Z 06006KT 10SM SCT065 BKN090 14/06 A3033 250 57 300 060/06 RMK AO2
14840KMKG MKG20101112125013711/12/10 12:50:31  5-MIN KMKG 121750Z 05007KT 10SM BKN070 BKN090 15/06 A3033 250 55 400 050/07 RMK AO2 SLP272 T01500061 10150 20111 50003
14840KMKG MKG20101112125513711/12/10 12:55:31  5-MIN KMKG 121755Z 05005KT 10SM BKN070 BKN090 15/06 A3033 250 55 400 060/05 RMK AO2 SLP272 T01500061 10150 20111 58020
14840KMKG MKG20101112130010211/12/10 13:00:31  5-MIN KMKG 121800Z 04004KT 10SM BKN070 BKN090 15/06 A3033 250 55 400 040/04 RMK AO2
14840KMKG MKG20101112130510211/12/10 13:05:31  5-MIN KMKG 121805Z 06005KT 10SM SCT070 BKN090 16/06 A3033 260 53 400 060/05 RMK AO2
14840KMKG MKG20101112131010211/12/10 13:10:31  5-MIN KMKG 121810Z 05006KT 10SM SCT070 BKN090 16/06 A3032 260 53 400 050/06 RMK AO2
14840KMKG MKG20101112131510211/12/10 13:15:31  5-MIN KMKG 121815Z 06007KT 10SM FEW055 SCT090 15/06 A3032 260 55 400 070/07 RMK AO2
14840KMKG MKG20101112132010911/12/10 13:20:31  5-MIN KMKG 121820Z 07006KT 10SM FEW047 SCT070 BKN090 15/06 A3032 260 55 400 070/06 RMK AO2
14840KMKG MKG20101112132510911/12/10 13:25:31  5-MIN KMKG 121825Z 07006KT 10SM SCT047 SCT055 BKN090 15/06 A3032 260 55 400 070/06 RMK AO2
14840KMKG MKG20101112133010911/12/10 13:30:31  5-MIN KMKG 121830Z 06003KT 10SM SCT047 BKN060 BKN090 15/07 A3032 260 57 400 060/03 RMK AO2
14840KMKG MKG20101112133510211/12/10 13:35:31  5-MIN KMKG 121835Z 05005KT 10SM SCT047 BKN060 16/07 A3032 270 55 400 050/05 RMK AO2
14840KMKG MKG20101112134010211/12/10 13:40:31  5-MIN KMKG 121840Z 05003KT 10SM SCT047 OVC060 16/07 A3031 270 55 400 050/03 RMK AO2
14840KMKG MKG20101112134510211/12/10 13:45:31  5-MIN KMKG 121845Z 02006KT 10SM SCT047 OVC055 16/07 A3031 270 55 400 020/06 RMK AO2
14840KMKG MKG20101112135011911/12/10 13:50:31  5-MIN KMKG 121850Z 03004KT 10SM BKN049 OVC060 16/07 A3031 270 55 400 030/04 RMK AO2 SLP266 T01560067
14840KMKG MKG20101112135511211/12/10 13:55:31  5-MIN KMKG 121855Z 02006KT 10SM OVC055 16/07 A3031 270 55 400 020/06 RMK AO2 SLP266 T01560067
14840KMKG MKG20101112140011011/12/10 14:00:31  5-MIN KMKG 121900Z 03004KT 10SM OVC055 16/07 A3031 270 55 400 030/04 RMK AO2 CIG 048 RWY 14
14840KMKG MKG20101112140509511/12/10 14:05:31  5-MIN KMKG 121905Z 04004KT 10SM OVC055 16/07 A3031 270 55 400 040/04 RMK AO2
14840KMKG MKG20101112141009511/12/10 14:10:31  5-MIN KMKG 121910Z 04005KT 10SM OVC055 16/07 A3031 270 55 400 040/05 RMK AO2
14840KMKG MKG20101112141510211/12/10 14:15:31  5-MIN KMKG 121915Z 03004KT 10SM BKN055 OVC065 16/07 A3031 270 55 400 040/04 RMK AO2
14840KMKG MKG20101112142010911/12/10 14:20:31  5-MIN KMKG 121920Z 02005KT 10SM FEW050 BKN060 OVC080 16/07 A3031 270 55 400 030/05 RMK AO2
14840KMKG MKG20101112142510211/12/10 14:25:31  5-MIN KMKG 121925Z 02004KT 10SM FEW050 OVC060 16/07 A3031 280 55 400 020/04 RMK AO2
14840KMKG MKG20101112143010211/12/10 14:30:31  5-MIN KMKG 121930Z 03007KT 10SM BKN060 OVC085 16/07 A3031 280 55 400 030/07 RMK AO2
14840KMKG MKG20101112143510211/12/10 14:35:31  5-MIN KMKG 121935Z 02003KT 10SM BKN060 OVC080 16/07 A3030 280 55 400 030/03 RMK AO2
14840KMKG MKG20101112144010211/12/10 14:40:31  5-MIN KMKG 121940Z 04003KT 10SM BKN055 OVC080 16/07 A3030 280 55 400 040/03 RMK AO2
14840KMKG MKG20101112144510211/12/10 14:45:31  5-MIN KMKG 121945Z 04004KT 10SM BKN055 OVC080 16/07 A3030 280 53 500 040/04 RMK AO2
14840KMKG MKG20101112145012611/12/10 14:50:31  5-MIN KMKG 121950Z 06004KT 10SM BKN055 BKN070 OVC085 16/07 A3030 280 55 500 070/04 RMK AO2 SLP261 T01560067
14840KMKG MKG20101112145512611/12/10 14:55:31  5-MIN KMKG 121955Z 04005KT 10SM SCT055 BKN070 OVC080 16/07 A3030 280 55 500 050/05 RMK AO2 SLP260 T01560067
14840KMKG MKG20101112150010911/12/10 15:00:31  5-MIN KMKG 122000Z 03004KT 10SM BKN055 BKN070 OVC080 16/07 A3030 280 55 500 030/04 RMK AO2
14840KMKG MKG20101112150510911/12/10 15:05:31  5-MIN KMKG 122005Z 06004KT 10SM BKN055 BKN070 OVC080 16/07 A3030 290 55 500 070/04 RMK AO2
14840KMKG MKG20101112151011111/12/10 15:10:31  5-MIN KMKG 122010Z 06003KT 10SM BKN055 BKN070 OVC080 16/07 A3029 290 53 500 060/03 RMK AO2 $
14840KMKG MKG20101112151511111/12/10 15:15:31  5-MIN KMKG 122015Z 06004KT 10SM BKN055 BKN070 OVC080 16/07 A3029 290 55 500 060/04 RMK AO2 $
14840KMKG MKG20101112152010411/12/10 15:20:31  5-MIN KMKG 122020Z 04003KT 10SM BKN055 BKN080 16/07 A3029 290 53 500 040/03 RMK AO2 $
14840KMKG MKG20101112152511911/12/10 15:25:31  5-MIN KMKG 122025Z 05003KT 10SM SCT055 BKN080 16/07 A3029 290 53 500 060/03 RMK AO2 CIG 055 RWY 14 $
14840KMKG MKG20101112153010411/12/10 15:30:31  5-MIN KMKG 122030Z 07005KT 10SM BKN050 BKN080 16/07 A3029 290 55 500 070/05 RMK AO2 $
14840KMKG MKG20101112153510311/12/10 15:35:31  5-MIN KMKG 122035Z 08004KT 9SM BKN050 OVC075 16/07 A3029 290 55 500 090/04 RMK AO2 $
14840KMKG MKG20101112154010411/12/10 15:40:31  5-MIN KMKG 122040Z 09004KT 10SM BKN055 BKN075 16/07 A3029 290 55 500 090/04 RMK AO2 $
14840KMKG MKG20101112154510411/12/10 15:45:31  5-MIN KMKG 122045Z 07003KT 10SM BKN050 OVC080 16/07 A3029 290 55 500 070/03 RMK AO2 $
14840KMKG MKG20101112155012711/12/10 15:50:31  5-MIN KMKG 122050Z 06005KT 10SM BKN050 OVC080 17/07 A3028 290 53 600 060/05 RMK AO2 SLP256 T01670072 58020 $
14840KMKG MKG20101112155512711/12/10 15:55:31  5-MIN KMKG 122055Z 09006KT 10SM BKN050 BKN080 16/07 A3028 300 55 500 090/06 RMK AO2 SLP256 T01610072 56015 $
14840KMKG MKG20101112160010411/12/10 16:00:31  5-MIN KMKG 122100Z 08005KT 10SM BKN055 OVC080 16/07 A3028 300 55 500 090/05 RMK AO2 $
14840KMKG MKG20101112160510411/12/10 16:05:31  5-MIN KMKG 122105Z 08007KT 10SM BKN055 BKN080 16/07 A3028 300 57 500 080/07 RMK AO2 $
14840KMKG MKG20101112161011911/12/10 16:10:31  5-MIN KMKG 122110Z 08006KT 10SM SCT055 BKN080 16/07 A3028 300 57 500 090/06 RMK AO2 CIG 055 RWY 14 $
14840KMKG MKG20101112161510411/12/10 16:15:31  5-MIN KMKG 122115Z 09005KT 10SM SCT055 BKN080 16/07 A3028 300 57 500 090/05 RMK AO2 $
14840KMKG MKG20101112162011911/12/10 16:20:31  5-MIN KMKG 122120Z 08004KT 10SM SCT055 BKN080 16/07 A3028 300 57 500 080/04 RMK AO2 CIG 055 RWY 14 $
14840KMKG MKG20101112162510411/12/10 16:25:31  5-MIN KMKG 122125Z 08006KT 10SM SCT060 BKN075 16/07 A3028 300 55 500 080/06 RMK AO2 $
14840KMKG MKG20101112163010211/12/10 16:30:31  5-MIN KMKG 122130Z 07006KT 10SM SCT060 BKN075 16/07 A3028 300 57 500 070/06 RMK AO2
14840KMKG MKG20101112163510211/12/10 16:35:31  5-MIN KMKG 122135Z 07004KT 10SM FEW060 BKN080 16/07 A3028 300 57 500 080/04 RMK AO2
14840KMKG MKG20101112164010211/12/10 16:40:31  5-MIN KMKG 122140Z 07004KT 10SM SCT055 BKN075 16/07 A3028 300 57 500 080/04 RMK AO2
14840KMKG MKG20101112164510211/12/10 16:45:31  5-MIN KMKG 122145Z 05003KT 10SM SCT055 BKN075 15/07 A3028 300 59 400 060/03 RMK AO2
14840KMKG MKG20101112165011911/12/10 16:50:31  5-MIN KMKG 122150Z 02005KT 10SM SCT055 BKN080 14/07 A3028 300 59 300 020/05 RMK AO2 SLP255 T01440067
14840KMKG MKG20101112165511911/12/10 16:55:31  5-MIN KMKG 122155Z 02004KT 10SM SCT055 BKN080 14/06 A3028 300 57 300 020/04 RMK AO2 SLP256 T01440061
14840KMKG MKG20101112170010211/12/10 17:00:31  5-MIN KMKG 122200Z 01004KT 10SM SCT055 SCT075 14/06 A3028 300 57 300 010/04 RMK AO2
14840KMKG MKG20101112170510211/12/10 17:05:31  5-MIN KMKG 122205Z 02005KT 10SM SCT055 SCT075 14/06 A3028 300 59 300 020/05 RMK AO2
14840KMKG MKG20101112171010211/12/10 17:10:31  5-MIN KMKG 122210Z 02004KT 10SM SCT055 BKN080 14/06 A3028 300 59 300 020/04 RMK AO2
14840KMKG MKG20101112171510211/12/10 17:15:31  5-MIN KMKG 122215Z 02005KT 10SM SCT055 BKN080 14/06 A3028 300 59 300 030/05 RMK AO2
14840KMKG MKG20101112172010211/12/10 17:20:31  5-MIN KMKG 122220Z 03005KT 10SM FEW055 SCT080 13/06 A3028 300 61 200 030/05 RMK AO2
14840KMKG MKG20101112172510211/12/10 17:25:31  5-MIN KMKG 122225Z 03004KT 10SM FEW055 SCT080 13/06 A3028 300 61 200 030/04 RMK AO2
14840KMKG MKG20101112173010211/12/10 17:30:31  5-MIN KMKG 122230Z 03005KT 10SM FEW055 SCT075 13/06 A3028 300 59 200 030/05 RMK AO2
14840KMKG MKG20101112173510211/12/10 17:35:31  5-MIN KMKG 122235Z 03005KT 10SM FEW055 BKN075 13/06 A3028 300 59 200 030/05 RMK AO2
14840KMKG MKG20101112174009511/12/10 17:40:31  5-MIN KMKG 122240Z 03004KT 10SM BKN075 13/06 A3028 300 59 200 030/04 RMK AO2
14840KMKG MKG20101112174509511/12/10 17:45:31  5-MIN KMKG 122245Z 03004KT 10SM BKN075 13/06 A3028 300 59 200 030/04 RMK AO2
14840KMKG MKG20101112175011211/12/10 17:50:31  5-MIN KMKG 122250Z 02006KT 10SM BKN075 13/06 A3028 300 59 200 030/06 RMK AO2 SLP255 T01330056
14840KMKG MKG20101112175511911/12/10 17:55:31  5-MIN KMKG 122255Z 03006KT 10SM SCT055 BKN075 13/06 A3028 300 61 200 040/06 RMK AO2 SLP254 T01330061
14840KMKG MKG20101112180010211/12/10 18:00:31  5-MIN KMKG 122300Z 03006KT 10SM SCT060 OVC075 13/06 A3027 300 59 200 040/06 RMK AO2
14840KMKG MKG20101112180510211/12/10 18:05:31  5-MIN KMKG 122305Z 03007KT 10SM SCT050 OVC070 14/06 A3027 310 57 300 030/07 RMK AO2
14840KMKG MKG20101112181010211/12/10 18:10:31  5-MIN KMKG 122310Z 03007KT 10SM BKN050 OVC075 14/06 A3027 310 57 300 040/07 RMK AO2
14840KMKG MKG20101112181510211/12/10 18:15:31  5-MIN KMKG 122315Z 02008KT 10SM BKN050 OVC070 13/06 A3027 310 59 200 030/08 RMK AO2
14840KMKG MKG20101112182010211/12/10 18:20:31  5-MIN KMKG 122320Z 02007KT 10SM BKN050 OVC070 13/06 A3027 310 59 200 030/07 RMK AO2
14840KMKG MKG20101112182510211/12/10 18:25:31  5-MIN KMKG 122325Z 03007KT 10SM BKN055 OVC070 13/06 A3027 310 59 200 030/07 RMK AO2
14840KMKG MKG20101112183010211/12/10 18:30:31  5-MIN KMKG 122330Z 02007KT 10SM BKN055 OVC070 13/05 A3027 310 57 200 020/07 RMK AO2
14840KMKG MKG20101112183511711/12/10 18:35:31  5-MIN KMKG 122335Z 02005KT 10SM SCT050 BKN070 13/05 A3027 310 57 200 030/05 RMK AO2 CIG 055 RWY 14
14840KMKG MKG20101112184010211/12/10 18:40:31  5-MIN KMKG 122340Z 02005KT 10SM FEW050 BKN070 13/05 A3027 310 59 200 030/05 RMK AO2
14840KMKG MKG20101112184510211/12/10 18:45:31  5-MIN KMKG 122345Z 02006KT 10SM FEW060 SCT075 13/05 A3027 310 59 200 030/06 RMK AO2
14840KMKG MKG20101112185013711/12/10 18:50:31  5-MIN KMKG 122350Z 02005KT 10SM FEW060 SCT075 12/05 A3027 310 61 100 030/05 RMK AO2 SLP252 T01220050 10167 20122 56015
14840KMKG MKG20101112185513011/12/10 18:55:31  5-MIN KMKG 122355Z 03006KT 10SM FEW075 12/05 A3027 310 61 100 040/06 RMK AO2 SLP252 T01220050 10167 20122 58005
14840KMKG MKG20101112190009211/12/10 19:00:31  5-MIN KMKG 130000Z 04005KT 10SM CLR 13/05 A3027 310 59 200 040/05 RMK AO2
14840KMKG MKG20101112190509511/12/10 19:05:31  5-MIN KMKG 130005Z 05005KT 10SM FEW060 12/05 A3027 310 61 100 050/05 RMK AO2
14840KMKG MKG20101112191010211/12/10 19:10:31  5-MIN KMKG 130010Z 05005KT 10SM FEW060 SCT075 12/05 A3027 310 61 100 050/05 RMK AO2
14840KMKG MKG20101112191509311/12/10 19:15:31  5-MIN KMKG 130015Z 04004KT 10SM SCT070 12/05 A3027 310 63 0 050/04 RMK AO2
14840KMKG MKG20101112192009511/12/10 19:20:31  5-MIN KMKG 130020Z 03003KT 10SM BKN070 12/05 A3027 310 61 100 030/03 RMK AO2
14840KMKG MKG20101112192509311/12/10 19:25:31  5-MIN KMKG 130025Z 02004KT 10SM BKN070 12/05 A3027 310 63 0 030/04 RMK AO2
14840KMKG MKG20101112193009511/12/10 19:30:31  5-MIN KMKG 130030Z 01003KT 10SM BKN070 12/05 A3027 310 61 100 020/03 RMK AO2
14840KMKG MKG20101112193509511/12/10 19:35:31  5-MIN KMKG 130035Z 01005KT 10SM BKN070 12/05 A3027 310 61 100 020/05 RMK AO2
14840KMKG MKG20101112194009311/12/10 19:40:31  5-MIN KMKG 130040Z 01005KT 10SM BKN070 12/05 A3027 310 63 0 020/05 RMK AO2
14840KMKG MKG20101112194509311/12/10 19:45:31  5-MIN KMKG 130045Z 36005KT 10SM BKN070 12/05 A3027 310 63 0 360/05 RMK AO2
14840KMKG MKG20101112195011011/12/10 19:50:31  5-MIN KMKG 130050Z 36004KT 10SM BKN070 12/05 A3027 310 63 0 360/04 RMK AO2 SLP252 T01170050
14840KMKG MKG20101112195511011/12/10 19:55:31  5-MIN KMKG 130055Z 36005KT 10SM BKN070 12/05 A3027 310 63 0 360/05 RMK AO2 SLP252 T01170050
14840KMKG MKG20101112200009311/12/10 20:00:31  5-MIN KMKG 130100Z 01005KT 10SM BKN070 12/05 A3027 310 63 0 010/05 RMK AO2
14840KMKG MKG20101112200509311/12/10 20:05:31  5-MIN KMKG 130105Z 01005KT 10SM BKN070 12/05 A3027 310 63 0 020/05 RMK AO2
14840KMKG MKG20101112201009311/12/10 20:10:31  5-MIN KMKG 130110Z 02005KT 10SM BKN070 12/05 A3027 310 63 0 020/05 RMK AO2
14840KMKG MKG20101112201509311/12/10 20:15:31  5-MIN KMKG 130115Z 02005KT 10SM BKN070 12/05 A3027 310 63 0 030/05 RMK AO2
14840KMKG MKG20101112202009311/12/10 20:20:31  5-MIN KMKG 130120Z 03006KT 10SM BKN070 12/05 A3027 310 63 0 040/06 RMK AO2
14840KMKG MKG20101112202509311/12/10 20:25:31  5-MIN KMKG 130125Z 04005KT 10SM BKN070 12/05 A3026 310 63 0 040/05 RMK AO2
14840KMKG MKG20101112203009311/12/10 20:30:31  5-MIN KMKG 130130Z 04004KT 10SM BKN070 11/05 A3026 310 66 0 040/04 RMK AO2
14840KMKG MKG20101112203509311/12/10 20:35:31  5-MIN KMKG 130135Z 04005KT 10SM BKN070 11/05 A3026 320 66 0 050/05 RMK AO2
14840KMKG MKG20101112204009311/12/10 20:40:31  5-MIN KMKG 130140Z 05005KT 10SM SCT070 11/05 A3026 320 66 0 050/05 RMK AO2
14840KMKG MKG20101112204509311/12/10 20:45:31  5-MIN KMKG 130145Z 04006KT 10SM FEW070 11/05 A3026 320 66 0 050/06 RMK AO2
14840KMKG MKG20101112205011011/12/10 20:50:31  5-MIN KMKG 130150Z 05005KT 10SM SCT075 11/05 A3026 320 66 0 050/05 RMK AO2 SLP249 T01110050
14840KMKG MKG20101112205511011/12/10 20:55:31  5-MIN KMKG 130155Z 05005KT 10SM SCT075 11/05 A3026 320 68 0 060/05 RMK AO2 SLP249 T01060050
14840KMKG MKG20101112210009311/12/10 21:00:31  5-MIN KMKG 130200Z 06006KT 10SM FEW075 11/05 A3026 320 68 0 060/06 RMK AO2
14840KMKG MKG20101112210509311/12/10 21:05:31  5-MIN KMKG 130205Z 06005KT 10SM FEW075 11/05 A3026 320 68 0 060/05 RMK AO2
14840KMKG MKG20101112211009311/12/10 21:10:31  5-MIN KMKG 130210Z 06005KT 10SM FEW060 11/05 A3026 320 68 0 070/05 RMK AO2
14840KMKG MKG20101112211509311/12/10 21:15:31  5-MIN KMKG 130215Z 06006KT 10SM FEW060 11/06 A3026 320 71 0 070/06 RMK AO2
14840KMKG MKG20101112212010011/12/10 21:20:31  5-MIN KMKG 130220Z 06006KT 10SM FEW065 SCT075 11/06 A3026 320 71 0 070/06 RMK AO2
14840KMKG MKG20101112212510011/12/10 21:25:31  5-MIN KMKG 130225Z 06006KT 10SM SCT060 BKN075 11/06 A3026 320 68 0 070/06 RMK AO2
14840KMKG MKG20101112213010011/12/10 21:30:31  5-MIN KMKG 130230Z 06005KT 10SM BKN060 BKN075 11/06 A3026 320 68 0 060/05 RMK AO2
14840KMKG MKG20101112213509311/12/10 21:35:31  5-MIN KMKG 130235Z 06006KT 10SM BKN060 11/06 A3026 320 68 0 070/06 RMK AO2
14840KMKG MKG20101112214009311/12/10 21:40:31  5-MIN KMKG 130240Z 06007KT 10SM SCT060 11/06 A3026 320 71 0 060/07 RMK AO2
14840KMKG MKG20101112214510011/12/10 21:45:31  5-MIN KMKG 130245Z 06007KT 10SM SCT060 BKN075 11/06 A3026 320 68 0 060/07 RMK AO2
14840KMKG MKG20101112215012311/12/10 21:50:31  5-MIN KMKG 130250Z 06008KT 10SM SCT060 BKN075 11/06 A3026 320 71 0 070/08 RMK AO2 SLP248 T01110061 58005
14840KMKG MKG20101112215512311/12/10 21:55:31  5-MIN KMKG 130255Z 07007KT 10SM BKN065 BKN075 11/06 A3026 320 68 0 070/07 RMK AO2 SLP247 T01110056 58004
14840KMKG MKG20101112220010011/12/10 22:00:31  5-MIN KMKG 130300Z 07009KT 10SM SCT065 BKN080 11/06 A3025 320 68 0 080/09 RMK AO2
14840KMKG MKG20101112220509311/12/10 22:05:31  5-MIN KMKG 130305Z 07009KT 10SM SCT070 11/06 A3025 330 68 0 070/09 RMK AO2
14840KMKG MKG20101112221009311/12/10 22:10:31  5-MIN KMKG 130310Z 07007KT 10SM BKN070 11/06 A3025 330 68 0 070/07 RMK AO2
14840KMKG MKG20101112221509311/12/10 22:15:31  5-MIN KMKG 130315Z 07009KT 10SM SCT065 11/06 A3025 330 68 0 070/09 RMK AO2
14840KMKG MKG20101112222009311/12/10 22:20:31  5-MIN KMKG 130320Z 07008KT 10SM SCT070 11/06 A3025 330 71 0 070/08 RMK AO2
14840KMKG MKG20101112222509311/12/10 22:25:31  5-MIN KMKG 130325Z 07009KT 10SM SCT070 11/06 A3024 330 71 0 080/09 RMK AO2
14840KMKG MKG20101112223009311/12/10 22:30:31  5-MIN KMKG 130330Z 07009KT 10SM FEW070 11/06 A3024 340 71 0 070/09 RMK AO2
14840KMKG MKG20101112223509311/12/10 22:35:31  5-MIN KMKG 130335Z 07009KT 10SM FEW070 11/06 A3024 340 71 0 080/09 RMK AO2
14840KMKG MKG20101112224009311/12/10 22:40:31  5-MIN KMKG 130340Z 08008KT 10SM FEW070 11/06 A3024 340 71 0 080/08 RMK AO2
14840KMKG MKG20101112224509311/12/10 22:45:31  5-MIN KMKG 130345Z 08008KT 10SM FEW070 11/06 A3024 340 71 0 080/08 RMK AO2
14840KMKG MKG20101112225010711/12/10 22:50:31  5-MIN KMKG 130350Z 08010KT 10SM CLR 11/06 A3023 340 71 0 080/10 RMK AO2 SLP240 T01060056
14840KMKG MKG20101112225511011/12/10 22:55:31  5-MIN KMKG 130355Z 08011KT 10SM SCT070 11/06 A3023 340 71 0 080/11 RMK AO2 SLP240 T01060056
14840KMKG MKG20101112230009011/12/10 23:00:31  5-MIN KMKG 130400Z 08009KT 10SM CLR 11/06 A3023 350 71 0 080/09 RMK AO2
14840KMKG MKG20101112230509011/12/10 23:05:31  5-MIN KMKG 130405Z 08009KT 10SM CLR 11/06 A3023 350 71 0 090/09 RMK AO2
14840KMKG MKG20101112231009011/12/10 23:10:31  5-MIN KMKG 130410Z 07009KT 10SM CLR 11/06 A3023 350 71 0 080/09 RMK AO2
14840KMKG MKG20101113000009011/13/10 00:00:32  5-MIN KMKG 130500Z 07011KT 10SM CLR 11/06 A3022 350 71 0 080/11 RMK AO2
14840KMKG MKG20101113000509311/13/10 00:05:31  5-MIN KMKG 130505Z 08009KT 10SM CLR 10/06 A3022 350 74 -100 090/09 RMK AO2
14840KMKG MKG20101113001009311/13/10 00:10:31  5-MIN KMKG 130510Z 09009KT 10SM CLR 10/06 A3023 350 74 -100 090/09 RMK AO2
14840KMKG MKG20101113001509311/13/10 00:15:31  5-MIN KMKG 130515Z 09009KT 10SM CLR 10/06 A3023 350 74 -100 090/09 RMK AO2
14840KMKG MKG20101113002009311/13/10 00:20:31  5-MIN KMKG 130520Z 08007KT 10SM CLR 10/06 A3023 350 74 -100 090/07 RMK AO2
14840KMKG MKG20101113002509611/13/10 00:25:31  5-MIN KMKG 130525Z 08010KT 10SM FEW095 10/06 A3022 350 74 -100 090/10 RMK AO2
14840KMKG MKG20101113003009611/13/10 00:30:31  5-MIN KMKG 130530Z 09010KT 10SM SCT095 10/06 A3022 350 74 -100 090/10 RMK AO2
14840KMKG MKG20101113003509611/13/10 00:35:31  5-MIN KMKG 130535Z 08009KT 10SM BKN095 10/06 A3022 360 74 -100 090/09 RMK AO2
14840KMKG MKG20101113004009611/13/10 00:40:31  5-MIN KMKG 130540Z 09010KT 10SM BKN095 10/06 A3022 360 74 -100 090/10 RMK AO2
14840KMKG MKG20101113004509611/13/10 00:45:31  5-MIN KMKG 130545Z 09009KT 10SM OVC095 10/06 A3022 360 74 -100 100/09 RMK AO2
14840KMKG MKG20101113005013111/13/10 00:50:31  5-MIN KMKG 130550Z 09008KT 10SM OVC095 10/06 A3022 360 74 -100 090/08 RMK AO2 SLP234 T01000056 10128 20100 58004
14840KMKG MKG20101113005513111/13/10 00:55:31  5-MIN KMKG 130555Z 08009KT 10SM OVC100 10/06 A3021 360 74 -100 080/09 RMK AO2 SLP233 T01000056 10128 20100 56014
14840KMKG MKG20101113010009611/13/10 01:00:31  5-MIN KMKG 130600Z 08008KT 10SM OVC100 10/06 A3021 360 74 -100 080/08 RMK AO2
14840KMKG MKG20101113010509611/13/10 01:05:31  5-MIN KMKG 130605Z 08010KT 10SM OVC100 10/06 A3021 360 74 -100 090/10 RMK AO2
14840KMKG MKG20101113011010211/13/10 01:10:31  5-MIN KMKG 130610Z 08012G18KT 10SM OVC100 10/05 A3021 360 71 -100 090/12G18 RMK AO2
14840KMKG MKG20101113011510211/13/10 01:15:31  5-MIN KMKG 130615Z 08010G18KT 10SM OVC095 10/05 A3021 360 71 -100 090/10G18 RMK AO2
14840KMKG MKG20101113012009611/13/10 01:20:31  5-MIN KMKG 130620Z 08012KT 10SM OVC100 10/05 A3021 360 71 -100 090/12 RMK AO2
14840KMKG MKG20101113012509611/13/10 01:25:31  5-MIN KMKG 130625Z 09009KT 10SM OVC100 10/05 A3021 360 71 -100 100/09 RMK AO2
14840KMKG MKG20101113013009611/13/10 01:30:31  5-MIN KMKG 130630Z 09013KT 10SM OVC100 09/05 A3021 370 74 -100 090/13 RMK AO2
14840KMKG MKG20101113013509611/13/10 01:35:31  5-MIN KMKG 130635Z 08010KT 10SM OVC100 09/05 A3021 370 74 -100 090/10 RMK AO2
14840KMKG MKG20101113014009611/13/10 01:40:31  5-MIN KMKG 130640Z 09011KT 10SM OVC100 09/05 A3021 370 74 -100 090/11 RMK AO2
14840KMKG MKG20101113014509611/13/10 01:45:31  5-MIN KMKG 130645Z 09009KT 10SM OVC100 09/05 A3021 370 74 -100 090/09 RMK AO2
14840KMKG MKG20101113015011311/13/10 01:50:31  5-MIN KMKG 130650Z 09011KT 10SM OVC100 09/05 A3021 370 74 -100 090/11 RMK AO2 SLP231 T00940050
14840KMKG MKG20101113015511311/13/10 01:55:31  5-MIN KMKG 130655Z 09013KT 10SM OVC100 09/05 A3021 370 74 -100 090/13 RMK AO2 SLP231 T00940050
14840KMKG MKG20101113020009611/13/10 02:00:31  5-MIN KMKG 130700Z 09010KT 10SM OVC100 09/05 A3020 370 74 -100 090/10 RMK AO2
14840KMKG MKG20101113020510211/13/10 02:05:31  5-MIN KMKG 130705Z 09009G18KT 10SM OVC100 09/05 A3020 370 74 -100 090/09G18 RMK AO2
14840KMKG MKG20101113021010211/13/10 02:10:31  5-MIN KMKG 130710Z 09010G18KT 10SM OVC100 09/05 A3020 370 74 -100 090/10G18 RMK AO2
14840KMKG MKG20101113021509611/13/10 02:15:31  5-MIN KMKG 130715Z 08011KT 10SM OVC100 09/05 A3020 370 74 -100 090/11 RMK AO2
14840KMKG MKG20101113022009611/13/10 02:20:31  5-MIN KMKG 130720Z 09008KT 10SM OVC100 09/05 A3020 370 76 -200 090/08 RMK AO2
14840KMKG MKG20101113022509611/13/10 02:25:31  5-MIN KMKG 130725Z 09011KT 10SM OVC100 09/05 A3020 370 76 -200 100/11 RMK AO2
14840KMKG MKG20101113023009611/13/10 02:30:31  5-MIN KMKG 130730Z 08013KT 10SM OVC100 09/05 A3020 370 76 -200 090/13 RMK AO2
14840KMKG MKG20101113023509611/13/10 02:35:31  5-MIN KMKG 130735Z 09012KT 10SM OVC100 09/05 A3020 370 76 -200 090/12 RMK AO2
14840KMKG MKG20101113024009611/13/10 02:40:31  5-MIN KMKG 130740Z 09011KT 10SM OVC100 09/05 A3020 370 76 -200 090/11 RMK AO2
14840KMKG MKG20101113024510211/13/10 02:45:31  5-MIN KMKG 130745Z 08012G17KT 10SM OVC100 09/05 A3020 370 76 -200 090/12G17 RMK AO2
14840KMKG MKG20101113025011911/13/10 02:50:31  5-MIN KMKG 130750Z 09011G17KT 10SM OVC100 09/04 A3020 370 73 -200 090/11G17 RMK AO2 SLP229 T00890044
14840KMKG MKG20101113025511311/13/10 02:55:31  5-MIN KMKG 130755Z 09012KT 10SM OVC100 09/04 A3020 370 73 -200 100/12 RMK AO2 SLP229 T00890044
14840KMKG MKG20101113030009611/13/10 03:00:31  5-MIN KMKG 130800Z 10012KT 10SM OVC100 09/04 A3020 370 73 -200 100/12 RMK AO2
14840KMKG MKG20101113030509611/13/10 03:05:31  5-MIN KMKG 130805Z 09011KT 10SM OVC100 09/04 A3020 380 73 -200 090/11 RMK AO2
14840KMKG MKG20101113031009611/13/10 03:10:31  5-MIN KMKG 130810Z 09012KT 10SM OVC100 09/04 A3019 380 73 -200 090/12 RMK AO2
14840KMKG MKG20101113031509611/13/10 03:15:31  5-MIN KMKG 130815Z 09012KT 10SM OVC100 09/04 A3019 380 73 -200 090/12 RMK AO2
14840KMKG MKG20101113032009611/13/10 03:20:31  5-MIN KMKG 130820Z 10012KT 10SM OVC100 09/04 A3020 380 73 -200 100/12 RMK AO2
14840KMKG MKG20101113032509611/13/10 03:25:31  5-MIN KMKG 130825Z 09010KT 10SM OVC100 09/04 A3019 380 73 -200 100/10 RMK AO2
14840KMKG MKG20101113033009611/13/10 03:30:31  5-MIN KMKG 130830Z 09011KT 10SM OVC100 09/04 A3019 380 73 -200 100/11 RMK AO2
14840KMKG MKG20101113033509611/13/10 03:35:31  5-MIN KMKG 130835Z 09010KT 10SM OVC100 09/04 A3019 380 73 -200 090/10 RMK AO2
14840KMKG MKG20101113034009611/13/10 03:40:31  5-MIN KMKG 130840Z 09012KT 10SM OVC100 09/04 A3019 380 73 -200 090/12 RMK AO2
14840KMKG MKG20101113034509611/13/10 03:45:31  5-MIN KMKG 130845Z 09010KT 10SM OVC100 09/04 A3019 380 73 -200 090/10 RMK AO2
14840KMKG MKG20101113035011911/13/10 03:50:31  5-MIN KMKG 130850Z 09010KT 10SM OVC100 09/04 A3019 380 73 -200 090/10 RMK AO2 SLP224 T00890044 56014
14840KMKG MKG20101113035511911/13/10 03:55:31  5-MIN KMKG 130855Z 09011KT 10SM OVC100 08/04 A3018 390 76 -200 090/11 RMK AO2 SLP223 T00830044 58010
14840KMKG MKG20101113040009611/13/10 04:00:31  5-MIN KMKG 130900Z 09010KT 10SM OVC100 08/05 A3019 390 79 -200 100/10 RMK AO2
14840KMKG MKG20101113040509611/13/10 04:05:31  5-MIN KMKG 130905Z 09010KT 10SM OVC100 08/05 A3018 390 79 -200 100/10 RMK AO2
14840KMKG MKG20101113041009611/13/10 04:10:31  5-MIN KMKG 130910Z 09009KT 10SM OVC100 08/05 A3018 390 79 -200 090/09 RMK AO2
14840KMKG MKG20101113041509611/13/10 04:15:31  5-MIN KMKG 130915Z 08010KT 10SM OVC100 08/05 A3018 390 79 -200 090/10 RMK AO2
14840KMKG MKG20101113042009611/13/10 04:20:31  5-MIN KMKG 130920Z 09011KT 10SM OVC100 08/05 A3017 400 79 -200 090/11 RMK AO2
14840KMKG MKG20101113042509611/13/10 04:25:31  5-MIN KMKG 130925Z 09011KT 10SM OVC100 08/05 A3017 400 79 -200 100/11 RMK AO2
14840KMKG MKG20101113043009611/13/10 04:30:31  5-MIN KMKG 130930Z 09011KT 10SM OVC100 08/05 A3017 400 79 -200 090/11 RMK AO2
14840KMKG MKG20101113043509611/13/10 04:35:31  5-MIN KMKG 130935Z 09011KT 10SM OVC100 08/05 A3017 400 79 -200 090/11 RMK AO2
14840KMKG MKG20101113044009611/13/10 04:40:31  5-MIN KMKG 130940Z 09013KT 10SM BKN100 08/05 A3017 400 79 -200 090/13 RMK AO2
14840KMKG MKG20101113044509611/13/10 04:45:31  5-MIN KMKG 130945Z 09010KT 10SM BKN100 08/05 A3017 400 79 -200 090/10 RMK AO2
14840KMKG MKG20101113045011311/13/10 04:50:31  5-MIN KMKG 130950Z 09012KT 10SM OVC110 08/05 A3017 400 79 -200 090/12 RMK AO2 SLP218 T00830050
14840KMKG MKG20101113045511311/13/10 04:55:31  5-MIN KMKG 130955Z 08010KT 10SM OVC110 08/05 A3017 400 79 -200 090/10 RMK AO2 SLP217 T00830050
14840KMKG MKG20101113050009611/13/10 05:00:31  5-MIN KMKG 131000Z 09011KT 10SM BKN110 08/05 A3016 410 79 -200 090/11 RMK AO2
14840KMKG MKG20101113050509611/13/10 05:05:31  5-MIN KMKG 131005Z 08011KT 10SM BKN110 08/05 A3016 410 79 -200 090/11 RMK AO2
14840KMKG MKG20101113051009611/13/10 05:10:31  5-MIN KMKG 131010Z 09011KT 10SM BKN100 08/05 A3016 410 79 -200 090/11 RMK AO2
14840KMKG MKG20101113051509611/13/10 05:15:31  5-MIN KMKG 131015Z 08012KT 10SM BKN110 08/05 A3015 410 79 -200 090/12 RMK AO2
14840KMKG MKG20101113052010211/13/10 05:20:31  5-MIN KMKG 131020Z 08008G18KT 10SM BKN100 08/05 A3015 410 79 -200 090/08G18 RMK AO2
14840KMKG MKG20101113052510311/13/10 05:25:31  5-MIN KMKG 131025Z 09010KT 10SM BKN100 BKN120 08/05 A3015 420 79 -200 090/10 RMK AO2
14840KMKG MKG20101113053009611/13/10 05:30:31  5-MIN KMKG 131030Z 09011KT 10SM OVC100 08/05 A3015 420 79 -200 090/11 RMK AO2
14840KMKG MKG20101113053509611/13/10 05:35:31  5-MIN KMKG 131035Z 09010KT 10SM OVC095 08/05 A3015 420 79 -200 090/10 RMK AO2
14840KMKG MKG20101113054009611/13/10 05:40:31  5-MIN KMKG 131040Z 09010KT 10SM OVC095 08/05 A3015 420 79 -200 090/10 RMK AO2
14840KMKG MKG20101113054509611/13/10 05:45:31  5-MIN KMKG 131045Z 09010KT 10SM OVC095 08/05 A3015 420 79 -200 090/10 RMK AO2
14840KMKG MKG20101113055011311/13/10 05:50:31  5-MIN KMKG 131050Z 08012KT 10SM OVC095 08/05 A3015 420 79 -200 090/12 RMK AO2 SLP210 T00830050
14840KMKG MKG20101113055511911/13/10 05:55:31  5-MIN KMKG 131055Z 09008G17KT 10SM OVC095 08/05 A3015 420 79 -200 100/08G17 RMK AO2 SLP212 T00830050
14840KMKG MKG20101113060009611/13/10 06:00:31  5-MIN KMKG 131100Z 08010KT 10SM OVC095 08/05 A3015 420 79 -200 090/10 RMK AO2
14840KMKG MKG20101113060509611/13/10 06:05:31  5-MIN KMKG 131105Z 09009KT 10SM OVC095 08/05 A3015 420 79 -200 090/09 RMK AO2
14840KMKG MKG20101113061009611/13/10 06:10:31  5-MIN KMKG 131110Z 08011KT 10SM OVC095 08/05 A3014 430 79 -200 080/11 RMK AO2
14840KMKG MKG20101113061509611/13/10 06:15:31  5-MIN KMKG 131115Z 08010KT 10SM OVC095 08/05 A3014 430 82 -200 080/10 RMK AO2
14840KMKG MKG20101113062009611/13/10 06:20:31  5-MIN KMKG 131120Z 08010KT 10SM OVC100 08/04 A3013 430 79 -200 080/10 RMK AO2
14840KMKG MKG20101113062509611/13/10 06:25:31  5-MIN KMKG 131125Z 10012KT 10SM OVC100 08/04 A3013 440 79 -200 100/12 RMK AO2
14840KMKG MKG20101113063010311/13/10 06:30:31  5-MIN KMKG 131130Z 08013KT 10SM OVC100 08/04 A3012 450 79 -200 090/13 RMK AO2 PRESFR
14840KMKG MKG20101113063509611/13/10 06:35:31  5-MIN KMKG 131135Z 08010KT 10SM OVC100 08/04 A3012 440 79 -200 090/10 RMK AO2
14840KMKG MKG20101113064010211/13/10 06:40:31  5-MIN KMKG 131140Z 10011G17KT 10SM BKN100 08/04 A3012 450 79 -200 100/11G17 RMK AO2
14840KMKG MKG20101113064510211/13/10 06:45:31  5-MIN KMKG 131145Z 10010G17KT 10SM BKN100 08/04 A3012 450 79 -200 100/10G17 RMK AO2
14840KMKG MKG20101113065013711/13/10 06:50:31  5-MIN KMKG 131150Z 09012G19KT 10SM SCT100 08/04 A3011 450 79 -200 090/12G19 RMK AO2 SLP200 T00780044 10100 20078 58010
14840KMKG MKG20101113065513711/13/10 06:55:31  5-MIN KMKG 131155Z 09012G19KT 10SM SCT100 08/04 A3011 460 79 -200 090/12G19 RMK AO2 SLP199 T00780044 10100 20078 58024
14840KMKG MKG20101113070009611/13/10 07:00:31  5-MIN KMKG 131200Z 09012KT 10SM SCT100 08/04 A3011 460 79 -200 090/12 RMK AO2
14840KMKG MKG20101113070510911/13/10 07:05:31  5-MIN KMKG 131205Z 10010G17KT 10SM FEW100 SCT110 08/04 A3011 460 79 -200 100/10G17 RMK AO2
14840KMKG MKG20101113071010911/13/10 07:10:31  5-MIN KMKG 131210Z 10013G17KT 10SM SCT100 BKN110 08/04 A3011 460 79 -200 100/13G17 RMK AO2
14840KMKG MKG20101113071509511/13/10 07:15:31  5-MIN KMKG 131215Z 09011KT 9SM BKN100 08/04 A3011 460 79 -200 090/11 RMK AO2
14840KMKG MKG20101113072009511/13/10 07:20:31  5-MIN KMKG 131220Z 09011KT 9SM BKN100 08/04 A3010 460 79 -200 100/11 RMK AO2
14840KMKG MKG20101113072509511/13/10 07:25:31  5-MIN KMKG 131225Z 09011KT 9SM OVC100 07/04 A3010 460 82 -300 090/11 RMK AO2
14840KMKG MKG20101113073009511/13/10 07:30:31  5-MIN KMKG 131230Z 09013KT 8SM OVC100 07/04 A3010 460 82 -300 100/13 RMK AO2
14840KMKG MKG20101113073510111/13/10 07:35:31  5-MIN KMKG 131235Z 09010G18KT 8SM OVC100 07/04 A3010 470 82 -300 090/10G18 RMK AO2
14840KMKG MKG20101113074010111/13/10 07:40:31  5-MIN KMKG 131240Z 09011G18KT 7SM OVC100 07/04 A3010 470 82 -300 090/11G18 RMK AO2
14840KMKG MKG20101113074509511/13/10 07:45:31  5-MIN KMKG 131245Z 09011KT 7SM OVC100 07/04 A3009 470 82 -300 100/11 RMK AO2
14840KMKG MKG20101113075011511/13/10 07:50:31  5-MIN KMKG 131250Z 10011KT 6SM HZ BKN110 07/04 A3009 470 82 -300 100/11 RMK AO2 SLP193 T00720044
14840KMKG MKG20101113075511511/13/10 07:55:31  5-MIN KMKG 131255Z 09012KT 6SM HZ OVC110 07/04 A3009 470 82 -300 090/12 RMK AO2 SLP193 T00720044
14840KMKG MKG20101113080009811/13/10 08:00:31  5-MIN KMKG 131300Z 10013KT 5SM HZ OVC110 07/04 A3009 470 82 -300 100/13 RMK AO2
14840KMKG MKG20101113080509811/13/10 08:05:31  5-MIN KMKG 131305Z 09010KT 5SM HZ OVC110 07/04 A3009 470 82 -300 100/10 RMK AO2
14840KMKG MKG20101113081010411/13/10 08:10:31  5-MIN KMKG 131310Z 09012G18KT 5SM HZ OVC110 08/04 A3009 470 79 -200 100/12G18 RMK AO2
14840KMKG MKG20101113081510411/13/10 08:15:31  5-MIN KMKG 131315Z 09012G18KT 5SM HZ OVC110 08/04 A3009 480 79 -200 100/12G18 RMK AO2
14840KMKG MKG20101113082009811/13/10 08:20:31  5-MIN KMKG 131320Z 10011KT 5SM HZ OVC100 08/05 A3008 480 82 -200 100/11 RMK AO2
14840KMKG MKG20101113082510411/13/10 08:25:31  5-MIN KMKG 131325Z 09015G20KT 5SM HZ OVC100 08/04 A3008 480 79 -200 100/15G20 RMK AO2
14840KMKG MKG20101113083010411/13/10 08:30:31  5-MIN KMKG 131330Z 09011G20KT 5SM HZ OVC100 08/05 A3008 480 82 -200 100/11G20 RMK AO2
14840KMKG MKG20101113083509811/13/10 08:35:31  5-MIN KMKG 131335Z 10013KT 5SM HZ BKN100 08/04 A3008 490 79 -200 100/13 RMK AO2
14840KMKG MKG20101113084009811/13/10 08:40:31  5-MIN KMKG 131340Z 09013KT 5SM HZ BKN100 08/05 A3007 490 82 -200 090/13 RMK AO2
14840KMKG MKG20101113084510411/13/10 08:45:31  5-MIN KMKG 131345Z 09014G18KT 5SM HZ BKN110 08/04 A3007 490 76 -100 100/14G18 RMK AO2
14840KMKG MKG20101113085012111/13/10 08:50:31  5-MIN KMKG 131350Z 10011G18KT 5SM HZ BKN110 08/04 A3007 490 76 -100 100/11G18 RMK AO2 SLP185 T00830044
14840KMKG MKG20101113085511511/13/10 08:55:31  5-MIN KMKG 131355Z 10013KT 5SM HZ BKN110 08/04 A3006 500 76 -100 100/13 RMK AO2 SLP184 T00830044
14840KMKG MKG20101113090009811/13/10 09:00:31  5-MIN KMKG 131400Z 09011KT 5SM HZ SCT120 08/04 A3006 500 76 -100 100/11 RMK AO2
14840KMKG MKG20101113090510411/13/10 09:05:31  5-MIN KMKG 131405Z 10013G20KT 5SM HZ FEW120 08/04 A3006 500 76 -100 100/13G20 RMK AO2
14840KMKG MKG20101113091010411/13/10 09:10:31  5-MIN KMKG 131410Z 10011G20KT 5SM HZ FEW120 08/04 A3005 510 76 -100 100/11G20 RMK AO2
14840KMKG MKG20101113091509811/13/10 09:15:31  5-MIN KMKG 131415Z 10013KT 5SM HZ FEW110 08/04 A3005 510 76 -100 100/13 RMK AO2
14840KMKG MKG20101113092009811/13/10 09:20:31  5-MIN KMKG 131420Z 09013KT 5SM HZ FEW110 08/04 A3004 520 76 -100 090/13 RMK AO2
14840KMKG MKG20101113092510111/13/10 09:25:31  5-MIN KMKG 131425Z 09014G21KT 5SM HZ FEW110 09/04 A3004 520 73 0 090/14G21 RMK AO2
14840KMKG MKG20101113093010411/13/10 09:30:31  5-MIN KMKG 131430Z 10014G21KT 5SM HZ FEW110 08/04 A3004 520 76 -100 110/14G21 RMK AO2
14840KMKG MKG20101113093510411/13/10 09:35:31  5-MIN KMKG 131435Z 10011G19KT 5SM HZ FEW110 08/04 A3004 520 76 -100 100/11G19 RMK AO2
14840KMKG MKG20101113094009511/13/10 09:40:31  5-MIN KMKG 131440Z 10014KT 5SM HZ FEW100 09/04 A3004 520 73 0 110/14 RMK AO2
14840KMKG MKG20101113094509511/13/10 09:45:31  5-MIN KMKG 131445Z 09012KT 5SM HZ FEW100 09/04 A3003 530 71 0 090/12 RMK AO2
14840KMKG MKG20101113095011811/13/10 09:50:31  5-MIN KMKG 131450Z 09012KT 5SM HZ FEW100 09/04 A3003 530 71 0 100/12 RMK AO2 SLP172 T00940044 58024
14840KMKG MKG20101113095512411/13/10 09:55:31  5-MIN KMKG 131455Z 09012G18KT 5SM HZ FEW110 09/04 A3003 530 68 0 100/12G18 RMK AO2 SLP171 T00940039 58028
14840KMKG MKG20101113100009511/13/10 10:00:31  5-MIN KMKG 131500Z 10012KT 5SM HZ FEW100 09/04 A3002 530 68 0 100/12 RMK AO2
14840KMKG MKG20101113100509511/13/10 10:05:31  5-MIN KMKG 131505Z 10011KT 5SM HZ SCT100 09/04 A3002 540 68 0 100/11 RMK AO2
14840KMKG MKG20101113101010311/13/10 10:10:31  5-MIN KMKG 131510Z 10011G18KT 5SM HZ BKN100 10/04 A3002 540 65 100 110/11G18 RMK AO2
14840KMKG MKG20101113101510311/13/10 10:15:31  5-MIN KMKG 131515Z 10013G18KT 5SM HZ BKN100 10/04 A3002 540 65 100 110/13G18 RMK AO2
14840KMKG MKG20101113102009711/13/10 10:20:31  5-MIN KMKG 131520Z 10014KT 6SM HZ BKN100 10/04 A3002 540 65 100 110/14 RMK AO2
14840KMKG MKG20101113102509711/13/10 10:25:31  5-MIN KMKG 131525Z 11013KT 6SM HZ OVC100 10/04 A3002 540 65 100 110/13 RMK AO2
14840KMKG MKG20101113103009711/13/10 10:30:31  5-MIN KMKG 131530Z 10014KT 6SM HZ OVC100 10/04 A3002 540 65 100 110/14 RMK AO2
14840KMKG MKG20101113103509711/13/10 10:35:31  5-MIN KMKG 131535Z 10013KT 6SM HZ OVC100 10/04 A3002 540 65 100 110/13 RMK AO2
14840KMKG MKG20101113104010311/13/10 10:40:31  5-MIN KMKG 131540Z 10011G19KT 6SM HZ OVC100 10/04 A3001 550 65 100 110/11G19 RMK AO2
14840KMKG MKG20101113104509711/13/10 10:45:31  5-MIN KMKG 131545Z 10015KT 6SM HZ OVC100 10/04 A3001 550 65 100 110/15 RMK AO2
14840KMKG MKG20101113105011411/13/10 10:50:31  5-MIN KMKG 131550Z 09015KT 6SM HZ OVC110 10/04 A3000 560 65 100 100/15 RMK AO2 SLP161 T01000039
14840KMKG MKG20101113105512011/13/10 10:55:31  5-MIN KMKG 131555Z 10015G21KT 6SM HZ OVC110 10/04 A3000 560 65 100 100/15G21 RMK AO2 SLP161 T01000039
14840KMKG MKG20101113110010311/13/10 11:00:31  5-MIN KMKG 131600Z 09013G21KT 6SM HZ BKN110 10/04 A2999 560 65 100 100/13G21 RMK AO2
14840KMKG MKG20101113110509711/13/10 11:05:31  5-MIN KMKG 131605Z 09012KT 6SM HZ SCT110 10/04 A2999 560 65 100 100/12 RMK AO2
14840KMKG MKG20101113111009711/13/10 11:10:31  5-MIN KMKG 131610Z 10010KT 6SM HZ SCT110 10/04 A2999 570 65 100 100/10 RMK AO2
14840KMKG MKG20101113111509711/13/10 11:15:31  5-MIN KMKG 131615Z 10011KT 6SM HZ FEW110 10/04 A2999 570 65 100 110/11 RMK AO2
14840KMKG MKG20101113112010011/13/10 11:20:31  5-MIN KMKG 131620Z 10011G18KT 7SM FEW110 11/04 A2999 570 63 200 110/11G18 RMK AO2
14840KMKG MKG20101113112509411/13/10 11:25:31  5-MIN KMKG 131625Z 10011KT 7SM FEW100 11/04 A2998 570 63 300 100/11 RMK AO2
14840KMKG MKG20101113113009411/13/10 11:30:31  5-MIN KMKG 131630Z 10012KT 7SM FEW100 11/04 A2998 570 63 300 110/12 RMK AO2
14840KMKG MKG20101113113509111/13/10 11:35:31  5-MIN KMKG 131635Z 10011KT 7SM CLR 12/04 A2997 580 61 400 100/11 RMK AO2
14840KMKG MKG20101113114009411/13/10 11:40:31  5-MIN KMKG 131640Z 11013KT 7SM FEW100 12/04 A2998 580 59 400 110/13 RMK AO2
14840KMKG MKG20101113114509711/13/10 11:45:31  5-MIN KMKG 131645Z 10016G21KT 8SM CLR 12/04 A2997 580 61 400 110/16G21 RMK AO2
14840KMKG MKG20101113115011711/13/10 11:50:31  5-MIN KMKG 131650Z 11016G21KT 8SM FEW110 12/04 A2997 590 59 400 110/16G21 RMK AO2 SLP149 T01220044
14840KMKG MKG20101113115511711/13/10 11:55:31  5-MIN KMKG 131655Z 11016G22KT 8SM FEW110 12/04 A2996 590 56 400 120/16G22 RMK AO2 SLP148 T01220039
14840KMKG MKG20101113120009711/13/10 12:00:31  5-MIN KMKG 131700Z 11016G22KT 8SM CLR 12/04 A2996 590 58 400 110/16G22 RMK AO2
14840KMKG MKG20101113120509711/13/10 12:05:31  5-MIN KMKG 131705Z 10015G21KT 8SM CLR 12/04 A2996 600 58 400 100/15G21 RMK AO2
14840KMKG MKG20101113121009111/13/10 12:10:31  5-MIN KMKG 131710Z 11015KT 7SM CLR 12/04 A2995 600 61 400 110/15 RMK AO2
14840KMKG MKG20101113121509411/13/10 12:15:31  5-MIN KMKG 131715Z 11013KT 7SM FEW095 12/04 A2995 610 61 400 110/13 RMK AO2
14840KMKG MKG20101113122010111/13/10 12:20:31  5-MIN KMKG 131720Z 10014KT 7SM FEW095 12/04 A2994 610 59 500 110/14 RMK AO2 PRESFR
14840KMKG MKG20101113122509811/13/10 12:25:31  5-MIN KMKG 131725Z 10013KT 8SM CLR 12/04 A2993 620 59 500 110/13 RMK AO2 PRESFR
14840KMKG MKG20101113123010011/13/10 12:30:31  5-MIN KMKG 131730Z 10014KT 8SM CLR 12/04 A2993 620 59 500 110/14 RMK AO2 PRESFR $
14840KMKG MKG20101113123509611/13/10 12:35:31  5-MIN KMKG 131735Z 10014KT 8SM FEW110 12/04 A2992 630 59 500 110/14 RMK AO2 $
14840KMKG MKG20101113124010311/13/10 12:40:31  5-MIN KMKG 131740Z 11014KT 8SM FEW110 12/04 A2992 640 59 500 110/14 RMK AO2 PRESFR $
14840KMKG MKG20101113124510311/13/10 12:45:31  5-MIN KMKG 131745Z 10012KT 8SM FEW120 13/04 A2991 640 56 600 100/12 RMK AO2 PRESFR $
14840KMKG MKG20101113125013111/13/10 12:50:31  5-MIN KMKG 131750Z 10012KT 8SM SCT110 13/04 A2990 640 56 600 100/12 RMK AO2 SLP128 T01280044 10128 20072 58028 $
14840KMKG MKG20101113125513711/13/10 12:55:31  5-MIN KMKG 131755Z 11015G19KT 8SM BKN110 13/04 A2991 640 54 600 120/15G19 RMK AO2 SLP129 T01330044 10133 20072 58040 $
14840KMKG MKG20101113130010211/13/10 13:00:31  5-MIN KMKG 131800Z 11015G19KT 8SM BKN110 13/04 A2990 650 54 600 120/15G19 RMK AO2 $
14840KMKG MKG20101113130509611/13/10 13:05:31  5-MIN KMKG 131805Z 11014KT 8SM BKN110 13/04 A2990 650 54 600 110/14 RMK AO2 $
14840KMKG MKG20101113131009611/13/10 13:10:31  5-MIN KMKG 131810Z 11011KT 8SM BKN110 13/04 A2990 650 54 600 110/11 RMK AO2 $
14840KMKG MKG20101113131509611/13/10 13:15:31  5-MIN KMKG 131815Z 12013KT 9SM BKN110 13/04 A2989 650 54 700 120/13 RMK AO2 $
14840KMKG MKG20101113132010211/13/10 13:20:31  5-MIN KMKG 131820Z 11012G19KT 9SM OVC110 13/04 A2989 660 54 700 120/12G19 RMK AO2 $
14840KMKG MKG20101113132509411/13/10 13:25:31  5-MIN KMKG 131825Z 12010KT 9SM OVC110 14/04 A2989 660 52 700 120/10 RMK AO2
14840KMKG MKG20101113133009411/13/10 13:30:31  5-MIN KMKG 131830Z 11011KT 9SM OVC110 13/04 A2988 670 54 700 110/11 RMK AO2
14840KMKG MKG20101113133510111/13/10 13:35:31  5-MIN KMKG 131835Z 10013G19KT 10SM OVC100 13/04 A2988 670 54 700 110/13G19 RMK AO2
14840KMKG MKG20101113134010111/13/10 13:40:31  5-MIN KMKG 131840Z 11013G19KT 10SM OVC100 13/04 A2987 670 54 700 110/13G19 RMK AO2
14840KMKG MKG20101113134510811/13/10 13:45:31  5-MIN KMKG 131845Z 11012G19KT 10SM FEW080 OVC100 13/04 A2987 670 54 700 110/12G19 RMK AO2
14840KMKG MKG20101113135012511/13/10 13:50:31  5-MIN KMKG 131850Z 11012G20KT 10SM SCT080 OVC100 13/04 A2987 680 54 700 110/12G20 RMK AO2 SLP116 T01330044
14840KMKG MKG20101113135511811/13/10 13:55:31  5-MIN KMKG 131855Z 11012G20KT 10SM BKN095 14/04 A2987 680 52 700 120/12G20 RMK AO2 SLP116 T01390044
14840KMKG MKG20101113140009511/13/10 14:00:31  5-MIN KMKG 131900Z 11010KT 10SM BKN095 14/04 A2987 680 52 700 120/10 RMK AO2
14840KMKG MKG20101113140510211/13/10 14:05:31  5-MIN KMKG 131905Z 11013KT 10SM FEW080 BKN095 14/04 A2987 680 52 700 110/13 RMK AO2
14840KMKG MKG20101113141009511/13/10 14:10:31  5-MIN KMKG 131910Z 11012KT 10SM BKN090 14/04 A2986 690 52 800 120/12 RMK AO2
14840KMKG MKG20101113141509511/13/10 14:15:31  5-MIN KMKG 131915Z 12012KT 10SM BKN090 14/05 A2986 690 53 800 120/12 RMK AO2
14840KMKG MKG20101113142009511/13/10 14:20:31  5-MIN KMKG 131920Z 11010KT 10SM OVC095 14/04 A2985 700 51 800 120/10 RMK AO2
14840KMKG MKG20101113142510811/13/10 14:25:31  5-MIN KMKG 131925Z 11014G19KT 10SM OVC095 14/04 A2984 700 51 800 120/14G19 RMK AO2 PRESFR
14840KMKG MKG20101113143010111/13/10 14:30:31  5-MIN KMKG 131930Z 13012G19KT 10SM BKN095 14/04 A2985 700 51 800 130/12G19 RMK AO2
14840KMKG MKG20101113143510911/13/10 14:35:31  5-MIN KMKG 131935Z 13013KT 10SM FEW065 SCT080 OVC090 14/04 A2985 700 51 800 140/13 RMK AO2
14840KMKG MKG20101113144010911/13/10 14:40:31  5-MIN KMKG 131940Z 13012KT 10SM FEW060 BKN075 OVC095 14/04 A2985 700 51 800 140/12 RMK AO2
14840KMKG MKG20101113144510911/13/10 14:45:31  5-MIN KMKG 131945Z 14012KT 10SM SCT060 BKN075 OVC090 14/04 A2985 700 51 800 140/12 RMK AO2
14840KMKG MKG20101113145014111/13/10 14:50:31  5-MIN KMKG 131950Z 12014KT 9SM -RA SCT060 BKN070 OVC095 14/05 A2984 700 55 800 120/14 RMK AO2 RAB49 SLP107 P0000 T01390050
14840KMKG MKG20101113145514111/13/10 14:55:31  5-MIN KMKG 131955Z 13011KT 7SM -RA FEW045 SCT055 OVC070 13/06 A2984 700 61 700 130/11 RMK AO2 RAB49 SLP108 P0000 T01330061
14840KMKG MKG20101113150011811/13/10 15:00:31  5-MIN KMKG 132000Z 14008KT 5SM -RA FEW038 BKN055 OVC070 13/07 A2985 690 66 600 150/08 RMK AO2 P0001
14840KMKG MKG20101113150513311/13/10 15:05:31  5-MIN KMKG 132005Z 14009KT 6SM -RA SCT038 BKN055 OVC070 13/07 A2985 690 66 600 150/09 RMK AO2 CIG 045 RWY 14 P0001
14840KMKG MKG20101113151011811/13/10 15:10:31  5-MIN KMKG 132010Z 14009KT 6SM -RA BKN038 BKN055 OVC070 13/07 A2985 690 66 600 150/09 RMK AO2 P0001
14840KMKG MKG20101113151511811/13/10 15:15:31  5-MIN KMKG 132015Z 13008KT 8SM -RA BKN040 BKN050 OVC070 13/07 A2985 690 66 600 130/08 RMK AO2 P0001
14840KMKG MKG20101113152011411/13/10 15:20:31  5-MIN KMKG 132020Z 14006KT 10SM BKN040 OVC060 12/07 A2985 690 71 600 140/06 RMK AO2 RAE17 P0001
14840KMKG MKG20101113152511811/13/10 15:25:31  5-MIN KMKG 132025Z 14007KT 8SM -RA BKN041 BKN048 OVC065 12/07 A2985 690 71 600 140/07 RMK AO2 P0001
14840KMKG MKG20101113153011811/13/10 15:30:31  5-MIN KMKG 132030Z 15007KT 6SM -RA SCT037 BKN045 OVC065 12/07 A2985 700 71 600 150/07 RMK AO2 P0001
14840KMKG MKG20101113153511811/13/10 15:35:31  5-MIN KMKG 132035Z 16007KT 6SM -RA SCT037 BKN047 OVC065 12/07 A2985 690 71 600 160/07 RMK AO2 P0002
14840KMKG MKG20101113154011811/13/10 15:40:31  5-MIN KMKG 132040Z 17007KT 5SM -RA FEW035 BKN045 OVC065 12/08 A2986 690 74 600 180/07 RMK AO2 P0002
14840KMKG MKG20101113154511811/13/10 15:45:31  5-MIN KMKG 132045Z 19005KT 5SM -RA FEW035 BKN045 OVC060 12/08 A2986 690 77 500 190/05 RMK AO2 P0002
14840KMKG MKG20101113155014711/13/10 15:50:31  5-MIN KMKG 132050Z 16005KT 6SM -RA SCT040 BKN049 OVC065 12/08 A2986 690 80 500 170/05 RMK AO2 SLP113 P0002 60002 T01170083 58040
14840KMKG MKG20101113155514711/13/10 15:55:31  5-MIN KMKG 132055Z 15006KT 5SM -RA FEW034 BKN046 OVC060 12/08 A2986 690 77 500 150/06 RMK AO2 SLP112 P0003 60003 T01170078 55017
14840KMKG MKG20101113160011111/13/10 16:00:31  5-MIN KMKG 132100Z 16007KT 5SM -RA BKN046 OVC060 12/08 A2986 690 80 500 160/07 RMK AO2 P0000
14840KMKG MKG20101113160511111/13/10 16:05:31  5-MIN KMKG 132105Z 17007KT 4SM -RA BKN043 OVC060 12/08 A2986 690 80 500 170/07 RMK AO2 P0000
14840KMKG MKG20101113161011111/13/10 16:10:31  5-MIN KMKG 132110Z 17006KT 5SM -RA BKN043 OVC049 12/08 A2986 690 80 500 170/06 RMK AO2 P0000
14840KMKG MKG20101113161510411/13/10 16:15:31  5-MIN KMKG 132115Z 15006KT 5SM -RA OVC041 12/09 A2986 690 83 500 160/06 RMK AO2 P0000
14840KMKG MKG20101113162011111/13/10 16:20:31  5-MIN KMKG 132120Z 15007KT 5SM -RA BKN039 OVC046 12/09 A2985 690 83 500 150/07 RMK AO2 P0000
14840KMKG MKG20101113162510411/13/10 16:25:31  5-MIN KMKG 132125Z 15005KT 4SM -RA OVC039 12/09 A2985 690 83 500 160/05 RMK AO2 P0001
14840KMKG MKG20101113163010711/13/10 16:30:31  5-MIN KMKG 132130Z 16005KT 4SM -RA BR OVC039 12/09 A2985 690 86 500 160/05 RMK AO2 P0001
14840KMKG MKG20101113163510711/13/10 16:35:31  5-MIN KMKG 132135Z 15005KT 4SM -RA BR OVC039 12/09 A2985 690 86 500 160/05 RMK AO2 P0001
14840KMKG MKG20101113164011611/13/10 16:40:31  5-MIN KMKG 132140Z 16004KT 4SM BR FEW022 OVC039 12/10 A2985 700 89 500 160/04 RMK AO2 RAE37 P0001
14840KMKG MKG20101113164512311/13/10 16:45:31  5-MIN KMKG 132145Z 15005KT 4SM BR FEW012 SCT022 OVC037 12/10 A2985 700 89 500 160/05 RMK AO2 RAE37 P0001
14840KMKG MKG20101113165012311/13/10 16:50:31  5-MIN KMKG 132150Z 15005KT 3SM BR SCT012 BKN020 OVC037 12/10 A2985 700 89 500 150/05 RMK AO2 RAE37 P0001
14840KMKG MKG20101113165514011/13/10 16:55:31  5-MIN KMKG 132155Z 16006KT 3SM BR SCT012 BKN020 OVC039 12/10 A2985 700 89 500 160/06 RMK AO2 RAE37 SLP109 P0001 T01170100
14840KMKG MKG20101113170011111/13/10 17:00:31  5-MIN KMKG 132200Z 16007KT 4SM BR SCT012 BKN020 OVC034 12/10 A2985 700 89 500 170/07 RMK AO2
14840KMKG MKG20101113170510411/13/10 17:05:31  5-MIN KMKG 132205Z 17006KT 4SM BR BKN012 OVC020 12/10 A2985 700 89 500 170/06 RMK AO2
14840KMKG MKG20101113171012611/13/10 17:10:31  5-MIN KMKG 132210Z 17008KT 5SM BR SCT010 BKN014 OVC020 12/11 A2984 700 89 600 170/08 RMK AO2 CIG 010 RWY 14
14840KMKG MKG20101113171511611/13/10 17:15:31  5-MIN KMKG 132215Z 17009KT 5SM BR BKN010 OVC017 12/11 A2985 700 89 600 170/09 RMK AO2 CIG 008V014
14840KMKG MKG20101113172010411/13/10 17:20:31  5-MIN KMKG 132220Z 18010KT 6SM BR BKN012 OVC017 12/11 A2985 700 89 600 190/10 RMK AO2
14840KMKG MKG20101113172510111/13/10 17:25:31  5-MIN KMKG 132225Z 18013KT 7SM BKN012 OVC017 12/11 A2985 700 89 600 190/13 RMK AO2
14840KMKG MKG20101113173011611/13/10 17:30:31  5-MIN KMKG 132230Z 18011KT 7SM SCT010 OVC015 12/11 A2985 700 89 600 190/11 RMK AO2 CIG 010 RWY 14
14840KMKG MKG20101113173510811/13/10 17:35:31  5-MIN KMKG 132235Z 18011KT 7SM BKN013 BKN027 OVC033 12/11 A2984 700 89 600 190/11 RMK AO2
14840KMKG MKG20101113174010111/13/10 17:40:31  5-MIN KMKG 132240Z 18009KT 7SM BKN013 OVC031 12/11 A2984 700 89 600 180/09 RMK AO2
14840KMKG MKG20101113174510811/13/10 17:45:31  5-MIN KMKG 132245Z 18008KT 7SM SCT013 SCT024 OVC033 12/11 A2984 700 89 600 180/08 RMK AO2
14840KMKG MKG20101113175012511/13/10 17:50:31  5-MIN KMKG 132250Z 17010KT 7SM FEW013 BKN030 OVC042 12/11 A2984 710 89 600 180/10 RMK AO2 SLP107 T01220106
14840KMKG MKG20101113175513111/13/10 17:55:31  5-MIN KMKG 132255Z 18010G17KT 7SM SCT015 BKN031 OVC042 12/10 A2984 700 86 600 190/10G17 RMK AO2 SLP108 T01220100
14840KMKG MKG20101113180011411/13/10 18:00:31  5-MIN KMKG 132300Z 18012G17KT 7SM SCT015 BKN034 OVC043 12/10 A2984 700 86 600 180/12G17 RMK AO2
14840KMKG MKG20101113180511411/13/10 18:05:31  5-MIN KMKG 132305Z 19011G18KT 7SM SCT015 BKN031 OVC040 12/10 A2984 700 86 600 190/11G18 RMK AO2
14840KMKG MKG20101113181012911/13/10 18:10:31  5-MIN KMKG 132310Z 19010G18KT 8SM SCT015 BKN040 OVC049 12/10 A2984 700 86 600 190/10G18 RMK AO2 CIG 015 RWY 14
14840KMKG MKG20101113181510111/13/10 18:15:31  5-MIN KMKG 132315Z 19011KT 7SM BKN015 OVC043 12/10 A2984 710 86 600 190/11 RMK AO2
14840KMKG MKG20101113182010811/13/10 18:20:31  5-MIN KMKG 132320Z 19009KT 7SM SCT015 BKN040 OVC048 12/11 A2984 710 89 600 190/09 RMK AO2
14840KMKG MKG20101113182511411/13/10 18:25:31  5-MIN KMKG 132325Z 19010G16KT 7SM SCT013 SCT040 OVC048 12/11 A2983 710 89 600 190/10G16 RMK AO2
14840KMKG MKG20101113183010711/13/10 18:30:31  5-MIN KMKG 132330Z 19009G16KT 7SM FEW013 OVC048 12/10 A2983 710 86 600 190/09G16 RMK AO2
14840KMKG MKG20101113183510811/13/10 18:35:31  5-MIN KMKG 132335Z 18009KT 7SM FEW013 SCT042 OVC050 12/11 A2983 710 89 600 190/09 RMK AO2
14840KMKG MKG20101113184010811/13/10 18:40:31  5-MIN KMKG 132340Z 18008KT 7SM SCT015 BKN042 OVC050 12/10 A2983 710 86 600 190/08 RMK AO2
14840KMKG MKG20101113184510111/13/10 18:45:31  5-MIN KMKG 132345Z 18009KT 7SM BKN013 OVC050 12/11 A2983 710 89 600 190/09 RMK AO2
14840KMKG MKG20101113185010811/13/10 18:50:31  5-MIN KMKG 132350Z 19009KT 7SM SCT010 BKN015 OVC050 12/11 A2983 710 89 600 200/09 RMK AO2
14840KMKG MKG20101113185516611/13/10 18:55:31  5-MIN KMKG 132355Z 21019G27KT 7SM BKN012 OVC050 12/10 A2984 710 86 600 210/19G27 RMK AO2 PK WND 21027/2354 SLP106 60004 T01220100 10144 20117 58003
14840KMKG MKG20101113190011411/13/10 19:00:31  5-MIN KMKG 140000Z 22019G27KT 8SM SCT010 BKN013 OVC026 12/09 A2983 710 83 500 220/19G27 RMK AO2
14840KMKG MKG20101113190511511/13/10 19:05:31  5-MIN KMKG 140005Z 22019G25KT 10SM BKN013 BKN024 OVC030 11/08 A2983 710 83 500 220/19G25 RMK AO2
14840KMKG MKG20101113191013311/13/10 19:10:31  5-MIN KMKG 140010Z 22018G26KT 10SM SCT011 BKN019 OVC031 11/08 A2983 710 80 500 230/18G26 RMK AO2 PK WND 21026/0006
14840KMKG MKG20101113191513311/13/10 19:15:31  5-MIN KMKG 140015Z 22016G26KT 10SM FEW009 BKN019 OVC027 11/08 A2983 710 80 500 220/16G26 RMK AO2 PK WND 21026/0006
14840KMKG MKG20101113192013311/13/10 19:20:31  5-MIN KMKG 140020Z 23015G21KT 10SM BKN013 BKN019 OVC024 11/08 A2983 710 83 500 230/15G21 RMK AO2 PK WND 21026/0006
14840KMKG MKG20101113192513311/13/10 19:25:31  5-MIN KMKG 140025Z 23018G26KT 10SM BKN013 BKN019 OVC026 11/08 A2984 710 86 400 230/18G26 RMK AO2 PK WND 23026/0025
14840KMKG MKG20101113193013211/13/10 19:30:31  5-MIN KMKG 140030Z 23015G26KT 8SM BKN015 BKN021 OVC028 11/08 A2984 710 83 400 240/15G26 RMK AO2 PK WND 23026/0025
14840KMKG MKG20101113193512511/13/10 19:35:31  5-MIN KMKG 140035Z 23016G23KT 8SM BKN015 OVC019 10/07 A2984 700 83 300 230/16G23 RMK AO2 PK WND 23026/0025
14840KMKG MKG20101113194011811/13/10 19:40:31  5-MIN KMKG 140040Z 23017G24KT 8SM OVC015 10/07 A2984 700 80 300 230/17G24 RMK AO2 PK WND 23026/0025
14840KMKG MKG20101113194511911/13/10 19:45:31  5-MIN KMKG 140045Z 21015G24KT 10SM OVC017 10/07 A2984 700 80 300 220/15G24 RMK AO2 PK WND 23026/0025
14840KMKG MKG20101113195014311/13/10 19:50:31  5-MIN KMKG 140050Z 23013G21KT 10SM BKN015 OVC020 10/07 A2985 700 80 300 240/13G21 RMK AO2 PK WND 23026/0025 SLP109 T01000067
14840KMKG MKG20101113195513611/13/10 19:55:31  5-MIN KMKG 140055Z 23016G21KT 10SM OVC015 09/07 A2985 700 83 200 230/16G21 RMK AO2 PK WND 23026/0025 SLP110 T00940067
14840KMKG MKG20101113200010111/13/10 20:00:31  5-MIN KMKG 140100Z 23015G21KT 10SM OVC015 09/07 A2985 700 83 200 230/15G21 RMK AO2
14840KMKG MKG20101113200510111/13/10 20:05:31  5-MIN KMKG 140105Z 22014G20KT 10SM OVC015 09/06 A2985 700 79 200 220/14G20 RMK AO2
14840KMKG MKG20101113201010211/13/10 20:10:31  5-MIN KMKG 140110Z 23014KT 10SM BKN015 OVC021 09/06 A2985 690 79 200 230/14 RMK AO2
14840KMKG MKG20101113201509511/13/10 20:15:31  5-MIN KMKG 140115Z 22014KT 10SM OVC015 09/06 A2985 690 79 200 220/14 RMK AO2
14840KMKG MKG20101113202010811/13/10 20:20:31  5-MIN KMKG 140120Z 22012G19KT 10SM BKN015 OVC021 09/06 A2985 690 79 200 220/12G19 RMK AO2
14840KMKG MKG20101113202510811/13/10 20:25:31  5-MIN KMKG 140125Z 22018G22KT 10SM BKN015 OVC021 09/06 A2985 690 76 200 230/18G22 RMK AO2
14840KMKG MKG20101113203010811/13/10 20:30:31  5-MIN KMKG 140130Z 23015G22KT 10SM BKN015 OVC021 09/06 A2986 690 79 200 230/15G22 RMK AO2
14840KMKG MKG20101113203510111/13/10 20:35:31  5-MIN KMKG 140135Z 22012G19KT 10SM OVC019 09/06 A2986 690 79 200 230/12G19 RMK AO2
14840KMKG MKG20101113204009511/13/10 20:40:31  5-MIN KMKG 140140Z 22016KT 10SM OVC019 09/06 A2986 690 79 200 220/16 RMK AO2
14840KMKG MKG20101113204509511/13/10 20:45:31  5-MIN KMKG 140145Z 23013KT 10SM OVC019 09/06 A2986 690 79 200 240/13 RMK AO2
14840KMKG MKG20101113205011811/13/10 20:50:31  5-MIN KMKG 140150Z 23011G18KT 10SM OVC019 09/06 A2986 690 79 200 230/11G18 RMK AO2 SLP114 T00890056
14840KMKG MKG20101113205512511/13/10 20:55:31  5-MIN KMKG 140155Z 22015G21KT 10SM BKN019 OVC023 09/06 A2986 690 79 200 220/15G21 RMK AO2 SLP113 T00890056
14840KMKG MKG20101113210010811/13/10 21:00:31  5-MIN KMKG 140200Z 22014G21KT 10SM SCT016 OVC022 09/05 A2986 690 76 200 230/14G21 RMK AO2
14840KMKG MKG20101113210511511/13/10 21:05:31  5-MIN KMKG 140205Z 21014G20KT 10SM FEW016 BKN022 OVC027 09/05 A2986 690 76 200 220/14G20 RMK AO2
14840KMKG MKG20101113211009511/13/10 21:10:31  5-MIN KMKG 140210Z 21015KT 10SM OVC022 09/05 A2986 690 76 200 210/15 RMK AO2
14840KMKG MKG20101113211510111/13/10 21:15:31  5-MIN KMKG 140215Z 21017G25KT 10SM OVC022 09/04 A2986 690 73 200 220/17G25 RMK AO2
14840KMKG MKG20101113212010111/13/10 21:20:31  5-MIN KMKG 140220Z 21019G25KT 10SM OVC022 09/04 A2986 690 73 200 210/19G25 RMK AO2
14840KMKG MKG20101113212510111/13/10 21:25:31  5-MIN KMKG 140225Z 21016G25KT 10SM OVC022 09/04 A2986 690 71 200 220/16G25 RMK AO2
14840KMKG MKG20101113213010811/13/10 21:30:31  5-MIN KMKG 140230Z 21017G23KT 10SM BKN024 OVC029 09/04 A2986 690 71 200 210/17G23 RMK AO2
14840KMKG MKG20101113213510111/13/10 21:35:31  5-MIN KMKG 140235Z 21015G23KT 10SM OVC024 09/03 A2985 690 68 200 210/15G23 RMK AO2
14840KMKG MKG20101113214010811/13/10 21:40:31  5-MIN KMKG 140240Z 21015G22KT 10SM BKN026 OVC030 09/03 A2985 690 68 200 210/15G22 RMK AO2
14840KMKG MKG20101113214510811/13/10 21:45:31  5-MIN KMKG 140245Z 22012G22KT 10SM BKN024 OVC030 09/04 A2986 690 71 200 220/12G22 RMK AO2
14840KMKG MKG20101113215013111/13/10 21:50:31  5-MIN KMKG 140250Z 22012G19KT 10SM BKN022 OVC030 08/04 A2986 690 76 100 220/12G19 RMK AO2 SLP112 T00830044 58003
14840KMKG MKG20101113215513111/13/10 21:55:31  5-MIN KMKG 140255Z 21016G20KT 10SM BKN022 OVC030 08/04 A2985 690 73 100 220/16G20 RMK AO2 SLP112 T00830039 50006
14840KMKG MKG20101113220009511/13/10 22:00:31  5-MIN KMKG 140300Z 20014KT 10SM OVC024 08/03 A2986 690 70 100 210/14 RMK AO2
14840KMKG MKG20101113220510111/13/10 22:05:31  5-MIN KMKG 140305Z 21016G22KT 10SM OVC024 08/03 A2985 690 70 100 220/16G22 RMK AO2
14840KMKG MKG20101113221010111/13/10 22:10:31  5-MIN KMKG 140310Z 22015G22KT 10SM OVC024 08/03 A2985 690 70 100 220/15G22 RMK AO2
14840KMKG MKG20101113221510111/13/10 22:15:31  5-MIN KMKG 140315Z 22016G23KT 10SM OVC024 08/04 A2985 690 73 100 230/16G23 RMK AO2
14840KMKG MKG20101113222010111/13/10 22:20:31  5-MIN KMKG 140320Z 21013G23KT 10SM OVC021 08/04 A2985 690 73 100 220/13G23 RMK AO2
14840KMKG MKG20101113222510111/13/10 22:25:31  5-MIN KMKG 140325Z 21016G21KT 10SM OVC021 08/03 A2985 690 70 100 220/16G21 RMK AO2
14840KMKG MKG20101113223010111/13/10 22:30:31  5-MIN KMKG 140330Z 22017G24KT 10SM OVC021 08/04 A2985 690 73 100 230/17G24 RMK AO2
14840KMKG MKG20101113223509911/13/10 22:35:31  5-MIN KMKG 140335Z 21016G24KT 10SM OVC021 08/03 A2985 690 73 0 210/16G24 RMK AO2
14840KMKG MKG20101113224009911/13/10 22:40:31  5-MIN KMKG 140340Z 22019G24KT 10SM OVC021 08/03 A2985 690 70 0 220/19G24 RMK AO2
14840KMKG MKG20101113224509911/13/10 22:45:31  5-MIN KMKG 140345Z 22018G24KT 10SM OVC021 08/03 A2985 690 70 0 230/18G24 RMK AO2
14840KMKG MKG20101113225013411/13/10 22:50:31  5-MIN KMKG 140350Z 22014G27KT 10SM OVC023 08/03 A2985 700 70 0 220/14G27 RMK AO2 PK WND 22027/0346 SLP110 T00780028
14840KMKG MKG20101113225513411/13/10 22:55:31  5-MIN KMKG 140355Z 21015G27KT 10SM OVC023 08/03 A2985 700 70 0 210/15G27 RMK AO2 PK WND 22027/0346 SLP110 T00780028
14840KMKG MKG20101113230009311/13/10 23:00:31  5-MIN KMKG 140400Z 21014KT 10SM OVC023 08/03 A2985 700 70 0 220/14 RMK AO2
14840KMKG MKG20101113230509911/13/10 23:05:31  5-MIN KMKG 140405Z 22015G24KT 10SM OVC025 08/03 A2985 700 70 0 220/15G24 RMK AO2
14840KMKG MKG20101113231009911/13/10 23:10:31  5-MIN KMKG 140410Z 22011G24KT 10SM OVC025 08/03 A2985 700 70 0 230/11G24 RMK AO2
14840KMKG MKG20101113231511711/13/10 23:15:31  5-MIN KMKG 140415Z 22017G26KT 10SM OVC025 08/03 A2984 700 70 0 220/17G26 RMK AO2 PK WND 22026/0414
14840KMKG MKG20101113232011711/13/10 23:20:31  5-MIN KMKG 140420Z 21013G26KT 10SM OVC025 08/03 A2984 700 70 0 210/13G26 RMK AO2 PK WND 22026/0414
14840KMKG MKG20101113232511711/13/10 23:25:31  5-MIN KMKG 140425Z 22014G22KT 10SM OVC025 08/03 A2984 700 70 0 220/14G22 RMK AO2 PK WND 22026/0414
14840KMKG MKG20101113233012411/13/10 23:30:31  5-MIN KMKG 140430Z 21015G21KT 10SM BKN025 OVC031 08/02 A2984 710 68 0 220/15G21 RMK AO2 PK WND 22026/0414
14840KMKG MKG20101113233512411/13/10 23:35:31  5-MIN KMKG 140435Z 20018G25KT 10SM BKN025 OVC031 08/02 A2984 700 68 0 210/18G25 RMK AO2 PK WND 22026/0414
14840KMKG MKG20101113234012411/13/10 23:40:31  5-MIN KMKG 140440Z 22014G25KT 10SM BKN025 OVC031 08/03 A2984 700 70 0 220/14G25 RMK AO2 PK WND 22026/0414
14840KMKG MKG20101113234511811/13/10 23:45:31  5-MIN KMKG 140445Z 22013KT 10SM BKN025 OVC031 08/03 A2984 700 70 0 230/13 RMK AO2 PK WND 22026/0414
14840KMKG MKG20101113235015111/13/10 23:50:31  5-MIN KMKG 140450Z 23016G22KT 10SM BKN023 OVC031 07/03 A2984 700 73 0 230/16G22 RMK AO2 PK WND 22026/0414 SLP108 T00720028 401440072
14840KMKG MKG20101113235515111/13/10 23:55:31  5-MIN KMKG 140455Z 21017G23KT 10SM BKN023 OVC031 08/03 A2984 700 70 0 220/17G23 RMK AO2 PK WND 22026/0414 SLP108 T00780028 401440072
14840KMKG MKG20101114000010611/14/10 00:00:32  5-MIN KMKG 140500Z 23014G23KT 10SM BKN023 OVC029 07/03 A2984 700 73 0 230/14G23 RMK AO2
14840KMKG MKG20101114000509911/14/10 00:05:31  5-MIN KMKG 140505Z 23016G22KT 10SM OVC023 07/03 A2984 700 73 0 240/16G22 RMK AO2
14840KMKG MKG20101114001011711/14/10 00:10:31  5-MIN KMKG 140510Z 20017G26KT 10SM OVC023 07/03 A2984 700 73 0 200/17G26 RMK AO2 PK WND 20026/0510
14840KMKG MKG20101114001511711/14/10 00:15:31  5-MIN KMKG 140515Z 21017G26KT 10SM OVC023 07/02 A2984 700 70 0 220/17G26 RMK AO2 PK WND 20026/0510
14840KMKG MKG20101114002011711/14/10 00:20:31  5-MIN KMKG 140520Z 21017G24KT 10SM OVC023 07/02 A2984 700 70 0 220/17G24 RMK AO2 PK WND 20026/0510
14840KMKG MKG20101114002511711/14/10 00:25:31  5-MIN KMKG 140525Z 21016G23KT 10SM OVC025 07/02 A2984 710 70 0 210/16G23 RMK AO2 PK WND 20026/0510
14840KMKG MKG20101114003011711/14/10 00:30:31  5-MIN KMKG 140530Z 22017G23KT 10SM OVC025 07/02 A2984 710 68 0 220/17G23 RMK AO2 PK WND 20026/0510
14840KMKG MKG20101114003511711/14/10 00:35:31  5-MIN KMKG 140535Z 21015G25KT 10SM OVC025 07/02 A2984 710 70 0 210/15G25 RMK AO2 PK WND 20026/0510
14840KMKG MKG20101114004011711/14/10 00:40:31  5-MIN KMKG 140540Z 22012G25KT 10SM OVC025 07/02 A2984 710 70 0 220/12G25 RMK AO2 PK WND 20026/0510
14840KMKG MKG20101114004511711/14/10 00:45:31  5-MIN KMKG 140545Z 22017G25KT 10SM OVC023 07/02 A2984 710 70 0 230/17G25 RMK AO2 PK WND 20026/0510
14840KMKG MKG20101114005015211/14/10 00:50:31  5-MIN KMKG 140550Z 22018G25KT 10SM OVC023 07/02 A2984 710 70 0 220/18G25 RMK AO2 PK WND 20026/0510 SLP106 T00720022 10117 20072 50006
14840KMKG MKG20101114005515211/14/10 00:55:31  5-MIN KMKG 140555Z 21016G23KT 10SM OVC023 07/02 A2983 710 70 0 220/16G23 RMK AO2 PK WND 20026/0510 SLP105 T00720022 10117 20072 58006
14840KMKG MKG20101114010009911/14/10 01:00:31  5-MIN KMKG 140600Z 20016G23KT 10SM OVC023 07/02 A2983 710 70 0 210/16G23 RMK AO2
14840KMKG MKG20101114010509911/14/10 01:05:31  5-MIN KMKG 140605Z 21015G22KT 10SM OVC023 07/02 A2983 710 70 0 220/15G22 RMK AO2
14840KMKG MKG20101114011009911/14/10 01:10:31  5-MIN KMKG 140610Z 22018G24KT 10SM OVC023 07/02 A2983 710 70 0 230/18G24 RMK AO2
14840KMKG MKG20101114011509911/14/10 01:15:31  5-MIN KMKG 140615Z 22017G24KT 10SM OVC023 07/02 A2983 710 73 0 220/17G24 RMK AO2
14840KMKG MKG20101114012009911/14/10 01:20:31  5-MIN KMKG 140620Z 22016G23KT 10SM OVC021 07/02 A2983 720 70 0 230/16G23 RMK AO2
14840KMKG MKG20101114012509911/14/10 01:25:31  5-MIN KMKG 140625Z 22014G22KT 10SM OVC021 07/02 A2983 720 70 0 230/14G22 RMK AO2
14840KMKG MKG20101114013009911/14/10 01:30:31  5-MIN KMKG 140630Z 22015G21KT 10SM OVC021 07/02 A2983 720 70 0 220/15G21 RMK AO2
14840KMKG MKG20101114013509911/14/10 01:35:31  5-MIN KMKG 140635Z 22017G24KT 10SM OVC023 07/02 A2982 720 70 0 220/17G24 RMK AO2
14840KMKG MKG20101114014009911/14/10 01:40:31  5-MIN KMKG 140640Z 21015G24KT 10SM OVC023 07/02 A2982 720 70 0 220/15G24 RMK AO2
14840KMKG MKG20101114014511711/14/10 01:45:31  5-MIN KMKG 140645Z 22020G27KT 10SM OVC023 07/02 A2982 720 70 0 220/20G27 RMK AO2 PK WND 22027/0645
14840KMKG MKG20101114015013411/14/10 01:50:31  5-MIN KMKG 140650Z 22015G27KT 10SM OVC023 07/02 A2982 720 70 0 220/15G27 RMK AO2 PK WND 22027/0645 SLP101 T00670017
14840KMKG MKG20101114015513411/14/10 01:55:31  5-MIN KMKG 140655Z 22019G25KT 10SM OVC023 07/02 A2982 720 70 0 220/19G25 RMK AO2 PK WND 22027/0645 SLP101 T00670017
14840KMKG MKG20101114020009911/14/10 02:00:31  5-MIN KMKG 140700Z 22016G25KT 10SM OVC023 07/02 A2982 720 70 0 220/16G25 RMK AO2
14840KMKG MKG20101114020512411/14/10 02:05:31  5-MIN KMKG 140705Z 22021G27KT 10SM BKN023 OVC030 07/01 A2982 730 67 0 220/21G27 RMK AO2 PK WND 21027/0702
14840KMKG MKG20101114021012411/14/10 02:10:31  5-MIN KMKG 140710Z 22023G30KT 10SM BKN023 OVC030 07/01 A2982 720 65 0 220/23G30 RMK AO2 PK WND 21030/0709
14840KMKG MKG20101114021512411/14/10 02:15:31  5-MIN KMKG 140715Z 22018G30KT 10SM BKN025 OVC030 07/01 A2982 730 65 0 220/18G30 RMK AO2 PK WND 21030/0709
14840KMKG MKG20101114022011711/14/10 02:20:31  5-MIN KMKG 140720Z 23019G27KT 10SM OVC025 07/01 A2982 730 67 0 230/19G27 RMK AO2 PK WND 21030/0709
14840KMKG MKG20101114022511711/14/10 02:25:31  5-MIN KMKG 140725Z 21017G24KT 10SM OVC027 07/01 A2982 730 65 0 210/17G24 RMK AO2 PK WND 21030/0709
14840KMKG MKG20101114023011711/14/10 02:30:31  5-MIN KMKG 140730Z 22020G28KT 10SM OVC027 07/01 A2982 730 67 0 220/20G28 RMK AO2 PK WND 21030/0709
14840KMKG MKG20101114023511711/14/10 02:35:31  5-MIN KMKG 140735Z 23019G30KT 10SM OVC027 07/01 A2982 720 67 0 230/19G30 RMK AO2 PK WND 21030/0731
14840KMKG MKG20101114024011711/14/10 02:40:31  5-MIN KMKG 140740Z 21020G30KT 10SM OVC027 07/01 A2982 720 67 0 210/20G30 RMK AO2 PK WND 21030/0731
14840KMKG MKG20101114024511711/14/10 02:45:31  5-MIN KMKG 140745Z 21020G25KT 10SM OVC027 07/01 A2982 720 67 0 210/20G25 RMK AO2 PK WND 21030/0731
14840KMKG MKG20101114025013411/14/10 02:50:31  5-MIN KMKG 140750Z 22019G25KT 10SM OVC027 07/01 A2982 730 67 0 220/19G25 RMK AO2 PK WND 21030/0731 SLP099 T00670011
14840KMKG MKG20101114025513411/14/10 02:55:31  5-MIN KMKG 140755Z 21018G23KT 10SM OVC025 07/01 A2981 730 67 0 210/18G23 RMK AO2 PK WND 21030/0731 SLP097 T00670011
14840KMKG MKG20101114030009911/14/10 03:00:31  5-MIN KMKG 140800Z 22016G23KT 10SM OVC025 07/01 A2981 730 67 0 230/16G23 RMK AO2
14840KMKG MKG20101114030511711/14/10 03:05:31  5-MIN KMKG 140805Z 21019G30KT 10SM OVC025 07/01 A2981 730 67 0 220/19G30 RMK AO2 PK WND 23030/0802
14840KMKG MKG20101114031011711/14/10 03:10:31  5-MIN KMKG 140810Z 22017G30KT 10SM OVC025 07/01 A2981 730 67 0 220/17G30 RMK AO2 PK WND 23030/0802
14840KMKG MKG20101114031511711/14/10 03:15:31  5-MIN KMKG 140815Z 21018G27KT 10SM OVC025 07/01 A2981 730 67 0 210/18G27 RMK AO2 PK WND 23030/0802
14840KMKG MKG20101114032012011/14/10 03:20:31  5-MIN KMKG 140820Z 22019G29KT 10SM OVC023 06/01 A2981 730 70 -100 220/19G29 RMK AO2 PK WND 23030/0802
14840KMKG MKG20101114032512011/14/10 03:25:31  5-MIN KMKG 140825Z 21020G29KT 10SM OVC023 06/01 A2981 730 67 -100 220/20G29 RMK AO2 PK WND 23030/0802
14840KMKG MKG20101114033012011/14/10 03:30:31  5-MIN KMKG 140830Z 21018G28KT 10SM OVC025 06/01 A2981 730 67 -100 220/18G28 RMK AO2 PK WND 23030/0802
14840KMKG MKG20101114033512011/14/10 03:35:31  5-MIN KMKG 140835Z 21017G26KT 10SM OVC025 06/01 A2981 730 67 -100 210/17G26 RMK AO2 PK WND 23030/0802
14840KMKG MKG20101114034012011/14/10 03:40:31  5-MIN KMKG 140840Z 23017G26KT 10SM OVC023 06/01 A2981 740 70 -100 230/17G26 RMK AO2 PK WND 23030/0802
14840KMKG MKG20101114034512011/14/10 03:45:31  5-MIN KMKG 140845Z 22016G23KT 10SM OVC023 06/01 A2981 740 70 -100 220/16G23 RMK AO2 PK WND 23030/0802
14840KMKG MKG20101114035014311/14/10 03:50:31  5-MIN KMKG 140850Z 22021G27KT 10SM OVC023 06/01 A2981 740 70 -100 220/21G27 RMK AO2 PK WND 23030/0802 SLP095 T00610011 58006
14840KMKG MKG20101114035514311/14/10 03:55:31  5-MIN KMKG 140855Z 22020G27KT 10SM OVC023 06/01 A2980 740 67 -100 220/20G27 RMK AO2 PK WND 23030/0802 SLP094 T00610006 56011
14840KMKG MKG20101114040012011/14/10 04:00:31  5-MIN KMKG 140900Z 22019G27KT 10SM OVC025 06/00 A2980 740 65 -100 220/19G27 RMK AO2 PK WND 22027/0856
14840KMKG MKG20101114040512011/14/10 04:05:31  5-MIN KMKG 140905Z 22015G27KT 10SM OVC025 06/00 A2980 740 65 -100 220/15G27 RMK AO2 PK WND 22027/0856
14840KMKG MKG20101114041012011/14/10 04:10:31  5-MIN KMKG 140910Z 23018G24KT 10SM OVC025 06/01 A2980 740 67 -100 230/18G24 RMK AO2 PK WND 22027/0856
14840KMKG MKG20101114041512011/14/10 04:15:31  5-MIN KMKG 140915Z 22015G25KT 10SM OVC025 06/01 A2980 740 67 -100 220/15G25 RMK AO2 PK WND 22027/0856
14840KMKG MKG20101114042012711/14/10 04:20:31  5-MIN KMKG 140920Z 23020G29KT 10SM BKN023 OVC028 06/01 A2980 740 70 -100 230/20G29 RMK AO2 PK WND 23029/0919
14840KMKG MKG20101114042512711/14/10 04:25:31  5-MIN KMKG 140925Z 21017G29KT 10SM BKN023 OVC028 06/01 A2979 750 67 -100 220/17G29 RMK AO2 PK WND 23029/0919
14840KMKG MKG20101114043012011/14/10 04:30:31  5-MIN KMKG 140930Z 22016G26KT 10SM OVC023 06/01 A2980 740 67 -100 230/16G26 RMK AO2 PK WND 23029/0919
14840KMKG MKG20101114043512011/14/10 04:35:31  5-MIN KMKG 140935Z 20018G28KT 10SM OVC023 06/01 A2980 740 67 -100 210/18G28 RMK AO2 PK WND 23029/0919
14840KMKG MKG20101114044012011/14/10 04:40:31  5-MIN KMKG 140940Z 22018G28KT 10SM OVC025 06/01 A2980 740 67 -100 230/18G28 RMK AO2 PK WND 23029/0919
14840KMKG MKG20101114044512011/14/10 04:45:31  5-MIN KMKG 140945Z 21020G25KT 10SM OVC025 06/01 A2979 750 67 -100 220/20G25 RMK AO2 PK WND 23029/0919
14840KMKG MKG20101114045013711/14/10 04:50:31  5-MIN KMKG 140950Z 20023G27KT 10SM OVC025 06/00 A2980 750 65 -100 210/23G27 RMK AO2 PK WND 23029/0919 SLP092 T00610000
14840KMKG MKG20101114045513711/14/10 04:55:31  5-MIN KMKG 140955Z 21017G28KT 10SM OVC025 06/01 A2980 740 67 -100 210/17G28 RMK AO2 PK WND 23029/0919 SLP092 T00610006
14840KMKG MKG20101114050010211/14/10 05:00:31  5-MIN KMKG 141000Z 21016G28KT 10SM OVC025 06/00 A2980 750 65 -100 210/16G28 RMK AO2
14840KMKG MKG20101114050510211/14/10 05:05:31  5-MIN KMKG 141005Z 21016G24KT 10SM OVC025 06/01 A2979 750 67 -100 220/16G24 RMK AO2
14840KMKG MKG20101114051012011/14/10 05:10:31  5-MIN KMKG 141010Z 21022G29KT 10SM OVC025 06/01 A2979 750 67 -100 220/22G29 RMK AO2 PK WND 22029/1006
14840KMKG MKG20101114051512011/14/10 05:15:31  5-MIN KMKG 141015Z 21018G29KT 10SM OVC025 06/00 A2979 750 65 -100 210/18G29 RMK AO2 PK WND 22029/1006
14840KMKG MKG20101114052012011/14/10 05:20:31  5-MIN KMKG 141020Z 21019G26KT 10SM OVC025 06/00 A2979 750 65 -100 220/19G26 RMK AO2 PK WND 22029/1006
14840KMKG MKG20101114052512011/14/10 05:25:31  5-MIN KMKG 141025Z 21019G26KT 10SM OVC025 06/01 A2979 750 67 -100 210/19G26 RMK AO2 PK WND 22029/1006
14840KMKG MKG20101114053013311/14/10 05:30:31  5-MIN KMKG 141030Z 22019G25KT 10SM -RA OVC027 06/00 A2979 750 65 0 220/19G25 RMK AO2 PK WND 22029/1006 RAB30 P0000
14840KMKG MKG20101114053513311/14/10 05:35:31  5-MIN KMKG 141035Z 21019G25KT 10SM -RA OVC027 06/01 A2979 750 67 0 220/19G25 RMK AO2 PK WND 22029/1006 RAB30 P0000
14840KMKG MKG20101114054013211/14/10 05:40:31  5-MIN KMKG 141040Z 21018G24KT 10SM OVC027 06/00 A2979 760 65 0 210/18G24 RMK AO2 PK WND 22029/1006 RAB30E39 P0000
14840KMKG MKG20101114054513211/14/10 05:45:31  5-MIN KMKG 141045Z 22019G24KT 10SM OVC027 06/00 A2979 750 65 0 220/19G24 RMK AO2 PK WND 22029/1006 RAB30E39 P0000
14840KMKG MKG20101114055014911/14/10 05:50:31  5-MIN KMKG 141050Z 20016G24KT 10SM OVC027 06/01 A2978 760 67 0 210/16G24 RMK AO2 PK WND 22029/1006 RAB30E39 SLP088 P0000 T00610006
14840KMKG MKG20101114055514911/14/10 05:55:31  5-MIN KMKG 141055Z 22013G22KT 10SM OVC027 06/00 A2978 760 65 0 220/13G22 RMK AO2 PK WND 22029/1006 RAB30E39 SLP088 P0000 T00610000
14840KMKG MKG20101114060009911/14/10 06:00:31  5-MIN KMKG 141100Z 21018G23KT 10SM OVC027 06/00 A2978 760 65 0 220/18G23 RMK AO2
14840KMKG MKG20101114060511711/14/10 06:05:31  5-MIN KMKG 141105Z 21018G27KT 10SM OVC027 06/00 A2978 760 65 0 220/18G27 RMK AO2 PK WND 22027/1104
14840KMKG MKG20101114061011711/14/10 06:10:31  5-MIN KMKG 141110Z 21014G27KT 10SM OVC027 07/00 A2978 760 62 0 210/14G27 RMK AO2 PK WND 22027/1104
14840KMKG MKG20101114061511711/14/10 06:15:31  5-MIN KMKG 141115Z 21019G25KT 10SM OVC027 07/00 A2978 760 62 0 220/19G25 RMK AO2 PK WND 22027/1104
14840KMKG MKG20101114062011711/14/10 06:20:31  5-MIN KMKG 141120Z 21013G25KT 10SM OVC027 07/01 A2978 760 65 0 220/13G25 RMK AO2 PK WND 22027/1104
14840KMKG MKG20101114062511711/14/10 06:25:31  5-MIN KMKG 141125Z 21018G23KT 10SM OVC027 07/01 A2978 760 65 0 210/18G23 RMK AO2 PK WND 22027/1104
14840KMKG MKG20101114063011711/14/10 06:30:31  5-MIN KMKG 141130Z 22018G31KT 10SM OVC027 07/00 A2979 750 62 0 220/18G31 RMK AO2 PK WND 21031/1128
14840KMKG MKG20101114063511711/14/10 06:35:31  5-MIN KMKG 141135Z 22017G31KT 10SM OVC027 07/01 A2979 750 65 0 220/17G31 RMK AO2 PK WND 21031/1128
14840KMKG MKG20101114064011711/14/10 06:40:31  5-MIN KMKG 141140Z 22019G25KT 10SM OVC027 07/01 A2979 750 65 0 220/19G25 RMK AO2 PK WND 21031/1128
14840KMKG MKG20101114064511711/14/10 06:45:31  5-MIN KMKG 141145Z 22020G28KT 10SM OVC027 07/00 A2979 750 62 0 230/20G28 RMK AO2 PK WND 21031/1128
14840KMKG MKG20101114065016411/14/10 06:50:31  5-MIN KMKG 141150Z 22020G28KT 10SM OVC027 07/00 A2979 750 62 0 230/20G28 RMK AO2 PK WND 21031/1128 SLP089 60000 70004 T00670000 10072 20061 56011
14840KMKG MKG20101114065516411/14/10 06:55:31  5-MIN KMKG 141155Z 22017G27KT 10SM OVC029 07/00 A2978 760 62 0 220/17G27 RMK AO2 PK WND 21031/1128 SLP088 60000 70004 T00670000 10072 20061 55006
14840KMKG MKG20101114070009911/14/10 07:00:31  5-MIN KMKG 141200Z 21016G23KT 10SM OVC029 07/00 A2979 760 62 0 220/16G23 RMK AO2
14840KMKG MKG20101114070509911/14/10 07:05:31  5-MIN KMKG 141205Z 22019G25KT 10SM OVC029 07/00 A2979 760 62 0 220/19G25 RMK AO2
14840KMKG MKG20101114071009911/14/10 07:10:31  5-MIN KMKG 141210Z 22018G25KT 10SM OVC029 07/00 A2979 750 62 0 220/18G25 RMK AO2
14840KMKG MKG20101114071509911/14/10 07:15:31  5-MIN KMKG 141215Z 22017G25KT 10SM OVC029 07/00 A2979 750 62 0 220/17G25 RMK AO2
14840KMKG MKG20101114072011711/14/10 07:20:31  5-MIN KMKG 141220Z 22018G28KT 10SM OVC029 07/00 A2979 750 62 0 230/18G28 RMK AO2 PK WND 23028/1217
14840KMKG MKG20101114072511711/14/10 07:25:31  5-MIN KMKG 141225Z 23021G32KT 10SM OVC029 07/01 A2979 750 65 0 230/21G32 RMK AO2 PK WND 22032/1224
14840KMKG MKG20101114073012011/14/10 07:30:31  5-MIN KMKG 141230Z 22022G32KT 10SM OVC029 06/01 A2979 750 67 -100 230/22G32 RMK AO2 PK WND 22032/1224
14840KMKG MKG20101114073512011/14/10 07:35:31  5-MIN KMKG 141235Z 22022G30KT 10SM OVC027 06/01 A2979 750 67 -100 230/22G30 RMK AO2 PK WND 22032/1224
14840KMKG MKG20101114074012011/14/10 07:40:31  5-MIN KMKG 141240Z 21017G30KT 10SM OVC025 06/01 A2979 750 67 -100 220/17G30 RMK AO2 PK WND 22032/1224
14840KMKG MKG20101114074512011/14/10 07:45:31  5-MIN KMKG 141245Z 21023G29KT 10SM OVC025 06/01 A2980 750 67 -100 220/23G29 RMK AO2 PK WND 22032/1224
14840KMKG MKG20101114075013711/14/10 07:50:31  5-MIN KMKG 141250Z 23018G29KT 10SM OVC027 06/01 A2980 750 67 -100 230/18G29 RMK AO2 PK WND 22032/1224 SLP093 T00610006
14840KMKG MKG20101114075513711/14/10 07:55:31  5-MIN KMKG 141255Z 22023G28KT 10SM OVC027 06/01 A2979 750 67 -100 230/23G28 RMK AO2 PK WND 22032/1224 SLP092 T00610006
14840KMKG MKG20101114080012011/14/10 08:00:31  5-MIN KMKG 141300Z 22021G28KT 10SM OVC027 06/01 A2979 750 67 -100 230/21G28 RMK AO2 PK WND 23028/1259
14840KMKG MKG20101114080512711/14/10 08:05:31  5-MIN KMKG 141305Z 22020G28KT 10SM BKN027 OVC034 06/01 A2979 750 67 -100 230/20G28 RMK AO2 PK WND 23028/1259
14840KMKG MKG20101114081012711/14/10 08:10:31  5-MIN KMKG 141310Z 23023G30KT 10SM FEW023 OVC030 06/01 A2980 750 67 -100 230/23G30 RMK AO2 PK WND 21030/1308
14840KMKG MKG20101114081513411/14/10 08:15:31  5-MIN KMKG 141315Z 22021G30KT 10SM SCT023 BKN030 OVC036 06/01 A2979 750 67 -100 230/21G30 RMK AO2 PK WND 21030/1308
14840KMKG MKG20101114082012711/14/10 08:20:31  5-MIN KMKG 141320Z 23020G27KT 10SM SCT025 OVC034 06/01 A2980 740 67 -100 230/20G27 RMK AO2 PK WND 21030/1308
14840KMKG MKG20101114085514411/14/10 08:55:31  5-MIN KMKG 141355Z 23019G31KT 10SM BKN027 OVC033 06/00 A2981 740 67 -100 240/19G31 RMK AO2 PK WND 23031/1350 SLP096 T00560000
14840KMKG MKG20101114090010911/14/10 09:00:31  5-MIN KMKG 141400Z 23019G29KT 10SM BKN025 OVC031 06/01 A2981 740 67 -100 230/19G29 RMK AO2
14840KMKG MKG20101114090510911/14/10 09:05:31  5-MIN KMKG 141405Z 23018G25KT 10SM BKN025 OVC031 06/01 A2980 740 70 -100 230/18G25 RMK AO2
14840KMKG MKG20101114091012711/14/10 09:10:31  5-MIN KMKG 141410Z 23019G26KT 10SM BKN025 OVC031 06/00 A2980 740 67 -100 230/19G26 RMK AO2 PK WND 24026/1406
14840KMKG MKG20101114091512711/14/10 09:15:31  5-MIN KMKG 141415Z 22019G27KT 10SM BKN025 OVC031 06/01 A2981 740 70 -100 220/19G27 RMK AO2 PK WND 21027/1414
14840KMKG MKG20101114092012711/14/10 09:20:31  5-MIN KMKG 141420Z 22016G27KT 10SM BKN023 OVC029 06/01 A2981 740 70 -100 220/16G27 RMK AO2 PK WND 21027/1414
14840KMKG MKG20101114092512711/14/10 09:25:31  5-MIN KMKG 141425Z 23021G27KT 10SM BKN025 OVC032 06/00 A2981 730 67 -100 240/21G27 RMK AO2 PK WND 23027/1424
14840KMKG MKG20101114093012711/14/10 09:30:31  5-MIN KMKG 141430Z 23019G27KT 10SM BKN025 OVC030 06/00 A2981 730 67 -100 240/19G27 RMK AO2 PK WND 23027/1424
14840KMKG MKG20101114093512711/14/10 09:35:31  5-MIN KMKG 141435Z 22020G28KT 10SM BKN023 OVC030 06/00 A2981 740 67 -100 220/20G28 RMK AO2 PK WND 24028/1431
14840KMKG MKG20101114094012711/14/10 09:40:31  5-MIN KMKG 141440Z 22021G29KT 10SM SCT023 OVC030 06/00 A2981 730 67 -100 230/21G29 RMK AO2 PK WND 23029/1438
14840KMKG MKG20101114094512711/14/10 09:45:31  5-MIN KMKG 141445Z 23018G29KT 10SM BKN023 OVC030 06/00 A2981 740 67 -100 230/18G29 RMK AO2 PK WND 23029/1438
14840KMKG MKG20101114095015211/14/10 09:50:31  5-MIN KMKG 141450Z 22018G25KT 10SM BKN023 OVC030 06/00 A2981 730 67 -100 220/18G25 RMK AO2 PK WND 23029/1438 SLP098 T00560000 51008 $
14840KMKG MKG20101114095515211/14/10 09:55:31  5-MIN KMKG 141455Z 23018G25KT 10SM BKN023 OVC030 06/00 A2981 730 67 -100 230/18G25 RMK AO2 PK WND 23029/1438 SLP098 T00560000 51006 $
14840KMKG MKG20101114100012911/14/10 10:00:31  5-MIN KMKG 141500Z 24020G28KT 10SM BKN025 OVC030 06/00 A2981 730 67 -100 240/20G28 RMK AO2 PK WND 23028/1459 $
14840KMKG MKG20101114100512211/14/10 10:05:31  5-MIN KMKG 141505Z 24017G28KT 10SM OVC025 06/00 A2981 740 67 -100 250/17G28 RMK AO2 PK WND 23028/1459 $
14840KMKG MKG20101114101012011/14/10 10:10:31  5-MIN KMKG 141510Z 22019G29KT 10SM OVC025 06/00 A2981 730 67 -100 220/19G29 RMK AO2 PK WND 23029/1507
14840KMKG MKG20101114101512011/14/10 10:15:31  5-MIN KMKG 141515Z 23020G29KT 10SM OVC025 06/00 A2981 730 67 -100 240/20G29 RMK AO2 PK WND 23029/1507
14840KMKG MKG20101114102012011/14/10 10:20:31  5-MIN KMKG 141520Z 23019G30KT 10SM OVC025 06/00 A2981 730 67 -100 230/19G30 RMK AO2 PK WND 22030/1520
14840KMKG MKG20101114102512011/14/10 10:25:31  5-MIN KMKG 141525Z 22020G30KT 10SM OVC025 06/00 A2981 740 67 -100 230/20G30 RMK AO2 PK WND 22030/1520
14840KMKG MKG20101114103012011/14/10 10:30:31  5-MIN KMKG 141530Z 23014G29KT 10SM OVC025 06/00 A2981 740 67 -100 240/14G29 RMK AO2 PK WND 22030/1520
14840KMKG MKG20101114103512011/14/10 10:35:31  5-MIN KMKG 141535Z 23017G29KT 10SM OVC025 06/00 A2981 730 67 -100 230/17G29 RMK AO2 PK WND 22030/1520
14840KMKG MKG20101114104012011/14/10 10:40:31  5-MIN KMKG 141540Z 23016G24KT 10SM OVC025 06/00 A2981 730 67 -100 230/16G24 RMK AO2 PK WND 22030/1520
14840KMKG MKG20101114104512011/14/10 10:45:31  5-MIN KMKG 141545Z 22019G24KT 10SM OVC023 06/00 A2981 730 67 -100 230/19G24 RMK AO2 PK WND 22030/1520
14840KMKG MKG20101114105013711/14/10 10:50:31  5-MIN KMKG 141550Z 24017G27KT 10SM OVC023 06/00 A2981 740 67 -100 240/17G27 RMK AO2 PK WND 22030/1520 SLP097 T00560000
14840KMKG MKG20101114105513811/14/10 10:55:31  5-MIN KMKG 141555Z 23017G27KT 10SM OVC025 06/M01 A2981 740 65 -100 230/17G27 RMK AO2 PK WND 22030/1520 SLP096 T00561006
14840KMKG MKG20101114110011011/14/10 11:00:31  5-MIN KMKG 141600Z 24017G24KT 10SM BKN025 OVC032 06/M01 A2981 730 65 -100 240/17G24 RMK AO2
14840KMKG MKG20101114110512811/14/10 11:05:31  5-MIN KMKG 141605Z 23017G26KT 10SM BKN025 OVC032 06/M01 A2981 740 62 -100 230/17G26 RMK AO2 PK WND 23026/1601
14840KMKG MKG20101114111012811/14/10 11:10:31  5-MIN KMKG 141610Z 23017G26KT 10SM BKN025 OVC032 06/M01 A2980 740 65 -100 240/17G26 RMK AO2 PK WND 23026/1601
14840KMKG MKG20101114111512111/14/10 11:15:31  5-MIN KMKG 141615Z 24016G26KT 10SM OVC027 06/M01 A2980 740 65 -100 240/16G26 RMK AO2 PK WND 24026/1611
14840KMKG MKG20101114112012111/14/10 11:20:31  5-MIN KMKG 141620Z 24020G27KT 10SM OVC027 06/M01 A2980 740 65 -100 240/20G27 RMK AO2 PK WND 24027/1620
14840KMKG MKG20101114112512711/14/10 11:25:31  5-MIN KMKG 141625Z 24014G27KT 10SM BKN027 OVC032 06/00 A2980 740 65 -100 240/14G27 RMK AO2 PK WND 24027/1620
14840KMKG MKG20101114113012711/14/10 11:30:31  5-MIN KMKG 141630Z 23016G23KT 10SM BKN027 OVC033 06/00 A2980 740 65 -100 240/16G23 RMK AO2 PK WND 24027/1620
14840KMKG MKG20101114113512811/14/10 11:35:31  5-MIN KMKG 141635Z 24018G28KT 10SM BKN027 OVC033 06/M01 A2980 750 62 -100 240/18G28 RMK AO2 PK WND 22028/1633
14840KMKG MKG20101114114012711/14/10 11:40:31  5-MIN KMKG 141640Z 24015G28KT 10SM BKN027 OVC033 06/00 A2980 740 65 -100 240/15G28 RMK AO2 PK WND 22028/1633
14840KMKG MKG20101114114512811/14/10 11:45:31  5-MIN KMKG 141645Z 24020G27KT 10SM BKN027 OVC033 06/M01 A2980 740 62 -100 240/20G27 RMK AO2 PK WND 22028/1633
14840KMKG MKG20101114115012811/14/10 11:50:31  5-MIN KMKG 141650Z 25015G27KT 10SM SCT027 OVC033 06/M01 A2980 750 62 -100 250/15G27 RMK AO2 PK WND 22028/1633
14840KMKG MKG20101114115514511/14/10 11:55:31  5-MIN KMKG 141655Z 24015G25KT 10SM BKN029 OVC035 06/M01 A2980 750 62 -100 240/15G25 RMK AO2 PK WND 22028/1633 SLP093 T00611006
14840KMKG MKG20101114120012711/14/10 12:00:31  5-MIN KMKG 141700Z 24017G26KT 10SM BKN029 OVC035 06/00 A2980 740 67 -100 240/17G26 RMK AO2 PK WND 26026/1700
14840KMKG MKG20101114120512811/14/10 12:05:31  5-MIN KMKG 141705Z 24014G26KT 10SM BKN029 OVC035 06/M01 A2979 750 65 -100 240/14G26 RMK AO2 PK WND 26026/1700
14840KMKG MKG20101114121012811/14/10 12:10:31  5-MIN KMKG 141710Z 25015G24KT 10SM BKN029 OVC035 06/M01 A2979 750 65 -100 250/15G24 RMK AO2 PK WND 26026/1700
14840KMKG MKG20101114121512111/14/10 12:15:31  5-MIN KMKG 141715Z 24017G24KT 10SM OVC029 06/M01 A2979 750 65 -100 240/17G24 RMK AO2 PK WND 26026/1700
14840KMKG MKG20101114122012111/14/10 12:20:31  5-MIN KMKG 141720Z 24013G24KT 10SM OVC029 06/M01 A2979 750 65 -100 250/13G24 RMK AO2 PK WND 26026/1700
14840KMKG MKG20101114122512711/14/10 12:25:31  5-MIN KMKG 141725Z 24021G27KT 10SM BKN027 OVC036 06/00 A2979 750 67 -100 240/21G27 RMK AO2 PK WND 24027/1725
14840KMKG MKG20101114123013211/14/10 12:30:31  5-MIN KMKG 141730Z 23017G27KT 10SM BKN027 BKN035 OVC042 06/M01 A2979 750 62 0 240/17G27 RMK AO2 PK WND 24027/1725
14840KMKG MKG20101114123512411/14/10 12:35:31  5-MIN KMKG 141735Z 24015G22KT 10SM BKN027 OVC040 06/00 A2978 760 65 0 240/15G22 RMK AO2 PK WND 24027/1725
14840KMKG MKG20101114124014711/14/10 12:40:31  5-MIN KMKG 141740Z 24017G27KT 10SM SCT027 BKN034 OVC042 06/M01 A2979 750 62 0 240/17G27 RMK AO2 PK WND 23027/1737 CIG 026 RWY 14
14840KMKG MKG20101114124514711/14/10 12:45:31  5-MIN KMKG 141745Z 24013G27KT 10SM SCT027 BKN033 OVC040 06/M01 A2979 750 62 0 240/13G27 RMK AO2 PK WND 23027/1737 CIG 028 RWY 14
14840KMKG MKG20101114125013211/14/10 12:50:31  5-MIN KMKG 141750Z 24014G26KT 10SM BKN027 BKN033 OVC042 06/M01 A2979 750 62 0 240/14G26 RMK AO2 PK WND 23027/1737
14840KMKG MKG20101114125516611/14/10 12:55:31  5-MIN KMKG 141755Z 24021G30KT 10SM BKN027 BKN033 OVC042 06/00 A2979 760 65 0 240/21G30 RMK AO2 PK WND 22030/1754 SLP089 T00610000 10067 20056 55007
14840KMKG MKG20101114130010711/14/10 13:00:31  5-MIN KMKG 141800Z 23016G30KT 10SM BKN027 OVC033 06/M01 A2978 760 62 0 240/16G30 RMK AO2
14840KMKG MKG20101114130510911/14/10 13:05:31  5-MIN KMKG 141805Z 25016G25KT 10SM BKN027 OVC031 06/00 A2979 750 67 -100 260/16G25 RMK AO2
14840KMKG MKG20101114131011711/14/10 13:10:31  5-MIN KMKG 141810Z 23021G27KT 10SM OVC027 06/00 A2979 750 65 0 230/21G27 RMK AO2 PK WND 22027/1809
14840KMKG MKG20101114131511711/14/10 13:15:31  5-MIN KMKG 141815Z 23018G27KT 10SM OVC027 06/00 A2979 750 65 0 240/18G27 RMK AO2 PK WND 22027/1809
14840KMKG MKG20101114132011811/14/10 13:20:31  5-MIN KMKG 141820Z 23021G29KT 10SM OVC027 06/M01 A2979 750 62 0 230/21G29 RMK AO2 PK WND 22029/1820
14840KMKG MKG20101114132512011/14/10 13:25:31  5-MIN KMKG 141825Z 24017G29KT 10SM OVC027 06/00 A2979 750 65 -100 240/17G29 RMK AO2 PK WND 22029/1820
14840KMKG MKG20101114133011711/14/10 13:30:31  5-MIN KMKG 141830Z 23021G29KT 10SM OVC027 06/00 A2979 750 65 0 240/21G29 RMK AO2 PK WND 24029/1829
14840KMKG MKG20101114133512011/14/10 13:35:31  5-MIN KMKG 141835Z 23016G29KT 10SM OVC027 06/00 A2979 750 67 -100 240/16G29 RMK AO2 PK WND 24029/1829
14840KMKG MKG20101114134012411/14/10 13:40:31  5-MIN KMKG 141840Z 24016G25KT 10SM BKN027 OVC033 06/00 A2979 750 65 0 250/16G25 RMK AO2 PK WND 24029/1829
14840KMKG MKG20101114134512511/14/10 13:45:31  5-MIN KMKG 141845Z 25020G25KT 10SM BKN027 OVC033 06/M01 A2979 750 62 0 250/20G25 RMK AO2 PK WND 24029/1829
14840KMKG MKG20101114135014211/14/10 13:50:31  5-MIN KMKG 141850Z 24016G25KT 10SM BKN027 OVC033 06/M01 A2979 750 62 0 250/16G25 RMK AO2 PK WND 24029/1829 SLP090 T00611006
14840KMKG MKG20101114135513411/14/10 13:55:31  5-MIN KMKG 141855Z 24016G24KT 10SM OVC027 06/00 A2979 750 65 0 240/16G24 RMK AO2 PK WND 24029/1829 SLP090 T00610000
14840KMKG MKG20101114140011711/14/10 14:00:31  5-MIN KMKG 141900Z 24018G29KT 10SM OVC027 06/00 A2979 750 65 0 250/18G29 RMK AO2 PK WND 25029/1858
14840KMKG MKG20101114140511711/14/10 14:05:31  5-MIN KMKG 141905Z 25016G29KT 10SM OVC027 06/00 A2979 750 65 0 250/16G29 RMK AO2 PK WND 25029/1858
14840KMKG MKG20101114141012011/14/10 14:10:31  5-MIN KMKG 141910Z 23017G27KT 10SM OVC027 06/00 A2979 750 65 -100 240/17G27 RMK AO2 PK WND 25029/1858
14840KMKG MKG20101114141512011/14/10 14:15:31  5-MIN KMKG 141915Z 24019G26KT 10SM OVC027 06/00 A2979 750 65 -100 240/19G26 RMK AO2 PK WND 25029/1858
14840KMKG MKG20101114142012011/14/10 14:20:31  5-MIN KMKG 141920Z 23016G24KT 10SM OVC027 06/00 A2979 750 65 -100 240/16G24 RMK AO2 PK WND 25029/1858
14840KMKG MKG20101114142512111/14/10 14:25:31  5-MIN KMKG 141925Z 24018G26KT 10SM OVC027 06/M01 A2979 750 62 -100 250/18G26 RMK AO2 PK WND 25029/1858
14840KMKG MKG20101114143012111/14/10 14:30:31  5-MIN KMKG 141930Z 24016G26KT 10SM OVC029 06/M01 A2979 750 62 -100 250/16G26 RMK AO2 PK WND 25029/1858
14840KMKG MKG20101114143512111/14/10 14:35:31  5-MIN KMKG 141935Z 24018G25KT 10SM OVC029 06/M01 A2979 750 62 -100 250/18G25 RMK AO2 PK WND 25029/1858
14840KMKG MKG20101114144012111/14/10 14:40:31  5-MIN KMKG 141940Z 24014G25KT 10SM OVC029 06/M01 A2979 750 62 -100 250/14G25 RMK AO2 PK WND 25029/1858
14840KMKG MKG20101114144512111/14/10 14:45:31  5-MIN KMKG 141945Z 24017G24KT 10SM OVC029 06/M01 A2979 750 62 -100 240/17G24 RMK AO2 PK WND 25029/1858
14840KMKG MKG20101114145013511/14/10 14:50:31  5-MIN KMKG 141950Z 24016G24KT 10SM OVC029 06/M01 A2979 750 62 0 240/16G24 RMK AO2 PK WND 25029/1858 SLP091 T00611006
14840KMKG MKG20101114145514511/14/10 14:55:31  5-MIN KMKG 141955Z 24016G21KT 10SM BKN029 OVC036 06/M01 A2979 750 62 -100 250/16G21 RMK AO2 PK WND 25029/1858 SLP092 T00611006
14840KMKG MKG20101114150011011/14/10 15:00:31  5-MIN KMKG 142000Z 24018G24KT 10SM BKN029 OVC036 06/M01 A2979 750 62 -100 240/18G24 RMK AO2
14840KMKG MKG20101114150511011/14/10 15:05:31  5-MIN KMKG 142005Z 23018G25KT 10SM BKN029 OVC036 06/M01 A2979 750 62 -100 240/18G25 RMK AO2
14840KMKG MKG20101114151012511/14/10 15:10:31  5-MIN KMKG 142010Z 23017G25KT 10SM SCT029 OVC036 06/M01 A2979 750 62 -100 240/17G25 RMK AO2 CIG 030 RWY 14
14840KMKG MKG20101114151512811/14/10 15:15:31  5-MIN KMKG 142015Z 24019G29KT 10SM SCT029 OVC036 06/M01 A2980 750 62 -100 250/19G29 RMK AO2 PK WND 24029/2014
14840KMKG MKG20101114152012811/14/10 15:20:31  5-MIN KMKG 142020Z 25015G29KT 10SM SCT029 OVC036 06/M01 A2980 750 60 -100 250/15G29 RMK AO2 PK WND 24029/2014
14840KMKG MKG20101114152512811/14/10 15:25:31  5-MIN KMKG 142025Z 25015G24KT 10SM FEW029 OVC036 06/M01 A2980 740 62 -100 250/15G24 RMK AO2 PK WND 24029/2014
14840KMKG MKG20101114153012811/14/10 15:30:31  5-MIN KMKG 142030Z 24017G24KT 10SM SCT030 OVC038 06/M01 A2980 740 62 -100 240/17G24 RMK AO2 PK WND 24029/2014
14840KMKG MKG20101114153512111/14/10 15:35:31  5-MIN KMKG 142035Z 24014G24KT 10SM OVC036 06/M01 A2980 740 60 -100 240/14G24 RMK AO2 PK WND 24029/2014
14840KMKG MKG20101114154012811/14/10 15:40:31  5-MIN KMKG 142040Z 25018G25KT 10SM FEW030 OVC039 06/M01 A2980 740 60 -100 260/18G25 RMK AO2 PK WND 24029/2014
14840KMKG MKG20101114154512111/14/10 15:45:31  5-MIN KMKG 142045Z 24015G25KT 10SM OVC037 06/M01 A2980 740 60 -100 240/15G25 RMK AO2 PK WND 24029/2014
14840KMKG MKG20101114155014811/14/10 15:50:31  5-MIN KMKG 142050Z 23019G25KT 10SM BKN035 OVC043 07/M02 A2980 740 55 0 240/19G25 RMK AO2 PK WND 24029/2014 SLP096 T00671017 55007
14840KMKG MKG20101114155514811/14/10 15:55:31  5-MIN KMKG 142055Z 25016G25KT 10SM FEW030 OVC040 07/M01 A2981 730 57 0 250/16G25 RMK AO2 PK WND 24029/2014 SLP097 T00671011 53008
14840KMKG MKG20101114160010011/14/10 16:00:31  5-MIN KMKG 142100Z 24015G24KT 10SM OVC038 07/M01 A2981 740 57 0 250/15G24 RMK AO2
14840KMKG MKG20101114160510711/14/10 16:05:31  5-MIN KMKG 142105Z 24016G22KT 10SM SCT034 OVC042 07/M01 A2981 740 60 0 240/16G22 RMK AO2
14840KMKG MKG20101114161010711/14/10 16:10:31  5-MIN KMKG 142110Z 24017G22KT 10SM BKN037 OVC044 07/M01 A2981 740 60 0 240/17G22 RMK AO2
14840KMKG MKG20101114161510711/14/10 16:15:31  5-MIN KMKG 142115Z 24014G22KT 10SM BKN033 OVC043 07/M01 A2981 740 60 0 250/14G22 RMK AO2
14840KMKG MKG20101114162010711/14/10 16:20:31  5-MIN KMKG 142120Z 24011G22KT 10SM SCT033 OVC040 07/M01 A2981 730 57 0 240/11G22 RMK AO2
14840KMKG MKG20101114162510711/14/10 16:25:31  5-MIN KMKG 142125Z 23016G21KT 10SM BKN033 OVC042 07/M01 A2981 730 60 0 240/16G21 RMK AO2
14840KMKG MKG20101114163011411/14/10 16:30:31  5-MIN KMKG 142130Z 24010G21KT 10SM BKN033 BKN040 OVC049 07/M01 A2981 730 60 0 240/10G21 RMK AO2
14840KMKG MKG20101114163510711/14/10 16:35:31  5-MIN KMKG 142135Z 23017G22KT 10SM BKN033 OVC042 07/M01 A2981 740 60 0 240/17G22 RMK AO2
14840KMKG MKG20101114164010711/14/10 16:40:31  5-MIN KMKG 142140Z 24012G22KT 10SM BKN033 OVC044 07/M01 A2981 730 60 0 240/12G22 RMK AO2
14840KMKG MKG20101114164510711/14/10 16:45:31  5-MIN KMKG 142145Z 23015G22KT 10SM SCT033 OVC042 07/M01 A2981 730 60 0 240/15G22 RMK AO2
14840KMKG MKG20101114165012411/14/10 16:50:31  5-MIN KMKG 142150Z 24013G22KT 10SM BKN035 OVC046 07/M01 A2981 730 60 0 240/13G22 RMK AO2 SLP098 T00671006
14840KMKG MKG20101114165513111/14/10 16:55:31  5-MIN KMKG 142155Z 23014G20KT 10SM SCT033 BKN043 BKN049 07/M01 A2981 730 60 0 230/14G20 RMK AO2 SLP097 T00671006
14840KMKG MKG20101114170012911/14/10 17:00:31  5-MIN KMKG 142200Z 23017G21KT 10SM SCT033 BKN042 OVC049 07/M01 A2981 740 57 0 240/17G21 RMK AO2 CIG 035 RWY 14
14840KMKG MKG20101114170510711/14/10 17:05:31  5-MIN KMKG 142205Z 23013G21KT 10SM SCT038 OVC047 07/M01 A2981 730 57 0 240/13G21 RMK AO2
14840KMKG MKG20101114171010711/14/10 17:10:31  5-MIN KMKG 142210Z 23014G22KT 10SM FEW034 OVC045 07/M01 A2981 730 57 0 240/14G22 RMK AO2
14840KMKG MKG20101114171510611/14/10 17:15:31  5-MIN KMKG 142215Z 23015G22KT 10SM SCT034 OVC045 07/00 A2981 730 60 0 240/15G22 RMK AO2
14840KMKG MKG20101114172010611/14/10 17:20:31  5-MIN KMKG 142220Z 23014G21KT 10SM SCT034 OVC047 07/00 A2981 740 60 0 240/14G21 RMK AO2
14840KMKG MKG20101114172511311/14/10 17:25:31  5-MIN KMKG 142225Z 23014G21KT 10SM SCT034 BKN042 OVC050 07/00 A2981 730 60 0 230/14G21 RMK AO2
14840KMKG MKG20101114173011311/14/10 17:30:31  5-MIN KMKG 142230Z 23013G20KT 10SM SCT034 BKN047 OVC055 07/01 A2981 730 62 0 230/13G20 RMK AO2
14840KMKG MKG20101114173511311/14/10 17:35:31  5-MIN KMKG 142235Z 23014G20KT 10SM SCT034 BKN045 OVC055 07/00 A2981 740 60 0 230/14G20 RMK AO2
14840KMKG MKG20101114174010711/14/10 17:40:31  5-MIN KMKG 142240Z 24014KT 10SM SCT034 BKN045 OVC055 07/00 A2980 740 60 0 240/14 RMK AO2
14840KMKG MKG20101114174512811/14/10 17:45:31  5-MIN KMKG 142245Z 22018G24KT 10SM SCT034 BKN043 OVC050 07/00 A2981 740 60 0 230/18G24 RMK AO2 CIG 035 RWY 14
14840KMKG MKG20101114175014811/14/10 17:50:31  5-MIN KMKG 142250Z 23019G24KT 10SM -RA SCT034 BKN043 OVC055 08/00 A2980 740 58 100 230/19G24 RMK AO2 RAB49 SLP096 P0000 T00780000
14840KMKG MKG20101114175516311/14/10 17:55:31  5-MIN KMKG 142255Z 23018G24KT 10SM -RA SCT037 BKN046 OVC055 08/00 A2980 740 58 100 230/18G24 RMK AO2 RAB49 CIG 037 RWY 14 SLP095 P0000 T00780000
14840KMKG MKG20101114180012611/14/10 18:00:31  5-MIN KMKG 142300Z 23017G24KT 10SM -RA SCT037 BKN048 OVC060 08/M01 A2980 740 55 100 240/17G24 RMK AO2 P0000
14840KMKG MKG20101114180514611/14/10 18:05:31  5-MIN KMKG 142305Z 24017G26KT 10SM FEW037 BKN043 OVC060 08/M01 A2980 740 55 100 240/17G26 RMK AO2 PK WND 25026/2303 RAE03 P0000
14840KMKG MKG20101114181014611/14/10 18:10:31  5-MIN KMKG 142310Z 24015G26KT 10SM FEW037 SCT045 OVC060 08/M01 A2980 740 55 100 240/15G26 RMK AO2 PK WND 25026/2303 RAE03 P0000
14840KMKG MKG20101114181513911/14/10 18:15:31  5-MIN KMKG 142315Z 24012G23KT 10SM BKN041 OVC060 08/M01 A2980 740 55 100 240/12G23 RMK AO2 PK WND 25026/2303 RAE03 P0000
14840KMKG MKG20101114182016711/14/10 18:20:31  5-MIN KMKG 142320Z 23015G22KT 10SM -RA SCT038 SCT045 OVC060 08/00 A2980 740 58 100 240/15G22 RMK AO2 PK WND 25026/2303 RAE03B19 CIG 050 RWY 14 P0000
14840KMKG MKG20101114182515211/14/10 18:25:31  5-MIN KMKG 142325Z 24015G21KT 10SM -RA FEW038 BKN047 OVC060 08/00 A2980 740 58 100 240/15G21 RMK AO2 PK WND 25026/2303 RAE03B19 P0000
14840KMKG MKG20101114183016611/14/10 18:30:31  5-MIN KMKG 142330Z 24011G21KT 10SM SCT038 BKN060 OVC070 08/01 A2980 740 60 100 240/11G21 RMK AO2 PK WND 25026/2303 RAE03B19E28 CIG 050 RWY 14 P0000
14840KMKG MKG20101114183515211/14/10 18:35:31  5-MIN KMKG 142335Z 24014G21KT 10SM -RA SCT038 BKN049 OVC070 08/01 A2980 740 60 100 250/14G21 RMK AO2 PK WND 25026/2303 RAE03B19 P0000
14840KMKG MKG20101114184016711/14/10 18:40:31  5-MIN KMKG 142340Z 24018G26KT 10SM -RA SCT038 BKN047 OVC065 08/00 A2979 750 58 100 240/18G26 RMK AO2 PK WND 23026/2340 RAE03B19 CIG 037 RWY 14 P0000
14840KMKG MKG20101114184516511/14/10 18:45:31  5-MIN KMKG 142345Z 24016G29KT 10SM -RA SCT038 BKN048 OVC070 07/01 A2980 740 62 0 240/16G29 RMK AO2 PK WND 23029/2343 RAE03B19 CIG 037 RWY 14 P0000
14840KMKG MKG20101114185019311/14/10 18:50:31  5-MIN KMKG 142350Z 24012G29KT 10SM -RA BKN038 BKN050 OVC070 08/01 A2980 740 60 100 240/12G29 RMK AO2 PK WND 23029/2343 RAE03B19 SLP094 P0000 60000 T00780006 10078 20056 53008
14840KMKG MKG20101114185519311/14/10 18:55:31  5-MIN KMKG 142355Z 24014G22KT 10SM -RA BKN036 BKN048 OVC070 08/01 A2980 740 60 100 250/14G22 RMK AO2 PK WND 23029/2343 RAE03B19 SLP095 P0000 60000 T00780006 10078 20056 57002
14840KMKG MKG20101114190014111/14/10 19:00:31  5-MIN KMKG 150000Z 23022G31KT 10SM BKN036 BKN044 OVC050 08/01 A2980 740 60 100 230/22G31 RMK AO2 PK WND 22031/0000 RAE2356
14840KMKG MKG20101114190514311/14/10 19:05:31  5-MIN KMKG 150005Z 23018G31KT 10SM -RA BKN036 BKN048 OVC060 08/01 A2980 740 60 100 240/18G31 RMK AO2 PK WND 22031/0000 P0000
14840KMKG MKG20101114191014111/14/10 19:10:31  5-MIN KMKG 150010Z 24017G28KT 10SM -RA BKN036 BKN045 OVC100 07/01 A2980 740 62 0 240/17G28 RMK AO2 PK WND 22031/0000 P0000
14840KMKG MKG20101114191514311/14/10 19:15:31  5-MIN KMKG 150015Z 24018G28KT 10SM SCT036 BKN060 OVC100 07/01 A2980 740 62 0 240/18G28 RMK AO2 PK WND 22031/0000 RAE13 P0000
14840KMKG MKG20101114192014511/14/10 19:20:31  5-MIN KMKG 150020Z 24015G28KT 10SM SCT034 BKN055 OVC100 08/01 A2980 740 60 100 250/15G28 RMK AO2 PK WND 22031/0000 RAE13 P0000
14840KMKG MKG20101114192514511/14/10 19:25:31  5-MIN KMKG 150025Z 24017G24KT 10SM FEW034 BKN055 OVC100 08/01 A2980 740 60 100 250/17G24 RMK AO2 PK WND 22031/0000 RAE13 P0000
14840KMKG MKG20101114193013811/14/10 19:30:31  5-MIN KMKG 150030Z 24012G24KT 10SM BKN055 OVC100 08/01 A2980 740 60 100 240/12G24 RMK AO2 PK WND 22031/0000 RAE13 P0000
14840KMKG MKG20101114193513811/14/10 19:35:31  5-MIN KMKG 150035Z 24013G22KT 10SM SCT055 OVC100 08/01 A2980 740 60 100 250/13G22 RMK AO2 PK WND 22031/0000 RAE13 P0000
14840KMKG MKG20101114194013811/14/10 19:40:31  5-MIN KMKG 150040Z 24012G22KT 10SM FEW050 OVC100 08/01 A2980 750 60 100 250/12G22 RMK AO2 PK WND 22031/0000 RAE13 P0000
14840KMKG MKG20101114194513811/14/10 19:45:31  5-MIN KMKG 150045Z 25015G23KT 10SM FEW050 BKN100 08/01 A2980 740 60 100 250/15G23 RMK AO2 PK WND 22031/0000 RAE13 P0000
14840KMKG MKG20101114195015511/14/10 19:50:31  5-MIN KMKG 150050Z 23018G23KT 10SM FEW050 BKN100 08/01 A2980 740 62 100 240/18G23 RMK AO2 PK WND 22031/0000 RAE13 SLP095 P0000 T00780011
14840KMKG MKG20101114195515511/14/10 19:55:31  5-MIN KMKG 150055Z 25016G24KT 10SM FEW050 BKN100 08/01 A2980 740 60 100 250/16G24 RMK AO2 PK WND 22031/0000 RAE13 SLP094 P0000 T00780006
14840KMKG MKG20101114200013311/14/10 20:00:31  5-MIN KMKG 150100Z 25019G27KT 10SM FEW035 SCT060 OVC100 08/01 A2980 740 60 100 260/19G27 RMK AO2 PK WND 25027/0100
14840KMKG MKG20101114200513311/14/10 20:05:31  5-MIN KMKG 150105Z 24011G27KT 10SM FEW035 SCT060 OVC100 08/01 A2979 750 60 100 250/11G27 RMK AO2 PK WND 25027/0100
14840KMKG MKG20101114201014911/14/10 20:10:31  5-MIN KMKG 150110Z 24016G23KT 10SM -RA FEW035 BKN065 OVC100 08/01 A2980 740 60 100 240/16G23 RMK AO2 PK WND 25027/0100 RAB10 P0000
14840KMKG MKG20101114201514911/14/10 20:15:31  5-MIN KMKG 150115Z 25017G25KT 10SM -RA FEW032 BKN065 OVC100 08/01 A2980 740 60 100 250/17G25 RMK AO2 PK WND 25027/0100 RAB10 P0000
14840KMKG MKG20101114202014911/14/10 20:20:31  5-MIN KMKG 150120Z 25018G25KT 10SM -RA SCT034 BKN060 OVC100 08/01 A2979 750 60 100 250/18G25 RMK AO2 PK WND 25027/0100 RAB10 P0000
14840KMKG MKG20101114202514911/14/10 20:25:31  5-MIN KMKG 150125Z 25018G26KT 10SM -RA SCT037 BKN046 OVC060 08/00 A2980 740 58 100 250/18G26 RMK AO2 PK WND 25027/0100 RAB10 P0000
14840KMKG MKG20101114203014911/14/10 20:30:31  5-MIN KMKG 150130Z 25018G29KT 10SM BKN037 BKN048 OVC060 08/M01 A2980 740 55 100 250/18G29 RMK AO2 PK WND 24029/0128 RAB10E29 P0000
14840KMKG MKG20101114203515011/14/10 20:35:31  5-MIN KMKG 150135Z 24015G29KT 10SM -RA FEW034 BKN041 OVC060 08/M01 A2980 740 55 100 250/15G29 RMK AO2 PK WND 24029/0128 RAB10 P0000
14840KMKG MKG20101114204014911/14/10 20:40:31  5-MIN KMKG 150140Z 24014G28KT 10SM -RA FEW034 SCT043 OVC055 08/00 A2980 740 58 100 250/14G28 RMK AO2 PK WND 24029/0128 RAB10 P0000
14840KMKG MKG20101114204514811/14/10 20:45:31  5-MIN KMKG 150145Z 24012G22KT 10SM SCT036 BKN047 OVC080 08/00 A2980 740 58 100 240/12G22 RMK AO2 PK WND 24029/0128 RAB10E42 P0000
14840KMKG MKG20101114205016511/14/10 20:50:31  5-MIN KMKG 150150Z 25017G23KT 10SM FEW034 BKN046 OVC075 08/00 A2980 740 58 100 250/17G23 RMK AO2 PK WND 24029/0128 RAB10E42 SLP094 P0000 T00780000
14840KMKG MKG20101114205516511/14/10 20:55:31  5-MIN KMKG 150155Z 24017G26KT 10SM SCT037 BKN048 OVC075 08/00 A2980 740 58 100 250/17G26 RMK AO2 PK WND 24029/0128 RAB10E42 SLP094 P0000 T00780000
14840KMKG MKG20101114210014911/14/10 21:00:31  5-MIN KMKG 150200Z 25018G26KT 10SM -RA BKN037 BKN050 OVC070 08/00 A2980 740 58 100 260/18G26 RMK AO2 PK WND 24026/0156 RAB00 P0000
14840KMKG MKG20101114210514711/14/10 21:05:31  5-MIN KMKG 150205Z 24018G26KT 10SM -RA BKN037 BKN050 OVC070 07/00 A2980 740 60 0 240/18G26 RMK AO2 PK WND 24026/0156 RAB00 P0000
14840KMKG MKG20101114211014211/14/10 21:10:31  5-MIN KMKG 150210Z 25015G24KT 10SM -RA BKN035 OVC047 08/00 A2981 740 58 100 250/15G24 RMK AO2 PK WND 24026/0156 RAB00 P0000
14840KMKG MKG20101114211514011/14/10 21:15:31  5-MIN KMKG 150215Z 24024G33KT 10SM -RA BKN036 OVC047 07/00 A2981 730 60 0 240/24G33 RMK AO2 PK WND 25033/0213 RAB00 P0000
14840KMKG MKG20101114212014011/14/10 21:20:31  5-MIN KMKG 150220Z 23020G33KT 10SM -RA BKN034 OVC045 07/01 A2981 730 65 0 230/20G33 RMK AO2 PK WND 25033/0213 RAB00 P0000
14840KMKG MKG20101114212515011/14/10 21:25:31  5-MIN KMKG 150225Z 24013G30KT 10SM -RA FEW022 BKN029 OVC042 06/02 A2981 730 73 -100 240/13G30 RMK AO2 PK WND 25033/0213 RAB00 P0000
14840KMKG MKG20101114213015011/14/10 21:30:31  5-MIN KMKG 150230Z 23009G21KT 10SM -RA BKN026 BKN034 OVC044 06/02 A2980 740 76 -100 240/09G21 RMK AO2 PK WND 25033/0213 RAB00 P0000
14840KMKG MKG20101114213515011/14/10 21:35:31  5-MIN KMKG 150235Z 24016G21KT 10SM -RA BKN028 BKN036 OVC060 06/02 A2981 730 76 -100 240/16G21 RMK AO2 PK WND 25033/0213 RAB00 P0000
14840KMKG MKG20101114214016511/14/10 21:40:31  5-MIN KMKG 150240Z 24013G23KT 10SM -RA SCT026 BKN043 OVC060 06/02 A2982 730 73 -100 240/13G23 RMK AO2 PK WND 25033/0213 RAB00 CIG 035 RWY 14 P0000
14840KMKG MKG20101114214516511/14/10 21:45:31  5-MIN KMKG 150245Z 23016G23KT 10SM -RA SCT026 BKN041 OVC060 06/02 A2982 730 73 -100 240/16G23 RMK AO2 PK WND 25033/0213 RAB00 CIG 028 RWY 14 P0000
14840KMKG MKG20101114215015011/14/10 21:50:31  5-MIN KMKG 150250Z 24015G24KT 10SM -RA FEW023 BKN028 OVC060 06/02 A2982 730 76 -100 240/15G24 RMK AO2 PK WND 25033/0213 RAB00 P0000
14840KMKG MKG20101114215517911/14/10 21:55:31  5-MIN KMKG 150255Z 23016G24KT 10SM -RA FEW023 BKN032 OVC060 06/02 A2982 730 73 -100 230/16G24 RMK AO2 PK WND 25033/0213 RAB00 SLP101 P0000 60000 T00610017 53006
14840KMKG MKG20101114220012611/14/10 22:00:31  5-MIN KMKG 150300Z 24014G24KT 10SM -RA FEW023 BKN033 OVC055 06/02 A2982 730 76 -100 240/14G24 RMK AO2 P0001
14840KMKG MKG20101114220512611/14/10 22:05:31  5-MIN KMKG 150305Z 24017G24KT 10SM -RA FEW023 BKN033 OVC065 06/02 A2982 730 76 -100 250/17G24 RMK AO2 P0001
14840KMKG MKG20101114221012611/14/10 22:10:31  5-MIN KMKG 150310Z 23016G24KT 10SM -RA FEW023 BKN033 OVC060 06/02 A2982 720 76 -100 240/16G24 RMK AO2 P0001
14840KMKG MKG20101114221512611/14/10 22:15:31  5-MIN KMKG 150315Z 23016G22KT 10SM -RA FEW023 BKN033 OVC055 06/02 A2982 720 73 -100 240/16G22 RMK AO2 P0001
14840KMKG MKG20101114222012611/14/10 22:20:31  5-MIN KMKG 150320Z 23014G22KT 10SM -RA FEW024 BKN031 OVC055 06/02 A2982 730 73 -100 240/14G22 RMK AO2 P0001
14840KMKG MKG20101114222512611/14/10 22:25:31  5-MIN KMKG 150325Z 24011G22KT 10SM -RA SCT026 BKN031 OVC070 06/02 A2982 730 73 -100 250/11G22 RMK AO2 P0001
14840KMKG MKG20101114223013511/14/10 22:30:31  5-MIN KMKG 150330Z 24013KT 10SM -RA SCT024 BKN055 OVC070 06/02 A2982 720 73 -100 240/13 RMK AO2 CIG 029 RWY 14 P0001
14840KMKG MKG20101114223513611/14/10 22:35:31  5-MIN KMKG 150335Z 23016G22KT 10SM SCT026 OVC055 06/02 A2982 720 73 -100 230/16G22 RMK AO2 RAE32 CIG 025 RWY 14 P0001
14840KMKG MKG20101114224011911/14/10 22:40:31  5-MIN KMKG 150340Z 24014G23KT 10SM -RA BKN026 OVC055 06/02 A2982 720 73 -100 240/14G23 RMK AO2 P0001
14840KMKG MKG20101114224511911/14/10 22:45:31  5-MIN KMKG 150345Z 23015G23KT 10SM -RA SCT026 OVC060 06/02 A2982 720 73 -100 240/15G23 RMK AO2 P0001
14840KMKG MKG20101114225013611/14/10 22:50:31  5-MIN KMKG 150350Z 25015G20KT 10SM -RA SCT024 OVC060 06/02 A2982 720 73 -100 250/15G20 RMK AO2 SLP102 P0001 T00610017
14840KMKG MKG20101114225514311/14/10 22:55:31  5-MIN KMKG 150355Z 25012G20KT 10SM -RA BKN024 BKN060 OVC070 06/02 A2982 720 73 -100 250/12G20 RMK AO2 SLP102 P0001 T00610017
14840KMKG MKG20101114230012111/14/10 23:00:31  5-MIN KMKG 150400Z 24013G19KT 10SM BKN026 OVC060 06/02 A2982 730 73 -100 250/13G19 RMK AO2 RAE00 P0000
14840KMKG MKG20101114230512111/14/10 23:05:31  5-MIN KMKG 150405Z 25013G18KT 10SM BKN026 OVC060 06/02 A2982 720 73 -100 250/13G18 RMK AO2 RAE00 P0000
14840KMKG MKG20101114231013711/14/10 23:10:31  5-MIN KMKG 150410Z 26013KT 10SM SCT023 BKN029 OVC070 06/02 A2982 720 76 -100 260/13 RMK AO2 RAE00 CIG 024 RWY 14 P0000
14840KMKG MKG20101114231513711/14/10 23:15:31  5-MIN KMKG 150415Z 26012KT 10SM SCT023 BKN028 OVC065 06/02 A2982 720 76 -100 260/12 RMK AO2 RAE00 CIG 023 RWY 14 P0000
14840KMKG MKG20101114232012111/14/10 23:20:31  5-MIN KMKG 150420Z 26010G21KT 10SM BKN021 OVC028 06/02 A2982 720 79 -200 260/10G21 RMK AO2 RAE00 P0000
14840KMKG MKG20101114232512811/14/10 23:25:31  5-MIN KMKG 150425Z 26010G21KT 10SM SCT021 BKN026 OVC060 06/02 A2982 720 79 -200 260/10G21 RMK AO2 RAE00 P0000
14840KMKG MKG20101114233013511/14/10 23:30:31  5-MIN KMKG 150430Z 26012G18KT 10SM -RA SCT021 BKN027 OVC060 06/02 A2982 720 76 -200 260/12G18 RMK AO2 RAE00B27 P0000
14840KMKG MKG20101114233513511/14/10 23:35:31  5-MIN KMKG 150435Z 25012G18KT 10SM -RA SCT021 BKN028 OVC060 06/02 A2982 720 73 -100 250/12G18 RMK AO2 RAE00B27 P0000
14840KMKG MKG20101114234013411/14/10 23:40:31  5-MIN KMKG 150440Z 24011G18KT 10SM SCT021 BKN027 OVC060 06/02 A2982 720 73 -100 250/11G18 RMK AO2 RAE00B27E37 P0000
14840KMKG MKG20101114234512811/14/10 23:45:31  5-MIN KMKG 150445Z 26009KT 10SM SCT021 BKN031 OVC065 06/02 A2982 720 73 -100 260/09 RMK AO2 RAE00B27E37 P0000
14840KMKG MKG20101114235016111/14/10 23:50:31  5-MIN KMKG 150450Z 26014G20KT 10SM FEW023 BKN029 OVC065 06/01 A2982 720 70 -100 260/14G20 RMK AO2 RAE00B27E37 SLP103 P0000 T00610011 400780056
14840KMKG MKG20101114235516111/14/10 23:55:31  5-MIN KMKG 150455Z 25013G20KT 10SM FEW023 BKN029 OVC065 06/01 A2982 720 70 -100 260/13G20 RMK AO2 RAE00B27E37 SLP104 P0000 T00610011 400780056
14840KMKG MKG20101115000011611/15/10 00:00:32  5-MIN KMKG 150500Z 26012G20KT 10SM FEW023 BKN029 OVC065 06/01 A2982 720 70 -100 260/12G20 RMK AO2
14840KMKG MKG20101115000513111/15/10 00:05:31  5-MIN KMKG 150505Z 25013G20KT 10SM FEW027 BKN050 OVC065 06/01 A2983 720 67 -100 260/13G20 RMK AO2 CIG 035 RWY 14
14840KMKG MKG20101115001012511/15/10 00:10:31  5-MIN KMKG 150510Z 25011KT 10SM FEW027 BKN040 OVC065 06/01 A2983 720 67 -100 250/11 RMK AO2 CIG 033 RWY 14
14840KMKG MKG20101115001512311/15/10 00:15:31  5-MIN KMKG 150515Z 27014KT 10SM -RA FEW029 BKN034 OVC065 07/00 A2983 720 62 0 270/14 RMK AO2 RAB13 P0000
14840KMKG MKG20101115002013311/15/10 00:20:31  5-MIN KMKG 150520Z 24015G21KT 10SM -RA FEW029 BKN034 OVC060 06/M01 A2983 720 62 -100 250/15G21 RMK AO2 RAB13 P0000
14840KMKG MKG20101115002514111/15/10 00:25:31  5-MIN KMKG 150525Z 24012G21KT 10SM -RA SCT034 OVC060 06/M01 A2983 710 65 -200 240/12G21 RMK AO2 RAB13 CIG 048 RWY 14 P0000
14840KMKG MKG20101115003012611/15/10 00:30:31  5-MIN KMKG 150530Z 25009KT 10SM SCT034 BKN047 OVC060 06/M01 A2983 710 65 -200 250/09 RMK AO2 RAB13E26 P0000
14840KMKG MKG20101115003512611/15/10 00:35:31  5-MIN KMKG 150535Z 24011KT 10SM SCT030 BKN047 OVC060 06/M01 A2983 720 62 -100 250/11 RMK AO2 RAB13E26 P0000
14840KMKG MKG20101115004014011/15/10 00:40:31  5-MIN KMKG 150540Z 24012KT 10SM FEW027 SCT034 OVC060 06/00 A2983 710 65 -100 240/12 RMK AO2 RAB13E26 CIG 050 RWY 14 P0000
14840KMKG MKG20101115004512511/15/10 00:45:31  5-MIN KMKG 150545Z 23013KT 10SM FEW030 BKN047 OVC060 06/00 A2983 710 65 -100 230/13 RMK AO2 RAB13E26 P0000
14840KMKG MKG20101115005017911/15/10 00:50:31  5-MIN KMKG 150550Z 24009G18KT 10SM -RA SCT032 BKN040 OVC065 06/01 A2983 710 67 -100 240/09G18 RMK AO2 RAB13E26B49 SLP106 P0000 60001 T00610006 10078 20056 53006
14840KMKG MKG20101115005518811/15/10 00:55:31  5-MIN KMKG 150555Z 24009KT 10SM -RA SCT030 BKN040 OVC065 06/01 A2983 710 73 -200 250/09 RMK AO2 RAB13E26B49 CIG 030 RWY 14 SLP106 P0000 60001 T00560011 10078 20056 53005
14840KMKG MKG20101115010012011/15/10 01:00:31  5-MIN KMKG 150600Z 23011KT 10SM -RA FEW026 BKN032 OVC065 06/01 A2983 710 73 -200 230/11 RMK AO2 P0000
14840KMKG MKG20101115010512611/15/10 01:05:31  5-MIN KMKG 150605Z 24012G18KT 10SM -RA SCT026 BKN032 OVC065 06/01 A2983 710 73 -200 250/12G18 RMK AO2 P0000
14840KMKG MKG20101115011012011/15/10 01:10:31  5-MIN KMKG 150610Z 23012KT 10SM -RA BKN026 BKN032 OVC040 06/01 A2983 710 73 -200 240/12 RMK AO2 P0000
14840KMKG MKG20101115011512011/15/10 01:15:31  5-MIN KMKG 150615Z 23011KT 10SM -RA BKN025 BKN034 OVC041 06/01 A2983 720 73 -200 230/11 RMK AO2 P0000
14840KMKG MKG20101115012012011/15/10 01:20:31  5-MIN KMKG 150620Z 25010KT 10SM -RA SCT023 BKN028 OVC032 06/02 A2982 720 76 -200 250/10 RMK AO2 P0000
14840KMKG MKG20101115012512011/15/10 01:25:31  5-MIN KMKG 150625Z 24009KT 10SM -RA SCT022 BKN027 OVC038 06/02 A2983 720 76 -200 240/09 RMK AO2 P0000
14840KMKG MKG20101115013012011/15/10 01:30:31  5-MIN KMKG 150630Z 24010KT 10SM -RA SCT022 BKN027 OVC038 06/02 A2983 720 76 -200 250/10 RMK AO2 P0000
14840KMKG MKG20101115013512211/15/10 01:35:31  5-MIN KMKG 150635Z 25008KT 10SM SCT022 BKN029 OVC037 06/01 A2982 720 70 -100 250/08 RMK AO2 RAE33 P0000
14840KMKG MKG20101115014012211/15/10 01:40:31  5-MIN KMKG 150640Z 24011KT 10SM SCT022 BKN029 OVC042 06/01 A2982 720 73 -200 250/11 RMK AO2 RAE33 P0000
14840KMKG MKG20101115014512211/15/10 01:45:31  5-MIN KMKG 150645Z 25010KT 10SM FEW022 BKN029 OVC040 06/01 A2983 720 73 -200 250/10 RMK AO2 RAE33 P0000
14840KMKG MKG20101115015012211/15/10 01:50:31  5-MIN KMKG 150650Z 25008KT 10SM SCT025 BKN030 OVC040 06/01 A2982 720 73 -200 250/08 RMK AO2 RAE33 P0000
14840KMKG MKG20101115015516011/15/10 01:55:31  5-MIN KMKG 150655Z 25011G15KT 10SM SCT026 BKN035 OVC045 06/01 A2983 720 70 -100 250/11G15 RMK AO2 RAE33 CIG 026 RWY 14 SLP104 P0000 T00610011
14840KMKG MKG20101115020011611/15/10 02:00:31  5-MIN KMKG 150700Z 24013G19KT 10SM SCT026 BKN031 OVC065 06/01 A2983 720 70 -100 240/13G19 RMK AO2
14840KMKG MKG20101115020511611/15/10 02:05:31  5-MIN KMKG 150705Z 24013G19KT 10SM SCT026 BKN040 OVC085 06/00 A2982 720 65 -100 250/13G19 RMK AO2
14840KMKG MKG20101115021013211/15/10 02:10:31  5-MIN KMKG 150710Z 24012G18KT 10SM FEW026 BKN050 OVC085 06/M01 A2982 720 62 -100 240/12G18 RMK AO2 CIG 039 RWY 14
14840KMKG MKG20101115021511711/15/10 02:15:31  5-MIN KMKG 150715Z 25010G18KT 10SM FEW026 BKN045 OVC085 06/M01 A2982 720 62 -100 260/10G18 RMK AO2
14840KMKG MKG20101115022013211/15/10 02:20:31  5-MIN KMKG 150720Z 26013G18KT 10SM FEW028 BKN050 OVC065 06/M01 A2982 720 60 -100 260/13G18 RMK AO2 CIG 040 RWY 14
14840KMKG MKG20101115022511611/15/10 02:25:31  5-MIN KMKG 150725Z 25012G18KT 10SM SCT032 BKN045 OVC065 06/00 A2982 720 65 -100 250/12G18 RMK AO2
14840KMKG MKG20101115023011011/15/10 02:30:31  5-MIN KMKG 150730Z 25011KT 10SM BKN032 BKN045 OVC060 06/00 A2982 720 65 -100 250/11 RMK AO2
14840KMKG MKG20101115023513211/15/10 02:35:31  5-MIN KMKG 150735Z 24016G24KT 10SM SCT032 BKN045 OVC055 06/M01 A2982 720 62 -100 240/16G24 RMK AO2 CIG 031 RWY 14
14840KMKG MKG20101115024012511/15/10 02:40:31  5-MIN KMKG 150740Z 24013G24KT 10SM SCT032 BKN044 06/M01 A2982 720 60 -100 250/13G24 RMK AO2 CIG 031 RWY 14
14840KMKG MKG20101115024512511/15/10 02:45:31  5-MIN KMKG 150745Z 24015G22KT 10SM SCT032 BKN044 06/M01 A2983 720 62 -100 240/15G22 RMK AO2 CIG 031 RWY 14
14840KMKG MKG20101115025014911/15/10 02:50:31  5-MIN KMKG 150750Z 24014G22KT 10SM SCT032 BKN042 OVC060 06/M01 A2983 720 60 -100 250/14G22 RMK AO2 CIG 031 RWY 14 SLP105 T00611011
14840KMKG MKG20101115025514911/15/10 02:55:31  5-MIN KMKG 150755Z 24016G25KT 10SM SCT032 BKN042 OVC060 06/M01 A2983 720 60 -100 250/16G25 RMK AO2 CIG 031 RWY 14 SLP105 T00611011
14840KMKG MKG20101115030011711/15/10 03:00:31  5-MIN KMKG 150800Z 25011G25KT 10SM FEW032 BKN050 OVC060 06/M01 A2983 720 60 -100 250/11G25 RMK AO2
14840KMKG MKG20101115030511711/15/10 03:05:31  5-MIN KMKG 150805Z 26012G18KT 10SM FEW034 SCT043 OVC060 06/M01 A2983 710 60 -100 260/12G18 RMK AO2
14840KMKG MKG20101115031011711/15/10 03:10:31  5-MIN KMKG 150810Z 25013G21KT 10SM FEW032 BKN049 OVC060 06/M01 A2983 710 60 -100 260/13G21 RMK AO2
14840KMKG MKG20101115031511711/15/10 03:15:31  5-MIN KMKG 150815Z 26010G21KT 10SM FEW032 BKN049 OVC060 06/M01 A2983 710 60 -100 270/10G21 RMK AO2
14840KMKG MKG20101115032011711/15/10 03:20:31  5-MIN KMKG 150820Z 25011G20KT 10SM SCT032 BKN040 OVC055 06/M01 A2983 710 60 -100 260/11G20 RMK AO2
14840KMKG MKG20101115032511711/15/10 03:25:31  5-MIN KMKG 150825Z 25012G20KT 10SM SCT032 BKN040 OVC055 06/M01 A2983 710 62 -100 250/12G20 RMK AO2
14840KMKG MKG20101115033011611/15/10 03:30:31  5-MIN KMKG 150830Z 25012G20KT 10SM BKN032 BKN040 OVC060 06/00 A2983 710 65 -100 250/12G20 RMK AO2
14840KMKG MKG20101115033511711/15/10 03:35:31  5-MIN KMKG 150835Z 25011G21KT 10SM BKN033 BKN040 BKN049 06/M01 A2982 720 62 -100 260/11G21 RMK AO2
14840KMKG MKG20101115034012511/15/10 03:40:31  5-MIN KMKG 150840Z 25011G21KT 10SM SCT033 BKN055 06/M01 A2983 720 65 -200 250/11G21 RMK AO2 CIG 048 RWY 14
14840KMKG MKG20101115034509711/15/10 03:45:31  5-MIN KMKG 150845Z 25012KT 10SM BKN033 06/M01 A2983 720 65 -200 260/12 RMK AO2
14840KMKG MKG20101115035013211/15/10 03:50:31  5-MIN KMKG 150850Z 25012G19KT 10SM BKN033 06/M01 A2983 710 65 -200 260/12G19 RMK AO2 SLP106 60000 T00561006 53005
14840KMKG MKG20101115035513211/15/10 03:55:31  5-MIN KMKG 150855Z 26010G20KT 10SM BKN033 06/M01 A2983 710 65 -200 260/10G20 RMK AO2 SLP106 60000 T00561006 53002
14840KMKG MKG20101115040010211/15/10 04:00:31  5-MIN KMKG 150900Z 25012G20KT 10SM SCT033 06/00 A2983 710 67 -200 250/12G20 RMK AO2
14840KMKG MKG20101115040510311/15/10 04:05:31  5-MIN KMKG 150905Z 25011G17KT 10SM SCT031 06/M01 A2983 710 65 -200 260/11G17 RMK AO2
14840KMKG MKG20101115041009711/15/10 04:10:31  5-MIN KMKG 150910Z 26012KT 10SM SCT031 05/M01 A2983 710 64 -200 270/12 RMK AO2
14840KMKG MKG20101115041509711/15/10 04:15:31  5-MIN KMKG 150915Z 26008KT 10SM SCT031 05/M01 A2983 710 64 -200 270/08 RMK AO2
14840KMKG MKG20101115042010311/15/10 04:20:31  5-MIN KMKG 150920Z 26012G19KT 10SM FEW031 05/M01 A2983 710 64 -200 260/12G19 RMK AO2
14840KMKG MKG20101115042510311/15/10 04:25:31  5-MIN KMKG 150925Z 25009G19KT 10SM FEW031 05/M01 A2983 710 64 -200 250/09G19 RMK AO2
14840KMKG MKG20101115043009711/15/10 04:30:31  5-MIN KMKG 150930Z 25010KT 10SM FEW029 05/M01 A2983 710 64 -200 250/10 RMK AO2
14840KMKG MKG20101115043509711/15/10 04:35:31  5-MIN KMKG 150935Z 25012KT 10SM FEW029 05/M01 A2983 710 64 -200 250/12 RMK AO2
14840KMKG MKG20101115044009711/15/10 04:40:31  5-MIN KMKG 150940Z 25010KT 10SM FEW029 05/M01 A2983 710 67 -200 250/10 RMK AO2
14840KMKG MKG20101115044509711/15/10 04:45:31  5-MIN KMKG 150945Z 25008KT 10SM FEW029 05/M01 A2983 710 67 -200 250/08 RMK AO2
14840KMKG MKG20101115045012011/15/10 04:50:31  5-MIN KMKG 150950Z 25011G16KT 10SM SCT029 06/M01 A2983 710 65 -200 260/11G16 RMK AO2 SLP106 T00561006
14840KMKG MKG20101115045511411/15/10 04:55:31  5-MIN KMKG 150955Z 25010KT 10SM SCT029 06/M01 A2983 710 65 -200 250/10 RMK AO2 SLP106 T00561006
14840KMKG MKG20101115050010311/15/10 05:00:31  5-MIN KMKG 151000Z 24012G19KT 10SM SCT031 06/M01 A2983 720 65 -200 240/12G19 RMK AO2
14840KMKG MKG20101115050510311/15/10 05:05:31  5-MIN KMKG 151005Z 24008G19KT 10SM BKN031 05/M01 A2983 710 64 -200 250/08G19 RMK AO2
14840KMKG MKG20101115051009711/15/10 05:10:31  5-MIN KMKG 151010Z 24009KT 10SM BKN031 05/M01 A2983 710 64 -200 250/09 RMK AO2
14840KMKG MKG20101115051509711/15/10 05:15:31  5-MIN KMKG 151015Z 23013KT 10SM BKN031 05/M01 A2983 710 67 -200 240/13 RMK AO2
14840KMKG MKG20101115052010311/15/10 05:20:31  5-MIN KMKG 151020Z 25012G18KT 10SM BKN031 06/M01 A2983 710 62 -200 250/12G18 RMK AO2
14840KMKG MKG20101115052510311/15/10 05:25:31  5-MIN KMKG 151025Z 24010G18KT 10SM BKN029 06/M01 A2984 710 62 -200 250/10G18 RMK AO2
14840KMKG MKG20101115053010311/15/10 05:30:31  5-MIN KMKG 151030Z 24010G18KT 10SM BKN029 06/M01 A2984 710 62 -200 240/10G18 RMK AO2
14840KMKG MKG20101115053510311/15/10 05:35:31  5-MIN KMKG 151035Z 25011G18KT 10SM BKN031 05/M01 A2984 710 64 -200 250/11G18 RMK AO2
14840KMKG MKG20101115054009711/15/10 05:40:31  5-MIN KMKG 151040Z 24009KT 10SM BKN031 06/M01 A2984 710 62 -200 240/09 RMK AO2
14840KMKG MKG20101115054510411/15/10 05:45:31  5-MIN KMKG 151045Z 25011KT 10SM BKN031 BKN037 06/M01 A2984 710 62 -200 250/11 RMK AO2
14840KMKG MKG20101115055011011/15/10 05:50:31  5-MIN KMKG 151050Z 24008G17KT 10SM BKN029 BKN039 06/M01 A2984 710 62 -200 250/08G17 RMK AO2
14840KMKG MKG20101115055512111/15/10 05:55:31  5-MIN KMKG 151055Z 25010KT 10SM BKN029 BKN037 06/M01 A2984 710 65 -200 250/10 RMK AO2 SLP107 T00561006
14840KMKG MKG20101115060010411/15/10 06:00:31  5-MIN KMKG 151100Z 25010KT 10SM BKN029 BKN037 06/M01 A2984 710 65 -200 250/10 RMK AO2
14840KMKG MKG20101115060511011/15/10 06:05:31  5-MIN KMKG 151105Z 24010G19KT 10SM BKN032 BKN040 06/M01 A2984 710 62 -200 250/10G19 RMK AO2
14840KMKG MKG20101115061011011/15/10 06:10:31  5-MIN KMKG 151110Z 25010G19KT 10SM BKN032 BKN040 06/M01 A2984 700 62 -200 250/10G19 RMK AO2
14840KMKG MKG20101115061510411/15/10 06:15:31  5-MIN KMKG 151115Z 24013KT 10SM BKN032 BKN039 06/M01 A2984 700 65 -200 240/13 RMK AO2
14840KMKG MKG20101115062009711/15/10 06:20:31  5-MIN KMKG 151120Z 24010KT 10SM BKN033 06/M01 A2984 700 62 -200 250/10 RMK AO2
14840KMKG MKG20101115062509711/15/10 06:25:31  5-MIN KMKG 151125Z 24010KT 10SM BKN035 06/M01 A2984 700 65 -200 250/10 RMK AO2
14840KMKG MKG20101115063010211/15/10 06:30:31  5-MIN KMKG 151130Z 24009G19KT 10SM BKN035 06/00 A2984 700 67 -200 240/09G19 RMK AO2
14840KMKG MKG20101115063511011/15/10 06:35:31  5-MIN KMKG 151135Z 24008G19KT 10SM SCT029 BKN036 06/M01 A2984 700 65 -200 250/08G19 RMK AO2
14840KMKG MKG20101115064011011/15/10 06:40:31  5-MIN KMKG 151140Z 24013G18KT 10SM SCT029 BKN036 06/M01 A2984 700 65 -200 240/13G18 RMK AO2
14840KMKG MKG20101115064510311/15/10 06:45:31  5-MIN KMKG 151145Z 24014G19KT 10SM BKN031 06/M01 A2984 700 65 -200 240/14G19 RMK AO2
14840KMKG MKG20101115065015711/15/10 06:50:31  5-MIN KMKG 151150Z 24012G19KT 10SM BKN031 BKN038 06/M01 A2985 700 62 -200 240/12G19 RMK AO2 SLP110 60000 70001 T00561011 10061 20050 53002
14840KMKG MKG20101115065515011/15/10 06:55:31  5-MIN KMKG 151155Z 25007G18KT 10SM BKN031 06/M01 A2985 700 62 -200 250/07G18 RMK AO2 SLP110 60000 70001 T00561011 10061 20050 53004
14840KMKG MKG20101115070009711/15/10 07:00:31  5-MIN KMKG 151200Z 26009KT 10SM BKN031 06/M01 A2985 700 65 -200 260/09 RMK AO2
14840KMKG MKG20101115070510411/15/10 07:05:31  5-MIN KMKG 151205Z 26011KT 10SM BKN031 OVC036 06/M01 A2985 700 65 -200 270/11 RMK AO2
14840KMKG MKG20101115071010611/15/10 07:10:31  5-MIN KMKG 151210Z 25010KT 10SM BKN028 OVC036 06/M01 A2985 700 65 -200 250/10 RMK AO2 $
14840KMKG MKG20101115071510511/15/10 07:15:31  5-MIN KMKG 151215Z 25009KT 10SM BKN029 OVC038 06/00 A2985 700 67 -200 260/09 RMK AO2 $
14840KMKG MKG20101115072011111/15/10 07:20:31  5-MIN KMKG 151220Z 26012G18KT 10SM BKN029 OVC038 06/00 A2985 700 67 -200 260/12G18 RMK AO2 $
14840KMKG MKG20101115072511211/15/10 07:25:31  5-MIN KMKG 151225Z 26008G18KT 10SM BKN029 OVC038 06/M01 A2985 700 65 -200 270/08G18 RMK AO2 $
14840KMKG MKG20101115073011211/15/10 07:30:31  5-MIN KMKG 151230Z 26011G17KT 10SM BKN029 BKN034 06/M01 A2985 690 65 -200 260/11G17 RMK AO2 $
14840KMKG MKG20101115073510611/15/10 07:35:31  5-MIN KMKG 151235Z 27008KT 10SM BKN029 BKN034 06/M01 A2985 690 65 -200 270/08 RMK AO2 $
14840KMKG MKG20101115074010611/15/10 07:40:31  5-MIN KMKG 151240Z 25009KT 10SM BKN029 BKN034 06/M01 A2985 690 65 -200 260/09 RMK AO2 $
14840KMKG MKG20101115074510611/15/10 07:45:31  5-MIN KMKG 151245Z 25009KT 10SM SCT027 OVC033 06/M01 A2986 690 65 -200 250/09 RMK AO2 $
14840KMKG MKG20101115075012811/15/10 07:50:31  5-MIN KMKG 151250Z 25011G15KT 10SM BKN027 OVC033 06/00 A2986 690 67 -200 250/11G15 RMK AO2 SLP114 T00560000 $
14840KMKG MKG20101115075514411/15/10 07:55:31  5-MIN KMKG 151255Z 24010G15KT 10SM SCT027 OVC035 06/M01 A2986 690 65 -200 250/10G15 RMK AO2 CIG 030 RWY 14 SLP114 T00561006 $
14840KMKG MKG20101115080010611/15/10 08:00:31  5-MIN KMKG 151300Z 24009KT 10SM BKN029 OVC035 06/M01 A2986 690 65 -200 240/09 RMK AO2 $
14840KMKG MKG20101115080512111/15/10 08:05:31  5-MIN KMKG 151305Z 25008KT 10SM SCT027 OVC035 06/M01 A2986 680 65 -200 260/08 RMK AO2 CIG 028 RWY 14 $
14840KMKG MKG20101115081012611/15/10 08:10:31  5-MIN KMKG 151310Z 24009G15KT 10SM SCT027 OVC035 06/00 A2986 680 65 -100 240/09G15 RMK AO2 CIG 028 RWY 14 $
14840KMKG MKG20101115081512711/15/10 08:15:31  5-MIN KMKG 151315Z 23012G18KT 10SM SCT027 OVC035 06/M01 A2987 680 62 -100 240/12G18 RMK AO2 CIG 028 RWY 14 $
14840KMKG MKG20101115082010511/15/10 08:20:31  5-MIN KMKG 151320Z 24012G18KT 10SM BKN033 06/M01 A2987 680 65 -200 250/12G18 RMK AO2 $
14840KMKG MKG20101115082511211/15/10 08:25:31  5-MIN KMKG 151325Z 25009G16KT 10SM BKN031 BKN040 06/M01 A2987 680 62 -200 260/09G16 RMK AO2 $
14840KMKG MKG20101115083010611/15/10 08:30:31  5-MIN KMKG 151330Z 24010KT 10SM SCT028 OVC035 06/M01 A2987 670 65 -200 250/10 RMK AO2 $
14840KMKG MKG20101115083510611/15/10 08:35:31  5-MIN KMKG 151335Z 25008KT 10SM BKN033 OVC041 06/M01 A2987 670 65 -200 260/08 RMK AO2 $
14840KMKG MKG20101115084010611/15/10 08:40:31  5-MIN KMKG 151340Z 25010KT 10SM FEW029 BKN036 06/M01 A2987 670 65 -200 260/10 RMK AO2 $
14840KMKG MKG20101115084510611/15/10 08:45:31  5-MIN KMKG 151345Z 25009KT 10SM BKN033 BKN041 06/M01 A2988 670 62 -200 250/09 RMK AO2 $
14840KMKG MKG20101115085012311/15/10 08:50:31  5-MIN KMKG 151350Z 26007KT 10SM BKN033 BKN041 06/M01 A2988 670 62 -200 270/07 RMK AO2 SLP121 T00561011 $
14840KMKG MKG20101115085512311/15/10 08:55:31  5-MIN KMKG 151355Z 24008KT 10SM SCT030 BKN037 06/M01 A2988 670 62 -200 240/08 RMK AO2 SLP121 T00561011 $
14840KMKG MKG20101115090010611/15/10 09:00:31  5-MIN KMKG 151400Z 25009KT 10SM SCT033 SCT041 06/M01 A2988 670 60 -200 250/09 RMK AO2 $
14840KMKG MKG20101115090510611/15/10 09:05:31  5-MIN KMKG 151405Z 26011KT 10SM FEW030 SCT036 06/M01 A2988 670 60 -200 260/11 RMK AO2 $
14840KMKG MKG20101115091009911/15/10 09:10:31  5-MIN KMKG 151410Z 26008KT 10SM SCT032 06/M01 A2988 660 60 -200 260/08 RMK AO2 $
14840KMKG MKG20101115091509911/15/10 09:15:31  5-MIN KMKG 151415Z 26008KT 10SM SCT033 07/M01 A2988 660 57 -100 260/08 RMK AO2 $
14840KMKG MKG20101115092009911/15/10 09:20:31  5-MIN KMKG 151420Z 27009KT 10SM SCT033 06/M02 A2988 660 57 -200 280/09 RMK AO2 $
14840KMKG MKG20101115092509911/15/10 09:25:31  5-MIN KMKG 151425Z 24007KT 10SM FEW033 06/M02 A2989 660 57 -200 250/07 RMK AO2 $
14840KMKG MKG20101115093009911/15/10 09:30:31  5-MIN KMKG 151430Z 25006KT 10SM FEW033 06/M01 A2989 660 62 -200 260/06 RMK AO2 $
14840KMKG MKG20101115093509911/15/10 09:35:31  5-MIN KMKG 151435Z 25005KT 10SM FEW033 06/M02 A2989 660 57 -200 250/05 RMK AO2 $
14840KMKG MKG20101115094009911/15/10 09:40:31  5-MIN KMKG 151440Z 24009KT 10SM SCT033 07/M02 A2989 660 55 -100 250/09 RMK AO2 $
14840KMKG MKG20101115094509911/15/10 09:45:31  5-MIN KMKG 151445Z 24008KT 10SM SCT033 07/M02 A2989 650 55 -100 250/08 RMK AO2 $
14840KMKG MKG20101115095011911/15/10 09:50:31  5-MIN KMKG 151450Z 26007KT 10SM SCT033 07/M01 A2989 650 55 0 260/07 RMK AO2 SLP126 T00721011 53004 $
14840KMKG MKG20101115095511911/15/10 09:55:31  5-MIN KMKG 151455Z 24009KT 10SM SCT033 07/M01 A2989 650 55 0 250/09 RMK AO2 SLP127 T00721011 53016 $
14840KMKG MKG20101115100009611/15/10 10:00:31  5-MIN KMKG 151500Z 24006KT 10SM SCT033 07/M01 A2990 650 55 0 240/06 RMK AO2 $
14840KMKG MKG20101115100510211/15/10 10:05:31  5-MIN KMKG 151505Z 23011G15KT 10SM SCT033 07/M01 A2990 650 55 0 230/11G15 RMK AO2 $
14840KMKG MKG20101115101009611/15/10 10:10:31  5-MIN KMKG 151510Z 22009KT 10SM SCT033 07/M01 A2990 650 55 0 230/09 RMK AO2 $
14840KMKG MKG20101115101509611/15/10 10:15:31  5-MIN KMKG 151515Z 24007KT 10SM SCT033 07/M01 A2990 650 55 0 250/07 RMK AO2 $
14840KMKG MKG20101115102009611/15/10 10:20:31  5-MIN KMKG 151520Z 26009KT 10SM SCT033 07/M02 A2990 650 53 0 270/09 RMK AO2 $
14840KMKG MKG20101115102509611/15/10 10:25:31  5-MIN KMKG 151525Z 24008KT 10SM SCT033 07/M02 A2990 650 53 0 250/08 RMK AO2 $
14840KMKG MKG20101115103009611/15/10 10:30:31  5-MIN KMKG 151530Z 25007KT 10SM SCT033 08/M01 A2990 650 53 0 250/07 RMK AO2 $
14840KMKG MKG20101115103509611/15/10 10:35:31  5-MIN KMKG 151535Z 21010KT 10SM SCT033 08/M01 A2990 650 53 0 210/10 RMK AO2 $
14840KMKG MKG20101115104009611/15/10 10:40:31  5-MIN KMKG 151540Z 21009KT 10SM SCT033 08/M01 A2990 640 53 0 210/09 RMK AO2 $
14840KMKG MKG20101115104509611/15/10 10:45:31  5-MIN KMKG 151545Z 21009KT 10SM SCT033 08/M01 A2991 640 53 0 220/09 RMK AO2 $
14840KMKG MKG20101115105011311/15/10 10:50:31  5-MIN KMKG 151550Z 22012KT 10SM FEW036 08/M01 A2991 640 53 0 230/12 RMK AO2 SLP131 T00781011 $
14840KMKG MKG20101115105511311/15/10 10:55:31  5-MIN KMKG 151555Z 21009KT 10SM FEW036 08/M01 A2991 640 53 0 220/09 RMK AO2 SLP131 T00781011 $
14840KMKG MKG20101115110009611/15/10 11:00:31  5-MIN KMKG 151600Z 23010KT 10SM FEW036 08/M01 A2991 640 51 0 230/10 RMK AO2 $
14840KMKG MKG20101115110509611/15/10 11:05:31  5-MIN KMKG 151605Z 23010KT 10SM FEW036 08/M01 A2991 640 53 0 230/10 RMK AO2 $
14840KMKG MKG20101115111009611/15/10 11:10:31  5-MIN KMKG 151610Z 23009KT 10SM FEW036 08/M01 A2991 640 51 0 240/09 RMK AO2 $
14840KMKG MKG20101115111510211/15/10 11:15:31  5-MIN KMKG 151615Z 21008G15KT 10SM FEW036 08/M01 A2991 640 53 0 210/08G15 RMK AO2 $
14840KMKG MKG20101115112009611/15/10 11:20:31  5-MIN KMKG 151620Z 22009KT 10SM FEW036 08/M02 A2991 640 51 0 220/09 RMK AO2 $
14840KMKG MKG20101115112509611/15/10 11:25:31  5-MIN KMKG 151625Z 21009KT 10SM FEW036 08/M01 A2991 640 51 0 220/09 RMK AO2 $
14840KMKG MKG20101115113009611/15/10 11:30:31  5-MIN KMKG 151630Z 22009KT 10SM FEW036 08/M01 A2991 640 53 0 220/09 RMK AO2 $
14840KMKG MKG20101115113509611/15/10 11:35:31  5-MIN KMKG 151635Z 21009KT 10SM FEW036 08/M01 A2991 640 53 0 220/09 RMK AO2 $
14840KMKG MKG20101115114009611/15/10 11:40:31  5-MIN KMKG 151640Z 21010KT 10SM FEW036 08/M01 A2991 640 51 0 210/10 RMK AO2 $
14840KMKG MKG20101115114509611/15/10 11:45:31  5-MIN KMKG 151645Z 21008KT 10SM FEW036 08/M01 A2991 640 53 0 210/08 RMK AO2 $
14840KMKG MKG20101115115011311/15/10 11:50:31  5-MIN KMKG 151650Z 23010KT 10SM FEW036 08/M01 A2992 640 53 0 230/10 RMK AO2 SLP134 T00831006 $
14840KMKG MKG20101115115512011/15/10 11:55:31  5-MIN KMKG 151655Z 24008KT 10SM FEW036 SCT110 08/M01 A2992 630 53 0 240/08 RMK AO2 SLP134 T00831006 $
14840KMKG MKG20101115120010411/15/10 12:00:31  5-MIN KMKG 151700Z 22007KT 10SM FEW036 SCT110 09/01 A2991 640 56 100 230/07 RMK AO2 $
14840KMKG MKG20101115120510211/15/10 12:05:31  5-MIN KMKG 151705Z 21011KT 10SM FEW036 SCT110 08/00 A2991 640 55 0 220/11 RMK AO2 $
14840KMKG MKG20101115121010811/15/10 12:10:31  5-MIN KMKG 151710Z 22012G16KT 10SM FEW036 SCT110 08/00 A2991 640 55 0 230/12G16 RMK AO2 $
14840KMKG MKG20101115121510811/15/10 12:15:31  5-MIN KMKG 151715Z 22006G16KT 10SM FEW036 SCT110 08/01 A2991 640 58 0 220/06G16 RMK AO2 $
14840KMKG MKG20101115122011011/15/10 12:20:31  5-MIN KMKG 151720Z 22008G15KT 10SM FEW036 SCT110 09/01 A2991 640 56 100 220/08G15 RMK AO2 $
14840KMKG MKG20101115122511011/15/10 12:25:31  5-MIN KMKG 151725Z 22009G15KT 10SM FEW036 SCT120 09/01 A2991 640 56 200 220/09G15 RMK AO2 $
14840KMKG MKG20101115123010411/15/10 12:30:31  5-MIN KMKG 151730Z 24009KT 10SM FEW036 SCT120 09/01 A2991 640 56 200 240/09 RMK AO2 $
14840KMKG MKG20101115123510411/15/10 12:35:31  5-MIN KMKG 151735Z 23011KT 10SM FEW036 SCT120 09/01 A2991 640 58 100 240/11 RMK AO2 $
14840KMKG MKG20101115124010411/15/10 12:40:31  5-MIN KMKG 151740Z 22010KT 10SM FEW036 SCT120 09/01 A2990 650 58 100 230/10 RMK AO2 $
14840KMKG MKG20101115124511011/15/10 12:45:31  5-MIN KMKG 151745Z 23012G17KT 10SM FEW050 SCT120 09/01 A2990 650 56 200 230/12G17 RMK AO2 $
14840KMKG MKG20101115125013911/15/10 12:50:31  5-MIN KMKG 151750Z 22011KT 10SM FEW050 SCT120 09/01 A2990 650 58 100 220/11 RMK AO2 SLP129 T00890011 10094 20056 53016 $
14840KMKG MKG20101115125513711/15/10 12:55:31  5-MIN KMKG 151755Z 21009KT 10SM FEW050 SCT120 08/01 A2990 650 60 0 220/09 RMK AO2 SLP128 T00830011 10094 20056 50001 $
14840KMKG MKG20101115130010211/15/10 13:00:31  5-MIN KMKG 151800Z 23011KT 10SM FEW050 SCT110 08/01 A2990 650 60 0 230/11 RMK AO2 $
14840KMKG MKG20101115130510411/15/10 13:05:31  5-MIN KMKG 151805Z 20008KT 10SM BKN055 BKN110 09/02 A2989 660 60 100 210/08 RMK AO2 $
14840KMKG MKG20101115131010411/15/10 13:10:31  5-MIN KMKG 151810Z 20009KT 10SM BKN055 BKN110 09/02 A2989 660 60 100 200/09 RMK AO2 $
14840KMKG MKG20101115131510411/15/10 13:15:31  5-MIN KMKG 151815Z 21008KT 10SM BKN060 OVC110 09/02 A2989 660 58 200 220/08 RMK AO2 $
14840KMKG MKG20101115132011011/15/10 13:20:31  5-MIN KMKG 151820Z 21012G16KT 10SM FEW030 OVC060 09/02 A2989 660 60 200 210/12G16 RMK AO2 $
14840KMKG MKG20101115132511711/15/10 13:25:31  5-MIN KMKG 151825Z 20012G17KT 10SM SCT030 SCT037 OVC060 09/02 A2989 660 60 100 200/12G17 RMK AO2 $
14840KMKG MKG20101115133011011/15/10 13:30:31  5-MIN KMKG 151830Z 22010G17KT 10SM SCT030 OVC060 09/02 A2989 660 63 100 220/10G17 RMK AO2 $
14840KMKG MKG20101115133510411/15/10 13:35:31  5-MIN KMKG 151835Z 21011KT 10SM SCT030 OVC060 09/02 A2989 660 60 200 210/11 RMK AO2 $
14840KMKG MKG20101115134010411/15/10 13:40:31  5-MIN KMKG 151840Z 18011KT 10SM SCT030 BKN060 09/02 A2989 660 63 100 180/11 RMK AO2 $
14840KMKG MKG20101115134511111/15/10 13:45:31  5-MIN KMKG 151845Z 21012KT 10SM SCT028 BKN060 BKN110 09/02 A2988 660 63 100 220/12 RMK AO2 $
14840KMKG MKG20101115135012811/15/10 13:50:31  5-MIN KMKG 151850Z 19008KT 10SM FEW028 BKN060 OVC110 10/03 A2988 670 60 300 200/08 RMK AO2 SLP121 T01000028 $
14840KMKG MKG20101115135512811/15/10 13:55:31  5-MIN KMKG 151855Z 20008KT 10SM FEW028 BKN060 BKN110 09/03 A2988 670 63 200 210/08 RMK AO2 SLP121 T00940028 $
14840KMKG MKG20101115140010411/15/10 14:00:31  5-MIN KMKG 151900Z 19010KT 10SM FEW028 BKN110 10/03 A2988 670 60 300 190/10 RMK AO2 $
14840KMKG MKG20101115140511011/15/10 14:05:31  5-MIN KMKG 151905Z 18011G16KT 10SM FEW028 SCT110 09/03 A2988 670 63 200 190/11G16 RMK AO2 $
14840KMKG MKG20101115141010411/15/10 14:10:31  5-MIN KMKG 151910Z 20012KT 10SM FEW060 SCT110 09/02 A2987 670 60 200 210/12 RMK AO2 $
14840KMKG MKG20101115141510411/15/10 14:15:31  5-MIN KMKG 151915Z 20010KT 10SM FEW060 SCT110 09/02 A2987 670 60 100 200/10 RMK AO2 $
14840KMKG MKG20101115142010311/15/10 14:20:31  5-MIN KMKG 151920Z 18011G17KT 10SM SCT060 10/02 A2987 680 58 300 180/11G17 RMK AO2 $
14840KMKG MKG20101115142510311/15/10 14:25:31  5-MIN KMKG 151925Z 20011G18KT 10SM BKN060 10/02 A2987 680 56 300 200/11G18 RMK AO2 $
14840KMKG MKG20101115143010311/15/10 14:30:31  5-MIN KMKG 151930Z 20012G18KT 10SM BKN060 11/02 A2987 680 56 300 200/12G18 RMK AO2 $
14840KMKG MKG20101115143510311/15/10 14:35:31  5-MIN KMKG 151935Z 18013G18KT 10SM BKN060 10/02 A2987 680 58 300 180/13G18 RMK AO2 $
14840KMKG MKG20101115144010311/15/10 14:40:31  5-MIN KMKG 151940Z 18009G18KT 10SM OVC060 10/02 A2987 680 58 300 190/09G18 RMK AO2 $
14840KMKG MKG20101115144510311/15/10 14:45:31  5-MIN KMKG 151945Z 18012G20KT 10SM OVC065 10/02 A2987 680 56 300 190/12G20 RMK AO2 $
14840KMKG MKG20101115145012011/15/10 14:50:31  5-MIN KMKG 151950Z 20010G20KT 10SM OVC065 11/02 A2987 680 56 400 200/10G20 RMK AO2 SLP117 T01060022 $
14840KMKG MKG20101115145512011/15/10 14:55:31  5-MIN KMKG 151955Z 18014G18KT 10SM BKN065 09/02 A2987 680 60 200 190/14G18 RMK AO2 SLP117 T00940022 $
14840KMKG MKG20101115150009711/15/10 15:00:31  5-MIN KMKG 152000Z 18012KT 10SM OVC065 09/02 A2986 680 60 200 190/12 RMK AO2 $
14840KMKG MKG20101115150509711/15/10 15:05:31  5-MIN KMKG 152005Z 19014KT 10SM OVC065 09/02 A2986 680 60 200 200/14 RMK AO2 $
14840KMKG MKG20101115151010311/15/10 15:10:31  5-MIN KMKG 152010Z 18011G17KT 10SM OVC065 09/03 A2986 680 63 200 190/11G17 RMK AO2 $
14840KMKG MKG20101115151510311/15/10 15:15:31  5-MIN KMKG 152015Z 19013G17KT 10SM OVC065 09/03 A2986 680 63 200 200/13G17 RMK AO2 $
14840KMKG MKG20101115152010311/15/10 15:20:31  5-MIN KMKG 152020Z 19009G17KT 10SM OVC065 09/03 A2986 680 65 200 200/09G17 RMK AO2 $
14840KMKG MKG20101115152509711/15/10 15:25:31  5-MIN KMKG 152025Z 19009KT 10SM OVC070 09/03 A2986 680 65 200 200/09 RMK AO2 $
14840KMKG MKG20101115153009711/15/10 15:30:31  5-MIN KMKG 152030Z 18010KT 10SM OVC070 09/03 A2986 680 63 200 180/10 RMK AO2 $
14840KMKG MKG20101115153509711/15/10 15:35:31  5-MIN KMKG 152035Z 18010KT 10SM BKN065 09/03 A2986 690 63 200 190/10 RMK AO2 $
14840KMKG MKG20101115154009711/15/10 15:40:31  5-MIN KMKG 152040Z 18008KT 10SM BKN070 09/03 A2986 680 63 200 180/08 RMK AO2 $
14840KMKG MKG20101115154509711/15/10 15:45:31  5-MIN KMKG 152045Z 19011KT 10SM BKN065 09/02 A2986 680 60 200 200/11 RMK AO2 $
14840KMKG MKG20101115155012011/15/10 15:50:31  5-MIN KMKG 152050Z 19009KT 10SM BKN070 09/02 A2986 680 60 200 190/09 RMK AO2 SLP116 T00940022 50001 $
14840KMKG MKG20101115155511811/15/10 15:55:31  5-MIN KMKG 152055Z 19008KT 10SM BKN070 09/02 A2987 680 60 200 200/08 RMK AO2 SLP117 T00940022 56010
14840KMKG MKG20101115160009511/15/10 16:00:31  5-MIN KMKG 152100Z 20010KT 10SM BKN070 10/02 A2987 680 58 300 210/10 RMK AO2
14840KMKG MKG20101115160509511/15/10 16:05:31  5-MIN KMKG 152105Z 18008KT 10SM BKN070 10/02 A2987 680 58 300 190/08 RMK AO2
14840KMKG MKG20101115161009511/15/10 16:10:31  5-MIN KMKG 152110Z 18010KT 10SM BKN070 10/02 A2987 680 58 300 190/10 RMK AO2
14840KMKG MKG20101115161510111/15/10 16:15:31  5-MIN KMKG 152115Z 17013G17KT 10SM BKN070 10/02 A2987 680 58 300 180/13G17 RMK AO2
14840KMKG MKG20101115162010111/15/10 16:20:31  5-MIN KMKG 152120Z 19010G17KT 10SM SCT070 09/02 A2987 680 60 200 190/10G17 RMK AO2
14840KMKG MKG20101115162509511/15/10 16:25:31  5-MIN KMKG 152125Z 19011KT 10SM SCT070 09/02 A2987 680 60 200 190/11 RMK AO2
14840KMKG MKG20101115163009511/15/10 16:30:31  5-MIN KMKG 152130Z 18011KT 10SM BKN075 09/02 A2987 680 60 200 190/11 RMK AO2
14840KMKG MKG20101115163509511/15/10 16:35:31  5-MIN KMKG 152135Z 19010KT 10SM BKN075 09/02 A2987 670 60 200 200/10 RMK AO2
14840KMKG MKG20101115164009511/15/10 16:40:31  5-MIN KMKG 152140Z 18010KT 10SM BKN075 09/02 A2987 670 63 100 190/10 RMK AO2
14840KMKG MKG20101115164509511/15/10 16:45:31  5-MIN KMKG 152145Z 18009KT 10SM SCT075 09/03 A2987 670 65 100 180/09 RMK AO2
14840KMKG MKG20101115165011211/15/10 16:50:31  5-MIN KMKG 152150Z 18009KT 10SM SCT075 09/03 A2987 670 65 100 190/09 RMK AO2 SLP119 T00890028
14840KMKG MKG20101115165511211/15/10 16:55:31  5-MIN KMKG 152155Z 19007KT 10SM SCT075 09/02 A2987 680 63 100 190/07 RMK AO2 SLP119 T00890022
14840KMKG MKG20101115170009511/15/10 17:00:31  5-MIN KMKG 152200Z 18007KT 10SM FEW075 09/03 A2987 680 65 100 180/07 RMK AO2
14840KMKG MKG20101115170509211/15/10 17:05:31  5-MIN KMKG 152205Z 18006KT 10SM CLR 08/03 A2987 670 68 100 180/06 RMK AO2
14840KMKG MKG20101115171009211/15/10 17:10:31  5-MIN KMKG 152210Z 18007KT 10SM CLR 08/03 A2987 670 68 100 190/07 RMK AO2
14840KMKG MKG20101115171509211/15/10 17:15:31  5-MIN KMKG 152215Z 18006KT 10SM CLR 08/02 A2987 670 65 100 190/06 RMK AO2
14840KMKG MKG20101115172009211/15/10 17:20:31  5-MIN KMKG 152220Z 18005KT 10SM CLR 08/02 A2987 670 65 100 190/05 RMK AO2
14840KMKG MKG20101115172509011/15/10 17:25:31  5-MIN KMKG 152225Z 18006KT 10SM CLR 08/02 A2987 670 68 0 190/06 RMK AO2
14840KMKG MKG20101115173009211/15/10 17:30:31  5-MIN KMKG 152230Z 17004KT 10SM CLR 08/02 A2987 670 65 100 180/04 RMK AO2
14840KMKG MKG20101115173509011/15/10 17:35:31  5-MIN KMKG 152235Z 18004KT 10SM CLR 08/02 A2987 670 68 0 180/04 RMK AO2
14840KMKG MKG20101115174009011/15/10 17:40:31  5-MIN KMKG 152240Z 18005KT 10SM CLR 08/02 A2988 670 65 0 180/05 RMK AO2
14840KMKG MKG20101115174509011/15/10 17:45:31  5-MIN KMKG 152245Z 18005KT 10SM CLR 07/02 A2988 670 68 0 180/05 RMK AO2
14840KMKG MKG20101115175010911/15/10 17:50:31  5-MIN KMKG 152250Z 18006KT 10SM CLR 08/02 A2988 670 63 100 190/06 RMK AO2 SLP120 T00830017
14840KMKG MKG20101115175510711/15/10 17:55:31  5-MIN KMKG 152255Z 18005KT 10SM CLR 08/02 A2988 670 65 0 180/05 RMK AO2 SLP120 T00780017
14840KMKG MKG20101115180009011/15/10 18:00:31  5-MIN KMKG 152300Z 17005KT 10SM CLR 08/02 A2988 670 65 0 170/05 RMK AO2
14840KMKG MKG20101115180509011/15/10 18:05:31  5-MIN KMKG 152305Z 18005KT 10SM CLR 08/02 A2988 670 65 0 180/05 RMK AO2
14840KMKG MKG20101115181009011/15/10 18:10:31  5-MIN KMKG 152310Z 17006KT 10SM CLR 08/02 A2988 670 65 0 180/06 RMK AO2
14840KMKG MKG20101115181509011/15/10 18:15:31  5-MIN KMKG 152315Z 18006KT 10SM CLR 08/02 A2988 670 65 0 190/06 RMK AO2
14840KMKG MKG20101115182009211/15/10 18:20:31  5-MIN KMKG 152320Z 19006KT 10SM CLR 08/02 A2988 670 63 100 190/06 RMK AO2
14840KMKG MKG20101115182509211/15/10 18:25:31  5-MIN KMKG 152325Z 19008KT 10SM CLR 08/02 A2988 670 65 100 190/08 RMK AO2
14840KMKG MKG20101115183009211/15/10 18:30:31  5-MIN KMKG 152330Z 18006KT 10SM CLR 08/02 A2988 670 65 100 180/06 RMK AO2
14840KMKG MKG20101115183509011/15/10 18:35:31  5-MIN KMKG 152335Z 18006KT 10SM CLR 08/02 A2988 670 68 0 180/06 RMK AO2
14840KMKG MKG20101115184009011/15/10 18:40:31  5-MIN KMKG 152340Z 16005KT 10SM CLR 08/02 A2988 670 68 0 160/05 RMK AO2
14840KMKG MKG20101115184509311/15/10 18:45:31  5-MIN KMKG 152345Z 15005KT 10SM CLR 06/02 A2988 670 76 -200 150/05 RMK AO2
14840KMKG MKG20101115185012811/15/10 18:50:31  5-MIN KMKG 152350Z 13006KT 10SM CLR 06/02 A2988 670 76 -200 130/06 RMK AO2 SLP123 T00560017 10106 20056 56010
14840KMKG MKG20101115185512811/15/10 18:55:31  5-MIN KMKG 152355Z 13006KT 10SM CLR 06/02 A2988 670 76 -200 130/06 RMK AO2 SLP123 T00560017 10106 20056 51005
14840KMKG MKG20101115190009311/15/10 19:00:31  5-MIN KMKG 160000Z 13006KT 10SM CLR 05/02 A2988 660 79 -300 140/06 RMK AO2
14840KMKG MKG20101115190509311/15/10 19:05:31  5-MIN KMKG 160005Z 13006KT 10SM CLR 05/01 A2988 660 76 -300 140/06 RMK AO2
14840KMKG MKG20101115191009311/15/10 19:10:31  5-MIN KMKG 160010Z 13007KT 10SM CLR 05/02 A2989 660 79 -300 140/07 RMK AO2
14840KMKG MKG20101115191509611/15/10 19:15:31  5-MIN KMKG 160015Z 13007KT 10SM FEW075 05/02 A2989 660 79 -300 140/07 RMK AO2
14840KMKG MKG20101115192009611/15/10 19:20:31  5-MIN KMKG 160020Z 13006KT 10SM SCT075 06/02 A2989 660 76 -200 140/06 RMK AO2
14840KMKG MKG20101115192509611/15/10 19:25:31  5-MIN KMKG 160025Z 14005KT 10SM BKN075 05/02 A2989 660 79 -300 140/05 RMK AO2
14840KMKG MKG20101115193009611/15/10 19:30:31  5-MIN KMKG 160030Z 14005KT 10SM BKN075 05/02 A2989 660 79 -300 140/05 RMK AO2
14840KMKG MKG20101115193509611/15/10 19:35:31  5-MIN KMKG 160035Z 14005KT 10SM BKN075 05/02 A2989 660 79 -300 150/05 RMK AO2
14840KMKG MKG20101115194009611/15/10 19:40:31  5-MIN KMKG 160040Z 14005KT 10SM OVC070 05/02 A2989 660 79 -300 150/05 RMK AO2
14840KMKG MKG20101115194510311/15/10 19:45:31  5-MIN KMKG 160045Z 14005KT 10SM FEW031 OVC070 05/02 A2989 660 79 -300 140/05 RMK AO2
14840KMKG MKG20101115195012011/15/10 19:50:31  5-MIN KMKG 160050Z 14005KT 10SM FEW031 OVC075 05/02 A2989 660 79 -300 140/05 RMK AO2 SLP125 T00500017
14840KMKG MKG20101115195511311/15/10 19:55:31  5-MIN KMKG 160055Z 13005KT 10SM OVC075 05/02 A2989 660 79 -300 130/05 RMK AO2 SLP125 T00500017
14840KMKG MKG20101115200009611/15/10 20:00:31  5-MIN KMKG 160100Z 13006KT 10SM OVC075 05/02 A2989 660 79 -300 140/06 RMK AO2
14840KMKG MKG20101115200509611/15/10 20:05:31  5-MIN KMKG 160105Z 13006KT 10SM OVC075 06/02 A2989 660 76 -200 130/06 RMK AO2
14840KMKG MKG20101115201010311/15/10 20:10:31  5-MIN KMKG 160110Z 13006KT 10SM FEW031 OVC075 06/02 A2989 660 76 -200 140/06 RMK AO2
14840KMKG MKG20101115201510311/15/10 20:15:31  5-MIN KMKG 160115Z 13005KT 10SM FEW033 OVC075 05/02 A2988 660 79 -300 130/05 RMK AO2
14840KMKG MKG20101115202010311/15/10 20:20:31  5-MIN KMKG 160120Z 13006KT 10SM FEW033 OVC075 05/02 A2988 660 79 -300 130/06 RMK AO2
14840KMKG MKG20101115202510311/15/10 20:25:31  5-MIN KMKG 160125Z 13006KT 10SM FEW033 OVC075 06/02 A2988 660 76 -200 140/06 RMK AO2
14840KMKG MKG20101115203010311/15/10 20:30:31  5-MIN KMKG 160130Z 14006KT 10SM FEW033 OVC080 06/02 A2988 660 76 -200 140/06 RMK AO2
14840KMKG MKG20101115203510311/15/10 20:35:31  5-MIN KMKG 160135Z 14006KT 10SM SCT035 OVC080 06/02 A2988 660 79 -200 140/06 RMK AO2
14840KMKG MKG20101115204010311/15/10 20:40:31  5-MIN KMKG 160140Z 14006KT 10SM BKN035 OVC080 06/02 A2988 670 76 -200 140/06 RMK AO2
14840KMKG MKG20101115204510311/15/10 20:45:31  5-MIN KMKG 160145Z 14006KT 10SM BKN035 OVC075 07/02 A2988 670 73 -100 140/06 RMK AO2
14840KMKG MKG20101115205012711/15/10 20:50:31  5-MIN KMKG 160150Z 14005KT 10SM SCT035 BKN042 OVC075 07/02 A2988 670 73 -100 150/05 RMK AO2 SLP123 T00670022
14840KMKG MKG20101115205512711/15/10 20:55:31  5-MIN KMKG 160155Z 14006KT 10SM BKN039 BKN060 OVC080 07/02 A2988 670 73 -100 140/06 RMK AO2 SLP123 T00670022
14840KMKG MKG20101115210010711/15/10 21:00:31  5-MIN KMKG 160200Z 14006KT 10SM BKN038 BKN048 OVC060 07/02 A2988 670 70 0 140/06 RMK AO2
14840KMKG MKG20101115210512211/15/10 21:05:31  5-MIN KMKG 160205Z 15004KT 10SM SCT034 BKN043 OVC075 07/02 A2988 670 70 0 150/04 RMK AO2 CIG 036 RWY 14
14840KMKG MKG20101115211010711/15/10 21:10:31  5-MIN KMKG 160210Z 15004KT 10SM BKN038 BKN049 OVC090 07/02 A2988 670 70 0 160/04 RMK AO2
14840KMKG MKG20101115211510711/15/10 21:15:31  5-MIN KMKG 160215Z 16005KT 10SM SCT038 BKN049 OVC090 07/02 A2988 670 70 0 160/05 RMK AO2
14840KMKG MKG20101115212010711/15/10 21:20:31  5-MIN KMKG 160220Z 15005KT 10SM FEW034 BKN049 OVC085 07/02 A2988 670 70 0 150/05 RMK AO2
14840KMKG MKG20101115212510711/15/10 21:25:31  5-MIN KMKG 160225Z 14005KT 10SM BKN038 BKN049 OVC085 07/02 A2988 670 70 0 150/05 RMK AO2
14840KMKG MKG20101115213010711/15/10 21:30:31  5-MIN KMKG 160230Z 15005KT 10SM SCT038 BKN049 OVC090 07/02 A2988 670 70 0 150/05 RMK AO2
14840KMKG MKG20101115213510711/15/10 21:35:31  5-MIN KMKG 160235Z 15005KT 10SM FEW038 BKN060 OVC085 07/02 A2988 670 68 0 150/05 RMK AO2
14840KMKG MKG20101115214010711/15/10 21:40:31  5-MIN KMKG 160240Z 15004KT 10SM FEW040 BKN060 OVC090 07/02 A2988 670 68 0 160/04 RMK AO2
14840KMKG MKG20101115214510711/15/10 21:45:31  5-MIN KMKG 160245Z 15005KT 10SM FEW038 BKN060 OVC090 07/02 A2988 670 68 0 150/05 RMK AO2
14840KMKG MKG20101115215013011/15/10 21:50:31  5-MIN KMKG 160250Z 15006KT 10SM SCT037 BKN060 OVC090 08/02 A2988 670 65 0 150/06 RMK AO2 SLP120 T00780017 51005
14840KMKG MKG20101115215514511/15/10 21:55:31  5-MIN KMKG 160255Z 14007KT 10SM FEW035 BKN060 OVC090 07/02 A2987 670 68 0 150/07 RMK AO2 CIG 050 RWY 14 SLP120 T00720017 58002
14840KMKG MKG20101115220010711/15/10 22:00:31  5-MIN KMKG 160300Z 15006KT 10SM SCT039 BKN065 OVC090 08/02 A2987 670 65 0 150/06 RMK AO2
14840KMKG MKG20101115220512311/15/10 22:05:31  5-MIN KMKG 160305Z 14005KT 10SM -RA FEW036 BKN065 OVC090 08/02 A2987 670 65 0 150/05 RMK AO2 RAB04 P0000
14840KMKG MKG20101115221012311/15/10 22:10:31  5-MIN KMKG 160310Z 15007KT 10SM -RA SCT036 BKN043 OVC090 08/02 A2987 670 65 0 160/07 RMK AO2 RAB04 P0000
14840KMKG MKG20101115221512311/15/10 22:15:31  5-MIN KMKG 160315Z 14006KT 10SM -RA SCT036 BKN043 OVC090 07/02 A2987 670 70 0 150/06 RMK AO2 RAB04 P0001
14840KMKG MKG20101115222012311/15/10 22:20:31  5-MIN KMKG 160320Z 14006KT 10SM -RA BKN038 BKN045 OVC075 07/03 A2987 680 73 0 150/06 RMK AO2 RAB04 P0001
14840KMKG MKG20101115222512311/15/10 22:25:31  5-MIN KMKG 160325Z 15006KT 10SM -RA BKN038 BKN047 OVC070 07/03 A2987 680 73 0 150/06 RMK AO2 RAB04 P0001
14840KMKG MKG20101115223012311/15/10 22:30:31  5-MIN KMKG 160330Z 14007KT 10SM -RA BKN038 BKN047 OVC060 07/03 A2987 680 73 0 140/07 RMK AO2 RAB04 P0001
14840KMKG MKG20101115223512511/15/10 22:35:31  5-MIN KMKG 160335Z 15006KT 10SM BKN038 BKN049 OVC060 07/03 A2987 680 76 -100 150/06 RMK AO2 RAB04E35 P0001
14840KMKG MKG20101115224012311/15/10 22:40:31  5-MIN KMKG 160340Z 14007KT 10SM -RA BKN038 BKN046 OVC060 07/03 A2987 680 73 0 150/07 RMK AO2 RAB04 P0001
14840KMKG MKG20101115224512311/15/10 22:45:31  5-MIN KMKG 160345Z 16006KT 10SM -RA BKN041 BKN060 OVC090 07/03 A2987 680 73 0 160/06 RMK AO2 RAB04 P0001
14840KMKG MKG20101115225014311/15/10 22:50:31  5-MIN KMKG 160350Z 15005KT 10SM -RA BKN041 BKN060 OVC090 07/03 A2987 680 76 -100 150/05 RMK AO2 RAB04 SLP118 P0001 T00670028
14840KMKG MKG20101115225515811/15/10 22:55:31  5-MIN KMKG 160355Z 16005KT 10SM -RA SCT043 BKN055 OVC090 07/03 A2987 680 76 -100 160/05 RMK AO2 RAB04 CIG 047 RWY 14 SLP118 P0001 T00670028
14840KMKG MKG20101115230012411/15/10 23:00:31  5-MIN KMKG 160400Z 15005KT 10SM SCT043 SCT060 OVC095 07/03 A2987 680 76 -100 150/05 RMK AO2 RAE0357 P0000
14840KMKG MKG20101115230511711/15/10 23:05:31  5-MIN KMKG 160405Z 15006KT 10SM FEW043 OVC095 07/03 A2987 680 76 -100 160/06 RMK AO2 RAE0357 P0000
14840KMKG MKG20101115231011711/15/10 23:10:31  5-MIN KMKG 160410Z 16006KT 10SM FEW043 OVC095 07/03 A2987 680 76 -100 160/06 RMK AO2 RAE0357 P0000
14840KMKG MKG20101115231511711/15/10 23:15:31  5-MIN KMKG 160415Z 16006KT 10SM FEW045 OVC095 07/03 A2987 680 76 -100 160/06 RMK AO2 RAE0357 P0000
14840KMKG MKG20101115232011711/15/10 23:20:31  5-MIN KMKG 160420Z 16006KT 10SM FEW065 OVC095 07/03 A2987 680 76 -100 160/06 RMK AO2 RAE0357 P0000
14840KMKG MKG20101115232511611/15/10 23:25:31  5-MIN KMKG 160425Z 16007KT 9SM SCT060 OVC095 07/03 A2987 680 76 -100 160/07 RMK AO2 RAE0357 P0000
14840KMKG MKG20101115233013011/15/10 23:30:31  5-MIN KMKG 160430Z 15006KT 7SM -RA SCT048 BKN060 OVC095 07/03 A2986 680 79 -100 150/06 RMK AO2 RAE0357B26 P0001
14840KMKG MKG20101115233513011/15/10 23:35:31  5-MIN KMKG 160435Z 14006KT 8SM -RA SCT048 BKN060 OVC095 07/03 A2986 680 76 -100 150/06 RMK AO2 RAE0357B26 P0001
14840KMKG MKG20101115234013111/15/10 23:40:31  5-MIN KMKG 160440Z 13007KT 10SM -RA BKN048 BKN060 OVC090 07/03 A2986 680 79 -100 140/07 RMK AO2 RAE0357B26 P0001
14840KMKG MKG20101115234513011/15/10 23:45:31  5-MIN KMKG 160445Z 14007KT 10SM BKN048 BKN060 OVC085 06/03 A2986 680 82 -100 140/07 RMK AO2 RAE0357B26E42 P0001
14840KMKG MKG20101115235015811/15/10 23:50:31  5-MIN KMKG 160450Z 14007KT 10SM -RA BKN048 BKN060 OVC080 07/03 A2986 690 79 -100 150/07 RMK AO2 RAE0357B26 SLP115 P0001 T00670033 401060050
14840KMKG MKG20101115235515111/15/10 23:55:31  5-MIN KMKG 160455Z 15007KT 10SM -RA SCT048 OVC085 07/03 A2986 690 79 -100 150/07 RMK AO2 RAE0357B26 SLP115 P0001 T00670033 401060050
14840KMKG MKG20101116000011811/16/10 00:00:32  5-MIN KMKG 160500Z 16007KT 10SM FEW048 SCT055 OVC085 07/03 A2986 690 79 -100 160/07 RMK AO2 RAE0456
14840KMKG MKG20101116000511111/16/10 00:05:31  5-MIN KMKG 160505Z 16007KT 10SM FEW048 OVC085 07/03 A2986 690 79 -100 160/07 RMK AO2 RAE0456
14840KMKG MKG20101116001011111/16/10 00:10:31  5-MIN KMKG 160510Z 16007KT 10SM FEW055 OVC085 07/03 A2986 690 79 -100 160/07 RMK AO2 RAE0456
14840KMKG MKG20101116001510411/16/10 00:15:31  5-MIN KMKG 160515Z 16007KT 10SM OVC085 07/03 A2986 680 79 -100 160/07 RMK AO2 RAE0456
14840KMKG MKG20101116002010411/16/10 00:20:31  5-MIN KMKG 160520Z 15008KT 10SM OVC085 07/03 A2986 690 79 -100 160/08 RMK AO2 RAE0456
14840KMKG MKG20101116002510411/16/10 00:25:31  5-MIN KMKG 160525Z 15008KT 10SM OVC085 07/03 A2986 690 76 -100 160/08 RMK AO2 RAE0456
14840KMKG MKG20101116003010411/16/10 00:30:31  5-MIN KMKG 160530Z 15008KT 10SM OVC085 07/03 A2986 690 76 -100 160/08 RMK AO2 RAE0456
14840KMKG MKG20101116003510411/16/10 00:35:31  5-MIN KMKG 160535Z 16007KT 10SM OVC085 07/03 A2986 690 76 -100 160/07 RMK AO2 RAE0456
14840KMKG MKG20101116004011111/16/10 00:40:31  5-MIN KMKG 160540Z 16006KT 10SM FEW048 OVC085 07/03 A2986 690 76 -100 160/06 RMK AO2 RAE0456
14840KMKG MKG20101116004511111/16/10 00:45:31  5-MIN KMKG 160545Z 16007KT 10SM FEW048 OVC090 07/03 A2986 690 76 -100 160/07 RMK AO2 RAE0456
14840KMKG MKG20101116005015211/16/10 00:50:31  5-MIN KMKG 160550Z 16007KT 10SM SCT050 OVC090 07/03 A2986 690 76 -100 160/07 RMK AO2 RAE0456 SLP115 60002 T00670028 10078 20050 58002
14840KMKG MKG20101116005515911/16/10 00:55:31  5-MIN KMKG 160555Z 16007KT 10SM SCT050 SCT060 OVC090 07/03 A2986 690 76 -100 160/07 RMK AO2 RAE0456 SLP115 60002 T00670028 10078 20050 56005
14840KMKG MKG20101116010011011/16/10 01:00:31  5-MIN KMKG 160600Z 16006KT 10SM SCT048 SCT060 OVC090 07/03 A2986 690 76 -100 170/06 RMK AO2
14840KMKG MKG20101116010510711/16/10 01:05:31  5-MIN KMKG 160605Z 16006KT 10SM SCT047 BKN060 OVC090 07/03 A2986 690 73 0 170/06 RMK AO2
14840KMKG MKG20101116011010711/16/10 01:10:31  5-MIN KMKG 160610Z 15007KT 10SM SCT048 BKN060 OVC090 07/03 A2986 690 73 0 160/07 RMK AO2
14840KMKG MKG20101116011510011/16/10 01:15:31  5-MIN KMKG 160615Z 15006KT 10SM BKN055 OVC085 07/03 A2985 690 73 0 160/06 RMK AO2
14840KMKG MKG20101116012010711/16/10 01:20:31  5-MIN KMKG 160620Z 16007KT 10SM SCT050 BKN060 OVC090 07/03 A2985 690 76 0 160/07 RMK AO2
14840KMKG MKG20101116012510711/16/10 01:25:31  5-MIN KMKG 160625Z 16006KT 10SM FEW044 SCT055 OVC090 07/03 A2985 700 76 0 170/06 RMK AO2
14840KMKG MKG20101116013010011/16/10 01:30:31  5-MIN KMKG 160630Z 16007KT 10SM SCT055 OVC090 07/03 A2985 700 76 0 160/07 RMK AO2
14840KMKG MKG20101116013510011/16/10 01:35:31  5-MIN KMKG 160635Z 16006KT 10SM FEW055 OVC090 07/03 A2985 700 76 0 160/06 RMK AO2
14840KMKG MKG20101116014009311/16/10 01:40:31  5-MIN KMKG 160640Z 16006KT 10SM OVC090 07/03 A2985 700 76 0 170/06 RMK AO2
14840KMKG MKG20101116014509311/16/10 01:45:31  5-MIN KMKG 160645Z 16005KT 10SM OVC090 07/03 A2985 700 76 0 160/05 RMK AO2
14840KMKG MKG20101116015011011/16/10 01:50:31  5-MIN KMKG 160650Z 16005KT 10SM OVC090 07/03 A2984 700 76 0 160/05 RMK AO2 SLP108 T00720033
14840KMKG MKG20101116015511011/16/10 01:55:31  5-MIN KMKG 160655Z 16007KT 10SM OVC090 07/03 A2984 700 76 0 160/07 RMK AO2 SLP109 T00720033
14840KMKG MKG20101116020009311/16/10 02:00:31  5-MIN KMKG 160700Z 15006KT 10SM OVC090 08/04 A2984 700 76 0 160/06 RMK AO2
14840KMKG MKG20101116020509311/16/10 02:05:31  5-MIN KMKG 160705Z 15007KT 10SM OVC090 08/04 A2985 700 76 0 160/07 RMK AO2
14840KMKG MKG20101116021009311/16/10 02:10:31  5-MIN KMKG 160710Z 16006KT 10SM OVC090 08/04 A2985 700 76 0 160/06 RMK AO2
14840KMKG MKG20101116021510011/16/10 02:15:31  5-MIN KMKG 160715Z 15005KT 10SM FEW048 OVC090 08/04 A2985 690 76 0 160/05 RMK AO2
14840KMKG MKG20101116022010011/16/10 02:20:31  5-MIN KMKG 160720Z 17006KT 10SM SCT048 OVC090 08/04 A2985 690 76 0 170/06 RMK AO2
14840KMKG MKG20101116022511511/16/10 02:25:31  5-MIN KMKG 160725Z 17005KT 10SM SCT048 OVC090 08/04 A2985 690 76 0 170/05 RMK AO2 CIG 050 RWY 14
14840KMKG MKG20101116023010011/16/10 02:30:31  5-MIN KMKG 160730Z 17005KT 10SM FEW050 OVC090 08/04 A2985 690 76 0 180/05 RMK AO2
14840KMKG MKG20101116023510711/16/10 02:35:31  5-MIN KMKG 160735Z 17006KT 10SM FEW050 SCT065 OVC095 08/04 A2985 690 76 0 180/06 RMK AO2
14840KMKG MKG20101116024010911/16/10 02:40:31  5-MIN KMKG 160740Z 16006KT 10SM FEW050 SCT065 OVC100 08/04 A2985 690 76 100 170/06 RMK AO2
14840KMKG MKG20101116024510011/16/10 02:45:31  5-MIN KMKG 160745Z 14005KT 10SM FEW050 OVC100 07/04 A2985 690 79 0 140/05 RMK AO2
14840KMKG MKG20101116025012011/16/10 02:50:31  5-MIN KMKG 160750Z 14005KT 10SM FEW055 OVC100 07/04 A2985 690 82 -100 150/05 RMK AO2 SLP111 T00670039
14840KMKG MKG20101116025511311/16/10 02:55:31  5-MIN KMKG 160755Z 14005KT 10SM OVC100 07/04 A2985 690 82 -100 140/05 RMK AO2 SLP112 T00670039
14840KMKG MKG20101116030010311/16/10 03:00:31  5-MIN KMKG 160800Z 15005KT 10SM FEW065 OVC100 07/04 A2985 690 82 -100 150/05 RMK AO2
14840KMKG MKG20101116030510311/16/10 03:05:31  5-MIN KMKG 160805Z 14005KT 10SM SCT065 OVC095 07/04 A2985 690 82 -100 150/05 RMK AO2
14840KMKG MKG20101116031011811/16/10 03:10:31  5-MIN KMKG 160810Z 14005KT 10SM SCT060 OVC095 07/04 A2985 690 82 -100 140/05 RMK AO2 CIG 065 RWY 14
14840KMKG MKG20101116031510311/16/10 03:15:31  5-MIN KMKG 160815Z 15005KT 10SM SCT060 OVC100 07/04 A2985 690 82 -100 150/05 RMK AO2
14840KMKG MKG20101116032010311/16/10 03:20:31  5-MIN KMKG 160820Z 15006KT 10SM SCT060 OVC100 07/04 A2985 690 82 -100 160/06 RMK AO2
14840KMKG MKG20101116032510011/16/10 03:25:31  5-MIN KMKG 160825Z 16006KT 10SM SCT065 OVC100 07/04 A2985 690 79 0 160/06 RMK AO2
14840KMKG MKG20101116033010011/16/10 03:30:31  5-MIN KMKG 160830Z 15005KT 10SM FEW060 OVC100 07/04 A2985 690 79 0 150/05 RMK AO2
14840KMKG MKG20101116033510311/16/10 03:35:31  5-MIN KMKG 160835Z 15005KT 10SM FEW060 OVC100 06/03 A2985 690 82 -100 150/05 RMK AO2
14840KMKG MKG20101116034009611/16/10 03:40:31  5-MIN KMKG 160840Z 16005KT 10SM OVC100 07/03 A2985 690 79 -100 160/05 RMK AO2
14840KMKG MKG20101116034509311/16/10 03:45:31  5-MIN KMKG 160845Z 16006KT 10SM BKN100 07/04 A2985 690 79 0 160/06 RMK AO2
14840KMKG MKG20101116035011911/16/10 03:50:31  5-MIN KMKG 160850Z 15004KT 10SM BKN100 06/03 A2985 690 82 -100 160/04 RMK AO2 SLP112 T00610033 56005
14840KMKG MKG20101116035511911/16/10 03:55:31  5-MIN KMKG 160855Z 15005KT 10SM SCT100 06/03 A2985 690 85 -200 160/05 RMK AO2 SLP113 T00560033 55002
14840KMKG MKG20101116040009611/16/10 04:00:31  5-MIN KMKG 160900Z 15005KT 10SM SCT095 06/03 A2985 690 85 -200 160/05 RMK AO2
14840KMKG MKG20101116040509611/16/10 04:05:31  5-MIN KMKG 160905Z 16003KT 10SM FEW095 06/03 A2985 690 85 -200 160/03 RMK AO2
14840KMKG MKG20101116041009611/16/10 04:10:31  5-MIN KMKG 160910Z 16004KT 10SM FEW090 06/03 A2985 690 85 -200 160/04 RMK AO2
14840KMKG MKG20101116041509611/16/10 04:15:31  5-MIN KMKG 160915Z 15004KT 10SM FEW085 06/03 A2985 690 82 -200 150/04 RMK AO2
14840KMKG MKG20101116043009811/16/10 04:30:31  5-MIN KMKG 160930Z 14006KT 10SM BKN090 05/03 A2985 700 85 -300 140/06 RMK AO2 $
14840KMKG MKG20101116043509811/16/10 04:35:31  5-MIN KMKG 160935Z 14007KT 10SM BKN090 05/02 A2985 690 82 -300 140/07 RMK AO2 $
14840KMKG MKG20101116044009811/16/10 04:40:31  5-MIN KMKG 160940Z 14007KT 10SM BKN090 05/02 A2985 690 82 -300 150/07 RMK AO2 $
14840KMKG MKG20101116044509811/16/10 04:45:31  5-MIN KMKG 160945Z 14008KT 10SM OVC090 05/02 A2985 690 82 -300 150/08 RMK AO2 $
14840KMKG MKG20101116045011511/16/10 04:50:31  5-MIN KMKG 160950Z 15007KT 10SM BKN090 06/02 A2985 690 79 -200 150/07 RMK AO2 SLP112 T00560022 $
14840KMKG MKG20101116045511511/16/10 04:55:31  5-MIN KMKG 160955Z 15008KT 10SM BKN095 06/02 A2985 690 79 -200 150/08 RMK AO2 SLP112 T00560022 $
14840KMKG MKG20101116050009811/16/10 05:00:31  5-MIN KMKG 161000Z 15007KT 10SM BKN095 06/02 A2985 690 76 -200 160/07 RMK AO2 $
14840KMKG MKG20101116050509811/16/10 05:05:31  5-MIN KMKG 161005Z 15008KT 10SM BKN095 06/02 A2985 690 76 -200 150/08 RMK AO2 $
14840KMKG MKG20101116051009811/16/10 05:10:31  5-MIN KMKG 161010Z 15008KT 10SM BKN095 06/02 A2985 690 76 -200 160/08 RMK AO2 $
14840KMKG MKG20101116051509811/16/10 05:15:31  5-MIN KMKG 161015Z 15009KT 10SM BKN095 05/02 A2986 690 79 -300 150/09 RMK AO2 $
14840KMKG MKG20101116052010511/16/10 05:20:31  5-MIN KMKG 161020Z 15008KT 10SM FEW050 SCT100 05/01 A2986 690 76 -300 160/08 RMK AO2 $
14840KMKG MKG20101116052510311/16/10 05:25:31  5-MIN KMKG 161025Z 15007KT 10SM SCT050 BKN100 05/01 A2986 690 76 -300 160/07 RMK AO2
14840KMKG MKG20101116053010311/16/10 05:30:31  5-MIN KMKG 161030Z 15007KT 10SM BKN050 BKN100 05/01 A2985 690 76 -300 160/07 RMK AO2
14840KMKG MKG20101116053510311/16/10 05:35:31  5-MIN KMKG 161035Z 15008KT 10SM BKN050 BKN100 05/01 A2985 690 76 -300 150/08 RMK AO2
14840KMKG MKG20101116054009611/16/10 05:40:31  5-MIN KMKG 161040Z 15007KT 10SM BKN055 05/01 A2985 690 76 -300 150/07 RMK AO2
14840KMKG MKG20101116054509611/16/10 05:45:31  5-MIN KMKG 161045Z 15006KT 10SM OVC055 05/01 A2985 690 73 -300 150/06 RMK AO2
14840KMKG MKG20101116055011311/16/10 05:50:31  5-MIN KMKG 161050Z 15007KT 10SM OVC055 04/01 A2985 690 76 -300 150/07 RMK AO2 SLP112 T00440006
14840KMKG MKG20101116055511311/16/10 05:55:31  5-MIN KMKG 161055Z 15006KT 10SM BKN055 04/01 A2985 700 76 -300 150/06 RMK AO2 SLP112 T00440006
14840KMKG MKG20101116060009611/16/10 06:00:31  5-MIN KMKG 161100Z 16006KT 10SM BKN055 04/01 A2985 700 76 -300 160/06 RMK AO2
14840KMKG MKG20101116060509611/16/10 06:05:31  5-MIN KMKG 161105Z 17004KT 10SM BKN055 04/01 A2985 700 76 -300 180/04 RMK AO2
14840KMKG MKG20101116061009611/16/10 06:10:31  5-MIN KMKG 161110Z 16006KT 10SM SCT055 04/00 A2985 700 73 -300 160/06 RMK AO2
14840KMKG MKG20101116061509611/16/10 06:15:31  5-MIN KMKG 161115Z 16005KT 10SM FEW055 04/00 A2985 700 76 -400 160/05 RMK AO2
14840KMKG MKG20101116062009611/16/10 06:20:31  5-MIN KMKG 161120Z 15005KT 10SM FEW055 04/00 A2985 700 76 -400 160/05 RMK AO2
14840KMKG MKG20101116062509611/16/10 06:25:31  5-MIN KMKG 161125Z 15004KT 10SM FEW055 04/00 A2985 700 76 -400 160/04 RMK AO2
14840KMKG MKG20101116063009311/16/10 06:30:31  5-MIN KMKG 161130Z 16004KT 10SM CLR 04/00 A2985 700 76 -400 170/04 RMK AO2
14840KMKG MKG20101116063509311/16/10 06:35:31  5-MIN KMKG 161135Z 16004KT 10SM CLR 04/00 A2985 700 76 -400 160/04 RMK AO2
14840KMKG MKG20101116064009411/16/10 06:40:31  5-MIN KMKG 161140Z 16005KT 10SM CLR 03/M01 A2985 700 76 -500 170/05 RMK AO2
14840KMKG MKG20101116064509411/16/10 06:45:31  5-MIN KMKG 161145Z 16005KT 10SM CLR 04/M01 A2985 700 73 -400 160/05 RMK AO2
14840KMKG MKG20101116065013511/16/10 06:50:31  5-MIN KMKG 161150Z 15004KT 10SM CLR 03/M01 A2985 700 76 -500 150/04 RMK AO2 SLP113 70002 T00331006 10083 20033 55002
14840KMKG MKG20101116065513511/16/10 06:55:31  5-MIN KMKG 161155Z 14004KT 10SM CLR 03/M01 A2985 700 76 -500 140/04 RMK AO2 SLP113 70002 T00331006 10083 20033 55002
14840KMKG MKG20101116070009311/16/10 07:00:31  5-MIN KMKG 161200Z 00000KT 9SM CLR 03/M01 A2985 690 79 -500 000/00 RMK AO2
14840KMKG MKG20101116070509311/16/10 07:05:31  5-MIN KMKG 161205Z 14004KT 9SM CLR 02/M01 A2985 690 82 -600 140/04 RMK AO2
14840KMKG MKG20101116071009311/16/10 07:10:31  5-MIN KMKG 161210Z 14005KT 9SM CLR 02/M01 A2985 690 82 -600 140/05 RMK AO2
14840KMKG MKG20101116071509311/16/10 07:15:31  5-MIN KMKG 161215Z 14005KT 9SM CLR 02/M01 A2985 690 82 -600 150/05 RMK AO2
14840KMKG MKG20101116072009311/16/10 07:20:31  5-MIN KMKG 161220Z 14006KT 9SM CLR 03/M01 A2985 690 79 -500 150/06 RMK AO2
14840KMKG MKG20101116072509311/16/10 07:25:31  5-MIN KMKG 161225Z 15006KT 9SM CLR 03/M01 A2985 700 79 -500 150/06 RMK AO2
14840KMKG MKG20101116073009311/16/10 07:30:31  5-MIN KMKG 161230Z 14006KT 9SM CLR 03/M01 A2985 700 79 -500 140/06 RMK AO2
14840KMKG MKG20101116073509311/16/10 07:35:31  5-MIN KMKG 161235Z 13006KT 9SM CLR 02/M01 A2984 700 82 -600 140/06 RMK AO2
14840KMKG MKG20101116074009311/16/10 07:40:31  5-MIN KMKG 161240Z 13006KT 8SM CLR 02/M01 A2984 700 85 -700 140/06 RMK AO2
14840KMKG MKG20101116074509311/16/10 07:45:31  5-MIN KMKG 161245Z 13006KT 8SM CLR 02/M01 A2984 700 85 -700 140/06 RMK AO2
14840KMKG MKG20101116075011011/16/10 07:50:31  5-MIN KMKG 161250Z 12005KT 7SM CLR 02/M01 A2984 700 85 -700 120/05 RMK AO2 SLP110 T00171006
14840KMKG MKG20101116075511011/16/10 07:55:31  5-MIN KMKG 161255Z 11003KT 7SM CLR 02/M01 A2984 700 85 -700 120/03 RMK AO2 SLP111 T00171006
14840KMKG MKG20101116080009611/16/10 08:00:31  5-MIN KMKG 161300Z 12004KT 6SM BR CLR 02/M01 A2984 700 85 -700 120/04 RMK AO2
14840KMKG MKG20101116080509611/16/10 08:05:31  5-MIN KMKG 161305Z 12006KT 6SM BR CLR 01/M01 A2984 710 89 -700 120/06 RMK AO2
14840KMKG MKG20101116081009611/16/10 08:10:31  5-MIN KMKG 161310Z 12006KT 6SM BR CLR 02/M01 A2984 710 85 -700 120/06 RMK AO2
14840KMKG MKG20101116081509611/16/10 08:15:31  5-MIN KMKG 161315Z 12006KT 6SM BR CLR 02/M01 A2984 710 85 -700 130/06 RMK AO2
14840KMKG MKG20101116082009611/16/10 08:20:31  5-MIN KMKG 161320Z 12006KT 6SM BR CLR 02/M01 A2984 710 85 -700 130/06 RMK AO2
14840KMKG MKG20101116082509311/16/10 08:25:31  5-MIN KMKG 161325Z 12005KT 7SM CLR 02/M01 A2983 710 82 -600 120/05 RMK AO2
14840KMKG MKG20101116083009211/16/10 08:30:31  5-MIN KMKG 161330Z 12006KT 7SM CLR 02/00 A2983 710 85 -600 130/06 RMK AO2
14840KMKG MKG20101116083509211/16/10 08:35:31  5-MIN KMKG 161335Z 12006KT 7SM CLR 03/00 A2983 710 82 -500 130/06 RMK AO2
14840KMKG MKG20101116084009511/16/10 08:40:31  5-MIN KMKG 161340Z 12006KT 6SM HZ CLR 03/00 A2983 720 82 -500 120/06 RMK AO2
14840KMKG MKG20101116084509511/16/10 08:45:31  5-MIN KMKG 161345Z 12006KT 6SM HZ CLR 03/00 A2982 720 79 -400 130/06 RMK AO2
14840KMKG MKG20101116085010911/16/10 08:50:31  5-MIN KMKG 161350Z 13006KT 7SM CLR 04/00 A2983 720 76 -400 130/06 RMK AO2 SLP104 T00390000
14840KMKG MKG20101116085510911/16/10 08:55:31  5-MIN KMKG 161355Z 13006KT 7SM CLR 04/01 A2983 720 79 -400 130/06 RMK AO2 SLP104 T00390006
14840KMKG MKG20101116090009211/16/10 09:00:31  5-MIN KMKG 161400Z 12007KT 7SM CLR 04/01 A2982 720 79 -400 130/07 RMK AO2
14840KMKG MKG20101116090509211/16/10 09:05:31  5-MIN KMKG 161405Z 12006KT 8SM CLR 04/00 A2982 720 73 -300 130/06 RMK AO2
14840KMKG MKG20101116091009211/16/10 09:10:31  5-MIN KMKG 161410Z 12005KT 9SM CLR 04/01 A2982 720 76 -300 130/05 RMK AO2
14840KMKG MKG20101116091509211/16/10 09:15:31  5-MIN KMKG 161415Z 13004KT 9SM CLR 05/00 A2981 730 70 -200 130/04 RMK AO2
14840KMKG MKG20101116092009211/16/10 09:20:31  5-MIN KMKG 161420Z 12005KT 9SM CLR 05/01 A2981 730 73 -200 130/05 RMK AO2
14840KMKG MKG20101116092509311/16/10 09:25:31  5-MIN KMKG 161425Z 12004KT 10SM CLR 06/00 A2981 730 67 -100 120/04 RMK AO2
14840KMKG MKG20101116093009311/16/10 09:30:31  5-MIN KMKG 161430Z 12004KT 10SM CLR 06/00 A2981 740 67 -100 120/04 RMK AO2
14840KMKG MKG20101116093509311/16/10 09:35:31  5-MIN KMKG 161435Z 12005KT 10SM CLR 06/00 A2980 740 67 -100 120/05 RMK AO2
14840KMKG MKG20101116094009311/16/10 09:40:31  5-MIN KMKG 161440Z 11004KT 10SM CLR 06/01 A2980 740 67 -100 120/04 RMK AO2
14840KMKG MKG20101116094509311/16/10 09:45:31  5-MIN KMKG 161445Z 12005KT 10SM CLR 06/00 A2980 740 65 -100 130/05 RMK AO2
14840KMKG MKG20101116095011311/16/10 09:50:31  5-MIN KMKG 161450Z 13004KT 10SM CLR 07/01 A2980 740 65 0 130/04 RMK AO2 SLP095 T00670006 55002
14840KMKG MKG20101116095511311/16/10 09:55:31  5-MIN KMKG 161455Z 12004KT 10SM CLR 07/01 A2980 740 65 0 130/04 RMK AO2 SLP095 T00670006 58016
14840KMKG MKG20101116100009011/16/10 10:00:31  5-MIN KMKG 161500Z 11003KT 10SM CLR 07/00 A2980 740 62 0 120/03 RMK AO2
14840KMKG MKG20101116100509011/16/10 10:05:31  5-MIN KMKG 161505Z 12003KT 10SM CLR 07/01 A2980 740 62 0 130/03 RMK AO2
14840KMKG MKG20101116101009011/16/10 10:10:31  5-MIN KMKG 161510Z 13003KT 10SM CLR 07/01 A2980 740 65 0 140/03 RMK AO2
14840KMKG MKG20101116101509011/16/10 10:15:31  5-MIN KMKG 161515Z 12003KT 10SM CLR 07/01 A2980 740 62 0 130/03 RMK AO2
14840KMKG MKG20101116102009211/16/10 10:20:31  5-MIN KMKG 161520Z 00000KT 10SM CLR 08/01 A2979 750 62 100 000/00 RMK AO2
14840KMKG MKG20101116102509211/16/10 10:25:31  5-MIN KMKG 161525Z 11003KT 10SM CLR 08/02 A2979 750 65 100 110/03 RMK AO2
14840KMKG MKG20101116103009211/16/10 10:30:31  5-MIN KMKG 161530Z 00000KT 10SM CLR 08/01 A2979 750 60 200 000/00 RMK AO2
14840KMKG MKG20101116103509211/16/10 10:35:31  5-MIN KMKG 161535Z 00000KT 10SM CLR 08/01 A2979 750 60 200 000/00 RMK AO2
14840KMKG MKG20101116104009211/16/10 10:40:31  5-MIN KMKG 161540Z 00000KT 10SM CLR 08/01 A2979 750 60 200 000/00 RMK AO2
14840KMKG MKG20101116104509211/16/10 10:45:31  5-MIN KMKG 161545Z 00000KT 10SM CLR 09/01 A2979 750 58 200 000/00 RMK AO2
14840KMKG MKG20101116105010911/16/10 10:50:31  5-MIN KMKG 161550Z 11003KT 10SM CLR 09/01 A2979 750 58 200 120/03 RMK AO2 SLP091 T00890011
14840KMKG MKG20101116105510911/16/10 10:55:31  5-MIN KMKG 161555Z 12003KT 10SM CLR 09/01 A2979 750 56 300 120/03 RMK AO2 SLP090 T00940011
14840KMKG MKG20101116110009211/16/10 11:00:31  5-MIN KMKG 161600Z 11003KT 10SM CLR 09/01 A2978 760 56 300 120/03 RMK AO2
14840KMKG MKG20101116110509211/16/10 11:05:31  5-MIN KMKG 161605Z 00000KT 10SM CLR 09/01 A2978 760 56 300 000/00 RMK AO2
14840KMKG MKG20101116111009211/16/10 11:10:31  5-MIN KMKG 161610Z 00000KT 10SM CLR 09/01 A2978 760 53 300 000/00 RMK AO2
14840KMKG MKG20101116111509211/16/10 11:15:31  5-MIN KMKG 161615Z 00000KT 10SM CLR 10/00 A2978 760 49 400 000/00 RMK AO2
14840KMKG MKG20101116112009311/16/10 11:20:31  5-MIN KMKG 161620Z VRB03KT 10SM CLR 10/M01 A2978 760 47 400 VRB/03 RMK AO2
14840KMKG MKG20101116112509311/16/10 11:25:31  5-MIN KMKG 161625Z 12003KT 10SM CLR 10/M01 A2977 770 47 400 120/03 RMK AO2
14840KMKG MKG20101116113009311/16/10 11:30:31  5-MIN KMKG 161630Z 10005KT 10SM CLR 10/M01 A2977 770 47 400 110/05 RMK AO2
14840KMKG MKG20101116113509311/16/10 11:35:31  5-MIN KMKG 161635Z 11004KT 10SM CLR 10/M01 A2977 770 47 400 120/04 RMK AO2
14840KMKG MKG20101116114009311/16/10 11:40:31  5-MIN KMKG 161640Z 12005KT 10SM CLR 11/M01 A2976 780 46 500 130/05 RMK AO2
14840KMKG MKG20101116114509311/16/10 11:45:31  5-MIN KMKG 161645Z 12006KT 10SM CLR 11/M01 A2976 780 46 500 130/06 RMK AO2
14840KMKG MKG20101116115010911/16/10 11:50:31  5-MIN KMKG 161650Z 12008KT 10SM CLR 11/00 A2976 780 48 500 130/08 RMK AO2 SLP080 T01060000
14840KMKG MKG20101116115511011/16/10 11:55:31  5-MIN KMKG 161655Z 12008KT 10SM CLR 11/M01 A2976 780 44 500 130/08 RMK AO2 SLP080 T01061011
14840KMKG MKG20101116120009311/16/10 12:00:31  5-MIN KMKG 161700Z 10006KT 10SM CLR 11/M01 A2976 780 44 500 100/06 RMK AO2
14840KMKG MKG20101116120509311/16/10 12:05:31  5-MIN KMKG 161705Z 13006KT 10SM CLR 11/M01 A2976 780 46 500 130/06 RMK AO2
14840KMKG MKG20101116121009311/16/10 12:10:31  5-MIN KMKG 161710Z 11005KT 10SM CLR 11/M01 A2975 780 44 500 110/05 RMK AO2
14840KMKG MKG20101116121509311/16/10 12:15:31  5-MIN KMKG 161715Z 11009KT 10SM CLR 11/M02 A2975 790 39 500 110/09 RMK AO2
14840KMKG MKG20101116122009311/16/10 12:20:31  5-MIN KMKG 161720Z 10010KT 10SM CLR 11/M03 A2975 790 37 600 110/10 RMK AO2
14840KMKG MKG20101116122509311/16/10 12:25:31  5-MIN KMKG 161725Z 11010KT 10SM CLR 11/M02 A2975 790 39 600 120/10 RMK AO2
14840KMKG MKG20101116123009311/16/10 12:30:31  5-MIN KMKG 161730Z 12009KT 10SM CLR 11/M02 A2974 790 39 600 130/09 RMK AO2
14840KMKG MKG20101116123509311/16/10 12:35:31  5-MIN KMKG 161735Z 13009KT 10SM CLR 11/M02 A2974 800 41 600 130/09 RMK AO2
14840KMKG MKG20101116124009311/16/10 12:40:31  5-MIN KMKG 161740Z 13010KT 10SM CLR 11/M02 A2974 800 41 600 140/10 RMK AO2
14840KMKG MKG20101116124509311/16/10 12:45:31  5-MIN KMKG 161745Z 12010KT 10SM CLR 11/M02 A2974 800 41 600 120/10 RMK AO2
14840KMKG MKG20101116125012811/16/10 12:50:31  5-MIN KMKG 161750Z 12010KT 10SM CLR 11/M02 A2973 800 41 600 130/10 RMK AO2 SLP071 T01111017 10111 20011 58016
14840KMKG MKG20101116125512811/16/10 12:55:31  5-MIN KMKG 161755Z 12007KT 10SM CLR 11/M02 A2973 810 41 600 120/07 RMK AO2 SLP070 T01111017 10111 20011 58023
14840KMKG MKG20101116130009311/16/10 13:00:31  5-MIN KMKG 161800Z 12008KT 10SM CLR 12/M01 A2973 810 41 600 120/08 RMK AO2
14840KMKG MKG20101116130509311/16/10 13:05:31  5-MIN KMKG 161805Z 11007KT 10SM CLR 12/M02 A2972 810 39 600 110/07 RMK AO2
14840KMKG MKG20101116131009311/16/10 13:10:31  5-MIN KMKG 161810Z 10007KT 10SM CLR 12/M02 A2972 820 39 700 100/07 RMK AO2
14840KMKG MKG20101116131510011/16/10 13:15:31  5-MIN KMKG 161815Z 09008KT 10SM CLR 12/M02 A2971 830 38 700 100/08 RMK AO2 PRESFR
14840KMKG MKG20101116132009311/16/10 13:20:31  5-MIN KMKG 161820Z 09006KT 10SM CLR 12/M02 A2971 830 38 700 100/06 RMK AO2
14840KMKG MKG20101116132509311/16/10 13:25:31  5-MIN KMKG 161825Z 09009KT 10SM CLR 12/M02 A2970 830 38 700 090/09 RMK AO2
14840KMKG MKG20101116133009311/16/10 13:30:31  5-MIN KMKG 161830Z 09009KT 10SM CLR 12/M03 A2970 830 36 700 100/09 RMK AO2
14840KMKG MKG20101116133509311/16/10 13:35:31  5-MIN KMKG 161835Z 11010KT 10SM CLR 11/M04 A2970 840 34 600 110/10 RMK AO2
14840KMKG MKG20101116134009311/16/10 13:40:31  5-MIN KMKG 161840Z 11009KT 10SM CLR 11/M04 A2969 840 34 600 110/09 RMK AO2
14840KMKG MKG20101116134509311/16/10 13:45:31  5-MIN KMKG 161845Z 11008KT 10SM CLR 12/M03 A2969 840 35 700 120/08 RMK AO2
14840KMKG MKG20101116135011011/16/10 13:50:31  5-MIN KMKG 161850Z 11006KT 10SM CLR 11/M03 A2969 850 36 600 120/06 RMK AO2 SLP055 T01111033
14840KMKG MKG20101116135511311/16/10 13:55:31  5-MIN KMKG 161855Z 07008KT 10SM FEW100 12/M03 A2969 850 35 700 080/08 RMK AO2 SLP055 T01171033
14840KMKG MKG20101116140009611/16/10 14:00:31  5-MIN KMKG 161900Z 07010KT 10SM FEW100 11/M03 A2969 850 37 600 070/10 RMK AO2
14840KMKG MKG20101116140509311/16/10 14:05:31  5-MIN KMKG 161905Z 07009KT 10SM CLR 11/M03 A2969 850 36 600 080/09 RMK AO2
14840KMKG MKG20101116141009311/16/10 14:10:31  5-MIN KMKG 161910Z 07010KT 10SM CLR 12/M03 A2969 850 35 700 080/10 RMK AO2
14840KMKG MKG20101116141509311/16/10 14:15:31  5-MIN KMKG 161915Z 09007KT 10SM CLR 12/M03 A2968 850 36 700 090/07 RMK AO2
14840KMKG MKG20101116142009311/16/10 14:20:31  5-MIN KMKG 161920Z 10006KT 10SM CLR 12/M03 A2968 850 35 700 100/06 RMK AO2
14840KMKG MKG20101116142509311/16/10 14:25:31  5-MIN KMKG 161925Z 10007KT 10SM CLR 11/M03 A2968 850 36 600 100/07 RMK AO2
14840KMKG MKG20101116143009311/16/10 14:30:31  5-MIN KMKG 161930Z 08009KT 10SM CLR 12/M03 A2968 850 36 700 090/09 RMK AO2
14840KMKG MKG20101116143509311/16/10 14:35:31  5-MIN KMKG 161935Z 08008KT 10SM CLR 11/M03 A2967 860 36 600 080/08 RMK AO2
14840KMKG MKG20101116144009311/16/10 14:40:31  5-MIN KMKG 161940Z 08008KT 10SM CLR 11/M03 A2967 860 36 600 080/08 RMK AO2
14840KMKG MKG20101116144509311/16/10 14:45:31  5-MIN KMKG 161945Z 07008KT 10SM CLR 11/M03 A2967 860 36 600 070/08 RMK AO2
14840KMKG MKG20101116145011011/16/10 14:50:31  5-MIN KMKG 161950Z 08007KT 10SM CLR 11/M03 A2967 870 37 600 080/07 RMK AO2 SLP048 T01111028
14840KMKG MKG20101116145511011/16/10 14:55:31  5-MIN KMKG 161955Z 09008KT 10SM CLR 11/M03 A2966 870 37 700 090/08 RMK AO2 SLP047 T01111028
14840KMKG MKG20101116150009311/16/10 15:00:31  5-MIN KMKG 162000Z 08010KT 10SM CLR 11/M03 A2966 870 36 700 090/10 RMK AO2
14840KMKG MKG20101116150509311/16/10 15:05:31  5-MIN KMKG 162005Z 08009KT 10SM CLR 11/M04 A2966 870 34 700 090/09 RMK AO2
14840KMKG MKG20101116151009311/16/10 15:10:31  5-MIN KMKG 162010Z 08005KT 10SM CLR 11/M04 A2965 880 36 600 090/05 RMK AO2
14840KMKG MKG20101116151509311/16/10 15:15:31  5-MIN KMKG 162015Z 07006KT 10SM CLR 11/M03 A2965 880 36 700 080/06 RMK AO2
14840KMKG MKG20101116152009311/16/10 15:20:31  5-MIN KMKG 162020Z 08006KT 10SM CLR 11/M03 A2965 880 36 700 080/06 RMK AO2
14840KMKG MKG20101116152509311/16/10 15:25:31  5-MIN KMKG 162025Z 06006KT 10SM CLR 11/M03 A2965 880 37 600 070/06 RMK AO2
14840KMKG MKG20101116153009311/16/10 15:30:31  5-MIN KMKG 162030Z 07007KT 10SM CLR 11/M03 A2965 880 37 600 070/07 RMK AO2
14840KMKG MKG20101116153509311/16/10 15:35:31  5-MIN KMKG 162035Z 06006KT 10SM CLR 11/M03 A2965 880 39 600 060/06 RMK AO2
14840KMKG MKG20101116154009311/16/10 15:40:31  5-MIN KMKG 162040Z 08006KT 10SM CLR 11/M02 A2965 880 40 600 080/06 RMK AO2
14840KMKG MKG20101116154509311/16/10 15:45:31  5-MIN KMKG 162045Z 07006KT 10SM CLR 11/M02 A2965 880 40 600 070/06 RMK AO2
14840KMKG MKG20101116155011611/16/10 15:50:31  5-MIN KMKG 162050Z 06008KT 10SM CLR 11/M03 A2965 880 39 600 060/08 RMK AO2 SLP043 T01061028 58023
14840KMKG MKG20101116155511611/16/10 15:55:31  5-MIN KMKG 162055Z 06009KT 10SM CLR 11/M03 A2965 890 37 600 060/09 RMK AO2 SLP042 T01061033 56028
14840KMKG MKG20101116160009311/16/10 16:00:31  5-MIN KMKG 162100Z 08007KT 10SM CLR 11/M04 A2964 890 36 600 080/07 RMK AO2
14840KMKG MKG20101116160509311/16/10 16:05:31  5-MIN KMKG 162105Z 06009KT 10SM CLR 11/M03 A2965 890 37 600 060/09 RMK AO2
14840KMKG MKG20101116161009311/16/10 16:10:31  5-MIN KMKG 162110Z 06007KT 10SM CLR 10/M03 A2964 890 39 500 060/07 RMK AO2
14840KMKG MKG20101116161509311/16/10 16:15:31  5-MIN KMKG 162115Z 06007KT 10SM CLR 10/M03 A2964 890 40 500 060/07 RMK AO2
14840KMKG MKG20101116162009311/16/10 16:20:31  5-MIN KMKG 162120Z 06009KT 10SM CLR 10/M03 A2965 890 39 500 060/09 RMK AO2
14840KMKG MKG20101116162509311/16/10 16:25:31  5-MIN KMKG 162125Z 06008KT 10SM CLR 10/M03 A2965 880 39 500 060/08 RMK AO2
14840KMKG MKG20101116163009311/16/10 16:30:31  5-MIN KMKG 162130Z 07007KT 10SM CLR 10/M03 A2965 880 39 500 070/07 RMK AO2
14840KMKG MKG20101116163509311/16/10 16:35:31  5-MIN KMKG 162135Z 07007KT 10SM CLR 10/M03 A2965 880 39 500 070/07 RMK AO2
14840KMKG MKG20101116164009311/16/10 16:40:31  5-MIN KMKG 162140Z 06008KT 10SM CLR 10/M03 A2966 870 40 500 070/08 RMK AO2
14840KMKG MKG20101116164509311/16/10 16:45:31  5-MIN KMKG 162145Z 06007KT 10SM CLR 10/M03 A2966 870 39 500 070/07 RMK AO2
14840KMKG MKG20101116165011011/16/10 16:50:31  5-MIN KMKG 162150Z 07008KT 10SM CLR 09/M03 A2966 880 42 500 070/08 RMK AO2 SLP046 T00941028
14840KMKG MKG20101116165511011/16/10 16:55:31  5-MIN KMKG 162155Z 05005KT 10SM CLR 09/M03 A2965 880 40 500 050/05 RMK AO2 SLP045 T00941033
14840KMKG MKG20101116170009311/16/10 17:00:31  5-MIN KMKG 162200Z 05007KT 10SM CLR 09/M03 A2965 880 42 500 060/07 RMK AO2
14840KMKG MKG20101116170509311/16/10 17:05:31  5-MIN KMKG 162205Z 06007KT 10SM CLR 09/M03 A2965 880 40 500 060/07 RMK AO2
14840KMKG MKG20101116171009311/16/10 17:10:31  5-MIN KMKG 162210Z 06007KT 10SM CLR 09/M03 A2965 880 42 500 060/07 RMK AO2
14840KMKG MKG20101116171509311/16/10 17:15:31  5-MIN KMKG 162215Z 06007KT 10SM CLR 09/M03 A2965 880 43 400 070/07 RMK AO2
14840KMKG MKG20101116172009311/16/10 17:20:31  5-MIN KMKG 162220Z 06005KT 10SM CLR 09/M03 A2965 880 43 400 070/05 RMK AO2
14840KMKG MKG20101116172509311/16/10 17:25:31  5-MIN KMKG 162225Z 06005KT 10SM CLR 09/M03 A2965 880 43 400 070/05 RMK AO2
14840KMKG MKG20101116173009311/16/10 17:30:31  5-MIN KMKG 162230Z 06004KT 10SM CLR 09/M03 A2965 880 43 400 060/04 RMK AO2
14840KMKG MKG20101116173509311/16/10 17:35:31  5-MIN KMKG 162235Z 05004KT 10SM CLR 08/M03 A2965 880 45 300 060/04 RMK AO2
14840KMKG MKG20101116174009311/16/10 17:40:31  5-MIN KMKG 162240Z 05004KT 10SM CLR 08/M03 A2965 880 45 300 050/04 RMK AO2
14840KMKG MKG20101116174509311/16/10 17:45:31  5-MIN KMKG 162245Z 04004KT 10SM CLR 09/M03 A2965 880 43 400 040/04 RMK AO2
14840KMKG MKG20101116175011011/16/10 17:50:31  5-MIN KMKG 162250Z 05004KT 10SM CLR 09/M03 A2965 880 43 400 050/04 RMK AO2 SLP043 T00891028
14840KMKG MKG20101116175511011/16/10 17:55:31  5-MIN KMKG 162255Z 04005KT 10SM CLR 09/M03 A2965 880 43 400 050/05 RMK AO2 SLP042 T00891028
14840KMKG MKG20101116180009311/16/10 18:00:31  5-MIN KMKG 162300Z 04005KT 10SM CLR 09/M03 A2964 890 43 400 040/05 RMK AO2
14840KMKG MKG20101116180509311/16/10 18:05:31  5-MIN KMKG 162305Z 03004KT 10SM CLR 09/M03 A2964 890 43 400 040/04 RMK AO2
14840KMKG MKG20101116181009311/16/10 18:10:31  5-MIN KMKG 162310Z 03004KT 10SM CLR 09/M03 A2964 890 43 400 040/04 RMK AO2
14840KMKG MKG20101116181509311/16/10 18:15:31  5-MIN KMKG 162315Z 02004KT 10SM CLR 08/M02 A2964 890 47 300 020/04 RMK AO2
14840KMKG MKG20101116182009311/16/10 18:20:31  5-MIN KMKG 162320Z 36004KT 10SM CLR 08/M02 A2964 890 47 300 360/04 RMK AO2
14840KMKG MKG20101116182509311/16/10 18:25:31  5-MIN KMKG 162325Z 36004KT 10SM CLR 08/M02 A2964 890 47 300 360/04 RMK AO2
14840KMKG MKG20101116183009311/16/10 18:30:31  5-MIN KMKG 162330Z 36004KT 10SM CLR 08/M02 A2963 900 51 300 010/04 RMK AO2
14840KMKG MKG20101116183509311/16/10 18:35:31  5-MIN KMKG 162335Z 36004KT 10SM CLR 08/M02 A2963 900 47 400 360/04 RMK AO2
14840KMKG MKG20101116184009311/16/10 18:40:31  5-MIN KMKG 162340Z 01003KT 10SM CLR 08/M02 A2963 900 49 300 010/03 RMK AO2
14840KMKG MKG20101116184509311/16/10 18:45:31  5-MIN KMKG 162345Z 36003KT 10SM CLR 08/M03 A2963 900 45 400 360/03 RMK AO2
14840KMKG MKG20101116185012811/16/10 18:50:31  5-MIN KMKG 162350Z 35004KT 10SM CLR 08/M03 A2963 900 47 300 360/04 RMK AO2 SLP038 T00781028 10117 20078 56028
14840KMKG MKG20101116185512811/16/10 18:55:31  5-MIN KMKG 162355Z 36005KT 10SM CLR 08/M02 A2963 900 49 300 360/05 RMK AO2 SLP038 T00781022 10117 20078 58005
14840KMKG MKG20101116190009311/16/10 19:00:31  5-MIN KMKG 170000Z 01005KT 10SM CLR 08/M03 A2963 900 45 400 010/05 RMK AO2
14840KMKG MKG20101116190509311/16/10 19:05:31  5-MIN KMKG 170005Z 01006KT 10SM CLR 08/M03 A2963 900 45 400 020/06 RMK AO2
14840KMKG MKG20101116191009311/16/10 19:10:31  5-MIN KMKG 170010Z 02006KT 10SM CLR 08/M03 A2963 900 45 400 020/06 RMK AO2
14840KMKG MKG20101116191509311/16/10 19:15:31  5-MIN KMKG 170015Z 03005KT 10SM CLR 08/M03 A2963 900 45 400 030/05 RMK AO2
14840KMKG MKG20101116192009311/16/10 19:20:31  5-MIN KMKG 170020Z 03005KT 10SM CLR 08/M02 A2963 900 47 400 030/05 RMK AO2
14840KMKG MKG20101116192509311/16/10 19:25:31  5-MIN KMKG 170025Z 02005KT 10SM CLR 08/M02 A2963 900 47 400 030/05 RMK AO2
14840KMKG MKG20101116193009311/16/10 19:30:31  5-MIN KMKG 170030Z 36005KT 10SM CLR 08/M02 A2963 900 47 400 010/05 RMK AO2
14840KMKG MKG20101116193509311/16/10 19:35:31  5-MIN KMKG 170035Z 36006KT 10SM CLR 08/M02 A2963 900 49 300 360/06 RMK AO2
14840KMKG MKG20101116194009311/16/10 19:40:31  5-MIN KMKG 170040Z 01005KT 10SM CLR 08/M02 A2963 900 49 300 010/05 RMK AO2
14840KMKG MKG20101116194509311/16/10 19:45:31  5-MIN KMKG 170045Z 01006KT 10SM CLR 08/M02 A2963 900 49 300 010/06 RMK AO2
14840KMKG MKG20101116195011011/16/10 19:50:31  5-MIN KMKG 170050Z 36006KT 10SM CLR 08/M02 A2962 910 49 300 010/06 RMK AO2 SLP035 T00781022
14840KMKG MKG20101116195511011/16/10 19:55:31  5-MIN KMKG 170055Z 36006KT 10SM CLR 08/M02 A2962 910 49 300 010/06 RMK AO2 SLP034 T00781022
14840KMKG MKG20101116200009311/16/10 20:00:31  5-MIN KMKG 170100Z 01005KT 10SM CLR 08/M02 A2962 910 51 300 010/05 RMK AO2
14840KMKG MKG20101116200509311/16/10 20:05:31  5-MIN KMKG 170105Z 36005KT 10SM CLR 08/M02 A2962 910 51 300 360/05 RMK AO2
14840KMKG MKG20101116201009311/16/10 20:10:31  5-MIN KMKG 170110Z 36005KT 10SM CLR 08/M02 A2962 910 51 300 360/05 RMK AO2
14840KMKG MKG20101116201509311/16/10 20:15:31  5-MIN KMKG 170115Z 35006KT 10SM CLR 08/M02 A2962 910 51 300 360/06 RMK AO2
14840KMKG MKG20101116202009311/16/10 20:20:31  5-MIN KMKG 170120Z 36005KT 10SM CLR 08/M02 A2961 910 51 300 360/05 RMK AO2
14840KMKG MKG20101116202509311/16/10 20:25:31  5-MIN KMKG 170125Z 35006KT 10SM CLR 08/M02 A2961 910 51 300 350/06 RMK AO2
14840KMKG MKG20101116203009311/16/10 20:30:31  5-MIN KMKG 170130Z 35006KT 10SM CLR 08/M02 A2962 910 51 300 360/06 RMK AO2
14840KMKG MKG20101116203509311/16/10 20:35:31  5-MIN KMKG 170135Z 35006KT 10SM CLR 08/M02 A2962 910 51 300 350/06 RMK AO2
14840KMKG MKG20101116204009311/16/10 20:40:31  5-MIN KMKG 170140Z 35006KT 10SM CLR 08/M02 A2962 910 51 300 350/06 RMK AO2
14840KMKG MKG20101116204509311/16/10 20:45:31  5-MIN KMKG 170145Z 35006KT 10SM CLR 08/M02 A2962 910 51 300 350/06 RMK AO2
14840KMKG MKG20101116205011011/16/10 20:50:31  5-MIN KMKG 170150Z 35006KT 10SM CLR 07/M02 A2962 910 53 200 360/06 RMK AO2 SLP033 T00721017
14840KMKG MKG20101116205511011/16/10 20:55:31  5-MIN KMKG 170155Z 36006KT 10SM CLR 07/M02 A2962 910 53 200 360/06 RMK AO2 SLP032 T00721017
14840KMKG MKG20101116210009311/16/10 21:00:31  5-MIN KMKG 170200Z 36006KT 10SM CLR 08/M02 A2962 910 51 300 360/06 RMK AO2
14840KMKG MKG20101116210509311/16/10 21:05:31  5-MIN KMKG 170205Z 36005KT 10SM CLR 07/M01 A2962 910 55 200 360/05 RMK AO2
14840KMKG MKG20101116211009311/16/10 21:10:31  5-MIN KMKG 170210Z 36006KT 10SM CLR 07/M01 A2962 910 55 200 360/06 RMK AO2
14840KMKG MKG20101116211509311/16/10 21:15:31  5-MIN KMKG 170215Z 36005KT 10SM CLR 07/M01 A2961 910 55 200 360/05 RMK AO2
14840KMKG MKG20101116212009311/16/10 21:20:31  5-MIN KMKG 170220Z 36006KT 10SM CLR 07/M02 A2962 910 53 200 360/06 RMK AO2
14840KMKG MKG20101116212509311/16/10 21:25:31  5-MIN KMKG 170225Z 36007KT 10SM CLR 08/M02 A2962 910 51 300 010/07 RMK AO2
14840KMKG MKG20101116213009311/16/10 21:30:31  5-MIN KMKG 170230Z 36006KT 10SM CLR 08/M01 A2962 910 53 300 360/06 RMK AO2
14840KMKG MKG20101116213509311/16/10 21:35:31  5-MIN KMKG 170235Z 35006KT 10SM CLR 07/M01 A2961 910 55 200 360/06 RMK AO2
14840KMKG MKG20101116214009311/16/10 21:40:31  5-MIN KMKG 170240Z 35006KT 10SM CLR 07/M01 A2961 910 55 200 350/06 RMK AO2
14840KMKG MKG20101116214509311/16/10 21:45:31  5-MIN KMKG 170245Z 35007KT 10SM CLR 07/M01 A2961 910 55 200 350/07 RMK AO2
14840KMKG MKG20101116215011611/16/10 21:50:31  5-MIN KMKG 170250Z 35007KT 10SM CLR 07/M02 A2962 910 53 200 360/07 RMK AO2 SLP031 T00721017 58005
14840KMKG MKG20101116215511611/16/10 21:55:31  5-MIN KMKG 170255Z 36007KT 10SM CLR 07/M02 A2961 910 53 200 360/07 RMK AO2 SLP031 T00721017 56005
14840KMKG MKG20101116220009311/16/10 22:00:31  5-MIN KMKG 170300Z 36005KT 10SM CLR 07/M02 A2961 910 53 200 360/05 RMK AO2
14840KMKG MKG20101116220509311/16/10 22:05:31  5-MIN KMKG 170305Z 36006KT 10SM CLR 07/M02 A2962 910 53 200 360/06 RMK AO2
14840KMKG MKG20101116221009311/16/10 22:10:31  5-MIN KMKG 170310Z 35008KT 10SM CLR 07/M02 A2962 910 53 200 350/08 RMK AO2
14840KMKG MKG20101116221509311/16/10 22:15:31  5-MIN KMKG 170315Z 35008KT 10SM CLR 07/M02 A2962 910 53 200 360/08 RMK AO2
14840KMKG MKG20101116222009311/16/10 22:20:31  5-MIN KMKG 170320Z 36007KT 10SM CLR 07/M02 A2962 910 53 200 360/07 RMK AO2
14840KMKG MKG20101116222509311/16/10 22:25:31  5-MIN KMKG 170325Z 35007KT 10SM CLR 07/M02 A2961 920 53 200 360/07 RMK AO2
14840KMKG MKG20101116223009311/16/10 22:30:31  5-MIN KMKG 170330Z 35007KT 10SM CLR 07/M02 A2961 910 53 200 350/07 RMK AO2
14840KMKG MKG20101116223509311/16/10 22:35:31  5-MIN KMKG 170335Z 35008KT 10SM CLR 07/M02 A2961 910 53 200 350/08 RMK AO2
14840KMKG MKG20101116224009311/16/10 22:40:31  5-MIN KMKG 170340Z 35008KT 10SM CLR 07/M02 A2961 920 53 200 360/08 RMK AO2
14840KMKG MKG20101116224509311/16/10 22:45:31  5-MIN KMKG 170345Z 35008KT 10SM CLR 07/M02 A2961 920 53 200 360/08 RMK AO2
14840KMKG MKG20101116225011011/16/10 22:50:31  5-MIN KMKG 170350Z 35007KT 10SM CLR 07/M02 A2961 920 53 200 360/07 RMK AO2 SLP031 T00721017
14840KMKG MKG20101116225511011/16/10 22:55:31  5-MIN KMKG 170355Z 36009KT 10SM CLR 07/M02 A2961 920 53 200 360/09 RMK AO2 SLP031 T00721017
14840KMKG MKG20101116230009311/16/10 23:00:31  5-MIN KMKG 170400Z 35010KT 10SM CLR 07/M02 A2961 920 53 200 350/10 RMK AO2
14840KMKG MKG20101116230509311/16/10 23:05:31  5-MIN KMKG 170405Z 36008KT 10SM CLR 07/M02 A2961 920 53 200 360/08 RMK AO2
14840KMKG MKG20101116231009311/16/10 23:10:31  5-MIN KMKG 170410Z 36008KT 10SM CLR 07/M02 A2961 920 53 200 360/08 RMK AO2
14840KMKG MKG20101116231509311/16/10 23:15:31  5-MIN KMKG 170415Z 35008KT 10SM CLR 07/M02 A2961 920 53 200 360/08 RMK AO2
14840KMKG MKG20101116232009311/16/10 23:20:31  5-MIN KMKG 170420Z 36007KT 10SM CLR 07/M01 A2961 920 55 200 360/07 RMK AO2
14840KMKG MKG20101116232509311/16/10 23:25:31  5-MIN KMKG 170425Z 35009KT 10SM CLR 07/M02 A2961 920 53 200 360/09 RMK AO2
14840KMKG MKG20101116233009311/16/10 23:30:31  5-MIN KMKG 170430Z 35009KT 10SM CLR 07/M02 A2961 920 53 200 360/09 RMK AO2
14840KMKG MKG20101116233509311/16/10 23:35:31  5-MIN KMKG 170435Z 35007KT 10SM CLR 07/M01 A2962 910 55 200 360/07 RMK AO2
14840KMKG MKG20101116234009311/16/10 23:40:31  5-MIN KMKG 170440Z 35008KT 10SM CLR 07/M01 A2962 910 55 200 360/08 RMK AO2
14840KMKG MKG20101116234509311/16/10 23:45:31  5-MIN KMKG 170445Z 36006KT 10SM CLR 07/M01 A2962 910 55 200 360/06 RMK AO2
14840KMKG MKG20101116235012011/16/10 23:50:31  5-MIN KMKG 170450Z 35008KT 10SM CLR 07/M01 A2962 910 55 200 360/08 RMK AO2 SLP033 T00721011 401170011
14840KMKG MKG20101116235512011/16/10 23:55:31  5-MIN KMKG 170455Z 35006KT 10SM CLR 07/M01 A2962 910 55 200 360/06 RMK AO2 SLP033 T00721011 401170011
14840KMKG MKG20101117000009311/17/10 00:00:32  5-MIN KMKG 170500Z 34007KT 10SM CLR 07/M01 A2962 910 55 200 350/07 RMK AO2
14840KMKG MKG20101117000509311/17/10 00:05:31  5-MIN KMKG 170505Z 34006KT 10SM CLR 07/M01 A2962 910 60 200 350/06 RMK AO2
14840KMKG MKG20101117001009311/17/10 00:10:31  5-MIN KMKG 170510Z 34007KT 10SM CLR 07/M01 A2962 910 57 200 340/07 RMK AO2
14840KMKG MKG20101117001509311/17/10 00:15:31  5-MIN KMKG 170515Z 34007KT 10SM CLR 07/M01 A2963 900 60 200 350/07 RMK AO2
14840KMKG MKG20101117002009311/17/10 00:20:31  5-MIN KMKG 170520Z 34007KT 10SM CLR 07/M01 A2963 900 60 200 350/07 RMK AO2
14840KMKG MKG20101117002509311/17/10 00:25:31  5-MIN KMKG 170525Z 34007KT 10SM CLR 07/M01 A2963 900 55 200 350/07 RMK AO2
14840KMKG MKG20101117003010311/17/10 00:30:31  5-MIN KMKG 170530Z AUTO 34007KT 10SM CLR 07/M01 A2963 900 57 200 350/07 RMK AO2 TSNO
14840KMKG MKG20101117003510311/17/10 00:35:31  5-MIN KMKG 170535Z AUTO 34008KT 10SM CLR 07/M01 A2963 900 57 200 350/08 RMK AO2 TSNO
14840KMKG MKG20101117004010311/17/10 00:40:31  5-MIN KMKG 170540Z AUTO 35007KT 10SM CLR 07/M01 A2963 900 55 200 350/07 RMK AO2 TSNO
14840KMKG MKG20101117004509311/17/10 00:45:31  5-MIN KMKG 170545Z 35007KT 10SM CLR 07/M01 A2964 890 60 100 350/07 RMK AO2
14840KMKG MKG20101117005012811/17/10 00:50:31  5-MIN KMKG 170550Z 34007KT 10SM CLR 07/M01 A2964 890 57 100 350/07 RMK AO2 SLP038 T00671011 10083 20067 56005
14840KMKG MKG20101117005512811/17/10 00:55:31  5-MIN KMKG 170555Z 34008KT 10SM CLR 07/M01 A2964 890 57 100 350/08 RMK AO2 SLP038 T00671011 10083 20067 53007
14840KMKG MKG20101117010009311/17/10 01:00:31  5-MIN KMKG 170600Z 34007KT 10SM CLR 07/M01 A2964 890 57 100 340/07 RMK AO2
14840KMKG MKG20101117010509311/17/10 01:05:31  5-MIN KMKG 170605Z 34007KT 10SM CLR 07/M01 A2964 890 57 100 340/07 RMK AO2
14840KMKG MKG20101117011009311/17/10 01:10:31  5-MIN KMKG 170610Z 34007KT 10SM CLR 07/M01 A2965 880 57 100 350/07 RMK AO2
14840KMKG MKG20101117011509311/17/10 01:15:31  5-MIN KMKG 170615Z 33007KT 10SM CLR 07/M01 A2965 880 57 100 340/07 RMK AO2
14840KMKG MKG20101117012009311/17/10 01:20:31  5-MIN KMKG 170620Z 34007KT 10SM CLR 07/M01 A2965 880 57 100 340/07 RMK AO2
14840KMKG MKG20101117012509311/17/10 01:25:31  5-MIN KMKG 170625Z 34007KT 10SM CLR 06/M01 A2965 880 60 100 350/07 RMK AO2
14840KMKG MKG20101117013009311/17/10 01:30:31  5-MIN KMKG 170630Z 35007KT 10SM CLR 07/M01 A2965 880 57 100 350/07 RMK AO2
14840KMKG MKG20101117013509311/17/10 01:35:31  5-MIN KMKG 170635Z 34006KT 10SM CLR 06/M01 A2965 880 60 100 350/06 RMK AO2
14840KMKG MKG20101117014009311/17/10 01:40:31  5-MIN KMKG 170640Z 34007KT 10SM CLR 06/M01 A2965 880 60 100 340/07 RMK AO2
14840KMKG MKG20101117014509311/17/10 01:45:31  5-MIN KMKG 170645Z 34006KT 10SM CLR 06/M01 A2966 880 60 100 340/06 RMK AO2
14840KMKG MKG20101117015011011/17/10 01:50:31  5-MIN KMKG 170650Z 34007KT 10SM CLR 06/M01 A2966 870 60 100 340/07 RMK AO2 SLP045 T00611011
14840KMKG MKG20101117015510811/17/10 01:55:31  5-MIN KMKG 170655Z 33007KT 10SM CLR 06/M01 A2966 870 60 0 340/07 RMK AO2 SLP046 T00611011
14840KMKG MKG20101117020009111/17/10 02:00:31  5-MIN KMKG 170700Z 33007KT 10SM CLR 06/M01 A2966 870 60 0 340/07 RMK AO2
14840KMKG MKG20101117020509111/17/10 02:05:31  5-MIN KMKG 170705Z 33007KT 10SM CLR 06/M01 A2967 870 60 0 340/07 RMK AO2
14840KMKG MKG20101117021009311/17/10 02:10:31  5-MIN KMKG 170710Z 33007KT 10SM CLR 07/M01 A2967 860 57 100 330/07 RMK AO2
14840KMKG MKG20101117021509311/17/10 02:15:31  5-MIN KMKG 170715Z 33006KT 10SM CLR 07/M01 A2967 860 57 100 330/06 RMK AO2
14840KMKG MKG20101117022009111/17/10 02:20:31  5-MIN KMKG 170720Z 33006KT 10SM CLR 06/M01 A2968 860 60 0 330/06 RMK AO2
14840KMKG MKG20101117022509311/17/10 02:25:31  5-MIN KMKG 170725Z 33006KT 10SM CLR 07/M01 A2968 850 57 100 330/06 RMK AO2
14840KMKG MKG20101117023009311/17/10 02:30:31  5-MIN KMKG 170730Z 33007KT 10SM CLR 07/M01 A2968 850 57 100 340/07 RMK AO2
14840KMKG MKG20101117023509311/17/10 02:35:31  5-MIN KMKG 170735Z 33007KT 10SM CLR 07/M01 A2968 850 57 100 340/07 RMK AO2
14840KMKG MKG20101117024009311/17/10 02:40:31  5-MIN KMKG 170740Z 34008KT 10SM CLR 07/M01 A2968 850 57 100 340/08 RMK AO2
14840KMKG MKG20101117024509311/17/10 02:45:31  5-MIN KMKG 170745Z 33008KT 10SM CLR 07/M01 A2969 850 57 100 340/08 RMK AO2
14840KMKG MKG20101117025011011/17/10 02:50:31  5-MIN KMKG 170750Z 33007KT 10SM CLR 07/M01 A2969 840 57 100 340/07 RMK AO2 SLP056 T00671011
14840KMKG MKG20101117025511011/17/10 02:55:31  5-MIN KMKG 170755Z 33007KT 10SM CLR 07/M01 A2969 840 57 100 340/07 RMK AO2 SLP057 T00671011
14840KMKG MKG20101117030009311/17/10 03:00:31  5-MIN KMKG 170800Z 33006KT 10SM CLR 07/M01 A2970 840 57 100 330/06 RMK AO2
14840KMKG MKG20101117030509311/17/10 03:05:31  5-MIN KMKG 170805Z 33006KT 10SM CLR 07/M01 A2970 840 57 100 330/06 RMK AO2
14840KMKG MKG20101117031009311/17/10 03:10:31  5-MIN KMKG 170810Z 33006KT 10SM CLR 07/M01 A2970 840 57 100 340/06 RMK AO2
14840KMKG MKG20101117031509311/17/10 03:15:31  5-MIN KMKG 170815Z 34006KT 10SM CLR 07/M01 A2970 830 57 100 340/06 RMK AO2
14840KMKG MKG20101117032009311/17/10 03:20:31  5-MIN KMKG 170820Z 33006KT 10SM CLR 07/M01 A2970 830 57 100 340/06 RMK AO2
14840KMKG MKG20101117032509311/17/10 03:25:31  5-MIN KMKG 170825Z 33007KT 10SM CLR 07/M01 A2971 830 57 100 340/07 RMK AO2
14840KMKG MKG20101117033009611/17/10 03:30:31  5-MIN KMKG 170830Z 32006KT 10SM FEW120 07/M01 A2971 830 57 100 330/06 RMK AO2
14840KMKG MKG20101117033509611/17/10 03:35:31  5-MIN KMKG 170835Z 32006KT 10SM FEW120 07/M01 A2971 830 57 100 320/06 RMK AO2
14840KMKG MKG20101117034009311/17/10 03:40:31  5-MIN KMKG 170840Z 32005KT 10SM CLR 07/M01 A2971 820 57 100 330/05 RMK AO2
14840KMKG MKG20101117034509311/17/10 03:45:31  5-MIN KMKG 170845Z 32006KT 10SM CLR 07/M01 A2971 820 57 100 330/06 RMK AO2
14840KMKG MKG20101117035011611/17/10 03:50:31  5-MIN KMKG 170850Z 32005KT 10SM CLR 07/M01 A2972 820 57 100 330/05 RMK AO2 SLP065 T00671011 53007
14840KMKG MKG20101117035511611/17/10 03:55:31  5-MIN KMKG 170855Z 32005KT 10SM CLR 07/M01 A2972 820 57 100 320/05 RMK AO2 SLP065 T00671011 52026
14840KMKG MKG20101117040009111/17/10 04:00:31  5-MIN KMKG 170900Z 33005KT 10SM CLR 07/M01 A2972 820 57 0 330/05 RMK AO2
14840KMKG MKG20101117040509411/17/10 04:05:31  5-MIN KMKG 170905Z 33005KT 10SM FEW110 07/M01 A2972 820 57 0 330/05 RMK AO2
14840KMKG MKG20101117041009411/17/10 04:10:31  5-MIN KMKG 170910Z 33006KT 10SM SCT110 07/M01 A2972 810 60 0 340/06 RMK AO2
14840KMKG MKG20101117041509411/17/10 04:15:31  5-MIN KMKG 170915Z 34005KT 10SM SCT120 07/M01 A2972 810 60 0 340/05 RMK AO2
14840KMKG MKG20101117042009411/17/10 04:20:31  5-MIN KMKG 170920Z 34004KT 10SM BKN110 07/M01 A2972 810 60 0 350/04 RMK AO2
14840KMKG MKG20101117042509411/17/10 04:25:31  5-MIN KMKG 170925Z 34003KT 10SM BKN110 07/M01 A2973 810 60 0 340/03 RMK AO2
14840KMKG MKG20101117043009411/17/10 04:30:31  5-MIN KMKG 170930Z 00000KT 10SM BKN110 07/M01 A2973 810 60 0 000/00 RMK AO2
14840KMKG MKG20101117043509611/17/10 04:35:31  5-MIN KMKG 170935Z 32003KT 10SM BKN120 07/M01 A2973 800 57 100 320/03 RMK AO2
14840KMKG MKG20101117044009411/17/10 04:40:31  5-MIN KMKG 170940Z 00000KT 10SM OVC120 07/M01 A2974 800 57 0 000/00 RMK AO2
14840KMKG MKG20101117044509411/17/10 04:45:31  5-MIN KMKG 170945Z 00000KT 10SM OVC110 07/M01 A2974 800 57 0 000/00 RMK AO2
14840KMKG MKG20101117045011111/17/10 04:50:31  5-MIN KMKG 170950Z 00000KT 10SM OVC110 07/M01 A2974 800 57 0 000/00 RMK AO2 SLP075 T00671011
14840KMKG MKG20101117045511111/17/10 04:55:31  5-MIN KMKG 170955Z 00000KT 10SM OVC110 07/M01 A2975 790 57 0 000/00 RMK AO2 SLP076 T00671011
14840KMKG MKG20101117050009411/17/10 05:00:31  5-MIN KMKG 171000Z 00000KT 10SM OVC110 07/M01 A2975 790 57 0 000/00 RMK AO2
14840KMKG MKG20101117050509711/17/10 05:05:31  5-MIN KMKG 171005Z 00000KT 10SM OVC100 06/M01 A2975 790 62 -100 000/00 RMK AO2
14840KMKG MKG20101117051010411/17/10 05:10:31  5-MIN KMKG 171010Z 00000KT 10SM BKN100 OVC120 06/M01 A2975 790 62 -100 000/00 RMK AO2
14840KMKG MKG20101117051510111/17/10 05:15:31  5-MIN KMKG 171015Z 00000KT 10SM BKN100 OVC120 06/M01 A2975 790 60 0 000/00 RMK AO2
14840KMKG MKG20101117052009411/17/10 05:20:31  5-MIN KMKG 171020Z 00000KT 10SM OVC100 06/M01 A2975 790 60 0 000/00 RMK AO2
14840KMKG MKG20101117052509711/17/10 05:25:31  5-MIN KMKG 171025Z 00000KT 10SM OVC100 05/M01 A2976 780 67 -100 000/00 RMK AO2
14840KMKG MKG20101117053009711/17/10 05:30:31  5-MIN KMKG 171030Z 00000KT 10SM OVC100 04/M01 A2976 780 70 -200 000/00 RMK AO2
14840KMKG MKG20101117053509611/17/10 05:35:31  5-MIN KMKG 171035Z 00000KT 10SM OVC100 04/00 A2976 780 73 -200 000/00 RMK AO2
14840KMKG MKG20101117054009611/17/10 05:40:31  5-MIN KMKG 171040Z 00000KT 10SM OVC100 04/00 A2976 780 73 -200 000/00 RMK AO2
14840KMKG MKG20101117054510411/17/10 05:45:31  5-MIN KMKG 171045Z 00000KT 10SM BKN090 OVC110 04/M01 A2976 780 73 -300 000/00 RMK AO2
14840KMKG MKG20101117055012011/17/10 05:50:31  5-MIN KMKG 171050Z 00000KT 10SM FEW065 OVC100 04/00 A2977 770 76 -300 000/00 RMK AO2 SLP083 T00390000
14840KMKG MKG20101117055514211/17/10 05:55:31  5-MIN KMKG 171055Z 00000KT 10SM FEW060 SCT085 OVC110 04/00 A2977 770 76 -300 000/00 RMK AO2 CIG 090 RWY 14 SLP084 T00390000
14840KMKG MKG20101117060012611/17/10 06:00:31  5-MIN KMKG 171100Z 00000KT 10SM FEW060 BKN085 OVC110 04/M01 A2977 770 73 -300 000/00 RMK AO2 CIG 070 RWY 14
14840KMKG MKG20101117060511111/17/10 06:05:31  5-MIN KMKG 171105Z 00000KT 10SM FEW060 BKN085 OVC110 04/M01 A2978 770 73 -300 000/00 RMK AO2
14840KMKG MKG20101117061011111/17/10 06:10:31  5-MIN KMKG 171110Z 00000KT 10SM FEW060 BKN080 OVC110 03/M01 A2978 760 76 -400 000/00 RMK AO2
14840KMKG MKG20101117061510411/17/10 06:15:31  5-MIN KMKG 171115Z 00000KT 10SM FEW060 OVC080 03/M01 A2978 760 79 -400 000/00 RMK AO2
14840KMKG MKG20101117062010411/17/10 06:20:31  5-MIN KMKG 171120Z 00000KT 10SM FEW060 OVC085 03/M01 A2978 760 76 -400 000/00 RMK AO2
14840KMKG MKG20101117062509711/17/10 06:25:31  5-MIN KMKG 171125Z 00000KT 10SM OVC085 03/M01 A2978 760 76 -400 000/00 RMK AO2
14840KMKG MKG20101117063009611/17/10 06:30:31  5-MIN KMKG 171130Z 24003KT 10SM OVC085 03/00 A2979 750 79 -400 250/03 RMK AO2
14840KMKG MKG20101117063509611/17/10 06:35:31  5-MIN KMKG 171135Z 00000KT 10SM OVC085 03/00 A2979 750 79 -400 000/00 RMK AO2
14840KMKG MKG20101117064009611/17/10 06:40:31  5-MIN KMKG 171140Z 00000KT 10SM OVC085 03/00 A2979 750 79 -400 000/00 RMK AO2
14840KMKG MKG20101117064509611/17/10 06:45:31  5-MIN KMKG 171145Z 00000KT 10SM OVC090 03/00 A2979 750 79 -400 000/00 RMK AO2
14840KMKG MKG20101117065013111/17/10 06:50:31  5-MIN KMKG 171150Z 00000KT 10SM OVC090 03/00 A2980 750 79 -400 000/00 RMK AO2 SLP094 T00330000 10072 20028 52026
14840KMKG MKG20101117065513111/17/10 06:55:31  5-MIN KMKG 171155Z 00000KT 10SM OVC090 04/00 A2980 740 76 -300 000/00 RMK AO2 SLP095 T00390000 10072 20028 52027
14840KMKG MKG20101117070010311/17/10 07:00:31  5-MIN KMKG 171200Z 00000KT 10SM FEW070 OVC090 04/00 A2980 740 73 -300 000/00 RMK AO2
14840KMKG MKG20101117070510311/17/10 07:05:31  5-MIN KMKG 171205Z 00000KT 10SM FEW070 OVC090 04/00 A2980 740 73 -300 000/00 RMK AO2
14840KMKG MKG20101117071010311/17/10 07:10:31  5-MIN KMKG 171210Z 00000KT 10SM FEW070 OVC090 04/00 A2981 740 73 -300 000/00 RMK AO2
14840KMKG MKG20101117071510311/17/10 07:15:31  5-MIN KMKG 171215Z 00000KT 10SM SCT075 OVC090 04/00 A2981 740 76 -300 000/00 RMK AO2
14840KMKG MKG20101117072010311/17/10 07:20:31  5-MIN KMKG 171220Z 00000KT 10SM FEW080 OVC090 04/00 A2981 730 73 -300 000/00 RMK AO2
14840KMKG MKG20101117072511811/17/10 07:25:31  5-MIN KMKG 171225Z 00000KT 10SM FEW075 OVC090 04/00 A2981 730 73 -300 000/00 RMK AO2 CIG 075 RWY 14
14840KMKG MKG20101117073011811/17/10 07:30:31  5-MIN KMKG 171230Z 00000KT 10SM FEW070 OVC090 05/01 A2981 730 73 -200 000/00 RMK AO2 CIG 075 RWY 14
14840KMKG MKG20101117073511811/17/10 07:35:31  5-MIN KMKG 171235Z 00000KT 10SM FEW070 OVC090 06/01 A2982 730 73 -100 000/00 RMK AO2 CIG 075 RWY 14
14840KMKG MKG20101117074011811/17/10 07:40:31  5-MIN KMKG 171240Z 00000KT 10SM FEW080 OVC095 06/01 A2982 730 73 -200 000/00 RMK AO2 CIG 075 RWY 14
14840KMKG MKG20101117074511811/17/10 07:45:31  5-MIN KMKG 171245Z 00000KT 10SM SCT075 OVC095 05/01 A2982 720 76 -200 000/00 RMK AO2 CIG 075 RWY 14
14840KMKG MKG20101117075013511/17/10 07:50:31  5-MIN KMKG 171250Z 00000KT 10SM SCT070 OVC095 06/02 A2982 720 76 -200 000/00 RMK AO2 CIG 070 RWY 14 SLP102 T00560017
14840KMKG MKG20101117075512711/17/10 07:55:31  5-MIN KMKG 171255Z 00000KT 10SM SCT060 BKN075 OVC095 05/02 A2982 720 79 -200 000/00 RMK AO2 SLP103 T00500017
14840KMKG MKG20101117080011011/17/10 08:00:31  5-MIN KMKG 171300Z 00000KT 10SM SCT060 BKN075 OVC095 04/02 A2983 720 82 -300 000/00 RMK AO2
14840KMKG MKG20101117080511011/17/10 08:05:31  5-MIN KMKG 171305Z 24004KT 10SM BKN060 BKN075 BKN095 04/01 A2983 710 82 -400 250/04 RMK AO2
14840KMKG MKG20101117081010311/17/10 08:10:31  5-MIN KMKG 171310Z 25003KT 10SM BKN060 BKN075 04/01 A2983 710 79 -300 250/03 RMK AO2
14840KMKG MKG20101117081509511/17/10 08:15:31  5-MIN KMKG 171315Z 00000KT 9SM OVC060 05/02 A2984 710 82 -200 000/00 RMK AO2
14840KMKG MKG20101117082009511/17/10 08:20:31  5-MIN KMKG 171320Z 27003KT 8SM BKN060 05/03 A2984 710 85 -200 280/03 RMK AO2
14840KMKG MKG20101117082509511/17/10 08:25:31  5-MIN KMKG 171325Z 28003KT 8SM BKN060 06/03 A2984 700 85 -200 280/03 RMK AO2
14840KMKG MKG20101117083009511/17/10 08:30:31  5-MIN KMKG 171330Z 26003KT 8SM BKN060 06/03 A2984 700 85 -200 260/03 RMK AO2
14840KMKG MKG20101117083510211/17/10 08:35:31  5-MIN KMKG 171335Z 26003KT 8SM SCT055 BKN070 06/04 A2984 700 89 -200 260/03 RMK AO2
14840KMKG MKG20101117084010211/17/10 08:40:31  5-MIN KMKG 171340Z 00000KT 8SM SCT060 SCT075 06/04 A2985 700 86 -100 000/00 RMK AO2
14840KMKG MKG20101117084510211/17/10 08:45:31  5-MIN KMKG 171345Z 00000KT 8SM SCT060 BKN075 06/04 A2985 700 86 -100 000/00 RMK AO2
14840KMKG MKG20101117085015711/17/10 08:50:31  5-MIN KMKG 171350Z 00000KT 8SM TS SCT060 BKN075 06/04 A2985 700 86 -100 000/00 RMK AO2 TSB47 SLP112 OCNL LTGICCG NW TS NW MOV SE T00610039
14840KMKG MKG20101117085515411/17/10 08:55:31  5-MIN KMKG 171355Z VRB03KT 8SM TS SCT060 BKN075 07/04 A2985 690 82 0 VRB/03 RMK AO2 TSB47 SLP113 OCNL LTGICCG NW TS NW MOV SE T00720044
14840KMKG MKG20101117090013311/17/10 09:00:31  5-MIN KMKG 171400Z 25003KT 8SM TS FEW021 BKN080 07/05 A2986 690 86 0 250/03 RMK AO2 OCNL LTGIC NW-N TS NW-N MOV SE
14840KMKG MKG20101117090514011/17/10 09:05:31  5-MIN KMKG 171405Z 25003KT 8SM TS SCT021 SCT050 BKN075 08/05 A2986 690 82 0 250/03 RMK AO2 OCNL LTGIC NW-N TS NW-N MOV SE
14840KMKG MKG20101117091015911/17/10 09:10:31  5-MIN KMKG 171410Z 24003KT 8SM TS SCT023 BKN055 OVC095 08/05 A2986 690 82 0 250/03 RMK AO2 CIG 026 RWY 14 OCNL LTGICCACC N-NE TS N-NE MOV SE
14840KMKG MKG20101117091516111/17/10 09:15:31  5-MIN KMKG 171415Z 00000KT 9SM TS SCT021 BKN050 OVC075 08/06 A2986 690 82 100 000/00 RMK AO2 CIG 025 RWY 14 OCNL LTGICCACC N-NE TS N-NE MOV SE
14840KMKG MKG20101117092014211/17/10 09:20:31  5-MIN KMKG 171420Z 36004KT 8SM TS BKN019 BKN050 OVC085 08/06 A2986 680 82 100 010/04 RMK AO2 OCNL LTGIC NE-E TS NE-E MOV SE
14840KMKG MKG20101117092514211/17/10 09:25:31  5-MIN KMKG 171425Z 36005KT 7SM TS BKN019 BKN050 OVC085 08/06 A2987 680 82 100 010/05 RMK AO2 OCNL LTGIC NE-E TS NE-E MOV SE
14840KMKG MKG20101117093015711/17/10 09:30:31  5-MIN KMKG 171430Z 35008KT 8SM -TSRA BKN017 BKN023 OVC060 08/05 A2987 670 79 100 350/08 RMK AO2 RAB26 OCNL LTGIC NE-E TS NE-E MOV SE P0000
14840KMKG MKG20101117093515911/17/10 09:35:31  5-MIN KMKG 171435Z 36006KT 9SM -TSRA SCT017 BKN023 OVC070 08/05 A2988 670 79 100 010/06 RMK AO2 RAB26 OCNL LTGICCG E-SE TS E-SE MOV SE P0000
14840KMKG MKG20101117094016011/17/10 09:40:31  5-MIN KMKG 171440Z 36007KT 10SM -TSRA SCT017 BKN025 OVC055 08/04 A2988 670 76 100 360/07 RMK AO2 RAB26 OCNL LTGICCG E-SE TS E-SE MOV SE P0000
14840KMKG MKG20101117094516011/17/10 09:45:31  5-MIN KMKG 171445Z 35006KT 10SM TS SCT017 BKN025 OVC060 08/04 A2988 670 76 100 360/06 RMK AO2 RAB26E44 OCNL LTGICCG E-SE TS E-SE MOV SE P0000
14840KMKG MKG20101117095016011/17/10 09:50:31  5-MIN KMKG 171450Z 35008KT 10SM TS SCT021 BKN035 OVC060 08/04 A2989 660 73 100 350/08 RMK AO2 RAB26E44 OCNL LTGICCG E-SE TS E-SE MOV SE P0000
14840KMKG MKG20101117095518911/17/10 09:55:31  5-MIN KMKG 171455Z 34006KT 10SM TS FEW023 BKN032 OVC060 08/04 A2989 660 73 100 350/06 RMK AO2 RAB26E44 SLP125 OCNL LTGICCG E-SE TS E-SE MOV SE P0000 60000 T00830039 53022
14840KMKG MKG20101117100014111/17/10 10:00:31  5-MIN KMKG 171500Z 34006KT 10SM TS FEW023 BKN032 OVC065 08/04 A2989 660 73 100 350/06 RMK AO2 OCNL LTGICCG SE TS SE MOV SE
14840KMKG MKG20101117100514111/17/10 10:05:31  5-MIN KMKG 171505Z 34005KT 10SM TS FEW023 BKN040 OVC065 08/04 A2989 650 73 100 350/05 RMK AO2 OCNL LTGICCG SE TS SE MOV SE
14840KMKG MKG20101117101013911/17/10 10:10:31  5-MIN KMKG 171510Z 36004KT 10SM TS FEW021 SCT032 BKN044 08/04 A2990 650 73 0 360/04 RMK AO2 OCNL LTGICCG SE TS SE MOV SE
14840KMKG MKG20101117101513211/17/10 10:15:31  5-MIN KMKG 171515Z 35004KT 10SM FEW021 SCT032 BKN080 09/04 A2990 650 71 100 360/04 RMK AO2 TSE15 OCNL LTG DSNT SE
14840KMKG MKG20101117102013211/17/10 10:20:31  5-MIN KMKG 171520Z 35004KT 10SM FEW019 SCT039 OVC080 09/04 A2990 650 71 100 360/04 RMK AO2 TSE15 OCNL LTG DSNT SE
14840KMKG MKG20101117102512511/17/10 10:25:31  5-MIN KMKG 171525Z 36004KT 10SM FEW019 OVC080 09/04 A2990 650 71 100 360/04 RMK AO2 TSE15 OCNL LTG DSNT SE
14840KMKG MKG20101117103011811/17/10 10:30:31  5-MIN KMKG 171530Z 35003KT 10SM BKN080 09/04 A2990 640 71 200 360/03 RMK AO2 TSE15 OCNL LTG DSNT SE
14840KMKG MKG20101117103511811/17/10 10:35:31  5-MIN KMKG 171535Z 35003KT 10SM OVC080 09/04 A2991 640 71 200 360/03 RMK AO2 TSE15 OCNL LTG DSNT SE
14840KMKG MKG20101117104010811/17/10 10:40:31  5-MIN KMKG 171540Z 00000KT 10SM FEW032 OVC080 09/04 A2991 640 71 200 000/00 RMK AO2 TSE15
14840KMKG MKG20101117104511511/17/10 10:45:31  5-MIN KMKG 171545Z 35003KT 10SM FEW032 SCT060 OVC080 10/05 A2991 640 71 200 360/03 RMK AO2 TSE15
14840KMKG MKG20101117105012511/17/10 10:50:31  5-MIN KMKG 171550Z 34004KT 10SM SCT060 OVC080 10/05 A2991 640 71 200 340/04 RMK AO2 TSE15 SLP132 T01000050
14840KMKG MKG20101117105512511/17/10 10:55:31  5-MIN KMKG 171555Z 35004KT 10SM SCT060 OVC080 10/05 A2992 630 71 200 350/04 RMK AO2 TSE15 SLP133 T01000050
14840KMKG MKG20101117110010211/17/10 11:00:31  5-MIN KMKG 171600Z 35005KT 10SM BKN060 OVC080 10/05 A2992 630 71 200 360/05 RMK AO2
14840KMKG MKG20101117110510911/17/10 11:05:31  5-MIN KMKG 171605Z 35006KT 10SM FEW016 BKN060 OVC075 11/06 A2992 630 71 300 350/06 RMK AO2
14840KMKG MKG20101117111010211/17/10 11:10:31  5-MIN KMKG 171610Z 36006KT 10SM FEW016 OVC060 11/06 A2992 630 71 300 360/06 RMK AO2
14840KMKG MKG20101117111510211/17/10 11:15:31  5-MIN KMKG 171615Z 36005KT 10SM SCT016 OVC060 11/06 A2992 630 74 300 360/05 RMK AO2
14840KMKG MKG20101117112010911/17/10 11:20:31  5-MIN KMKG 171620Z 33003KT 10SM SCT016 BKN050 OVC060 11/06 A2992 630 74 300 330/03 RMK AO2
14840KMKG MKG20101117112510811/17/10 11:25:31  5-MIN KMKG 171625Z 31004KT 8SM BKN016 BKN048 OVC060 10/06 A2993 620 77 200 320/04 RMK AO2
14840KMKG MKG20101117113012411/17/10 11:30:31  5-MIN KMKG 171630Z 33004KT 6SM -RA BKN016 BKN043 OVC055 10/06 A2993 620 77 200 330/04 RMK AO2 RAB27 P0000
14840KMKG MKG20101117113513911/17/10 11:35:31  5-MIN KMKG 171635Z 31004KT 6SM -RA SCT016 BKN050 OVC060 09/06 A2993 620 79 100 310/04 RMK AO2 RAB27 CIG 017 RWY 14 P0000
14840KMKG MKG20101117114012311/17/10 11:40:31  5-MIN KMKG 171640Z 30003KT 8SM SCT016 BKN050 OVC060 09/06 A2993 620 79 100 300/03 RMK AO2 RAB27E38 P0000
14840KMKG MKG20101117114512311/17/10 11:45:31  5-MIN KMKG 171645Z 30004KT 8SM SCT016 BKN049 OVC060 09/06 A2993 620 79 100 310/04 RMK AO2 RAB27E38 P0000
14840KMKG MKG20101117115014011/17/10 11:50:31  5-MIN KMKG 171650Z 30004KT 8SM SCT016 BKN049 OVC060 10/06 A2993 620 77 200 300/04 RMK AO2 RAB27E38 SLP139 P0000 T01000061
14840KMKG MKG20101117115514011/17/10 11:55:31  5-MIN KMKG 171655Z 31003KT 8SM FEW016 BKN046 OVC060 10/06 A2993 620 77 200 310/03 RMK AO2 RAB27E38 SLP139 P0000 T01000061
14840KMKG MKG20101117120012311/17/10 12:00:31  5-MIN KMKG 171700Z 30004KT 8SM SCT016 SCT030 OVC046 10/06 A2993 620 77 200 300/04 RMK AO2 CIG 017 RWY 14
14840KMKG MKG20101117120512311/17/10 12:05:31  5-MIN KMKG 171705Z 29004KT 8SM SCT016 SCT030 OVC046 10/06 A2993 620 77 200 290/04 RMK AO2 CIG 017 RWY 14
14840KMKG MKG20101117121010111/17/10 12:10:31  5-MIN KMKG 171710Z 28007KT 8SM SCT016 OVC046 10/06 A2994 620 77 200 280/07 RMK AO2
14840KMKG MKG20101117121510811/17/10 12:15:31  5-MIN KMKG 171715Z 27007KT 9SM FEW016 BKN045 OVC070 10/06 A2994 620 77 200 270/07 RMK AO2
14840KMKG MKG20101117122013911/17/10 12:20:31  5-MIN KMKG 171720Z 29009KT 9SM -RA SCT020 BKN045 OVC075 10/06 A2994 610 74 200 290/09 RMK AO2 RAB16 CIG 017 RWY 14 P0000
14840KMKG MKG20101117122513911/17/10 12:25:31  5-MIN KMKG 171725Z 30008KT 10SM SCT021 BKN045 OVC090 10/06 A2994 620 74 200 300/08 RMK AO2 RAB16E25 CIG 019 RWY 14 P0000
14840KMKG MKG20101117123013911/17/10 12:30:31  5-MIN KMKG 171730Z 29008KT 10SM FEW021 BKN065 OVC075 10/06 A2994 620 74 200 290/08 RMK AO2 RAB16E25 CIG 044 RWY 14 P0000
14840KMKG MKG20101117123513911/17/10 12:35:31  5-MIN KMKG 171735Z 29007KT 10SM FEW021 SCT046 OVC075 10/06 A2994 610 74 200 300/07 RMK AO2 RAB16E25 CIG 060 RWY 14 P0000
14840KMKG MKG20101117124013911/17/10 12:40:31  5-MIN KMKG 171740Z 30009KT 10SM FEW021 BKN075 OVC095 10/06 A2994 620 74 200 300/09 RMK AO2 RAB16E25 CIG 060 RWY 14 P0000
14840KMKG MKG20101117124512411/17/10 12:45:31  5-MIN KMKG 171745Z 29007KT 10SM SCT021 SCT065 BKN075 10/06 A2994 610 74 200 290/07 RMK AO2 RAB16E25 P0000
14840KMKG MKG20101117125016511/17/10 12:50:31  5-MIN KMKG 171750Z 30008KT 10SM SCT023 BKN065 OVC075 11/06 A2994 610 71 300 300/08 RMK AO2 RAB16E25 SLP140 P0000 60000 T01060056 10106 20039 53022
14840KMKG MKG20101117125516511/17/10 12:55:31  5-MIN KMKG 171755Z 30010KT 10SM FEW019 SCT032 BKN075 10/06 A2994 620 74 200 300/10 RMK AO2 RAB16E25 SLP141 P0000 60000 T01000056 10106 20039 51016
14840KMKG MKG20101117130010911/17/10 13:00:31  5-MIN KMKG 171800Z 29009KT 10SM FEW023 BKN036 BKN080 10/06 A2994 620 74 200 290/09 RMK AO2
14840KMKG MKG20101117130510911/17/10 13:05:31  5-MIN KMKG 171805Z 30010KT 10SM FEW019 SCT031 BKN040 10/06 A2994 610 74 200 300/10 RMK AO2
14840KMKG MKG20101117131010811/17/10 13:10:31  5-MIN KMKG 171810Z 30008KT 9SM FEW027 SCT033 BKN040 10/06 A2994 610 74 200 300/08 RMK AO2
14840KMKG MKG20101117131510811/17/10 13:15:31  5-MIN KMKG 171815Z 31009KT 9SM FEW017 SCT031 OVC080 10/06 A2994 610 74 200 310/09 RMK AO2
14840KMKG MKG20101117132011511/17/10 13:20:31  5-MIN KMKG 171820Z 31012G17KT 10SM FEW016 SCT031 OVC085 11/06 A2994 610 71 300 310/12G17 RMK AO2
14840KMKG MKG20101117132510811/17/10 13:25:31  5-MIN KMKG 171825Z 30011KT 9SM SCT018 SCT041 BKN085 11/06 A2994 610 71 300 310/11 RMK AO2
14840KMKG MKG20101117133010811/17/10 13:30:31  5-MIN KMKG 171830Z 31010KT 9SM SCT018 BKN029 OVC085 11/06 A2994 610 71 300 320/10 RMK AO2
14840KMKG MKG20101117133510811/17/10 13:35:31  5-MIN KMKG 171835Z 30009KT 9SM BKN018 BKN030 OVC085 11/06 A2995 610 71 300 310/09 RMK AO2
14840KMKG MKG20101117134010111/17/10 13:40:31  5-MIN KMKG 171840Z 30009KT 9SM BKN018 OVC085 10/06 A2995 610 74 200 300/09 RMK AO2
14840KMKG MKG20101117134510811/17/10 13:45:31  5-MIN KMKG 171845Z 30011KT 9SM BKN018 BKN031 BKN085 10/06 A2995 600 74 200 300/11 RMK AO2
14840KMKG MKG20101117135011811/17/10 13:50:31  5-MIN KMKG 171850Z 29012KT 9SM BKN018 BKN031 10/06 A2995 600 74 200 290/12 RMK AO2 SLP147 T01000056
14840KMKG MKG20101117135511811/17/10 13:55:31  5-MIN KMKG 171855Z 29008KT 9SM BKN018 BKN029 10/06 A2996 600 74 200 300/08 RMK AO2 SLP147 T01000056
14840KMKG MKG20101117140010111/17/10 14:00:31  5-MIN KMKG 171900Z 30011KT 8SM BKN018 BKN039 10/06 A2996 600 74 200 310/11 RMK AO2
14840KMKG MKG20101117140512411/17/10 14:05:31  5-MIN KMKG 171905Z 31008KT 290V350 8SM BKN018 BKN029 BKN039 09/06 A2996 590 76 100 310/08 290V350 RMK AO2
14840KMKG MKG20101117141011411/17/10 14:10:31  5-MIN KMKG 171910Z 31012G19KT 8SM SCT018 BKN027 BKN033 09/05 A2996 590 74 100 320/12G19 RMK AO2
14840KMKG MKG20101117141510711/17/10 14:15:31  5-MIN KMKG 171915Z 31009G19KT 8SM SCT018 BKN035 09/05 A2996 590 74 100 310/09G19 RMK AO2
14840KMKG MKG20101117142010111/17/10 14:20:31  5-MIN KMKG 171920Z 30008KT 8SM SCT016 BKN035 09/06 A2996 590 76 100 310/08 RMK AO2
14840KMKG MKG20101117142510711/17/10 14:25:31  5-MIN KMKG 171925Z 32011G15KT 8SM SCT016 OVC037 09/06 A2996 590 76 100 330/11G15 RMK AO2
14840KMKG MKG20101117143010711/17/10 14:30:31  5-MIN KMKG 171930Z 31011G18KT 8SM FEW016 OVC037 10/05 A2996 590 71 200 320/11G18 RMK AO2
14840KMKG MKG20101117143510711/17/10 14:35:31  5-MIN KMKG 171935Z 32013G18KT 9SM FEW016 OVC037 11/06 A2996 590 71 200 320/13G18 RMK AO2
14840KMKG MKG20101117144010111/17/10 14:40:31  5-MIN KMKG 171940Z 31010KT 9SM FEW016 BKN037 09/05 A2996 590 74 100 310/10 RMK AO2
14840KMKG MKG20101117144510111/17/10 14:45:31  5-MIN KMKG 171945Z 30011KT 9SM FEW016 BKN037 09/05 A2997 590 74 100 310/11 RMK AO2
14840KMKG MKG20101117145011811/17/10 14:50:31  5-MIN KMKG 171950Z 30009KT 9SM FEW016 BKN035 09/05 A2997 590 74 100 310/09 RMK AO2 SLP151 T00940050
14840KMKG MKG20101117145511811/17/10 14:55:31  5-MIN KMKG 171955Z 30007KT 9SM SCT016 OVC035 09/05 A2997 580 74 100 310/07 RMK AO2 SLP153 T00940050
14840KMKG MKG20101117150011211/17/10 15:00:31  5-MIN KMKG 172000Z 30011G15KT 9SM SCT016 BKN023 OVC035 09/05 A2997 580 76 0 310/11G15 RMK AO2
14840KMKG MKG20101117150510611/17/10 15:05:31  5-MIN KMKG 172005Z 31009KT 9SM SCT016 SCT023 OVC035 09/05 A2997 580 76 0 310/09 RMK AO2
14840KMKG MKG20101117151010611/17/10 15:10:31  5-MIN KMKG 172010Z 32008KT 9SM SCT018 BKN023 OVC033 09/05 A2998 580 76 0 320/08 RMK AO2
14840KMKG MKG20101117151510611/17/10 15:15:31  5-MIN KMKG 172015Z 30006KT 9SM SCT016 BKN026 OVC033 09/05 A2998 580 76 0 300/06 RMK AO2
14840KMKG MKG20101117152010611/17/10 15:20:31  5-MIN KMKG 172020Z 31009KT 9SM FEW016 BKN023 OVC033 09/04 A2998 580 73 0 310/09 RMK AO2
14840KMKG MKG20101117152510711/17/10 15:25:31  5-MIN KMKG 172025Z 31009KT 10SM FEW016 BKN023 OVC031 09/04 A2998 570 73 0 310/09 RMK AO2
14840KMKG MKG20101117153010711/17/10 15:30:31  5-MIN KMKG 172030Z 32008KT 10SM FEW021 BKN028 OVC033 09/04 A2999 570 73 0 320/08 RMK AO2
14840KMKG MKG20101117153510011/17/10 15:35:31  5-MIN KMKG 172035Z 32007KT 10SM BKN026 OVC031 09/04 A2999 570 73 0 320/07 RMK AO2
14840KMKG MKG20101117154010011/17/10 15:40:31  5-MIN KMKG 172040Z 32010KT 10SM BKN026 OVC031 09/04 A2999 560 73 0 320/10 RMK AO2
14840KMKG MKG20101117154510711/17/10 15:45:31  5-MIN KMKG 172045Z 30007KT 10SM FEW021 BKN026 OVC032 09/04 A2999 560 71 0 300/07 RMK AO2
14840KMKG MKG20101117155011611/17/10 15:50:31  5-MIN KMKG 172050Z 31008KT 10SM OVC028 09/04 A3000 560 73 0 320/08 RMK AO2 SLP162 T00890044 51016
14840KMKG MKG20101117155512311/17/10 15:55:31  5-MIN KMKG 172055Z 31008KT 10SM FEW016 OVC028 09/04 A3000 560 71 0 310/08 RMK AO2 SLP161 T00890039 53020
14840KMKG MKG20101117160010711/17/10 16:00:31  5-MIN KMKG 172100Z 30009KT 10SM FEW019 BKN028 OVC043 08/04 A3000 560 73 0 310/09 RMK AO2
14840KMKG MKG20101117160512211/17/10 16:05:31  5-MIN KMKG 172105Z 32009KT 10SM FEW019 BKN028 OVC043 08/04 A3000 550 73 0 320/09 RMK AO2 CIG 022 RWY 14
14840KMKG MKG20101117161012811/17/10 16:10:31  5-MIN KMKG 172110Z 31007G15KT 10SM FEW019 BKN028 OVC045 08/04 A3000 550 73 0 310/07G15 RMK AO2 CIG 022 RWY 14
14840KMKG MKG20101117161511311/17/10 16:15:31  5-MIN KMKG 172115Z 31009G17KT 10SM SCT019 BKN026 OVC045 08/04 A3001 550 73 0 310/09G17 RMK AO2
14840KMKG MKG20101117162012811/17/10 16:20:31  5-MIN KMKG 172120Z 30007G17KT 10SM SCT019 BKN026 OVC045 08/04 A3001 550 73 0 310/07G17 RMK AO2 CIG 020 RWY 14
14840KMKG MKG20101117162512211/17/10 16:25:31  5-MIN KMKG 172125Z 30007KT 10SM SCT019 BKN028 OVC045 08/04 A3001 550 73 0 310/07 RMK AO2 CIG 020 RWY 14
14840KMKG MKG20101117163012211/17/10 16:30:31  5-MIN KMKG 172130Z 31006KT 10SM SCT019 BKN026 OVC047 08/04 A3002 540 73 0 310/06 RMK AO2 CIG 020 RWY 14
14840KMKG MKG20101117163512211/17/10 16:35:31  5-MIN KMKG 172135Z 31008KT 10SM SCT019 BKN026 OVC047 08/04 A3002 540 73 0 320/08 RMK AO2 CIG 018 RWY 14
14840KMKG MKG20101117164010711/17/10 16:40:31  5-MIN KMKG 172140Z 31009KT 10SM SCT021 BKN026 OVC047 08/04 A3002 540 73 0 320/09 RMK AO2
14840KMKG MKG20101117164512211/17/10 16:45:31  5-MIN KMKG 172145Z 33008KT 10SM FEW019 BKN026 OVC047 08/03 A3002 530 70 0 330/08 RMK AO2 CIG 019 RWY 14
14840KMKG MKG20101117165012711/17/10 16:50:31  5-MIN KMKG 172150Z 32008KT 10SM FEW019 BKN026 OVC047 08/03 A3003 530 73 -100 330/08 RMK AO2 SLP172 T00780033
14840KMKG MKG20101117165512711/17/10 16:55:31  5-MIN KMKG 172155Z 33009KT 10SM FEW019 BKN029 OVC047 08/03 A3003 530 73 -100 330/09 RMK AO2 SLP172 T00780033
14840KMKG MKG20101117170011011/17/10 17:00:31  5-MIN KMKG 172200Z 33009KT 10SM SCT024 BKN030 OVC049 08/03 A3003 530 73 -100 330/09 RMK AO2
14840KMKG MKG20101117170510311/17/10 17:05:31  5-MIN KMKG 172205Z 33009KT 10SM BKN026 OVC036 08/03 A3003 530 73 -100 330/09 RMK AO2
14840KMKG MKG20101117171011011/17/10 17:10:31  5-MIN KMKG 172210Z 33012KT 10SM BKN023 BKN028 OVC036 08/03 A3003 530 73 -100 330/12 RMK AO2
14840KMKG MKG20101117171511011/17/10 17:15:31  5-MIN KMKG 172215Z 33009KT 10SM BKN023 BKN028 OVC036 08/03 A3003 530 73 -100 340/09 RMK AO2
14840KMKG MKG20101117172011011/17/10 17:20:31  5-MIN KMKG 172220Z 34006KT 10SM BKN021 BKN030 OVC050 08/03 A3003 530 73 -100 350/06 RMK AO2
14840KMKG MKG20101117172510311/17/10 17:25:31  5-MIN KMKG 172225Z 34007KT 10SM BKN021 OVC027 08/03 A3003 520 73 -100 340/07 RMK AO2
14840KMKG MKG20101117173010311/17/10 17:30:31  5-MIN KMKG 172230Z 33006KT 10SM BKN021 OVC027 08/03 A3004 520 73 -100 330/06 RMK AO2
14840KMKG MKG20101117173511011/17/10 17:35:31  5-MIN KMKG 172235Z 32008KT 10SM BKN021 BKN027 OVC055 08/03 A3004 520 73 -100 330/08 RMK AO2
14840KMKG MKG20101117174011011/17/10 17:40:31  5-MIN KMKG 172240Z 32009KT 10SM BKN021 BKN027 OVC055 08/03 A3004 520 73 -100 330/09 RMK AO2
14840KMKG MKG20101117174510311/17/10 17:45:31  5-MIN KMKG 172245Z 33008KT 10SM BKN021 OVC027 08/03 A3005 510 73 -100 340/08 RMK AO2
14840KMKG MKG20101117175012011/17/10 17:50:31  5-MIN KMKG 172250Z 33009KT 10SM BKN019 OVC027 08/03 A3005 510 73 -100 330/09 RMK AO2 SLP180 T00780033
14840KMKG MKG20101117175512711/17/10 17:55:31  5-MIN KMKG 172255Z 33008KT 10SM BKN019 BKN027 OVC060 08/03 A3005 510 73 -100 330/08 RMK AO2 SLP180 T00780033
14840KMKG MKG20101117180011011/17/10 18:00:31  5-MIN KMKG 172300Z 32008KT 10SM BKN019 BKN027 OVC060 07/03 A3005 510 76 -200 320/08 RMK AO2
14840KMKG MKG20101117180511011/17/10 18:05:31  5-MIN KMKG 172305Z 33010KT 10SM BKN019 BKN027 OVC040 07/03 A3005 510 76 -200 340/10 RMK AO2
14840KMKG MKG20101117181010311/17/10 18:10:31  5-MIN KMKG 172310Z 33010KT 10SM SCT019 OVC040 07/03 A3006 500 76 -200 340/10 RMK AO2
14840KMKG MKG20101117181511611/17/10 18:15:31  5-MIN KMKG 172315Z 33013G17KT 10SM FEW019 SCT024 OVC040 07/03 A3006 510 76 -200 340/13G17 RMK AO2
14840KMKG MKG20101117182010911/17/10 18:20:31  5-MIN KMKG 172320Z 33010G17KT 10SM FEW019 OVC038 07/03 A3006 500 76 -200 340/10G17 RMK AO2
14840KMKG MKG20101117182509611/17/10 18:25:31  5-MIN KMKG 172325Z 34009KT 10SM OVC038 07/03 A3006 500 76 -200 340/09 RMK AO2
14840KMKG MKG20101117183009611/17/10 18:30:31  5-MIN KMKG 172330Z 33010KT 10SM OVC038 07/03 A3006 500 76 -200 330/10 RMK AO2
14840KMKG MKG20101117183510311/17/10 18:35:31  5-MIN KMKG 172335Z 33008KT 10SM FEW028 OVC038 07/03 A3007 500 73 -200 340/08 RMK AO2
14840KMKG MKG20101117184011811/17/10 18:40:31  5-MIN KMKG 172340Z 33007KT 10SM SCT026 OVC038 07/03 A3007 490 73 -200 340/07 RMK AO2 CIG 028 RWY 14
14840KMKG MKG20101117184510311/17/10 18:45:31  5-MIN KMKG 172345Z 33006KT 10SM SCT026 OVC036 07/03 A3007 490 73 -200 340/06 RMK AO2
14840KMKG MKG20101117185013811/17/10 18:50:31  5-MIN KMKG 172350Z 33007KT 10SM SCT026 OVC036 07/03 A3007 490 73 -200 330/07 RMK AO2 SLP186 T00720028 10106 20072 53020
14840KMKG MKG20101117185513811/17/10 18:55:31  5-MIN KMKG 172355Z 34009KT 10SM BKN028 OVC036 07/03 A3007 490 73 -200 340/09 RMK AO2 SLP187 T00720028 10106 20072 51024
14840KMKG MKG20101117190011011/17/10 19:00:31  5-MIN KMKG 180000Z 33008KT 10SM SCT022 BKN028 OVC036 07/03 A3007 490 73 -200 340/08 RMK AO2
14840KMKG MKG20101117190511011/17/10 19:05:31  5-MIN KMKG 180005Z 34007KT 10SM BKN022 BKN028 OVC036 07/03 A3007 490 73 -200 340/07 RMK AO2
14840KMKG MKG20101117191012511/17/10 19:10:31  5-MIN KMKG 180010Z 33006KT 10SM SCT022 BKN028 OVC037 07/03 A3008 490 73 -200 330/06 RMK AO2 CIG 022 RWY 14
14840KMKG MKG20101117191511011/17/10 19:15:31  5-MIN KMKG 180015Z 33007KT 10SM BKN022 BKN026 OVC032 07/03 A3008 490 73 -200 340/07 RMK AO2
14840KMKG MKG20101117192010311/17/10 19:20:31  5-MIN KMKG 180020Z 34006KT 10SM BKN022 OVC028 07/03 A3008 490 73 -200 340/06 RMK AO2
14840KMKG MKG20101117192509611/17/10 19:25:31  5-MIN KMKG 180025Z 34006KT 10SM OVC020 07/03 A3008 490 73 -200 340/06 RMK AO2
14840KMKG MKG20101117193010311/17/10 19:30:31  5-MIN KMKG 180030Z 34007KT 10SM BKN020 OVC029 07/03 A3007 490 73 -200 350/07 RMK AO2
14840KMKG MKG20101117193511011/17/10 19:35:31  5-MIN KMKG 180035Z 35006KT 10SM BKN020 BKN029 OVC041 07/03 A3007 490 73 -200 350/06 RMK AO2
14840KMKG MKG20101117194010311/17/10 19:40:31  5-MIN KMKG 180040Z 36006KT 10SM BKN020 OVC043 07/03 A3007 490 73 -200 360/06 RMK AO2
14840KMKG MKG20101117194510311/17/10 19:45:31  5-MIN KMKG 180045Z 36007KT 10SM SCT020 OVC041 07/03 A3007 490 73 -200 360/07 RMK AO2
14840KMKG MKG20101117195010311/17/10 19:50:31  5-MIN KMKG 180050Z 36005KT 10SM SCT020 OVC041 07/03 A3007 490 73 -200 010/05 RMK AO2
14840KMKG MKG20101117195512011/17/10 19:55:31  5-MIN KMKG 180055Z 35006KT 10SM FEW022 OVC041 07/03 A3007 490 76 -300 360/06 RMK AO2 SLP189 T00670028
14840KMKG MKG20101117200010311/17/10 20:00:31  5-MIN KMKG 180100Z 36004KT 10SM FEW022 OVC041 07/03 A3007 490 76 -300 010/04 RMK AO2
14840KMKG MKG20101117200510311/17/10 20:05:31  5-MIN KMKG 180105Z 35004KT 10SM FEW027 OVC041 07/03 A3007 490 76 -300 360/04 RMK AO2
14840KMKG MKG20101117201010311/17/10 20:10:31  5-MIN KMKG 180110Z 36004KT 10SM SCT025 OVC041 07/03 A3007 490 76 -300 360/04 RMK AO2
14840KMKG MKG20101117201512511/17/10 20:15:31  5-MIN KMKG 180115Z 35005KT 10SM FEW023 SCT029 OVC041 07/03 A3007 490 73 -200 360/05 RMK AO2 CIG 030 RWY 14
14840KMKG MKG20101117202011011/17/10 20:20:31  5-MIN KMKG 180120Z 35004KT 10SM SCT025 BKN036 OVC043 07/03 A3007 490 76 -300 360/04 RMK AO2
14840KMKG MKG20101117202511011/17/10 20:25:31  5-MIN KMKG 180125Z 34004KT 10SM FEW025 SCT029 OVC038 07/03 A3008 490 76 -300 340/04 RMK AO2
14840KMKG MKG20101117203011011/17/10 20:30:31  5-MIN KMKG 180130Z 34005KT 10SM BKN023 BKN031 OVC042 07/03 A3008 490 76 -300 340/05 RMK AO2
14840KMKG MKG20101117203510311/17/10 20:35:31  5-MIN KMKG 180135Z 34005KT 10SM BKN023 OVC031 07/03 A3008 480 76 -300 350/05 RMK AO2
14840KMKG MKG20101117204011011/17/10 20:40:31  5-MIN KMKG 180140Z 34004KT 10SM BKN023 BKN029 OVC037 07/03 A3008 480 76 -300 350/04 RMK AO2
14840KMKG MKG20101117204510311/17/10 20:45:31  5-MIN KMKG 180145Z 34005KT 10SM BKN023 OVC029 07/03 A3008 480 76 -300 340/05 RMK AO2
14840KMKG MKG20101117205012011/17/10 20:50:31  5-MIN KMKG 180150Z 32004KT 10SM BKN023 OVC029 07/03 A3008 480 76 -300 320/04 RMK AO2 SLP191 T00670028
14840KMKG MKG20101117205511311/17/10 20:55:31  5-MIN KMKG 180155Z 34005KT 10SM OVC023 07/03 A3009 480 76 -300 340/05 RMK AO2 SLP192 T00670028
14840KMKG MKG20101117210009611/17/10 21:00:31  5-MIN KMKG 180200Z 33004KT 10SM OVC023 07/03 A3009 480 76 -300 330/04 RMK AO2
14840KMKG MKG20101117210509611/17/10 21:05:31  5-MIN KMKG 180205Z 31004KT 10SM OVC023 07/03 A3009 480 76 -300 320/04 RMK AO2
14840KMKG MKG20101117211010311/17/10 21:10:31  5-MIN KMKG 180210Z 32006KT 10SM BKN023 OVC030 07/03 A3009 470 76 -300 330/06 RMK AO2
14840KMKG MKG20101117211510311/17/10 21:15:31  5-MIN KMKG 180215Z 31009KT 10SM BKN023 OVC030 07/02 A3009 470 70 -300 320/09 RMK AO2
14840KMKG MKG20101117212010311/17/10 21:20:31  5-MIN KMKG 180220Z 32010KT 10SM SCT023 OVC032 07/01 A3009 470 65 -300 330/10 RMK AO2
14840KMKG MKG20101117212510311/17/10 21:25:31  5-MIN KMKG 180225Z 32008KT 10SM SCT023 OVC032 07/01 A3009 470 65 -300 320/08 RMK AO2
14840KMKG MKG20101117213010911/17/10 21:30:31  5-MIN KMKG 180230Z 32011G16KT 10SM FEW023 OVC032 07/01 A3009 470 62 -300 320/11G16 RMK AO2
14840KMKG MKG20101117213509611/17/10 21:35:31  5-MIN KMKG 180235Z 32011KT 10SM OVC032 07/01 A3009 470 62 -300 320/11 RMK AO2
14840KMKG MKG20101117214010311/17/10 21:40:31  5-MIN KMKG 180240Z 33009KT 10SM BKN032 OVC043 07/01 A3010 470 62 -300 330/09 RMK AO2
14840KMKG MKG20101117214510311/17/10 21:45:31  5-MIN KMKG 180245Z 33008KT 10SM BKN032 OVC043 07/01 A3010 470 62 -300 330/08 RMK AO2
14840KMKG MKG20101117215012611/17/10 21:50:31  5-MIN KMKG 180250Z 33010KT 10SM SCT032 OVC043 07/01 A3010 460 62 -300 330/10 RMK AO2 SLP196 T00720006 51024
14840KMKG MKG20101117215512611/17/10 21:55:31  5-MIN KMKG 180255Z 33008KT 10SM FEW032 OVC043 07/01 A3010 460 62 -300 340/08 RMK AO2 SLP196 T00720006 53009
14840KMKG MKG20101117220009611/17/10 22:00:31  5-MIN KMKG 180300Z 33007KT 10SM OVC041 07/01 A3010 460 65 -300 340/07 RMK AO2
14840KMKG MKG20101117220509611/17/10 22:05:31  5-MIN KMKG 180305Z 34007KT 10SM OVC041 07/01 A3010 460 65 -300 340/07 RMK AO2
14840KMKG MKG20101117221009611/17/10 22:10:31  5-MIN KMKG 180310Z 32008KT 10SM OVC041 07/01 A3010 460 65 -300 330/08 RMK AO2
14840KMKG MKG20101117221509611/17/10 22:15:31  5-MIN KMKG 180315Z 33005KT 10SM OVC041 07/01 A3011 460 65 -300 340/05 RMK AO2
14840KMKG MKG20101117222009611/17/10 22:20:31  5-MIN KMKG 180320Z 32005KT 10SM OVC041 07/01 A3011 460 65 -300 320/05 RMK AO2
14840KMKG MKG20101117222509611/17/10 22:25:31  5-MIN KMKG 180325Z 30007KT 10SM OVC041 07/01 A3011 450 65 -400 300/07 RMK AO2
14840KMKG MKG20101117223009611/17/10 22:30:31  5-MIN KMKG 180330Z 31005KT 10SM OVC041 07/00 A3011 450 62 -400 320/05 RMK AO2
14840KMKG MKG20101117223509611/17/10 22:35:31  5-MIN KMKG 180335Z 32008KT 10SM OVC041 07/00 A3011 450 60 -300 330/08 RMK AO2
14840KMKG MKG20101117224009711/17/10 22:40:31  5-MIN KMKG 180340Z 31008KT 10SM OVC041 07/M01 A3012 450 60 -400 320/08 RMK AO2
14840KMKG MKG20101117224509711/17/10 22:45:31  5-MIN KMKG 180345Z 31008KT 10SM OVC041 07/M01 A3012 450 57 -300 310/08 RMK AO2
14840KMKG MKG20101117225011411/17/10 22:50:31  5-MIN KMKG 180350Z 30007KT 10SM OVC043 07/M01 A3012 450 55 -300 300/07 RMK AO2 SLP202 T00721011
14840KMKG MKG20101117225511411/17/10 22:55:31  5-MIN KMKG 180355Z 30006KT 10SM OVC043 07/M01 A3012 440 55 -300 310/06 RMK AO2 SLP203 T00721011
14840KMKG MKG20101117230010411/17/10 23:00:31  5-MIN KMKG 180400Z 30006KT 10SM FEW037 OVC045 07/M01 A3012 440 55 -300 300/06 RMK AO2
14840KMKG MKG20101117230509711/17/10 23:05:31  5-MIN KMKG 180405Z 28005KT 10SM OVC045 07/M01 A3012 440 57 -400 280/05 RMK AO2
14840KMKG MKG20101117231009711/17/10 23:10:31  5-MIN KMKG 180410Z 29006KT 10SM OVC045 07/M01 A3012 440 57 -400 290/06 RMK AO2
14840KMKG MKG20101117231509711/17/10 23:15:31  5-MIN KMKG 180415Z 30004KT 10SM OVC045 07/M01 A3013 440 60 -400 300/04 RMK AO2
14840KMKG MKG20101117232009711/17/10 23:20:31  5-MIN KMKG 180420Z 31005KT 10SM OVC045 07/M01 A3012 440 60 -400 310/05 RMK AO2
14840KMKG MKG20101117232509711/17/10 23:25:31  5-MIN KMKG 180425Z 32006KT 10SM OVC045 07/M01 A3012 440 60 -400 320/06 RMK AO2
14840KMKG MKG20101117233009711/17/10 23:30:31  5-MIN KMKG 180430Z 33006KT 10SM OVC045 07/M01 A3012 440 60 -400 330/06 RMK AO2
14840KMKG MKG20101117233509711/17/10 23:35:31  5-MIN KMKG 180435Z 33006KT 10SM OVC045 07/M01 A3013 440 60 -400 340/06 RMK AO2
14840KMKG MKG20101117234010411/17/10 23:40:31  5-MIN KMKG 180440Z 34006KT 10SM FEW033 OVC045 07/M01 A3013 440 60 -400 340/06 RMK AO2
14840KMKG MKG20101117234511911/17/10 23:45:31  5-MIN KMKG 180445Z 33005KT 10SM SCT035 OVC045 07/M01 A3013 440 60 -400 340/05 RMK AO2 CIG 037 RWY 14
14840KMKG MKG20101117235013111/17/10 23:50:31  5-MIN KMKG 180450Z 34004KT 10SM BKN037 OVC045 07/M01 A3012 440 60 -400 340/04 RMK AO2 SLP205 T00671006 401060028
14840KMKG MKG20101117235513111/17/10 23:55:31  5-MIN KMKG 180455Z 34003KT 10SM BKN037 OVC045 07/M01 A3013 440 60 -400 340/03 RMK AO2 SLP205 T00671006 401060028
14840KMKG MKG20101118000010311/18/10 00:00:32  5-MIN KMKG 180500Z 34004KT 10SM BKN035 OVC045 07/00 A3012 440 62 -400 340/04 RMK AO2
14840KMKG MKG20101118000510311/18/10 00:05:31  5-MIN KMKG 180505Z 35004KT 10SM BKN035 OVC045 07/00 A3012 440 62 -400 360/04 RMK AO2
14840KMKG MKG20101118001010411/18/10 00:10:31  5-MIN KMKG 180510Z 34005KT 10SM SCT035 OVC045 07/M01 A3012 440 60 -400 340/05 RMK AO2
14840KMKG MKG20101118001510411/18/10 00:15:31  5-MIN KMKG 180515Z 33005KT 10SM SCT035 OVC045 07/M01 A3012 450 60 -400 340/05 RMK AO2
14840KMKG MKG20101118002010411/18/10 00:20:31  5-MIN KMKG 180520Z 33005KT 10SM FEW035 OVC045 06/M01 A3012 440 62 -400 330/05 RMK AO2
14840KMKG MKG20101118002510411/18/10 00:25:31  5-MIN KMKG 180525Z 33005KT 10SM SCT033 BKN045 06/M01 A3012 440 65 -500 340/05 RMK AO2
14840KMKG MKG20101118022512511/18/10 02:25:31  5-MIN KMKG 180725Z 34008KT 10SM BKN035 BKN048 OVC055 04/01 A3015 420 79 -700 340/08 RMK AO2 RAB11E16 P0000
14840KMKG MKG20101118023012511/18/10 02:30:31  5-MIN KMKG 180730Z 34007KT 10SM FEW029 BKN035 OVC060 04/01 A3016 410 79 -700 340/07 RMK AO2 RAB11E16 P0000
14840KMKG MKG20101118023512511/18/10 02:35:31  5-MIN KMKG 180735Z 34008KT 10SM FEW028 SCT037 OVC060 04/01 A3016 410 79 -700 340/08 RMK AO2 RAB11E16 P0000
14840KMKG MKG20101118024012511/18/10 02:40:31  5-MIN KMKG 180740Z 34008KT 10SM SCT028 BKN037 OVC060 04/01 A3016 410 79 -700 350/08 RMK AO2 RAB11E16 P0000
14840KMKG MKG20101118024512511/18/10 02:45:31  5-MIN KMKG 180745Z 33007KT 10SM BKN028 BKN037 OVC060 04/01 A3016 410 79 -700 340/07 RMK AO2 RAB11E16 P0000
14840KMKG MKG20101118025014211/18/10 02:50:31  5-MIN KMKG 180750Z 33006KT 10SM FEW024 BKN030 OVC060 04/01 A3016 410 79 -700 340/06 RMK AO2 RAB11E16 SLP217 P0000 T00440011
14840KMKG MKG20101118025514211/18/10 02:55:31  5-MIN KMKG 180755Z 34007KT 10SM FEW021 BKN028 OVC060 04/01 A3016 410 79 -700 350/07 RMK AO2 RAB11E16 SLP218 P0000 T00440011
14840KMKG MKG20101118030010311/18/10 03:00:31  5-MIN KMKG 180800Z 34008KT 10SM FEW021 OVC028 04/01 A3017 400 79 -700 340/08 RMK AO2
14840KMKG MKG20101118030512611/18/10 03:05:31  5-MIN KMKG 180805Z 33009KT 10SM -RA FEW018 BKN025 OVC031 04/01 A3017 400 79 -700 340/09 RMK AO2 RAB04 P0000
14840KMKG MKG20101118031012511/18/10 03:10:31  5-MIN KMKG 180810Z 34008KT 9SM -RA FEW017 BKN022 OVC029 04/02 A3017 400 82 -700 340/08 RMK AO2 RAB04 P0000
14840KMKG MKG20101118031512511/18/10 03:15:31  5-MIN KMKG 180815Z 35008KT 9SM -RA BKN020 BKN026 OVC032 04/02 A3017 400 82 -700 360/08 RMK AO2 RAB04 P0000
14840KMKG MKG20101118032012511/18/10 03:20:31  5-MIN KMKG 180820Z 34009KT 9SM -RA SCT017 BKN022 OVC026 04/02 A3017 400 82 -700 340/09 RMK AO2 RAB04 P0000
14840KMKG MKG20101118032512511/18/10 03:25:31  5-MIN KMKG 180825Z 33009KT 9SM -RA FEW013 BKN020 OVC033 04/02 A3017 400 85 -800 340/09 RMK AO2 RAB04 P0000
14840KMKG MKG20101118033014111/18/10 03:30:31  5-MIN KMKG 180830Z 33008KT 10SM -RA FEW013 BKN028 OVC033 04/02 A3017 400 85 -800 340/08 RMK AO2 RAB04 CIG 022 RWY 14 P0001
14840KMKG MKG20101118033512611/18/10 03:35:31  5-MIN KMKG 180835Z 33007KT 10SM -RA FEW013 BKN030 OVC036 04/02 A3017 400 85 -800 340/07 RMK AO2 RAB04 P0001
14840KMKG MKG20101118034012511/18/10 03:40:31  5-MIN KMKG 180840Z 35007KT 9SM -RA FEW013 SCT021 OVC035 04/02 A3017 400 85 -800 350/07 RMK AO2 RAB04 P0001
14840KMKG MKG20101118034512511/18/10 03:45:31  5-MIN KMKG 180845Z 01005KT 8SM -RA FEW013 SCT025 OVC035 04/02 A3017 400 85 -800 010/05 RMK AO2 RAB04 P0001
14840KMKG MKG20101118035015411/18/10 03:50:31  5-MIN KMKG 180850Z 01004KT 9SM -RA FEW025 BKN032 OVC039 04/02 A3016 410 85 -800 010/04 RMK AO2 RAB04 SLP218 P0001 60001 T00390017 51011
14840KMKG MKG20101118035515411/18/10 03:55:31  5-MIN KMKG 180855Z 01003KT 10SM FEW027 BKN032 OVC049 04/02 A3016 410 85 -700 010/03 RMK AO2 RAB04E55 SLP217 P0001 60001 T00390017 50009
14840KMKG MKG20101118040011011/18/10 04:00:31  5-MIN KMKG 180900Z 36005KT 10SM FEW030 BKN036 BKN050 03/01 A3016 410 85 -800 360/05 RMK AO2
14840KMKG MKG20101118040511011/18/10 04:05:31  5-MIN KMKG 180905Z 02005KT 10SM FEW031 SCT038 SCT050 03/01 A3016 410 85 -800 020/05 RMK AO2
14840KMKG MKG20101118041010311/18/10 04:10:31  5-MIN KMKG 180910Z 02004KT 10SM FEW031 SCT050 03/01 A3016 410 85 -800 020/04 RMK AO2
14840KMKG MKG20101118041509611/18/10 04:15:31  5-MIN KMKG 180915Z 01004KT 10SM FEW031 03/01 A3016 410 85 -800 020/04 RMK AO2
14840KMKG MKG20101118042009611/18/10 04:20:31  5-MIN KMKG 180920Z 01004KT 10SM FEW049 03/01 A3016 410 85 -800 020/04 RMK AO2
14840KMKG MKG20101118042509311/18/10 04:25:31  5-MIN KMKG 180925Z 01004KT 10SM CLR 03/01 A3016 410 89 -900 020/04 RMK AO2
14840KMKG MKG20101118043009311/18/10 04:30:31  5-MIN KMKG 180930Z 01003KT 10SM CLR 03/01 A3016 410 89 -900 020/03 RMK AO2
14840KMKG MKG20101118043509311/18/10 04:35:31  5-MIN KMKG 180935Z 00000KT 10SM CLR 03/01 A3016 410 89 -900 000/00 RMK AO2
14840KMKG MKG20101118044009311/18/10 04:40:31  5-MIN KMKG 180940Z 00000KT 10SM CLR 03/01 A3016 410 89 -900 000/00 RMK AO2
14840KMKG MKG20101118044509411/18/10 04:45:31  5-MIN KMKG 180945Z 00000KT 10SM CLR 02/01 A3016 400 89 -1000 000/00 RMK AO2
14840KMKG MKG20101118045011011/18/10 04:50:31  5-MIN KMKG 180950Z 00000KT 10SM CLR 03/01 A3016 410 85 -900 000/00 RMK AO2 SLP219 T00280006
14840KMKG MKG20101118045511011/18/10 04:55:31  5-MIN KMKG 180955Z 00000KT 10SM CLR 03/01 A3017 400 89 -900 000/00 RMK AO2 SLP220 T00280011
14840KMKG MKG20101118050009311/18/10 05:00:31  5-MIN KMKG 181000Z 00000KT 10SM CLR 03/01 A3017 400 85 -900 000/00 RMK AO2
14840KMKG MKG20101118050509411/18/10 05:05:31  5-MIN KMKG 181005Z 00000KT 10SM CLR 02/01 A3017 400 89 -1000 000/00 RMK AO2
14840KMKG MKG20101118051009411/18/10 05:10:31  5-MIN KMKG 181010Z 00000KT 10SM CLR 02/00 A3017 400 89 -1000 000/00 RMK AO2
14840KMKG MKG20101118051509711/18/10 05:15:31  5-MIN KMKG 181015Z 00000KT 10SM FEW036 01/00 A3017 400 92 -1100 000/00 RMK AO2
14840KMKG MKG20101118052009711/18/10 05:20:31  5-MIN KMKG 181020Z 00000KT 10SM SCT036 01/00 A3017 400 92 -1100 000/00 RMK AO2
14840KMKG MKG20101118052509711/18/10 05:25:31  5-MIN KMKG 181025Z 00000KT 10SM BKN036 01/00 A3017 400 92 -1100 000/00 RMK AO2
14840KMKG MKG20101118053009711/18/10 05:30:31  5-MIN KMKG 181030Z 00000KT 10SM BKN036 01/00 A3017 400 92 -1100 000/00 RMK AO2
14840KMKG MKG20101118053509711/18/10 05:35:31  5-MIN KMKG 181035Z 00000KT 10SM BKN036 01/00 A3017 400 92 -1100 000/00 RMK AO2
14840KMKG MKG20101118054009711/18/10 05:40:31  5-MIN KMKG 181040Z 00000KT 10SM OVC036 01/00 A3017 400 92 -1100 000/00 RMK AO2
14840KMKG MKG20101118054509711/18/10 05:45:31  5-MIN KMKG 181045Z 00000KT 10SM OVC034 02/00 A3018 390 89 -1000 000/00 RMK AO2
14840KMKG MKG20101118055012111/18/10 05:50:31  5-MIN KMKG 181050Z 00000KT 10SM BKN034 OVC041 02/00 A3018 390 89 -1000 000/00 RMK AO2 SLP223 T00170000
14840KMKG MKG20101118055512111/18/10 05:55:31  5-MIN KMKG 181055Z 00000KT 10SM FEW028 OVC037 02/01 A3018 390 92 -1000 000/00 RMK AO2 SLP224 T00170006
14840KMKG MKG20101118060010411/18/10 06:00:31  5-MIN KMKG 181100Z 34003KT 10SM SCT028 OVC037 02/01 A3018 390 89 -1000 340/03 RMK AO2
14840KMKG MKG20101118060510311/18/10 06:05:31  5-MIN KMKG 181105Z 33004KT 10SM BKN030 OVC037 03/01 A3018 390 85 -900 340/04 RMK AO2
14840KMKG MKG20101118061010311/18/10 06:10:31  5-MIN KMKG 181110Z 33004KT 10SM BKN028 OVC037 03/01 A3018 390 85 -900 330/04 RMK AO2
14840KMKG MKG20101118061510311/18/10 06:15:31  5-MIN KMKG 181115Z 33004KT 10SM BKN028 OVC037 03/01 A3018 390 82 -800 340/04 RMK AO2
14840KMKG MKG20101118062010311/18/10 06:20:31  5-MIN KMKG 181120Z 32004KT 10SM BKN028 OVC035 03/01 A3018 390 82 -800 330/04 RMK AO2
14840KMKG MKG20101118062510311/18/10 06:25:31  5-MIN KMKG 181125Z 32004KT 10SM BKN028 OVC035 03/01 A3018 390 82 -800 330/04 RMK AO2
14840KMKG MKG20101118063010311/18/10 06:30:31  5-MIN KMKG 181130Z 32005KT 10SM BKN028 OVC035 03/00 A3019 390 79 -800 330/05 RMK AO2
14840KMKG MKG20101118063510311/18/10 06:35:31  5-MIN KMKG 181135Z 33005KT 10SM BKN028 OVC035 03/00 A3019 390 79 -800 330/05 RMK AO2
14840KMKG MKG20101118064010311/18/10 06:40:31  5-MIN KMKG 181140Z 33004KT 10SM SCT028 OVC037 03/01 A3019 380 82 -800 340/04 RMK AO2
14840KMKG MKG20101118064510311/18/10 06:45:31  5-MIN KMKG 181145Z 33004KT 10SM SCT028 OVC037 04/01 A3019 380 79 -800 340/04 RMK AO2
14840KMKG MKG20101118065015011/18/10 06:50:31  5-MIN KMKG 181150Z 34005KT 10SM FEW028 OVC037 04/01 A3019 380 79 -800 340/05 RMK AO2 SLP228 60001 70001 T00390006 10050 20011 50009
14840KMKG MKG20101118065515011/18/10 06:55:31  5-MIN KMKG 181155Z 33005KT 10SM FEW028 OVC035 04/01 A3019 380 79 -800 340/05 RMK AO2 SLP229 60001 70001 T00390006 10050 20011 53010
14840KMKG MKG20101118070009611/18/10 07:00:31  5-MIN KMKG 181200Z 32006KT 10SM OVC035 04/01 A3019 380 79 -800 320/06 RMK AO2
14840KMKG MKG20101118070510311/18/10 07:05:31  5-MIN KMKG 181205Z 32005KT 10SM SCT029 OVC035 04/01 A3019 380 79 -800 320/05 RMK AO2
14840KMKG MKG20101118071010311/18/10 07:10:31  5-MIN KMKG 181210Z 32004KT 10SM BKN029 OVC035 04/01 A3019 380 79 -800 330/04 RMK AO2
14840KMKG MKG20101118071510311/18/10 07:15:31  5-MIN KMKG 181215Z 33005KT 10SM SCT029 OVC037 04/01 A3020 380 79 -800 330/05 RMK AO2
14840KMKG MKG20101118072009611/18/10 07:20:31  5-MIN KMKG 181220Z 34005KT 10SM OVC034 04/01 A3020 380 79 -800 340/05 RMK AO2
14840KMKG MKG20101118072510311/18/10 07:25:31  5-MIN KMKG 181225Z 33007KT 10SM SCT030 OVC037 04/00 A3020 380 76 -800 330/07 RMK AO2
14840KMKG MKG20101118073010311/18/10 07:30:31  5-MIN KMKG 181230Z 33007KT 10SM SCT030 OVC037 04/00 A3020 370 76 -800 340/07 RMK AO2
14840KMKG MKG20101118073510311/18/10 07:35:31  5-MIN KMKG 181235Z 33008KT 10SM SCT030 OVC037 04/00 A3020 370 76 -800 330/08 RMK AO2
14840KMKG MKG20101118074009711/18/10 07:40:31  5-MIN KMKG 181240Z 32007KT 10SM OVC037 04/M01 A3020 370 73 -800 330/07 RMK AO2
14840KMKG MKG20101118074510411/18/10 07:45:31  5-MIN KMKG 181245Z 33008KT 10SM FEW029 OVC037 04/M01 A3020 370 73 -800 340/08 RMK AO2
14840KMKG MKG20101118075011411/18/10 07:50:31  5-MIN KMKG 181250Z 34007KT 10SM OVC035 04/M01 A3020 370 73 -800 340/07 RMK AO2 SLP233 T00391006
14840KMKG MKG20101118075512111/18/10 07:55:31  5-MIN KMKG 181255Z 33009KT 10SM SCT029 OVC037 04/M01 A3020 370 70 -700 340/09 RMK AO2 SLP233 T00441006
14840KMKG MKG20101118080011911/18/10 08:00:31  5-MIN KMKG 181300Z 33007KT 10SM SCT029 OVC037 04/M01 A3020 370 73 -800 340/07 RMK AO2 CIG 028 RWY 14
14840KMKG MKG20101118080511911/18/10 08:05:31  5-MIN KMKG 181305Z 33006KT 10SM FEW029 OVC037 04/M01 A3021 370 73 -800 330/06 RMK AO2 CIG 028 RWY 14
14840KMKG MKG20101118081011911/18/10 08:10:31  5-MIN KMKG 181310Z 33006KT 10SM SCT028 OVC036 04/M01 A3021 370 70 -700 340/06 RMK AO2 CIG 030 RWY 14
14840KMKG MKG20101118081511111/18/10 08:15:31  5-MIN KMKG 181315Z 34005KT 10SM FEW028 BKN036 OVC045 04/M01 A3021 360 70 -700 340/05 RMK AO2
14840KMKG MKG20101118082011111/18/10 08:20:31  5-MIN KMKG 181320Z 34006KT 10SM FEW028 SCT034 OVC045 04/M01 A3021 360 70 -700 350/06 RMK AO2
14840KMKG MKG20101118082510411/18/10 08:25:31  5-MIN KMKG 181325Z 35006KT 10SM FEW030 OVC041 04/M01 A3021 360 70 -700 350/06 RMK AO2
14840KMKG MKG20101118083010411/18/10 08:30:31  5-MIN KMKG 181330Z 34007KT 10SM BKN038 OVC045 04/M01 A3022 360 70 -700 340/07 RMK AO2
14840KMKG MKG20101118083509711/18/10 08:35:31  5-MIN KMKG 181335Z 34006KT 10SM OVC041 04/M01 A3022 360 70 -700 340/06 RMK AO2
14840KMKG MKG20101118084010411/18/10 08:40:31  5-MIN KMKG 181340Z 33007KT 10SM BKN039 OVC046 04/M01 A3022 360 70 -700 330/07 RMK AO2
14840KMKG MKG20101118084509711/18/10 08:45:31  5-MIN KMKG 181345Z 33006KT 10SM OVC039 04/M01 A3022 360 70 -700 340/06 RMK AO2
14840KMKG MKG20101118085011411/18/10 08:50:31  5-MIN KMKG 181350Z 33006KT 10SM OVC039 04/M01 A3022 360 70 -700 340/06 RMK AO2 SLP238 T00441006
14840KMKG MKG20101118085511411/18/10 08:55:31  5-MIN KMKG 181355Z 32005KT 10SM OVC039 04/M01 A3022 360 70 -700 330/05 RMK AO2 SLP237 T00441006
14840KMKG MKG20101118090009711/18/10 09:00:31  5-MIN KMKG 181400Z 34006KT 10SM OVC039 04/M01 A3022 360 70 -700 340/06 RMK AO2
14840KMKG MKG20101118090509711/18/10 09:05:31  5-MIN KMKG 181405Z 33006KT 10SM OVC039 04/M01 A3022 350 70 -700 330/06 RMK AO2
14840KMKG MKG20101118091009711/18/10 09:10:31  5-MIN KMKG 181410Z 33005KT 10SM OVC039 04/M01 A3022 350 70 -700 340/05 RMK AO2
14840KMKG MKG20101118091509711/18/10 09:15:31  5-MIN KMKG 181415Z 33005KT 10SM OVC039 04/M01 A3022 350 70 -700 330/05 RMK AO2
14840KMKG MKG20101118092010411/18/10 09:20:31  5-MIN KMKG 181420Z 34005KT 10SM BKN037 OVC046 04/M01 A3022 350 70 -700 340/05 RMK AO2
14840KMKG MKG20101118092510411/18/10 09:25:31  5-MIN KMKG 181425Z 33005KT 10SM BKN039 OVC047 04/M01 A3022 350 70 -700 330/05 RMK AO2
14840KMKG MKG20101118093010411/18/10 09:30:31  5-MIN KMKG 181430Z 34007KT 10SM BKN037 OVC047 04/M01 A3022 350 67 -700 340/07 RMK AO2
14840KMKG MKG20101118093510411/18/10 09:35:31  5-MIN KMKG 181435Z 33005KT 10SM BKN039 OVC047 04/M01 A3022 350 67 -800 340/05 RMK AO2
14840KMKG MKG20101118094010411/18/10 09:40:31  5-MIN KMKG 181440Z 34006KT 10SM BKN037 OVC047 04/M01 A3022 350 70 -700 340/06 RMK AO2
14840KMKG MKG20101118094510411/18/10 09:45:31  5-MIN KMKG 181445Z 34005KT 10SM BKN037 OVC047 04/M01 A3022 350 67 -700 340/05 RMK AO2
14840KMKG MKG20101118095012011/18/10 09:50:31  5-MIN KMKG 181450Z 34006KT 10SM OVC037 04/M01 A3022 350 67 -800 350/06 RMK AO2 SLP239 T00441011 53010
14840KMKG MKG20101118095512011/18/10 09:55:31  5-MIN KMKG 181455Z 34006KT 10SM OVC039 04/M01 A3022 350 67 -800 350/06 RMK AO2 SLP240 T00441011 51010
14840KMKG MKG20101118100009711/18/10 10:00:31  5-MIN KMKG 181500Z 34005KT 10SM OVC041 04/M01 A3023 350 67 -800 340/05 RMK AO2
14840KMKG MKG20101118100511911/18/10 10:05:31  5-MIN KMKG 181505Z 34005KT 10SM SCT038 OVC045 04/M01 A3023 350 67 -800 340/05 RMK AO2 CIG 038 RWY 14
14840KMKG MKG20101118101010411/18/10 10:10:31  5-MIN KMKG 181510Z 34006KT 10SM FEW036 OVC045 05/M01 A3023 350 64 -700 340/06 RMK AO2
14840KMKG MKG20101118101509711/18/10 10:15:31  5-MIN KMKG 181515Z 32006KT 10SM OVC043 05/M01 A3023 340 64 -700 330/06 RMK AO2
14840KMKG MKG20101118102010411/18/10 10:20:31  5-MIN KMKG 181520Z 33008KT 10SM FEW033 OVC043 05/M01 A3023 340 64 -700 340/08 RMK AO2
14840KMKG MKG20101118102512011/18/10 10:25:31  5-MIN KMKG 181525Z 34011KT 10SM -RA SCT033 OVC045 04/M01 A3023 340 67 -800 340/11 RMK AO2 RAB24 P0000
14840KMKG MKG20101118103012011/18/10 10:30:31  5-MIN KMKG 181530Z 33008KT 10SM -RA BKN033 OVC045 04/M01 A3024 340 67 -800 340/08 RMK AO2 RAB24 P0000
14840KMKG MKG20101118103512011/18/10 10:35:31  5-MIN KMKG 181535Z 33006KT 10SM -RA BKN033 OVC043 04/M01 A3024 340 67 -800 340/06 RMK AO2 RAB24 P0000
14840KMKG MKG20101118104011911/18/10 10:40:31  5-MIN KMKG 181540Z 34007KT 10SM BKN033 OVC043 04/M01 A3024 340 67 -800 350/07 RMK AO2 RAB24E39 P0000
14840KMKG MKG20101118104511211/18/10 10:45:31  5-MIN KMKG 181545Z 33007KT 10SM OVC036 04/M02 A3024 330 64 -800 340/07 RMK AO2 RAB24E39 P0000
14840KMKG MKG20101118105012911/18/10 10:50:31  5-MIN KMKG 181550Z 34007KT 10SM OVC036 04/M02 A3024 330 64 -800 340/07 RMK AO2 RAB24E39 SLP246 P0000 T00441017
14840KMKG MKG20101118105512911/18/10 10:55:31  5-MIN KMKG 181555Z 34007KT 10SM OVC039 05/M02 A3024 330 62 -700 340/07 RMK AO2 RAB24E39 SLP246 P0000 T00501017
14840KMKG MKG20101118110010411/18/10 11:00:31  5-MIN KMKG 181600Z 31004KT 10SM BKN034 OVC045 05/M02 A3024 330 62 -700 320/04 RMK AO2
14840KMKG MKG20101118110510411/18/10 11:05:31  5-MIN KMKG 181605Z 30006KT 10SM BKN034 OVC046 05/M01 A3024 330 64 -700 300/06 RMK AO2
14840KMKG MKG20101118111010411/18/10 11:10:31  5-MIN KMKG 181610Z 31008KT 10SM SCT031 OVC040 05/M01 A3024 330 64 -700 310/08 RMK AO2
14840KMKG MKG20101118111513511/18/10 11:15:31  5-MIN KMKG 181615Z 32008KT 10SM -RA SCT031 OVC043 05/M01 A3025 330 64 -700 330/08 RMK AO2 RAB11 CIG 033 RWY 14 P0000
14840KMKG MKG20101118112012011/18/10 11:20:31  5-MIN KMKG 181620Z 33009KT 10SM -RA BKN033 OVC042 05/M01 A3025 330 64 -700 330/09 RMK AO2 RAB11 P0000
14840KMKG MKG20101118112512011/18/10 11:25:31  5-MIN KMKG 181625Z 34009KT 10SM -RA BKN033 OVC040 05/M01 A3025 330 64 -700 340/09 RMK AO2 RAB11 P0000
14840KMKG MKG20101118113012011/18/10 11:30:31  5-MIN KMKG 181630Z 34009KT 10SM -RA BKN031 OVC040 05/M01 A3024 330 64 -700 340/09 RMK AO2 RAB11 P0000
14840KMKG MKG20101118113512011/18/10 11:35:31  5-MIN KMKG 181635Z 33007KT 10SM -RA BKN031 OVC042 05/M01 A3024 330 64 -700 330/07 RMK AO2 RAB11 P0000
14840KMKG MKG20101118114011911/18/10 11:40:31  5-MIN KMKG 181640Z 31006KT 10SM BKN031 OVC039 05/M01 A3024 330 64 -700 320/06 RMK AO2 RAB11E36 P0000
14840KMKG MKG20101118114511911/18/10 11:45:31  5-MIN KMKG 181645Z 33007KT 10SM BKN031 OVC041 05/M01 A3024 330 64 -700 340/07 RMK AO2 RAB11E36 P0000
14840KMKG MKG20101118115014311/18/10 11:50:31  5-MIN KMKG 181650Z 33009KT 10SM BKN031 BKN038 OVC048 05/M01 A3024 330 64 -700 330/09 RMK AO2 RAB11E36 SLP246 P0000 T00501011
14840KMKG MKG20101118115513611/18/10 11:55:31  5-MIN KMKG 181655Z 32008KT 10SM BKN031 OVC040 05/M01 A3024 330 64 -700 330/08 RMK AO2 RAB11E36 SLP246 P0000 T00501011
14840KMKG MKG20101118120012211/18/10 12:00:31  5-MIN KMKG 181700Z 32007KT 10SM -RA BKN031 OVC044 05/M01 A3024 340 64 -700 330/07 RMK AO2 RAB1659 P0000
14840KMKG MKG20101118120511511/18/10 12:05:31  5-MIN KMKG 181705Z 34009KT 10SM -RA OVC031 05/M02 A3024 330 62 -700 340/09 RMK AO2 RAB1659 P0000
14840KMKG MKG20101118121011511/18/10 12:10:31  5-MIN KMKG 181710Z 34009KT 10SM -RA OVC033 05/M02 A3024 340 62 -700 340/09 RMK AO2 RAB1659 P0000
14840KMKG MKG20101118121511511/18/10 12:15:31  5-MIN KMKG 181715Z 33008KT 10SM -RA OVC033 05/M02 A3024 340 62 -700 330/08 RMK AO2 RAB1659 P0000
14840KMKG MKG20101118122012211/18/10 12:20:31  5-MIN KMKG 181720Z 32008KT 10SM -RA BKN033 OVC043 05/M02 A3024 340 62 -700 330/08 RMK AO2 RAB1659 P0000
14840KMKG MKG20101118122512111/18/10 12:25:31  5-MIN KMKG 181725Z 32007KT 10SM BKN033 OVC043 05/M02 A3024 340 62 -700 330/07 RMK AO2 RAB1659E21 P0000
14840KMKG MKG20101118123012111/18/10 12:30:31  5-MIN KMKG 181730Z 32007KT 10SM BKN033 OVC046 05/M02 A3024 340 62 -700 330/07 RMK AO2 RAB1659E21 P0000
14840KMKG MKG20101118123512711/18/10 12:35:31  5-MIN KMKG 181735Z 30012G17KT 10SM BKN033 OVC044 05/M02 A3023 340 62 -700 310/12G17 RMK AO2 RAB1659E21 P0000
14840KMKG MKG20101118124012711/18/10 12:40:31  5-MIN KMKG 181740Z 31012G17KT 10SM BKN033 OVC044 05/M02 A3023 340 62 -700 320/12G17 RMK AO2 RAB1659E21 P0000
14840KMKG MKG20101118124514111/18/10 12:45:31  5-MIN KMKG 181745Z 30011G17KT 10SM -RA SCT030 BKN035 OVC044 05/M02 A3023 340 62 -700 310/11G17 RMK AO2 RAB1659E21B44 P0000
14840KMKG MKG20101118125017511/18/10 12:50:31  5-MIN KMKG 181750Z 32009G17KT 10SM -RA SCT030 OVC037 05/M02 A3023 340 62 -700 320/09G17 RMK AO2 RAB1659E21B44 SLP243 P0000 60000 T00501017 10050 20039 51010
14840KMKG MKG20101118125519711/18/10 12:55:31  5-MIN KMKG 181755Z 02009KT 8SM -RASN FEW025 BKN030 OVC037 04/M01 A3024 330 67 -800 030/09 RMK AO2 RAB1659E21B44SNB53 SLP246 PRESENT WX -SG P0000 60000 T00441011 10050 20039 51006
14840KMKG MKG20101118130013711/18/10 13:00:31  5-MIN KMKG 181800Z 36009KT 5SM -RASN FEW025 BKN030 OVC037 03/M01 A3024 340 76 -900 360/09 RMK AO2 PRESENT WX -SG P0001
14840KMKG MKG20101118130513711/18/10 13:05:31  5-MIN KMKG 181805Z 36010KT 6SM -RASN FEW025 BKN030 OVC037 03/M01 A3024 330 76 -900 010/10 RMK AO2 PRESENT WX -SG P0002
14840KMKG MKG20101118131013011/18/10 13:10:31  5-MIN KMKG 181810Z 01010KT 4SM -RASN FEW025 OVC032 03/M01 A3024 330 72 -900 010/10 RMK AO2 PRESENT WX -SG P0002
14840KMKG MKG20101118131513111/18/10 13:15:31  5-MIN KMKG 181815Z 35008KT 4SM -RASN BKN028 OVC035 03/M01 A3024 330 75 -1000 360/08 RMK AO2 PRESENT WX -SG P0002
14840KMKG MKG20101118132011611/18/10 13:20:31  5-MIN KMKG 181820Z 34010KT 5SM -RASN BKN028 OVC036 03/M01 A3024 330 75 -1000 340/10 RMK AO2 P0002
14840KMKG MKG20101118132512311/18/10 13:25:31  5-MIN KMKG 181825Z 33009KT 4SM -RASN FEW014 BKN030 OVC036 03/M01 A3024 330 75 -1000 340/09 RMK AO2 P0003
14840KMKG MKG20101118133012311/18/10 13:30:31  5-MIN KMKG 181830Z 33005KT 5SM -RASN FEW016 BKN030 OVC037 03/M01 A3024 330 75 -1000 330/05 RMK AO2 P0003
14840KMKG MKG20101118133512311/18/10 13:35:31  5-MIN KMKG 181835Z 32007KT 6SM -RASN FEW018 BKN030 OVC037 03/M01 A3025 330 79 -1000 330/07 RMK AO2 P0003
14840KMKG MKG20101118134012311/18/10 13:40:31  5-MIN KMKG 181840Z 33009KT 5SM -RASN SCT015 BKN030 OVC037 03/M01 A3025 330 79 -1000 330/09 RMK AO2 P0003
14840KMKG MKG20101118134513711/18/10 13:45:31  5-MIN KMKG 181845Z 32006KT 1SM -RASN BKN011 BKN030 OVC037 02/M01 A3025 330 82 -1100 320/06 RMK AO2 SFC VIS 1 1/2 P0003
14840KMKG MKG20101118135015011/18/10 13:50:31  5-MIN KMKG 181850Z 00000KT 1 3/4SM -RASN BR BKN011 OVC030 02/M01 A3024 330 85 -1100 000/00 RMK AO2 TWR VIS 2 SLP247 P0003 T00171006
14840KMKG MKG20101118135514211/18/10 13:55:31  5-MIN KMKG 181855Z 00000KT 3SM -RASN BR BKN015 BKN030 OVC038 02/01 A3024 330 89 -1000 000/00 RMK AO2 SLP246 P0003 T00220006
14840KMKG MKG20101118140011511/18/10 14:00:31  5-MIN KMKG 181900Z 00000KT 9SM -RASN BKN019 OVC030 02/01 A3024 330 89 -1000 000/00 RMK AO2 P0001
14840KMKG MKG20101118140511611/18/10 14:05:31  5-MIN KMKG 181905Z 23003KT 10SM -RASN BKN021 OVC028 02/01 A3024 330 89 -1100 240/03 RMK AO2 P0001
14840KMKG MKG20101118141011611/18/10 14:10:31  5-MIN KMKG 181910Z 24004KT 10SM -RASN BKN021 OVC028 03/01 A3024 330 85 -1000 240/04 RMK AO2 P0001
14840KMKG MKG20101118141510811/18/10 14:15:31  5-MIN KMKG 181915Z 23005KT 8SM -RASN OVC023 03/01 A3024 330 85 -1000 240/05 RMK AO2 P0001
14840KMKG MKG20101118142011111/18/10 14:20:31  5-MIN KMKG 181920Z 25006KT 6SM -RASN BR OVC023 02/01 A3025 330 89 -1100 250/06 RMK AO2 P0001
14840KMKG MKG20101118142512511/18/10 14:25:31  5-MIN KMKG 181925Z 26007KT 5SM -RASN BR FEW016 BKN021 OVC027 02/01 A3025 330 89 -1100 260/07 RMK AO2 P0001
14840KMKG MKG20101118143012511/18/10 14:30:31  5-MIN KMKG 181930Z 25005KT 5SM -RASN BR SCT019 BKN024 OVC029 02/01 A3025 330 89 -1100 260/05 RMK AO2 P0001
14840KMKG MKG20101118143512211/18/10 14:35:31  5-MIN KMKG 181935Z 25005KT 7SM -RASN BKN020 BKN024 OVC033 02/01 A3025 330 89 -1100 260/05 RMK AO2 P0001
14840KMKG MKG20101118144012311/18/10 14:40:31  5-MIN KMKG 181940Z 26007KT 10SM -RASN FEW015 BKN022 OVC031 02/01 A3025 330 89 -1100 270/07 RMK AO2 P0001
14840KMKG MKG20101118144512311/18/10 14:45:31  5-MIN KMKG 181945Z 25007KT 10SM -RASN FEW019 BKN024 OVC040 02/01 A3025 330 89 -1100 260/07 RMK AO2 P0001
14840KMKG MKG20101118145012311/18/10 14:50:31  5-MIN KMKG 181950Z 24004KT 10SM -RASN FEW019 SCT024 OVC038 02/01 A3025 330 89 -1100 250/04 RMK AO2 P0001
14840KMKG MKG20101118145513311/18/10 14:55:31  5-MIN KMKG 181955Z 24004KT 10SM -RASN FEW026 OVC038 02/01 A3024 330 92 -1100 250/04 RMK AO2 SLP248 P0001 T00220011
14840KMKG MKG20101118150011611/18/10 15:00:31  5-MIN KMKG 182000Z 25004KT 10SM -RASN FEW024 OVC036 03/01 A3025 330 89 -1000 250/04 RMK AO2 P0000
14840KMKG MKG20101118150511611/18/10 15:05:31  5-MIN KMKG 182005Z 27003KT 10SM -RASN FEW024 OVC036 03/01 A3025 330 89 -1000 270/03 RMK AO2 P0000
14840KMKG MKG20101118151011611/18/10 15:10:31  5-MIN KMKG 182010Z VRB04KT 10SM -RASN SCT029 OVC036 03/01 A3025 330 89 -1000 VRB/04 RMK AO2 P0000
14840KMKG MKG20101118151512311/18/10 15:15:31  5-MIN KMKG 182015Z VRB04KT 10SM -RASN FEW019 BKN029 OVC036 03/01 A3025 330 85 -1000 VRB/04 RMK AO2 P0000
14840KMKG MKG20101118152012811/18/10 15:20:31  5-MIN KMKG 182020Z 01006G15KT 10SM -RASN FEW019 BKN029 OVC036 03/00 A3025 330 79 -900 010/06G15 RMK AO2 P0000
14840KMKG MKG20101118152512911/18/10 15:25:31  5-MIN KMKG 182025Z 35004G15KT 10SM -RASN FEW021 BKN027 OVC036 03/M01 A3025 320 76 -900 360/04G15 RMK AO2 P0000
14840KMKG MKG20101118153012311/18/10 15:30:31  5-MIN KMKG 182030Z 35008KT 10SM -RASN FEW021 SCT027 OVC038 03/M01 A3025 330 72 -900 350/08 RMK AO2 P0000
14840KMKG MKG20101118153512311/18/10 15:35:31  5-MIN KMKG 182035Z 33008KT 10SM -RASN FEW021 SCT027 OVC038 03/M02 A3025 330 70 -900 340/08 RMK AO2 P0000
14840KMKG MKG20101118154012911/18/10 15:40:31  5-MIN KMKG 182040Z 34011G16KT 10SM -RASN SCT026 BKN038 OVC049 03/M02 A3025 330 70 -900 340/11G16 RMK AO2 P0000
14840KMKG MKG20101118154512311/18/10 15:45:31  5-MIN KMKG 182045Z 36010KT 10SM -RASN FEW026 BKN038 OVC049 03/M02 A3026 320 70 -900 360/10 RMK AO2 P0000
14840KMKG MKG20101118155015811/18/10 15:50:31  5-MIN KMKG 182050Z 36009G17KT 10SM -RASN SCT037 BKN045 OVC049 03/M02 A3026 320 67 -900 360/09G17 RMK AO2 SLP253 P0000 60004 T00331022 51006
14840KMKG MKG20101118155515211/18/10 15:55:31  5-MIN KMKG 182055Z 01009KT 10SM -RASN FEW031 BKN042 OVC049 03/M02 A3026 320 67 -900 010/09 RMK AO2 SLP253 P0000 60004 T00331022 53006
14840KMKG MKG20101118160011611/18/10 16:00:31  5-MIN KMKG 182100Z 36007KT 10SM -RASN FEW029 OVC049 03/M02 A3026 320 67 -900 360/07 RMK AO2 P0000
14840KMKG MKG20101118160511611/18/10 16:05:31  5-MIN KMKG 182105Z 36008KT 10SM -RASN FEW031 OVC049 03/M02 A3026 320 67 -900 010/08 RMK AO2 P0000
14840KMKG MKG20101118161011611/18/10 16:10:31  5-MIN KMKG 182110Z 36010KT 10SM -RASN FEW031 OVC049 03/M02 A3026 320 67 -900 360/10 RMK AO2 P0000
14840KMKG MKG20101118161513511/18/10 16:15:31  5-MIN KMKG 182115Z 35010KT 10SM -RA SCT033 OVC047 03/M02 A3026 320 67 -900 360/10 RMK AO2 SNE12 CIG 035 RWY 14 P0000
14840KMKG MKG20101118162012111/18/10 16:20:31  5-MIN KMKG 182120Z 01011KT 10SM BKN033 OVC047 03/M02 A3026 320 67 -900 010/11 RMK AO2 RAE16SNE12 P0000
14840KMKG MKG20101118162512111/18/10 16:25:31  5-MIN KMKG 182125Z 36011KT 10SM BKN033 OVC047 03/M02 A3026 320 67 -900 010/11 RMK AO2 RAE16SNE12 P0000
14840KMKG MKG20101118163012111/18/10 16:30:31  5-MIN KMKG 182130Z 36007KT 10SM BKN035 OVC047 03/M03 A3026 320 64 -900 360/07 RMK AO2 RAE16SNE12 P0000
14840KMKG MKG20101118163512111/18/10 16:35:31  5-MIN KMKG 182135Z 01009KT 10SM SCT035 OVC049 03/M03 A3026 310 64 -900 010/09 RMK AO2 RAE16SNE12 P0000
14840KMKG MKG20101118164012111/18/10 16:40:31  5-MIN KMKG 182140Z 36007KT 10SM SCT035 OVC049 03/M03 A3027 310 64 -900 010/07 RMK AO2 RAE16SNE12 P0000
14840KMKG MKG20101118164512111/18/10 16:45:31  5-MIN KMKG 182145Z 02010KT 10SM FEW035 OVC049 03/M03 A3027 310 64 -900 020/10 RMK AO2 RAE16SNE12 P0000
14840KMKG MKG20101118165013811/18/10 16:50:31  5-MIN KMKG 182150Z 35010KT 10SM FEW037 OVC049 03/M03 A3027 310 64 -900 360/10 RMK AO2 RAE16SNE12 SLP255 P0000 T00331028
14840KMKG MKG20101118165513111/18/10 16:55:31  5-MIN KMKG 182155Z 01006KT 10SM OVC049 03/M03 A3027 310 64 -900 010/06 RMK AO2 RAE16SNE12 SLP255 P0000 T00331028
14840KMKG MKG20101118170009711/18/10 17:00:31  5-MIN KMKG 182200Z 36005KT 10SM OVC049 03/M03 A3027 310 61 -900 360/05 RMK AO2
14840KMKG MKG20101118170509711/18/10 17:05:31  5-MIN KMKG 182205Z 35007KT 10SM OVC049 03/M03 A3027 310 64 -900 360/07 RMK AO2
14840KMKG MKG20101118171009711/18/10 17:10:31  5-MIN KMKG 182210Z 36010KT 10SM OVC049 03/M03 A3027 310 61 -900 360/10 RMK AO2
14840KMKG MKG20101118171509711/18/10 17:15:31  5-MIN KMKG 182215Z 36008KT 10SM OVC049 03/M03 A3027 310 61 -900 360/08 RMK AO2
14840KMKG MKG20101118172009711/18/10 17:20:31  5-MIN KMKG 182220Z 35009KT 10SM OVC047 03/M03 A3027 310 61 -900 350/09 RMK AO2
14840KMKG MKG20101118172509711/18/10 17:25:31  5-MIN KMKG 182225Z 35010KT 10SM OVC047 03/M03 A3027 300 61 -900 350/10 RMK AO2
14840KMKG MKG20101118173009811/18/10 17:30:31  5-MIN KMKG 182230Z 35009KT 10SM OVC047 03/M04 A3028 300 59 -1000 350/09 RMK AO2
14840KMKG MKG20101118173509711/18/10 17:35:31  5-MIN KMKG 182235Z 35011KT 10SM OVC047 03/M04 A3027 300 59 -900 360/11 RMK AO2
14840KMKG MKG20101118174009711/18/10 17:40:31  5-MIN KMKG 182240Z 35009KT 10SM OVC047 03/M04 A3027 300 59 -900 350/09 RMK AO2
14840KMKG MKG20101118174509811/18/10 17:45:31  5-MIN KMKG 182245Z 35008KT 10SM OVC047 03/M04 A3028 300 59 -1000 360/08 RMK AO2
14840KMKG MKG20101118175011511/18/10 17:50:31  5-MIN KMKG 182250Z 36006KT 10SM OVC047 03/M03 A3027 300 64 -1000 360/06 RMK AO2 SLP259 T00281033
14840KMKG MKG20101118175511511/18/10 17:55:31  5-MIN KMKG 182255Z 36007KT 10SM OVC047 03/M04 A3027 300 61 -1000 360/07 RMK AO2 SLP259 T00281039
14840KMKG MKG20101118180009811/18/10 18:00:31  5-MIN KMKG 182300Z 01006KT 10SM OVC047 03/M04 A3027 300 61 -1000 020/06 RMK AO2
14840KMKG MKG20101118180509811/18/10 18:05:31  5-MIN KMKG 182305Z 01006KT 10SM OVC047 03/M04 A3027 300 61 -1000 010/06 RMK AO2
14840KMKG MKG20101118181009811/18/10 18:10:31  5-MIN KMKG 182310Z 36008KT 10SM OVC047 03/M04 A3027 300 61 -1000 010/08 RMK AO2
14840KMKG MKG20101118181509811/18/10 18:15:31  5-MIN KMKG 182315Z 01006KT 10SM OVC047 03/M04 A3028 300 59 -1000 010/06 RMK AO2
14840KMKG MKG20101118182009811/18/10 18:20:31  5-MIN KMKG 182320Z 36007KT 10SM OVC047 03/M04 A3028 300 59 -1000 010/07 RMK AO2
14840KMKG MKG20101118182509811/18/10 18:25:31  5-MIN KMKG 182325Z 02006KT 10SM OVC047 03/M04 A3027 300 59 -1000 020/06 RMK AO2
14840KMKG MKG20101118183009811/18/10 18:30:31  5-MIN KMKG 182330Z 01005KT 10SM OVC047 03/M04 A3028 300 59 -1000 010/05 RMK AO2
14840KMKG MKG20101118183509811/18/10 18:35:31  5-MIN KMKG 182335Z 01004KT 10SM OVC045 03/M04 A3028 300 59 -1000 010/04 RMK AO2
14840KMKG MKG20101118184009811/18/10 18:40:31  5-MIN KMKG 182340Z 03004KT 10SM OVC045 03/M04 A3028 300 61 -1000 040/04 RMK AO2
14840KMKG MKG20101118184509811/18/10 18:45:31  5-MIN KMKG 182345Z 02004KT 10SM OVC045 03/M04 A3028 300 59 -1000 020/04 RMK AO2
14840KMKG MKG20101118185013911/18/10 18:50:31  5-MIN KMKG 182350Z 01005KT 10SM OVC045 03/M05 A3028 300 56 -1000 010/05 RMK AO2 SLP259 60004 T00281050 10044 20017 53006
14840KMKG MKG20101118185513911/18/10 18:55:31  5-MIN KMKG 182355Z 02005KT 10SM OVC045 03/M05 A3028 300 56 -1000 030/05 RMK AO2 SLP259 60004 T00281050 10044 20017 51006
14840KMKG MKG20101118190009811/18/10 19:00:31  5-MIN KMKG 190000Z 02005KT 10SM OVC045 03/M05 A3028 300 56 -1000 020/05 RMK AO2
14840KMKG MKG20101118190509811/18/10 19:05:31  5-MIN KMKG 190005Z 01005KT 10SM OVC045 03/M05 A3028 300 56 -1000 020/05 RMK AO2
14840KMKG MKG20101118191009811/18/10 19:10:31  5-MIN KMKG 190010Z 01005KT 10SM OVC045 03/M05 A3028 300 56 -1000 010/05 RMK AO2
14840KMKG MKG20101118191509811/18/10 19:15:31  5-MIN KMKG 190015Z 01005KT 10SM OVC045 03/M05 A3028 300 56 -1000 010/05 RMK AO2
14840KMKG MKG20101118192009811/18/10 19:20:31  5-MIN KMKG 190020Z 03004KT 10SM OVC045 03/M05 A3028 300 56 -1000 040/04 RMK AO2
14840KMKG MKG20101118192509811/18/10 19:25:31  5-MIN KMKG 190025Z 03004KT 10SM OVC045 03/M05 A3028 300 56 -1000 040/04 RMK AO2
14840KMKG MKG20101118193009811/18/10 19:30:31  5-MIN KMKG 190030Z 03003KT 10SM OVC045 03/M04 A3028 300 59 -1000 030/03 RMK AO2
14840KMKG MKG20101118193509811/18/10 19:35:31  5-MIN KMKG 190035Z 00000KT 10SM OVC045 03/M04 A3028 300 59 -1000 000/00 RMK AO2
14840KMKG MKG20101118194009811/18/10 19:40:31  5-MIN KMKG 190040Z 00000KT 10SM OVC045 03/M04 A3028 300 59 -1000 000/00 RMK AO2
14840KMKG MKG20101118194509811/18/10 19:45:31  5-MIN KMKG 190045Z 00000KT 10SM OVC045 03/M04 A3028 300 59 -1000 000/00 RMK AO2
14840KMKG MKG20101118195011511/18/10 19:50:31  5-MIN KMKG 190050Z 00000KT 10SM OVC045 03/M04 A3028 290 59 -1000 000/00 RMK AO2 SLP261 T00281044
14840KMKG MKG20101118195511511/18/10 19:55:31  5-MIN KMKG 190055Z 01004KT 10SM OVC045 03/M05 A3028 290 56 -1000 010/04 RMK AO2 SLP261 T00281050
14840KMKG MKG20101118200009811/18/10 20:00:31  5-MIN KMKG 190100Z 36005KT 10SM OVC045 03/M05 A3028 300 56 -1000 010/05 RMK AO2
14840KMKG MKG20101118200509811/18/10 20:05:31  5-MIN KMKG 190105Z 02004KT 10SM OVC045 03/M04 A3028 300 59 -1000 020/04 RMK AO2
14840KMKG MKG20101118201009811/18/10 20:10:31  5-MIN KMKG 190110Z 02006KT 10SM OVC045 03/M05 A3028 300 56 -1000 020/06 RMK AO2
14840KMKG MKG20101118201509811/18/10 20:15:31  5-MIN KMKG 190115Z 03005KT 10SM OVC045 03/M05 A3028 300 56 -1000 030/05 RMK AO2
14840KMKG MKG20101118202009811/18/10 20:20:31  5-MIN KMKG 190120Z 03004KT 10SM OVC045 03/M04 A3028 300 59 -1000 040/04 RMK AO2
14840KMKG MKG20101118202509811/18/10 20:25:31  5-MIN KMKG 190125Z 04003KT 10SM OVC045 03/M05 A3028 300 56 -1000 040/03 RMK AO2
14840KMKG MKG20101118203009811/18/10 20:30:31  5-MIN KMKG 190130Z 03003KT 10SM OVC047 03/M05 A3028 300 56 -1000 040/03 RMK AO2
14840KMKG MKG20101118203509811/18/10 20:35:31  5-MIN KMKG 190135Z 04004KT 10SM OVC047 03/M05 A3028 300 56 -1000 040/04 RMK AO2
14840KMKG MKG20101118204009811/18/10 20:40:31  5-MIN KMKG 190140Z 03004KT 10SM OVC047 03/M05 A3029 290 56 -1000 030/04 RMK AO2
14840KMKG MKG20101118204509811/18/10 20:45:31  5-MIN KMKG 190145Z 03004KT 10SM OVC045 03/M05 A3029 290 56 -1000 030/04 RMK AO2
14840KMKG MKG20101118205011511/18/10 20:50:31  5-MIN KMKG 190150Z 02003KT 10SM OVC045 03/M05 A3029 290 56 -1000 030/03 RMK AO2 SLP262 T00281050
14840KMKG MKG20101118205511511/18/10 20:55:31  5-MIN KMKG 190155Z 03005KT 10SM OVC045 03/M06 A3029 290 54 -1000 030/05 RMK AO2 SLP262 T00281056
14840KMKG MKG20101118210009811/18/10 21:00:31  5-MIN KMKG 190200Z 04004KT 10SM OVC045 03/M06 A3029 290 54 -1000 040/04 RMK AO2
14840KMKG MKG20101118210509811/18/10 21:05:31  5-MIN KMKG 190205Z 04003KT 10SM OVC045 03/M06 A3029 290 54 -1000 040/03 RMK AO2
14840KMKG MKG20101118211009811/18/10 21:10:31  5-MIN KMKG 190210Z 04003KT 10SM OVC045 03/M06 A3029 290 54 -1000 050/03 RMK AO2
14840KMKG MKG20101118211509811/18/10 21:15:31  5-MIN KMKG 190215Z 05004KT 10SM OVC045 02/M06 A3029 290 56 -1100 050/04 RMK AO2
14840KMKG MKG20101118212009811/18/10 21:20:31  5-MIN KMKG 190220Z 05004KT 10SM OVC045 02/M05 A3028 300 59 -1100 050/04 RMK AO2
14840KMKG MKG20101118212509811/18/10 21:25:31  5-MIN KMKG 190225Z 05003KT 10SM OVC045 02/M06 A3029 290 56 -1100 050/03 RMK AO2
14840KMKG MKG20101118213009811/18/10 21:30:31  5-MIN KMKG 190230Z 00000KT 10SM OVC045 02/M05 A3029 290 59 -1100 000/00 RMK AO2
14840KMKG MKG20101118213509811/18/10 21:35:31  5-MIN KMKG 190235Z 00000KT 10SM OVC045 02/M05 A3029 290 59 -1100 000/00 RMK AO2
14840KMKG MKG20101118214009811/18/10 21:40:31  5-MIN KMKG 190240Z 06003KT 10SM OVC045 02/M04 A3029 290 61 -1100 060/03 RMK AO2
14840KMKG MKG20101118214509811/18/10 21:45:31  5-MIN KMKG 190245Z 05003KT 10SM OVC045 02/M04 A3029 290 61 -1100 060/03 RMK AO2
14840KMKG MKG20101118215012111/18/10 21:50:31  5-MIN KMKG 190250Z 05003KT 10SM OVC045 02/M04 A3029 290 61 -1100 060/03 RMK AO2 SLP263 T00221044 51006
14840KMKG MKG20101118215512111/18/10 21:55:31  5-MIN KMKG 190255Z 05003KT 10SM OVC045 02/M04 A3029 290 61 -1100 050/03 RMK AO2 SLP262 T00221044 50003
14840KMKG MKG20101118220009811/18/10 22:00:31  5-MIN KMKG 190300Z 06003KT 10SM OVC045 02/M05 A3029 290 59 -1100 070/03 RMK AO2
14840KMKG MKG20101118220509811/18/10 22:05:31  5-MIN KMKG 190305Z 06003KT 10SM OVC045 02/M04 A3029 290 61 -1100 060/03 RMK AO2
14840KMKG MKG20101118221009811/18/10 22:10:31  5-MIN KMKG 190310Z 00000KT 10SM OVC045 02/M04 A3029 290 61 -1100 000/00 RMK AO2
14840KMKG MKG20101118221509811/18/10 22:15:31  5-MIN KMKG 190315Z 06003KT 10SM OVC045 02/M04 A3029 290 61 -1100 060/03 RMK AO2
14840KMKG MKG20101119012509511/19/10 01:25:31  5-MIN KMKG 190625Z 13006KT 10SM CLR 01/M05 A3025 330 66 -1300 140/06 RMK AO2
14840KMKG MKG20101119013009511/19/10 01:30:31  5-MIN KMKG 190630Z 13006KT 10SM CLR 00/M04 A3025 330 72 -1300 130/06 RMK AO2
14840KMKG MKG20101119013509511/19/10 01:35:31  5-MIN KMKG 190635Z 13006KT 10SM CLR 00/M04 A3025 330 72 -1300 140/06 RMK AO2
14840KMKG MKG20101119014009511/19/10 01:40:31  5-MIN KMKG 190640Z 13005KT 10SM CLR 00/M04 A3025 320 72 -1300 140/05 RMK AO2
14840KMKG MKG20101119014509511/19/10 01:45:31  5-MIN KMKG 190645Z 14005KT 10SM CLR 01/M04 A3025 330 69 -1300 140/05 RMK AO2
14840KMKG MKG20101119015011211/19/10 01:50:31  5-MIN KMKG 190650Z 13005KT 10SM CLR 01/M04 A3025 330 69 -1300 140/05 RMK AO2 SLP250 T00061044
14840KMKG MKG20101119015511211/19/10 01:55:31  5-MIN KMKG 190655Z 14005KT 10SM CLR 01/M04 A3025 330 69 -1300 140/05 RMK AO2 SLP249 T00061044
14840KMKG MKG20101119020009511/19/10 02:00:31  5-MIN KMKG 190700Z 14006KT 10SM CLR 01/M05 A3025 330 64 -1200 150/06 RMK AO2
14840KMKG MKG20101119020509511/19/10 02:05:31  5-MIN KMKG 190705Z 15005KT 10SM CLR 01/M06 A3025 330 61 -1200 150/05 RMK AO2
14840KMKG MKG20101119021009511/19/10 02:10:31  5-MIN KMKG 190710Z 16004KT 10SM CLR 01/M06 A3026 320 61 -1200 160/04 RMK AO2
14840KMKG MKG20101119021509511/19/10 02:15:31  5-MIN KMKG 190715Z 16005KT 10SM CLR 01/M06 A3026 320 61 -1200 160/05 RMK AO2
14840KMKG MKG20101119022009511/19/10 02:20:31  5-MIN KMKG 190720Z 15005KT 10SM CLR 01/M06 A3026 320 61 -1200 160/05 RMK AO2
14840KMKG MKG20101119022509511/19/10 02:25:31  5-MIN KMKG 190725Z 15004KT 10SM CLR 01/M06 A3026 320 61 -1200 160/04 RMK AO2
14840KMKG MKG20101119023009511/19/10 02:30:31  5-MIN KMKG 190730Z 16003KT 10SM CLR 01/M06 A3027 310 61 -1200 160/03 RMK AO2
14840KMKG MKG20101119023509811/19/10 02:35:31  5-MIN KMKG 190735Z 15005KT 10SM FEW040 01/M06 A3026 310 61 -1200 160/05 RMK AO2
14840KMKG MKG20101119024009511/19/10 02:40:31  5-MIN KMKG 190740Z 14005KT 10SM CLR 01/M06 A3026 310 61 -1200 140/05 RMK AO2
14840KMKG MKG20101119024509511/19/10 02:45:31  5-MIN KMKG 190745Z 14006KT 10SM CLR 01/M06 A3026 320 61 -1200 140/06 RMK AO2
14840KMKG MKG20101119025011211/19/10 02:50:31  5-MIN KMKG 190750Z 13006KT 10SM CLR 01/M05 A3026 320 66 -1300 140/06 RMK AO2 SLP253 T00061050
14840KMKG MKG20101119025511211/19/10 02:55:31  5-MIN KMKG 190755Z 13006KT 10SM CLR 01/M05 A3026 320 66 -1300 130/06 RMK AO2 SLP253 T00061050
14840KMKG MKG20101119030009511/19/10 03:00:31  5-MIN KMKG 190800Z 13007KT 10SM CLR 01/M05 A3026 320 66 -1300 140/07 RMK AO2
14840KMKG MKG20101119030509511/19/10 03:05:31  5-MIN KMKG 190805Z 13007KT 10SM CLR 01/M05 A3026 320 66 -1300 140/07 RMK AO2
14840KMKG MKG20101119031009511/19/10 03:10:31  5-MIN KMKG 190810Z 13008KT 10SM CLR 01/M05 A3025 330 66 -1300 130/08 RMK AO2
14840KMKG MKG20101119031509511/19/10 03:15:31  5-MIN KMKG 190815Z 13007KT 10SM CLR 01/M05 A3025 330 66 -1300 140/07 RMK AO2
14840KMKG MKG20101119032009511/19/10 03:20:31  5-MIN KMKG 190820Z 13008KT 10SM CLR 01/M05 A3025 330 66 -1300 140/08 RMK AO2
14840KMKG MKG20101119032509511/19/10 03:25:31  5-MIN KMKG 190825Z 13008KT 10SM CLR 01/M05 A3024 330 66 -1300 130/08 RMK AO2
14840KMKG MKG20101119033009511/19/10 03:30:31  5-MIN KMKG 190830Z 13007KT 10SM CLR 01/M05 A3024 340 66 -1300 130/07 RMK AO2
14840KMKG MKG20101119033509511/19/10 03:35:31  5-MIN KMKG 190835Z 13007KT 10SM CLR 01/M05 A3024 340 66 -1300 130/07 RMK AO2
14840KMKG MKG20101119034009511/19/10 03:40:31  5-MIN KMKG 190840Z 13007KT 10SM CLR 01/M05 A3024 340 66 -1300 140/07 RMK AO2
14840KMKG MKG20101119034509811/19/10 03:45:31  5-MIN KMKG 190845Z 13007KT 10SM FEW120 01/M05 A3023 340 66 -1200 140/07 RMK AO2
14840KMKG MKG20101119035012111/19/10 03:50:31  5-MIN KMKG 190850Z 13007KT 10SM SCT120 01/M05 A3023 340 66 -1300 140/07 RMK AO2 SLP245 T00061050 58008
14840KMKG MKG20101119035512111/19/10 03:55:31  5-MIN KMKG 190855Z 13007KT 10SM SCT120 01/M05 A3023 340 66 -1200 130/07 RMK AO2 SLP244 T00061050 58010
14840KMKG MKG20101119040009811/19/10 04:00:31  5-MIN KMKG 190900Z 13007KT 10SM SCT120 01/M05 A3023 350 66 -1200 130/07 RMK AO2
14840KMKG MKG20101119040509811/19/10 04:05:31  5-MIN KMKG 190905Z 13007KT 10SM BKN120 01/M05 A3023 350 66 -1200 130/07 RMK AO2
14840KMKG MKG20101119041009811/19/10 04:10:31  5-MIN KMKG 190910Z 13006KT 10SM BKN120 01/M05 A3023 350 66 -1200 140/06 RMK AO2
14840KMKG MKG20101119041509811/19/10 04:15:31  5-MIN KMKG 190915Z 13007KT 10SM SCT120 01/M05 A3022 360 66 -1200 130/07 RMK AO2
14840KMKG MKG20101119042009811/19/10 04:20:31  5-MIN KMKG 190920Z 13007KT 10SM FEW120 01/M05 A3022 350 66 -1200 140/07 RMK AO2
14840KMKG MKG20101119042509811/19/10 04:25:31  5-MIN KMKG 190925Z 13007KT 10SM FEW041 01/M05 A3022 350 66 -1200 140/07 RMK AO2
14840KMKG MKG20101119043009811/19/10 04:30:31  5-MIN KMKG 190930Z 13008KT 10SM FEW041 01/M06 A3022 360 61 -1200 130/08 RMK AO2
14840KMKG MKG20101119043509811/19/10 04:35:31  5-MIN KMKG 190935Z 13008KT 10SM FEW041 01/M05 A3022 360 66 -1200 130/08 RMK AO2
14840KMKG MKG20101119044009511/19/10 04:40:31  5-MIN KMKG 190940Z 13009KT 10SM CLR 01/M05 A3022 360 64 -1200 130/09 RMK AO2
14840KMKG MKG20101119044509511/19/10 04:45:31  5-MIN KMKG 190945Z 13008KT 10SM CLR 01/M06 A3022 360 61 -1200 130/08 RMK AO2
14840KMKG MKG20101119045011511/19/10 04:50:31  5-MIN KMKG 190950Z 13007KT 10SM FEW040 01/M05 A3022 350 64 -1200 140/07 RMK AO2 SLP240 T00111050
14840KMKG MKG20101119045511511/19/10 04:55:31  5-MIN KMKG 190955Z 13007KT 10SM SCT040 01/M05 A3022 350 64 -1200 140/07 RMK AO2 SLP241 T00111050
14840KMKG MKG20101119050009811/19/10 05:00:31  5-MIN KMKG 191000Z 13008KT 10SM BKN040 01/M05 A3022 360 64 -1200 130/08 RMK AO2
14840KMKG MKG20101119050509811/19/10 05:05:31  5-MIN KMKG 191005Z 13008KT 10SM BKN038 01/M05 A3021 360 64 -1200 140/08 RMK AO2
14840KMKG MKG20101119051009811/19/10 05:10:31  5-MIN KMKG 191010Z 13008KT 10SM BKN038 01/M05 A3021 360 64 -1200 140/08 RMK AO2
14840KMKG MKG20101119051509811/19/10 05:15:31  5-MIN KMKG 191015Z 13008KT 10SM OVC036 01/M05 A3021 360 64 -1200 130/08 RMK AO2
14840KMKG MKG20101119052011311/19/10 05:20:31  5-MIN KMKG 191020Z 13008KT 10SM OVC036 01/M04 A3021 360 66 -1200 130/08 RMK AO2 CIG 030 RWY 14
14840KMKG MKG20101119052510511/19/10 05:25:31  5-MIN KMKG 191025Z 13009KT 10SM BKN032 OVC039 01/M04 A3021 370 66 -1100 140/09 RMK AO2
14840KMKG MKG20101119053010511/19/10 05:30:31  5-MIN KMKG 191030Z 14009KT 10SM BKN030 OVC039 01/M04 A3020 370 66 -1100 140/09 RMK AO2
14840KMKG MKG20101119053510511/19/10 05:35:31  5-MIN KMKG 191035Z 14009KT 10SM BKN030 OVC037 02/M05 A3020 370 61 -1100 140/09 RMK AO2
14840KMKG MKG20101119054010511/19/10 05:40:31  5-MIN KMKG 191040Z 14009KT 10SM BKN030 OVC038 02/M04 A3020 380 64 -1100 140/09 RMK AO2
14840KMKG MKG20101119054510511/19/10 05:45:31  5-MIN KMKG 191045Z 14010KT 10SM BKN028 OVC038 02/M04 A3020 380 64 -1100 140/10 RMK AO2
14840KMKG MKG20101119055011511/19/10 05:50:31  5-MIN KMKG 191050Z 15009KT 10SM OVC028 02/M04 A3019 380 66 -1100 150/09 RMK AO2 SLP231 T00171039
14840KMKG MKG20101119055511511/19/10 05:55:31  5-MIN KMKG 191055Z 14009KT 10SM OVC028 02/M04 A3019 380 64 -1100 150/09 RMK AO2 SLP230 T00171044
14840KMKG MKG20101119060009811/19/10 06:00:31  5-MIN KMKG 191100Z 14007KT 10SM OVC028 02/M04 A3020 380 66 -1100 140/07 RMK AO2
14840KMKG MKG20101119060510511/19/10 06:05:31  5-MIN KMKG 191105Z 14008KT 10SM BKN028 OVC037 02/M04 A3020 380 66 -1100 150/08 RMK AO2
14840KMKG MKG20101119061011211/19/10 06:10:31  5-MIN KMKG 191110Z 14009KT 10SM BKN026 BKN030 OVC036 02/M04 A3019 380 66 -1100 150/09 RMK AO2
14840KMKG MKG20101119061510511/19/10 06:15:31  5-MIN KMKG 191115Z 14010KT 10SM BKN026 OVC036 02/M03 A3019 380 69 -1100 140/10 RMK AO2
14840KMKG MKG20101119062010511/19/10 06:20:31  5-MIN KMKG 191120Z 14009KT 10SM SCT026 BKN036 02/M03 A3018 390 69 -1100 150/09 RMK AO2
14840KMKG MKG20101119062510511/19/10 06:25:31  5-MIN KMKG 191125Z 14008KT 10SM SCT026 BKN038 02/M03 A3018 390 69 -1100 140/08 RMK AO2
14840KMKG MKG20101119063010511/19/10 06:30:31  5-MIN KMKG 191130Z 14010KT 10SM FEW024 BKN036 02/M03 A3018 390 69 -1000 140/10 RMK AO2
14840KMKG MKG20101119063510511/19/10 06:35:31  5-MIN KMKG 191135Z 15008KT 10SM FEW024 OVC034 02/M03 A3018 390 69 -1100 150/08 RMK AO2
14840KMKG MKG20101119064010511/19/10 06:40:31  5-MIN KMKG 191140Z 15007KT 10SM FEW028 OVC036 02/M03 A3018 390 69 -1100 160/07 RMK AO2
14840KMKG MKG20101119064509811/19/10 06:45:31  5-MIN KMKG 191145Z 15007KT 10SM OVC034 02/M03 A3018 390 69 -1100 160/07 RMK AO2
14840KMKG MKG20101119065013911/19/10 06:50:31  5-MIN KMKG 191150Z 15008KT 10SM OVC032 02/M03 A3018 390 67 -1000 160/08 RMK AO2 SLP226 70004 T00221033 10022 20000 58010
14840KMKG MKG20101119065513911/19/10 06:55:31  5-MIN KMKG 191155Z 15007KT 10SM OVC032 02/M03 A3018 390 69 -1000 160/07 RMK AO2 SLP226 70004 T00221028 10022 20000 56014
14840KMKG MKG20101119070009811/19/10 07:00:31  5-MIN KMKG 191200Z 16011KT 10SM OVC032 02/M03 A3018 390 69 -1000 160/11 RMK AO2
14840KMKG MKG20101119070510511/19/10 07:05:31  5-MIN KMKG 191205Z 15008KT 10SM SCT030 OVC037 02/M03 A3018 390 69 -1000 150/08 RMK AO2
14840KMKG MKG20101119071009811/19/10 07:10:31  5-MIN KMKG 191210Z 15008KT 10SM OVC035 02/M03 A3017 400 69 -1000 150/08 RMK AO2
14840KMKG MKG20101119071509811/19/10 07:15:31  5-MIN KMKG 191215Z 15011KT 10SM OVC035 02/M03 A3016 400 69 -1000 150/11 RMK AO2
14840KMKG MKG20101119072011011/19/10 07:20:31  5-MIN KMKG 191220Z 15012G18KT 10SM BKN033 OVC040 03/M02 A3016 410 69 -900 150/12G18 RMK AO2
14840KMKG MKG20101119072510311/19/10 07:25:31  5-MIN KMKG 191225Z 15011G18KT 10SM OVC033 03/M02 A3016 410 69 -900 160/11G18 RMK AO2
14840KMKG MKG20101119073009711/19/10 07:30:31  5-MIN KMKG 191230Z 16012KT 10SM OVC035 03/M02 A3016 410 69 -900 160/12 RMK AO2
14840KMKG MKG20101119073510311/19/10 07:35:31  5-MIN KMKG 191235Z 14014G18KT 10SM OVC033 03/M03 A3016 410 67 -900 150/14G18 RMK AO2
14840KMKG MKG20101119074010311/19/10 07:40:31  5-MIN KMKG 191240Z 15011G18KT 10SM OVC033 03/M03 A3016 410 67 -900 160/11G18 RMK AO2
14840KMKG MKG20101119074509711/19/10 07:45:31  5-MIN KMKG 191245Z 15012KT 10SM OVC033 03/M03 A3016 410 67 -900 150/12 RMK AO2
14840KMKG MKG20101119075011411/19/10 07:50:31  5-MIN KMKG 191250Z 16012KT 10SM OVC033 03/M03 A3016 410 64 -900 160/12 RMK AO2 SLP220 T00281033
14840KMKG MKG20101119075512011/19/10 07:55:31  5-MIN KMKG 191255Z 15012G18KT 10SM OVC033 03/M03 A3016 410 64 -900 150/12G18 RMK AO2 SLP220 T00281033
14840KMKG MKG20101119080009711/19/10 08:00:31  5-MIN KMKG 191300Z 16011KT 10SM OVC033 03/M03 A3017 400 61 -800 160/11 RMK AO2
14840KMKG MKG20101119080509711/19/10 08:05:31  5-MIN KMKG 191305Z 15010KT 10SM OVC033 03/M03 A3017 400 64 -900 160/10 RMK AO2
14840KMKG MKG20101119081009711/19/10 08:10:31  5-MIN KMKG 191310Z 15011KT 10SM OVC033 03/M03 A3016 410 64 -900 150/11 RMK AO2
14840KMKG MKG20101119081510311/19/10 08:15:31  5-MIN KMKG 191315Z 15010G18KT 10SM OVC031 03/M03 A3016 410 64 -900 160/10G18 RMK AO2
14840KMKG MKG20101119082010311/19/10 08:20:31  5-MIN KMKG 191320Z 16012G18KT 10SM OVC031 03/M03 A3016 410 64 -900 160/12G18 RMK AO2
14840KMKG MKG20101119082509711/19/10 08:25:31  5-MIN KMKG 191325Z 15012KT 10SM OVC029 03/M03 A3016 410 64 -900 160/12 RMK AO2
14840KMKG MKG20101119083010311/19/10 08:30:31  5-MIN KMKG 191330Z 16010G19KT 10SM OVC029 03/M03 A3016 410 64 -900 160/10G19 RMK AO2
14840KMKG MKG20101119083510311/19/10 08:35:31  5-MIN KMKG 191335Z 16012G19KT 10SM OVC029 03/M03 A3016 410 64 -900 170/12G19 RMK AO2
14840KMKG MKG20101119084010311/19/10 08:40:31  5-MIN KMKG 191340Z 16013G18KT 10SM OVC029 03/M03 A3016 400 67 -900 160/13G18 RMK AO2
14840KMKG MKG20101119084509711/19/10 08:45:31  5-MIN KMKG 191345Z 16011KT 10SM OVC027 03/M03 A3017 400 64 -800 160/11 RMK AO2
14840KMKG MKG20101119085011411/19/10 08:50:31  5-MIN KMKG 191350Z 16011KT 10SM OVC027 03/M03 A3017 400 64 -800 160/11 RMK AO2 SLP221 T00331028
14840KMKG MKG20101119085512111/19/10 08:55:31  5-MIN KMKG 191355Z 16010KT 10SM BKN027 OVC031 03/M03 A3016 410 64 -800 170/10 RMK AO2 SLP220 T00331028
14840KMKG MKG20101119090010411/19/10 09:00:31  5-MIN KMKG 191400Z 16009KT 10SM BKN027 OVC031 03/M03 A3017 400 64 -800 170/09 RMK AO2
14840KMKG MKG20101119090510411/19/10 09:05:31  5-MIN KMKG 191405Z 16009KT 10SM BKN027 OVC031 03/M03 A3016 410 64 -800 170/09 RMK AO2
14840KMKG MKG20101119091009711/19/10 09:10:31  5-MIN KMKG 191410Z 16009KT 10SM OVC027 03/M03 A3016 410 64 -800 160/09 RMK AO2
14840KMKG MKG20101119091509711/19/10 09:15:31  5-MIN KMKG 191415Z 16011KT 10SM OVC027 03/M03 A3015 420 64 -800 160/11 RMK AO2
14840KMKG MKG20101119092009711/19/10 09:20:31  5-MIN KMKG 191420Z 16010KT 10SM OVC027 03/M03 A3015 420 64 -800 170/10 RMK AO2
14840KMKG MKG20101119092509711/19/10 09:25:31  5-MIN KMKG 191425Z 16008KT 10SM OVC027 03/M02 A3015 420 67 -800 160/08 RMK AO2
14840KMKG MKG20101119093010411/19/10 09:30:31  5-MIN KMKG 191430Z 16009KT 10SM BKN027 OVC033 03/M02 A3015 420 67 -800 170/09 RMK AO2
14840KMKG MKG20101119093510411/19/10 09:35:31  5-MIN KMKG 191435Z 17010KT 10SM BKN027 OVC033 03/M02 A3015 420 67 -800 170/10 RMK AO2
14840KMKG MKG20101119094010411/19/10 09:40:31  5-MIN KMKG 191440Z 16010KT 10SM BKN027 OVC033 03/M02 A3014 430 70 -800 160/10 RMK AO2
14840KMKG MKG20101119094509711/19/10 09:45:31  5-MIN KMKG 191445Z 15008KT 10SM OVC027 04/M02 A3014 430 67 -700 150/08 RMK AO2
14840KMKG MKG20101119095012011/19/10 09:50:31  5-MIN KMKG 191450Z 16010KT 10SM OVC027 04/M02 A3014 430 67 -700 160/10 RMK AO2 SLP211 T00391017 56014
14840KMKG MKG20101119095512011/19/10 09:55:31  5-MIN KMKG 191455Z 16011KT 10SM OVC027 04/M02 A3013 430 67 -700 160/11 RMK AO2 SLP210 T00391017 58016
14840KMKG MKG20101119100009711/19/10 10:00:31  5-MIN KMKG 191500Z 15010KT 10SM OVC027 04/M02 A3013 430 67 -700 160/10 RMK AO2
14840KMKG MKG20101119100509711/19/10 10:05:31  5-MIN KMKG 191505Z 15012KT 10SM OVC027 04/M01 A3014 430 70 -700 150/12 RMK AO2
14840KMKG MKG20101119101009711/19/10 10:10:31  5-MIN KMKG 191510Z 15011KT 10SM OVC025 04/M02 A3013 440 67 -700 160/11 RMK AO2
14840KMKG MKG20101119101509711/19/10 10:15:31  5-MIN KMKG 191515Z 16011KT 10SM OVC025 04/M01 A3013 440 70 -700 160/11 RMK AO2
14840KMKG MKG20101119102010311/19/10 10:20:31  5-MIN KMKG 191520Z 16011G18KT 10SM OVC025 04/M01 A3013 440 70 -700 160/11G18 RMK AO2
14840KMKG MKG20101119102510311/19/10 10:25:31  5-MIN KMKG 191525Z 16010G18KT 10SM OVC025 04/M01 A3013 440 70 -700 160/10G18 RMK AO2
14840KMKG MKG20101119103010411/19/10 10:30:31  5-MIN KMKG 191530Z 16009KT 10SM BKN025 OVC030 04/M01 A3013 440 70 -700 160/09 RMK AO2
14840KMKG MKG20101119103510411/19/10 10:35:31  5-MIN KMKG 191535Z 17009KT 10SM BKN025 OVC030 04/M01 A3013 440 70 -700 170/09 RMK AO2
14840KMKG MKG20101119104010411/19/10 10:40:31  5-MIN KMKG 191540Z 17009KT 10SM BKN025 OVC032 04/M01 A3013 440 73 -700 170/09 RMK AO2
14840KMKG MKG20101119104510411/19/10 10:45:31  5-MIN KMKG 191545Z 16011KT 10SM BKN025 OVC032 04/M01 A3013 440 70 -700 170/11 RMK AO2
14840KMKG MKG20101119105012111/19/10 10:50:31  5-MIN KMKG 191550Z 17008KT 10SM BKN025 OVC032 04/M01 A3012 440 70 -600 180/08 RMK AO2 SLP207 T00441006
14840KMKG MKG20101119105512111/19/10 10:55:31  5-MIN KMKG 191555Z 17010KT 10SM BKN025 OVC030 04/M01 A3013 440 70 -600 170/10 RMK AO2 SLP207 T00441006
14840KMKG MKG20101119110010911/19/10 11:00:31  5-MIN KMKG 191600Z 20016G20KT 10SM BKN025 OVC032 05/00 A3012 450 70 -600 200/16G20 RMK AO2
14840KMKG MKG20101119110510911/19/10 11:05:31  5-MIN KMKG 191605Z 19016G21KT 10SM BKN025 OVC033 06/00 A3012 450 67 -500 200/16G21 RMK AO2
14840KMKG MKG20101119111010911/19/10 11:10:31  5-MIN KMKG 191610Z 20018G24KT 10SM BKN025 OVC032 06/00 A3011 460 67 -500 200/18G24 RMK AO2
14840KMKG MKG20101119111511611/19/10 11:15:31  5-MIN KMKG 191615Z 19012G24KT 10SM BKN025 OVC030 06/00 A3010 460 67 -500 200/12G24 RMK AO2 PRESFR
14840KMKG MKG20101119112010911/19/10 11:20:31  5-MIN KMKG 191620Z 20017G25KT 10SM BKN025 OVC030 06/00 A3010 460 67 -500 200/17G25 RMK AO2
14840KMKG MKG20101119112510911/19/10 11:25:31  5-MIN KMKG 191625Z 19016G25KT 10SM BKN025 OVC034 06/00 A3010 470 67 -500 190/16G25 RMK AO2
14840KMKG MKG20101119113012711/19/10 11:30:31  5-MIN KMKG 191630Z 20018G26KT 10SM BKN025 OVC032 06/00 A3009 470 67 -500 200/18G26 RMK AO2 PK WND 20026/1630
14840KMKG MKG20101119113512711/19/10 11:35:31  5-MIN KMKG 191635Z 20018G28KT 10SM BKN025 OVC030 06/00 A3009 470 67 -500 200/18G28 RMK AO2 PK WND 20028/1631
14840KMKG MKG20101119114012711/19/10 11:40:31  5-MIN KMKG 191640Z 20017G28KT 10SM BKN025 OVC030 06/00 A3009 470 67 -500 210/17G28 RMK AO2 PK WND 20028/1631
14840KMKG MKG20101119114512011/19/10 11:45:31  5-MIN KMKG 191645Z 20015G25KT 10SM OVC027 06/00 A3008 480 67 -500 200/15G25 RMK AO2 PK WND 20028/1631
14840KMKG MKG20101119115014411/19/10 11:50:31  5-MIN KMKG 191650Z 20017G25KT 10SM BKN025 OVC031 06/00 A3008 490 67 -400 200/17G25 RMK AO2 PK WND 20028/1631 SLP190 T00560000
14840KMKG MKG20101119115514411/19/10 11:55:31  5-MIN KMKG 191655Z 20016G24KT 10SM BKN023 OVC029 06/00 A3007 490 67 -400 200/16G24 RMK AO2 PK WND 20028/1631 SLP189 T00560000
14840KMKG MKG20101119120012011/19/10 12:00:31  5-MIN KMKG 191700Z 19018G26KT 10SM OVC025 06/00 A3007 490 67 -400 200/18G26 RMK AO2 PK WND 19026/1700
14840KMKG MKG20101119120512711/19/10 12:05:31  5-MIN KMKG 191705Z 18017G27KT 10SM BKN023 OVC029 06/00 A3006 500 67 -400 190/17G27 RMK AO2 PK WND 19027/1702
14840KMKG MKG20101119121012011/19/10 12:10:31  5-MIN KMKG 191710Z 19017G28KT 10SM OVC025 06/00 A3006 500 67 -400 190/17G28 RMK AO2 PK WND 20028/1706
14840KMKG MKG20101119121512011/19/10 12:15:31  5-MIN KMKG 191715Z 19018G28KT 10SM OVC025 06/00 A3006 500 67 -400 200/18G28 RMK AO2 PK WND 20028/1706
14840KMKG MKG20101119122012711/19/10 12:20:31  5-MIN KMKG 191720Z 20020G28KT 10SM OVC025 06/00 A3005 510 67 -400 200/20G28 RMK AO2 PK WND 20028/1720 PRESFR
14840KMKG MKG20101119122512011/19/10 12:25:31  5-MIN KMKG 191725Z 20017G28KT 10SM OVC023 06/00 A3005 510 67 -400 200/17G28 RMK AO2 PK WND 20028/1720
14840KMKG MKG20101119123012711/19/10 12:30:31  5-MIN KMKG 191730Z 20018G28KT 10SM BKN023 OVC028 06/00 A3005 510 67 -400 210/18G28 RMK AO2 PK WND 20028/1728
14840KMKG MKG20101119123512711/19/10 12:35:31  5-MIN KMKG 191735Z 20017G28KT 10SM BKN023 OVC028 06/00 A3005 510 67 -400 210/17G28 RMK AO2 PK WND 20028/1728
14840KMKG MKG20101119124012711/19/10 12:40:31  5-MIN KMKG 191740Z 20020G27KT 10SM BKN023 OVC028 06/00 A3005 510 67 -400 200/20G27 RMK AO2 PK WND 20028/1728
14840KMKG MKG20101119124512011/19/10 12:45:31  5-MIN KMKG 191745Z 20021G32KT 10SM OVC025 06/00 A3005 510 67 -400 200/21G32 RMK AO2 PK WND 20032/1741
14840KMKG MKG20101119125016211/19/10 12:50:31  5-MIN KMKG 191750Z 19019G32KT 10SM BKN023 OVC028 06/00 A3004 520 67 -400 190/19G32 RMK AO2 PK WND 20032/1741 SLP179 T00560000 10056 20022 58016
14840KMKG MKG20101119125516211/19/10 12:55:31  5-MIN KMKG 191755Z 19021G29KT 10SM BKN023 OVC028 06/00 A3003 530 67 -400 200/21G29 RMK AO2 PK WND 20032/1741 SLP175 T00560000 10056 20022 58034
14840KMKG MKG20101119130012711/19/10 13:00:31  5-MIN KMKG 191800Z 20021G34KT 10SM BKN023 OVC028 06/00 A3003 530 67 -400 200/21G34 RMK AO2 PK WND 19034/1757
14840KMKG MKG20101119130512711/19/10 13:05:31  5-MIN KMKG 191805Z 19020G34KT 10SM BKN023 OVC028 06/01 A3003 530 70 -400 190/20G34 RMK AO2 PK WND 19034/1757
14840KMKG MKG20101119131011911/19/10 13:10:31  5-MIN KMKG 191810Z 19016G30KT 9SM OVC023 06/01 A3002 530 70 -400 200/16G30 RMK AO2 PK WND 19034/1757
14840KMKG MKG20101119131512611/19/10 13:15:31  5-MIN KMKG 191815Z 20015G27KT 9SM BKN023 OVC028 06/01 A3003 530 70 -400 200/15G27 RMK AO2 PK WND 19034/1757
14840KMKG MKG20101119132012611/19/10 13:20:31  5-MIN KMKG 191820Z 19019G27KT 9SM BKN021 OVC026 06/01 A3002 540 70 -400 200/19G27 RMK AO2 PK WND 19034/1757
14840KMKG MKG20101119132512611/19/10 13:25:31  5-MIN KMKG 191825Z 20021G30KT 9SM BKN021 OVC028 06/01 A3003 530 70 -400 200/21G30 RMK AO2 PK WND 19034/1757
14840KMKG MKG20101119133012611/19/10 13:30:31  5-MIN KMKG 191830Z 20018G30KT 9SM BKN023 OVC028 06/01 A3002 540 67 -300 200/18G30 RMK AO2 PK WND 19034/1757
14840KMKG MKG20101119133511911/19/10 13:35:31  5-MIN KMKG 191835Z 19017G27KT 9SM OVC023 06/01 A3002 540 67 -300 200/17G27 RMK AO2 PK WND 19034/1757
14840KMKG MKG20101119134012611/19/10 13:40:31  5-MIN KMKG 191840Z 20020G30KT 9SM BKN023 OVC028 06/01 A3001 540 67 -300 210/20G30 RMK AO2 PK WND 19034/1757
14840KMKG MKG20101119134512611/19/10 13:45:31  5-MIN KMKG 191845Z 20019G30KT 9SM BKN023 OVC027 06/01 A3001 550 67 -300 200/19G30 RMK AO2 PK WND 19034/1757
14840KMKG MKG20101119135015011/19/10 13:50:31  5-MIN KMKG 191850Z 19017G27KT 9SM BKN021 OVC027 06/01 A3000 560 70 -300 190/17G27 RMK AO2 PK WND 19034/1757 PRESFR SLP164 T00610011
14840KMKG MKG20101119135513611/19/10 13:55:31  5-MIN KMKG 191855Z 19019G27KT 9SM OVC021 06/01 A3000 560 70 -300 190/19G27 RMK AO2 PK WND 19034/1757 SLP163 T00610011
14840KMKG MKG20101119140012611/19/10 14:00:31  5-MIN KMKG 191900Z 20021G30KT 9SM BKN023 OVC028 06/01 A2999 560 70 -300 200/21G30 RMK AO2 PK WND 19030/1857
14840KMKG MKG20101119140511911/19/10 14:05:31  5-MIN KMKG 191905Z 20017G30KT 9SM OVC023 06/01 A2999 560 70 -300 200/17G30 RMK AO2 PK WND 19030/1857
14840KMKG MKG20101119141011911/19/10 14:10:31  5-MIN KMKG 191910Z 20021G28KT 9SM OVC023 07/01 A2999 570 67 -200 200/21G28 RMK AO2 PK WND 19030/1857
14840KMKG MKG20101119141512611/19/10 14:15:31  5-MIN KMKG 191915Z 20021G30KT 9SM BKN023 OVC030 07/01 A2998 570 67 -200 200/21G30 RMK AO2 PK WND 20030/1914
14840KMKG MKG20101119142012611/19/10 14:20:31  5-MIN KMKG 191920Z 19018G30KT 9SM BKN023 OVC030 07/01 A2998 580 67 -200 200/18G30 RMK AO2 PK WND 20030/1914
14840KMKG MKG20101119142511911/19/10 14:25:31  5-MIN KMKG 191925Z 20016G29KT 9SM OVC023 07/01 A2998 580 67 -200 200/16G29 RMK AO2 PK WND 20030/1914
14840KMKG MKG20101119143011911/19/10 14:30:31  5-MIN KMKG 191930Z 19024G33KT 9SM OVC023 07/01 A2997 580 67 -200 190/24G33 RMK AO2 PK WND 17033/1929
14840KMKG MKG20101119143511911/19/10 14:35:31  5-MIN KMKG 191935Z 19023G33KT 9SM OVC023 07/01 A2997 580 67 -200 190/23G33 RMK AO2 PK WND 17033/1929
14840KMKG MKG20101119144011911/19/10 14:40:31  5-MIN KMKG 191940Z 20021G28KT 9SM OVC023 07/01 A2997 580 67 -200 210/21G28 RMK AO2 PK WND 17033/1929
14840KMKG MKG20101119144511911/19/10 14:45:31  5-MIN KMKG 191945Z 20021G30KT 8SM OVC023 07/01 A2997 580 67 -200 200/21G30 RMK AO2 PK WND 17033/1929
14840KMKG MKG20101119145013611/19/10 14:50:31  5-MIN KMKG 191950Z 20018G30KT 8SM OVC023 07/02 A2997 580 70 -200 210/18G30 RMK AO2 PK WND 17033/1929 SLP155 T00670017
14840KMKG MKG20101119145513611/19/10 14:55:31  5-MIN KMKG 191955Z 20020G27KT 8SM OVC023 07/01 A2998 580 67 -200 200/20G27 RMK AO2 PK WND 17033/1929 SLP157 T00670011
14840KMKG MKG20101119150011911/19/10 15:00:31  5-MIN KMKG 192000Z 21016G26KT 8SM OVC023 07/02 A2997 580 70 -200 210/16G26 RMK AO2 PK WND 20026/1956
14840KMKG MKG20101119150511911/19/10 15:05:31  5-MIN KMKG 192005Z 21019G29KT 8SM OVC023 07/02 A2997 580 70 -200 210/19G29 RMK AO2 PK WND 20029/2001
14840KMKG MKG20101119151012611/19/10 15:10:31  5-MIN KMKG 192010Z 20016G29KT 8SM BKN023 OVC035 07/02 A2997 590 70 -200 210/16G29 RMK AO2 PK WND 20029/2001
14840KMKG MKG20101119151512611/19/10 15:15:31  5-MIN KMKG 192015Z 21021G30KT 8SM BKN023 OVC033 07/02 A2997 580 70 -200 210/21G30 RMK AO2 PK WND 20030/2015
14840KMKG MKG20101119152014811/19/10 15:20:31  5-MIN KMKG 192020Z 20021G30KT 8SM SCT021 BKN026 OVC033 07/02 A2997 590 70 -200 210/21G30 RMK AO2 PK WND 20030/2015 CIG 021 RWY 14
14840KMKG MKG20101119152512611/19/10 15:25:31  5-MIN KMKG 192025Z 21019G27KT 8SM BKN023 OVC029 07/02 A2996 590 70 -200 210/19G27 RMK AO2 PK WND 20030/2015
14840KMKG MKG20101119153013311/19/10 15:30:31  5-MIN KMKG 192030Z 21016G29KT 8SM BKN023 BKN027 OVC033 07/02 A2996 590 70 -200 210/16G29 RMK AO2 PK WND 20030/2015
14840KMKG MKG20101119153512611/19/10 15:35:31  5-MIN KMKG 192035Z 20019G29KT 8SM BKN023 OVC029 07/02 A2997 590 70 -200 210/19G29 RMK AO2 PK WND 20030/2015
14840KMKG MKG20101119154012611/19/10 15:40:31  5-MIN KMKG 192040Z 21021G28KT 8SM BKN023 OVC029 07/02 A2997 590 70 -200 210/21G28 RMK AO2 PK WND 20030/2015
14840KMKG MKG20101119154512611/19/10 15:45:31  5-MIN KMKG 192045Z 21015G26KT 8SM SCT021 OVC027 07/02 A2996 590 70 -200 210/15G26 RMK AO2 PK WND 20030/2015
14840KMKG MKG20101119155014911/19/10 15:50:31  5-MIN KMKG 192050Z 20018G22KT 7SM BKN022 OVC028 07/02 A2997 590 73 -200 210/18G22 RMK AO2 PK WND 20030/2015 SLP154 T00670022 58034
14840KMKG MKG20101119155514911/19/10 15:55:31  5-MIN KMKG 192055Z 20018G24KT 7SM BKN022 OVC028 07/02 A2997 590 73 -200 210/18G24 RMK AO2 PK WND 20030/2015 SLP153 T00670022 56022
14840KMKG MKG20101119160012611/19/10 16:00:31  5-MIN KMKG 192100Z 21017G26KT 7SM BKN024 OVC028 07/02 A2996 590 70 -100 210/17G26 RMK AO2 PK WND 21026/2056
14840KMKG MKG20101119160513311/19/10 16:05:31  5-MIN KMKG 192105Z 21018G28KT 8SM FEW020 BKN027 OVC033 07/02 A2996 590 68 -100 210/18G28 RMK AO2 PK WND 22028/2102
14840KMKG MKG20101119161012611/19/10 16:10:31  5-MIN KMKG 192110Z 21020G28KT 8SM BKN023 OVC030 07/02 A2997 590 68 -100 220/20G28 RMK AO2 PK WND 22028/2102
14840KMKG MKG20101119161512611/19/10 16:15:31  5-MIN KMKG 192115Z 21015G26KT 8SM SCT023 OVC030 07/02 A2997 590 70 -100 210/15G26 RMK AO2 PK WND 22028/2102
14840KMKG MKG20101119162012611/19/10 16:20:31  5-MIN KMKG 192120Z 21017G25KT 8SM SCT023 OVC030 07/02 A2996 590 70 -100 210/17G25 RMK AO2 PK WND 22028/2102
14840KMKG MKG20101119162512611/19/10 16:25:31  5-MIN KMKG 192125Z 21019G25KT 8SM SCT025 OVC030 07/02 A2997 590 70 -100 210/19G25 RMK AO2 PK WND 22028/2102
14840KMKG MKG20101119163012611/19/10 16:30:31  5-MIN KMKG 192130Z 21017G26KT 8SM SCT025 OVC030 07/02 A2996 590 70 -100 210/17G26 RMK AO2 PK WND 22028/2102
14840KMKG MKG20101119163514111/19/10 16:35:31  5-MIN KMKG 192135Z 21014G26KT 8SM SCT025 OVC030 07/02 A2997 590 70 -100 210/14G26 RMK AO2 PK WND 22028/2102 CIG 025 RWY 14
14840KMKG MKG20101119164012611/19/10 16:40:31  5-MIN KMKG 192140Z 21019G27KT 8SM BKN025 OVC032 07/02 A2997 590 70 -100 220/19G27 RMK AO2 PK WND 22028/2102
14840KMKG MKG20101119164512611/19/10 16:45:31  5-MIN KMKG 192145Z 22018G27KT 8SM BKN025 OVC030 08/02 A2997 590 68 -100 220/18G27 RMK AO2 PK WND 22028/2102
14840KMKG MKG20101119165012011/19/10 16:50:31  5-MIN KMKG 192150Z 21015KT 8SM BKN025 OVC032 08/02 A2997 590 68 -100 210/15 RMK AO2 PK WND 22028/2102
14840KMKG MKG20101119165514311/19/10 16:55:31  5-MIN KMKG 192155Z 21014G23KT 8SM SCT025 OVC030 08/03 A2997 590 70 -100 210/14G23 RMK AO2 PK WND 22028/2102 SLP153 T00780028
14840KMKG MKG20101119170012311/19/10 17:00:31  5-MIN KMKG 192200Z 22018G27KT 8SM SCT025 OVC030 08/03 A2996 590 70 0 220/18G27 RMK AO2 PK WND 22027/2158
14840KMKG MKG20101119170512611/19/10 17:05:31  5-MIN KMKG 192205Z 21018G27KT 8SM BKN025 OVC032 08/03 A2997 590 70 -100 210/18G27 RMK AO2 PK WND 22027/2158
14840KMKG MKG20101119171013311/19/10 17:10:31  5-MIN KMKG 192210Z 21018G24KT 7SM SCT025 BKN030 OVC036 08/03 A2997 590 70 -100 210/18G24 RMK AO2 PK WND 22027/2158
14840KMKG MKG20101119171514111/19/10 17:15:31  5-MIN KMKG 192215Z 21018G25KT 8SM SCT025 OVC033 08/03 A2997 590 70 -100 220/18G25 RMK AO2 PK WND 22027/2158 CIG 028 RWY 14
14840KMKG MKG20101119172013811/19/10 17:20:31  5-MIN KMKG 192220Z 21017G25KT 9SM SCT025 OVC035 08/03 A2996 590 70 0 210/17G25 RMK AO2 PK WND 22027/2158 CIG 030 RWY 14
14840KMKG MKG20101119172512311/19/10 17:25:31  5-MIN KMKG 192225Z 21017G25KT 9SM FEW025 OVC035 08/03 A2997 590 68 0 220/17G25 RMK AO2 PK WND 22027/2158
14840KMKG MKG20101119173012311/19/10 17:30:31  5-MIN KMKG 192230Z 20015G26KT 9SM SCT027 OVC036 08/03 A2997 590 70 0 210/15G26 RMK AO2 PK WND 22027/2158
14840KMKG MKG20101119173512311/19/10 17:35:31  5-MIN KMKG 192235Z 22016G26KT 9SM SCT027 OVC036 08/03 A2997 590 70 0 220/16G26 RMK AO2 PK WND 22027/2158
14840KMKG MKG20101119174012511/19/10 17:40:31  5-MIN KMKG 192240Z 22020G26KT 9SM SCT027 OVC036 08/03 A2997 580 68 0 220/20G26 RMK AO2 PK WND 22027/2158 $
14840KMKG MKG20101119174512511/19/10 17:45:31  5-MIN KMKG 192245Z 21014G26KT 9SM FEW030 OVC036 09/03 A2997 580 68 0 220/14G26 RMK AO2 PK WND 22027/2158 $
14840KMKG MKG20101119175014211/19/10 17:50:31  5-MIN KMKG 192250Z 22018G23KT 9SM FEW026 OVC036 09/03 A2997 580 68 0 220/18G23 RMK AO2 PK WND 22027/2158 SLP154 T00890033 $
14840KMKG MKG20101119175514211/19/10 17:55:31  5-MIN KMKG 192255Z 22016G23KT 9SM FEW029 OVC036 09/03 A2997 590 68 0 230/16G23 RMK AO2 PK WND 22027/2158 SLP153 T00890033 $
14840KMKG MKG20101119180010111/19/10 18:00:31  5-MIN KMKG 192300Z 22017KT 9SM SCT029 OVC036 09/03 A2997 590 68 0 220/17 RMK AO2 $
14840KMKG MKG20101119180510711/19/10 18:05:31  5-MIN KMKG 192305Z 22019G24KT 9SM SCT029 OVC036 09/04 A2997 590 71 0 230/19G24 RMK AO2 $
14840KMKG MKG20101119181010911/19/10 18:10:31  5-MIN KMKG 192310Z 23019G25KT 9SM FEW029 OVC036 09/03 A2996 590 63 100 240/19G25 RMK AO2 $
14840KMKG MKG20101119181512611/19/10 18:15:31  5-MIN KMKG 192315Z 24017G27KT 10SM FEW029 OVC036 09/02 A2996 590 60 100 240/17G27 RMK AO2 PK WND 24027/2311
14840KMKG MKG20101119182012611/19/10 18:20:31  5-MIN KMKG 192320Z 23015G27KT 10SM FEW029 OVC036 09/02 A2996 590 60 100 230/15G27 RMK AO2 PK WND 24027/2311
14840KMKG MKG20101119182511911/19/10 18:25:31  5-MIN KMKG 192325Z 24014G23KT 10SM OVC036 09/03 A2997 590 63 100 240/14G23 RMK AO2 PK WND 24027/2311
14840KMKG MKG20101119183011911/19/10 18:30:31  5-MIN KMKG 192330Z 24013G22KT 10SM OVC036 09/03 A2997 580 63 100 240/13G22 RMK AO2 PK WND 24027/2311
14840KMKG MKG20101119183511911/19/10 18:35:31  5-MIN KMKG 192335Z 25013G20KT 10SM OVC036 09/03 A2997 590 63 100 250/13G20 RMK AO2 PK WND 24027/2311
14840KMKG MKG20101119184011911/19/10 18:40:31  5-MIN KMKG 192340Z 25013G20KT 10SM OVC036 09/02 A2997 580 60 100 250/13G20 RMK AO2 PK WND 24027/2311
14840KMKG MKG20101119184511911/19/10 18:45:31  5-MIN KMKG 192345Z 24015G19KT 10SM OVC036 09/02 A2998 580 60 100 250/15G19 RMK AO2 PK WND 24027/2311
14840KMKG MKG20101119185015411/19/10 18:50:31  5-MIN KMKG 192350Z 25011G19KT 10SM OVC036 09/02 A2998 580 60 100 260/11G19 RMK AO2 PK WND 24027/2311 SLP155 T00940022 10094 20056 56022
14840KMKG MKG20101119185515411/19/10 18:55:31  5-MIN KMKG 192355Z 26011G20KT 10SM OVC036 09/03 A2998 580 63 100 260/11G20 RMK AO2 PK WND 24027/2311 SLP156 T00940028 10094 20056 53004
14840KMKG MKG20101119190010111/19/10 19:00:31  5-MIN KMKG 200000Z 28016G23KT 10SM OVC034 09/03 A2998 570 63 100 280/16G23 RMK AO2
14840KMKG MKG20101119190509911/19/10 19:05:31  5-MIN KMKG 200005Z 28015G23KT 10SM OVC034 09/03 A2998 570 68 0 290/15G23 RMK AO2
14840KMKG MKG20101119191009911/19/10 19:10:31  5-MIN KMKG 200010Z 28016G23KT 10SM OVC034 08/03 A2999 570 70 0 290/16G23 RMK AO2
14840KMKG MKG20101119191510511/19/10 19:15:31  5-MIN KMKG 200015Z 29015G23KT 9SM BKN034 OVC042 08/03 A2999 570 70 0 290/15G23 RMK AO2
14840KMKG MKG20101119192010511/19/10 19:20:31  5-MIN KMKG 200020Z 29012G20KT 9SM BKN034 OVC042 08/03 A2999 570 70 0 290/12G20 RMK AO2
14840KMKG MKG20101119192510511/19/10 19:25:31  5-MIN KMKG 200025Z 29010G18KT 9SM SCT034 OVC044 08/03 A2999 570 68 0 290/10G18 RMK AO2
14840KMKG MKG20101119193010211/19/10 19:30:31  5-MIN KMKG 200030Z 28010KT 9SM FEW035 OVC044 08/03 A2999 570 70 -100 290/10 RMK AO2
14840KMKG MKG20101119193509211/19/10 19:35:31  5-MIN KMKG 200035Z 28010KT 9SM OVC042 08/03 A2999 570 68 0 280/10 RMK AO2
14840KMKG MKG20101119194009511/19/10 19:40:31  5-MIN KMKG 200040Z 28009KT 9SM OVC044 08/02 A2999 570 68 -100 290/09 RMK AO2
14840KMKG MKG20101119194509511/19/10 19:45:31  5-MIN KMKG 200045Z 27010KT 9SM OVC044 08/03 A2999 570 70 -100 270/10 RMK AO2
14840KMKG MKG20101119195011811/19/10 19:50:31  5-MIN KMKG 200050Z 28011G16KT 9SM OVC042 08/02 A2999 570 68 -100 280/11G16 RMK AO2 SLP160 T00780022
14840KMKG MKG20101119195511211/19/10 19:55:31  5-MIN KMKG 200055Z 28011KT 9SM OVC042 08/02 A2999 570 68 -100 280/11 RMK AO2 SLP160 T00780022
14840KMKG MKG20101119200009511/19/10 20:00:31  5-MIN KMKG 200100Z 28011KT 9SM OVC042 08/03 A2999 570 70 -100 280/11 RMK AO2
14840KMKG MKG20101119200509511/19/10 20:05:31  5-MIN KMKG 200105Z 28013KT 9SM OVC040 08/03 A3000 560 70 -100 280/13 RMK AO2
14840KMKG MKG20101119201009511/19/10 20:10:31  5-MIN KMKG 200110Z 28012KT 9SM OVC040 08/03 A3000 560 70 -100 280/12 RMK AO2
14840KMKG MKG20101119201510211/19/10 20:15:31  5-MIN KMKG 200115Z 28011KT 9SM FEW029 OVC040 08/03 A3000 560 70 -100 280/11 RMK AO2
14840KMKG MKG20101119202010911/19/10 20:20:31  5-MIN KMKG 200120Z 27010KT 9SM FEW025 SCT030 OVC040 08/03 A2999 560 70 -100 280/10 RMK AO2
14840KMKG MKG20101119202511211/19/10 20:25:31  5-MIN KMKG 200125Z 28015G21KT 9SM SCT025 BKN030 OVC040 08/03 A3000 560 68 0 280/15G21 RMK AO2
14840KMKG MKG20101119203011511/19/10 20:30:31  5-MIN KMKG 200130Z 28010G21KT 9SM SCT025 BKN030 OVC040 08/03 A2999 560 70 -100 280/10G21 RMK AO2
14840KMKG MKG20101119203511511/19/10 20:35:31  5-MIN KMKG 200135Z 28013G18KT 9SM SCT025 BKN030 OVC038 08/03 A3000 560 70 -100 280/13G18 RMK AO2
14840KMKG MKG20101119204010111/19/10 20:40:31  5-MIN KMKG 200140Z 27014G18KT 9SM OVC027 08/03 A3000 560 70 -100 280/14G18 RMK AO2
14840KMKG MKG20101119204510211/19/10 20:45:31  5-MIN KMKG 200145Z 28012KT 9SM BKN025 OVC030 08/03 A3000 560 70 -100 290/12 RMK AO2
14840KMKG MKG20101119205011211/19/10 20:50:31  5-MIN KMKG 200150Z 28012KT 9SM OVC027 08/03 A3000 560 70 -100 290/12 RMK AO2 SLP162 T00780028
14840KMKG MKG20101119205511911/19/10 20:55:31  5-MIN KMKG 200155Z 28011KT 9SM BKN025 OVC030 08/03 A2999 560 70 -100 290/11 RMK AO2 SLP161 T00780028
14840KMKG MKG20101119210009511/19/10 21:00:31  5-MIN KMKG 200200Z 29009KT 8SM OVC028 08/03 A3000 560 70 -100 290/09 RMK AO2
14840KMKG MKG20101119210510211/19/10 21:05:31  5-MIN KMKG 200205Z 28010KT 8SM BKN025 OVC030 08/03 A3000 560 70 -100 280/10 RMK AO2
14840KMKG MKG20101119211010811/19/10 21:10:31  5-MIN KMKG 200210Z 28012G17KT 8SM BKN025 OVC030 08/03 A3000 550 70 -100 290/12G17 RMK AO2
14840KMKG MKG20101119211511511/19/10 21:15:31  5-MIN KMKG 200215Z 29012G17KT 8SM FEW021 BKN028 OVC035 08/03 A3001 550 70 -100 290/12G17 RMK AO2
14840KMKG MKG20101119212011511/19/10 21:20:31  5-MIN KMKG 200220Z 28010G17KT 8SM FEW021 BKN028 OVC035 08/03 A3001 550 70 -100 280/10G17 RMK AO2
14840KMKG MKG20101119212513011/19/10 21:25:31  5-MIN KMKG 200225Z 28012G19KT 8SM SCT021 SCT026 OVC032 08/03 A3001 550 70 -100 280/12G19 RMK AO2 CIG 023 RWY 14
14840KMKG MKG20101119213013011/19/10 21:30:31  5-MIN KMKG 200230Z 28008G19KT 8SM SCT021 BKN028 OVC035 08/03 A3001 550 70 -100 280/08G19 RMK AO2 CIG 023 RWY 14
14840KMKG MKG20101119213510811/19/10 21:35:31  5-MIN KMKG 200235Z 29013G19KT 8SM BKN021 OVC030 08/03 A3002 540 70 -100 290/13G19 RMK AO2
14840KMKG MKG20101119214010811/19/10 21:40:31  5-MIN KMKG 200240Z 28013G19KT 8SM BKN024 OVC030 08/03 A3002 540 70 -100 280/13G19 RMK AO2
14840KMKG MKG20101119214511511/19/10 21:45:31  5-MIN KMKG 200245Z 28014G18KT 8SM BKN024 BKN029 OVC033 08/02 A3001 540 68 -100 280/14G18 RMK AO2
14840KMKG MKG20101119215015311/19/10 21:50:31  5-MIN KMKG 200250Z 28014G20KT 9SM SCT022 BKN029 OVC033 08/02 A3001 540 68 -100 280/14G20 RMK AO2 CIG 023 RWY 14 SLP169 T00780022 53004
14840KMKG MKG20101119215513111/19/10 21:55:31  5-MIN KMKG 200255Z 28014G20KT 9SM BKN024 OVC033 08/02 A3002 540 68 -100 290/14G20 RMK AO2 SLP169 T00780022 53013
14840KMKG MKG20101119220010811/19/10 22:00:31  5-MIN KMKG 200300Z 29011G20KT 9SM SCT024 OVC033 08/02 A3001 550 68 -100 290/11G20 RMK AO2
14840KMKG MKG20101119220510211/19/10 22:05:31  5-MIN KMKG 200305Z 28012KT 9SM SCT024 OVC033 07/02 A3002 540 70 -200 290/12 RMK AO2
14840KMKG MKG20101119221010811/19/10 22:10:31  5-MIN KMKG 200310Z 28016G19KT 9SM FEW024 OVC033 07/02 A3002 540 70 -200 280/16G19 RMK AO2
14840KMKG MKG20101119221510811/19/10 22:15:31  5-MIN KMKG 200315Z 28009G19KT 9SM FEW024 OVC033 08/02 A3002 540 65 -100 280/09G19 RMK AO2
14840KMKG MKG20101119222010811/19/10 22:20:31  5-MIN KMKG 200320Z 28011G16KT 9SM SCT026 OVC031 07/02 A3002 540 68 -200 290/11G16 RMK AO2
14840KMKG MKG20101119222510111/19/10 22:25:31  5-MIN KMKG 200325Z 27011G18KT 9SM OVC029 07/02 A3002 540 68 -200 280/11G18 RMK AO2
14840KMKG MKG20101119223009511/19/10 22:30:31  5-MIN KMKG 200330Z 29013KT 9SM OVC029 07/02 A3002 540 68 -200 290/13 RMK AO2
14840KMKG MKG20101119223509511/19/10 22:35:31  5-MIN KMKG 200335Z 28013KT 9SM OVC029 07/02 A3002 540 68 -200 290/13 RMK AO2
14840KMKG MKG20101119224010111/19/10 22:40:31  5-MIN KMKG 200340Z 28009G18KT 9SM OVC029 07/02 A3002 540 68 -200 290/09G18 RMK AO2
14840KMKG MKG20101119224510111/19/10 22:45:31  5-MIN KMKG 200345Z 29012G17KT 9SM OVC029 07/02 A3003 530 68 -200 290/12G17 RMK AO2
14840KMKG MKG20101119225011811/19/10 22:50:31  5-MIN KMKG 200350Z 29009G17KT 9SM OVC029 07/02 A3003 530 68 -200 290/09G17 RMK AO2 SLP173 T00720017
14840KMKG MKG20101119225512511/19/10 22:55:31  5-MIN KMKG 200355Z 28010G17KT 9SM FEW024 OVC031 07/02 A3003 530 68 -200 290/10G17 RMK AO2 SLP174 T00720017
14840KMKG MKG20101119230010111/19/10 23:00:31  5-MIN KMKG 200400Z 29011G20KT 9SM OVC031 07/01 A3003 520 65 -200 300/11G20 RMK AO2
14840KMKG MKG20101119230510111/19/10 23:05:31  5-MIN KMKG 200405Z 28012G20KT 9SM OVC029 07/01 A3003 530 65 -200 290/12G20 RMK AO2
14840KMKG MKG20101119231010111/19/10 23:10:31  5-MIN KMKG 200410Z 28011G17KT 9SM OVC029 07/02 A3004 520 68 -200 280/11G17 RMK AO2
14840KMKG MKG20101119231510111/19/10 23:15:31  5-MIN KMKG 200415Z 29011G17KT 9SM OVC029 07/01 A3004 520 65 -200 290/11G17 RMK AO2
14840KMKG MKG20101119232010111/19/10 23:20:31  5-MIN KMKG 200420Z 30013G20KT 9SM OVC029 07/01 A3004 520 65 -200 300/13G20 RMK AO2
14840KMKG MKG20101119232510111/19/10 23:25:31  5-MIN KMKG 200425Z 29012G20KT 9SM OVC029 07/01 A3004 520 65 -200 300/12G20 RMK AO2
14840KMKG MKG20101119233009511/19/10 23:30:31  5-MIN KMKG 200430Z 28011KT 9SM OVC029 07/01 A3005 510 65 -200 290/11 RMK AO2
14840KMKG MKG20101119233509511/19/10 23:35:31  5-MIN KMKG 200435Z 29012KT 9SM OVC029 07/01 A3005 510 65 -200 300/12 RMK AO2
14840KMKG MKG20101119234010211/19/10 23:40:31  5-MIN KMKG 200440Z 29012KT 9SM BKN029 OVC033 07/01 A3005 510 65 -200 290/12 RMK AO2
14840KMKG MKG20101119234509511/19/10 23:45:31  5-MIN KMKG 200445Z 29011KT 9SM OVC029 07/01 A3005 510 65 -200 290/11 RMK AO2
14840KMKG MKG20101119235012811/19/10 23:50:31  5-MIN KMKG 200450Z 29009G17KT 8SM OVC029 07/01 A3005 510 67 -300 300/09G17 RMK AO2 SLP182 T00670011 400940000
14840KMKG MKG20101119235512811/19/10 23:55:31  5-MIN KMKG 200455Z 28011G17KT 9SM OVC029 07/01 A3006 500 67 -300 290/11G17 RMK AO2 SLP183 T00670011 400940000
14840KMKG MKG20101120000010111/20/10 00:00:32  5-MIN KMKG 200500Z 29011G18KT 9SM OVC029 07/01 A3006 500 65 -200 300/11G18 RMK AO2
14840KMKG MKG20101120000510111/20/10 00:05:31  5-MIN KMKG 200505Z 29010G18KT 9SM OVC029 07/01 A3006 500 67 -300 290/10G18 RMK AO2
14840KMKG MKG20101120001009511/20/10 00:10:31  5-MIN KMKG 200510Z 30009KT 9SM OVC029 07/01 A3007 500 67 -300 300/09 RMK AO2
14840KMKG MKG20101120001509511/20/10 00:15:31  5-MIN KMKG 200515Z 30009KT 9SM OVC029 07/01 A3006 500 67 -300 310/09 RMK AO2
14840KMKG MKG20101120002009511/20/10 00:20:31  5-MIN KMKG 200520Z 29010KT 9SM OVC029 07/01 A3007 490 67 -300 290/10 RMK AO2
14840KMKG MKG20101120002509511/20/10 00:25:31  5-MIN KMKG 200525Z 29011KT 9SM OVC029 07/01 A3007 490 67 -300 290/11 RMK AO2
14840KMKG MKG20101120003009511/20/10 00:30:31  5-MIN KMKG 200530Z 29011KT 9SM OVC029 07/01 A3007 490 67 -300 300/11 RMK AO2
14840KMKG MKG20101120003509511/20/10 00:35:31  5-MIN KMKG 200535Z 29009KT 9SM OVC029 07/01 A3007 490 67 -300 300/09 RMK AO2
14840KMKG MKG20101120004009511/20/10 00:40:31  5-MIN KMKG 200540Z 29008KT 9SM BKN029 07/01 A3007 490 67 -300 290/08 RMK AO2
14840KMKG MKG20101120004509511/20/10 00:45:31  5-MIN KMKG 200545Z 30009KT 9SM BKN027 07/01 A3008 490 67 -300 300/09 RMK AO2
14840KMKG MKG20101120005013011/20/10 00:50:31  5-MIN KMKG 200550Z 29009KT 9SM BKN027 07/01 A3007 490 67 -300 300/09 RMK AO2 SLP189 T00670011 10094 20067 53013
14840KMKG MKG20101120005513611/20/10 00:55:31  5-MIN KMKG 200555Z 29011G16KT 9SM BKN027 07/01 A3008 490 67 -300 290/11G16 RMK AO2 SLP189 T00670011 10094 20067 53020
14840KMKG MKG20101120010009611/20/10 01:00:31  5-MIN KMKG 200600Z 29008KT 10SM BKN027 07/01 A3008 480 67 -300 290/08 RMK AO2
14840KMKG MKG20101120010509611/20/10 01:05:31  5-MIN KMKG 200605Z 30007KT 10SM BKN027 06/01 A3008 480 67 -400 300/07 RMK AO2
14840KMKG MKG20101120011010211/20/10 01:10:31  5-MIN KMKG 200610Z 29011G15KT 10SM BKN027 07/01 A3008 480 65 -300 300/11G15 RMK AO2
14840KMKG MKG20101120011510211/20/10 01:15:31  5-MIN KMKG 200615Z 29011G19KT 10SM BKN027 07/01 A3008 480 65 -300 290/11G19 RMK AO2
14840KMKG MKG20101120012010211/20/10 01:20:31  5-MIN KMKG 200620Z 30009G19KT 10SM OVC027 06/01 A3009 480 67 -400 300/09G19 RMK AO2
14840KMKG MKG20101120012509611/20/10 01:25:31  5-MIN KMKG 200625Z 29007KT 10SM OVC027 06/01 A3009 480 67 -400 290/07 RMK AO2
14840KMKG MKG20101120013009611/20/10 01:30:31  5-MIN KMKG 200630Z 29010KT 10SM OVC027 06/01 A3009 480 67 -400 290/10 RMK AO2
14840KMKG MKG20101120013509611/20/10 01:35:31  5-MIN KMKG 200635Z 29009KT 10SM OVC027 06/01 A3009 480 67 -400 290/09 RMK AO2
14840KMKG MKG20101120014009611/20/10 01:40:31  5-MIN KMKG 200640Z 30010KT 10SM OVC027 06/01 A3009 470 67 -400 300/10 RMK AO2
14840KMKG MKG20101120014509611/20/10 01:45:31  5-MIN KMKG 200645Z 30009KT 10SM OVC027 06/01 A3009 470 67 -400 300/09 RMK AO2
14840KMKG MKG20101120015011311/20/10 01:50:31  5-MIN KMKG 200650Z 30009KT 10SM BKN027 06/01 A3009 470 67 -400 300/09 RMK AO2 SLP194 T00610006
14840KMKG MKG20101120015511911/20/10 01:55:31  5-MIN KMKG 200655Z 29012G16KT 10SM BKN027 06/01 A3009 470 67 -400 290/12G16 RMK AO2 SLP195 T00610006
14840KMKG MKG20101120020010211/20/10 02:00:31  5-MIN KMKG 200700Z 29009G16KT 10SM BKN027 06/01 A3009 470 67 -400 300/09G16 RMK AO2
14840KMKG MKG20101120020510211/20/10 02:05:31  5-MIN KMKG 200705Z 30011G16KT 10SM BKN027 06/01 A3009 470 67 -400 300/11G16 RMK AO2
14840KMKG MKG20101120021009611/20/10 02:10:31  5-MIN KMKG 200710Z 30008KT 10SM BKN027 06/01 A3009 470 67 -400 300/08 RMK AO2
14840KMKG MKG20101120021509611/20/10 02:15:31  5-MIN KMKG 200715Z 30010KT 10SM BKN027 06/01 A3010 470 67 -400 310/10 RMK AO2
14840KMKG MKG20101120022009611/20/10 02:20:31  5-MIN KMKG 200720Z 30008KT 10SM SCT027 06/01 A3010 470 67 -400 300/08 RMK AO2
14840KMKG MKG20101120022509611/20/10 02:25:31  5-MIN KMKG 200725Z 29009KT 10SM BKN025 06/01 A3010 470 67 -400 300/09 RMK AO2
14840KMKG MKG20101120023009611/20/10 02:30:31  5-MIN KMKG 200730Z 30008KT 10SM BKN025 06/01 A3010 470 67 -400 310/08 RMK AO2
14840KMKG MKG20101120023509611/20/10 02:35:31  5-MIN KMKG 200735Z 30009KT 10SM BKN025 06/01 A3010 470 67 -400 300/09 RMK AO2
14840KMKG MKG20101120024010211/20/10 02:40:31  5-MIN KMKG 200740Z 29008G16KT 10SM BKN025 06/01 A3010 470 67 -400 300/08G16 RMK AO2
14840KMKG MKG20101120024510211/20/10 02:45:31  5-MIN KMKG 200745Z 30007G16KT 10SM BKN025 06/01 A3010 460 70 -500 300/07G16 RMK AO2
14840KMKG MKG20101120025011311/20/10 02:50:31  5-MIN KMKG 200750Z 31007KT 10SM BKN025 06/01 A3010 460 70 -500 310/07 RMK AO2 SLP199 T00560006
14840KMKG MKG20101120025511311/20/10 02:55:31  5-MIN KMKG 200755Z 30008KT 10SM BKN025 06/01 A3011 460 70 -500 300/08 RMK AO2 SLP199 T00560006
14840KMKG MKG20101120030009611/20/10 03:00:31  5-MIN KMKG 200800Z 30009KT 10SM BKN025 06/00 A3011 460 67 -500 300/09 RMK AO2
14840KMKG MKG20101120030509611/20/10 03:05:31  5-MIN KMKG 200805Z 31006KT 10SM SCT025 06/00 A3011 450 67 -500 310/06 RMK AO2
14840KMKG MKG20101120031009611/20/10 03:10:31  5-MIN KMKG 200810Z 31008KT 10SM SCT025 06/01 A3011 450 70 -500 310/08 RMK AO2
14840KMKG MKG20101120031509611/20/10 03:15:31  5-MIN KMKG 200815Z 30008KT 10SM SCT025 06/01 A3011 450 70 -500 300/08 RMK AO2
14840KMKG MKG20101120032009611/20/10 03:20:31  5-MIN KMKG 200820Z 30006KT 10SM SCT025 06/01 A3011 450 70 -500 300/06 RMK AO2
14840KMKG MKG20101120032509611/20/10 03:25:31  5-MIN KMKG 200825Z 31007KT 10SM SCT025 06/01 A3011 450 70 -500 310/07 RMK AO2
14840KMKG MKG20101120033009611/20/10 03:30:31  5-MIN KMKG 200830Z 30007KT 10SM SCT025 06/01 A3011 450 70 -500 300/07 RMK AO2
14840KMKG MKG20101120033509611/20/10 03:35:31  5-MIN KMKG 200835Z 30006KT 10SM SCT023 06/01 A3011 450 70 -500 300/06 RMK AO2
14840KMKG MKG20101120034009611/20/10 03:40:31  5-MIN KMKG 200840Z 30004KT 10SM SCT023 05/01 A3011 450 73 -600 310/04 RMK AO2
14840KMKG MKG20101120034509611/20/10 03:45:31  5-MIN KMKG 200845Z 31007KT 10SM FEW023 06/01 A3012 450 70 -500 310/07 RMK AO2
14840KMKG MKG20101120035012511/20/10 03:50:31  5-MIN KMKG 200850Z 32010G15KT 10SM FEW023 06/01 A3012 450 70 -500 320/10G15 RMK AO2 SLP204 T00560006 53020
14840KMKG MKG20101120035512511/20/10 03:55:31  5-MIN KMKG 200855Z 31008G15KT 10SM FEW023 05/01 A3012 450 73 -600 310/08G15 RMK AO2 SLP203 T00500006 51014
14840KMKG MKG20101120040009311/20/10 04:00:31  5-MIN KMKG 200900Z 31006KT 10SM CLR 06/01 A3012 450 70 -500 310/06 RMK AO2
14840KMKG MKG20101120040509311/20/10 04:05:31  5-MIN KMKG 200905Z 31007KT 10SM CLR 05/01 A3012 450 73 -600 320/07 RMK AO2
14840KMKG MKG20101120041009311/20/10 04:10:31  5-MIN KMKG 200910Z 31009KT 10SM CLR 05/00 A3012 450 70 -600 310/09 RMK AO2
14840KMKG MKG20101120041509311/20/10 04:15:31  5-MIN KMKG 200915Z 32011KT 10SM CLR 05/00 A3012 440 70 -600 320/11 RMK AO2
14840KMKG MKG20101120042009311/20/10 04:20:31  5-MIN KMKG 200920Z 32008KT 10SM CLR 05/00 A3012 440 70 -600 320/08 RMK AO2
14840KMKG MKG20101120042509311/20/10 04:25:31  5-MIN KMKG 200925Z 32008KT 10SM CLR 05/00 A3013 440 70 -600 320/08 RMK AO2
14840KMKG MKG20101120043009411/20/10 04:30:31  5-MIN KMKG 200930Z 32012KT 10SM CLR 05/M01 A3013 440 67 -600 320/12 RMK AO2
14840KMKG MKG20101120043510011/20/10 04:35:31  5-MIN KMKG 200935Z 32010G17KT 10SM CLR 05/M01 A3013 440 64 -600 320/10G17 RMK AO2
14840KMKG MKG20101120044010011/20/10 04:40:31  5-MIN KMKG 200940Z 32009G17KT 10SM CLR 05/M01 A3013 430 64 -600 320/09G17 RMK AO2
14840KMKG MKG20101120044509411/20/10 04:45:31  5-MIN KMKG 200945Z 32009KT 10SM CLR 05/M02 A3013 430 62 -600 320/09 RMK AO2
14840KMKG MKG20101120045011711/20/10 04:50:31  5-MIN KMKG 200950Z 32008G15KT 10SM CLR 04/M02 A3014 430 64 -700 320/08G15 RMK AO2 SLP210 T00441017
14840KMKG MKG20101120045511111/20/10 04:55:31  5-MIN KMKG 200955Z 33008KT 10SM CLR 04/M02 A3014 430 67 -700 330/08 RMK AO2 SLP211 T00391017
14840KMKG MKG20101120050009411/20/10 05:00:31  5-MIN KMKG 201000Z 33011KT 10SM CLR 04/M02 A3014 430 62 -700 330/11 RMK AO2
14840KMKG MKG20101120050509411/20/10 05:05:31  5-MIN KMKG 201005Z 33008KT 10SM CLR 04/M03 A3015 420 59 -700 330/08 RMK AO2
14840KMKG MKG20101120051009411/20/10 05:10:31  5-MIN KMKG 201010Z 33009KT 10SM CLR 04/M03 A3015 420 62 -700 340/09 RMK AO2
14840KMKG MKG20101120051509411/20/10 05:15:31  5-MIN KMKG 201015Z 33011KT 10SM CLR 04/M03 A3016 410 59 -700 340/11 RMK AO2
14840KMKG MKG20101120052009411/20/10 05:20:31  5-MIN KMKG 201020Z 33011KT 10SM CLR 04/M03 A3016 410 59 -700 330/11 RMK AO2
14840KMKG MKG20101120052509411/20/10 05:25:31  5-MIN KMKG 201025Z 33010KT 10SM CLR 04/M03 A3016 410 59 -700 330/10 RMK AO2
14840KMKG MKG20101120053009411/20/10 05:30:31  5-MIN KMKG 201030Z 33009KT 10SM CLR 04/M03 A3016 410 59 -700 330/09 RMK AO2
14840KMKG MKG20101120053509411/20/10 05:35:31  5-MIN KMKG 201035Z 33009KT 10SM CLR 04/M03 A3016 410 59 -700 340/09 RMK AO2
14840KMKG MKG20101120054009411/20/10 05:40:31  5-MIN KMKG 201040Z 34011KT 10SM CLR 03/M03 A3016 410 61 -800 340/11 RMK AO2
14840KMKG MKG20101120054509411/20/10 05:45:31  5-MIN KMKG 201045Z 34009KT 10SM CLR 03/M03 A3016 410 61 -800 350/09 RMK AO2
14840KMKG MKG20101120055011111/20/10 05:50:31  5-MIN KMKG 201050Z 34009KT 10SM CLR 03/M03 A3017 400 61 -800 350/09 RMK AO2 SLP221 T00331033
14840KMKG MKG20101120055511111/20/10 05:55:31  5-MIN KMKG 201055Z 34007KT 10SM CLR 03/M03 A3017 400 61 -800 340/07 RMK AO2 SLP221 T00331033
14840KMKG MKG20101120060009411/20/10 06:00:31  5-MIN KMKG 201100Z 34008KT 10SM CLR 03/M03 A3017 400 61 -800 340/08 RMK AO2
14840KMKG MKG20101120060509411/20/10 06:05:31  5-MIN KMKG 201105Z 34007KT 10SM CLR 03/M03 A3017 400 61 -800 340/07 RMK AO2
14840KMKG MKG20101120061009411/20/10 06:10:31  5-MIN KMKG 201110Z 34007KT 10SM CLR 03/M03 A3017 400 64 -900 350/07 RMK AO2
14840KMKG MKG20101120061509411/20/10 06:15:31  5-MIN KMKG 201115Z 33007KT 10SM CLR 03/M03 A3017 400 64 -900 340/07 RMK AO2
14840KMKG MKG20101120062009411/20/10 06:20:31  5-MIN KMKG 201120Z 34007KT 10SM CLR 03/M03 A3018 390 64 -900 350/07 RMK AO2
14840KMKG MKG20101120062509411/20/10 06:25:31  5-MIN KMKG 201125Z 34008KT 10SM CLR 03/M03 A3018 390 67 -900 340/08 RMK AO2
14840KMKG MKG20101120063009511/20/10 06:30:31  5-MIN KMKG 201130Z 34006KT 10SM CLR 02/M03 A3018 390 69 -1000 340/06 RMK AO2
14840KMKG MKG20101120063509511/20/10 06:35:31  5-MIN KMKG 201135Z 34008KT 10SM CLR 02/M03 A3018 390 67 -1000 340/08 RMK AO2
14840KMKG MKG20101120064009411/20/10 06:40:31  5-MIN KMKG 201140Z 34007KT 10SM CLR 03/M03 A3018 390 67 -900 340/07 RMK AO2
14840KMKG MKG20101120064509511/20/10 06:45:31  5-MIN KMKG 201145Z 35006KT 10SM CLR 02/M03 A3019 380 69 -1000 360/06 RMK AO2
14840KMKG MKG20101120065013011/20/10 06:50:31  5-MIN KMKG 201150Z 34007KT 10SM CLR 02/M03 A3019 380 69 -1000 350/07 RMK AO2 SLP228 T00221028 10067 20022 51014
14840KMKG MKG20101120065513011/20/10 06:55:31  5-MIN KMKG 201155Z 33007KT 10SM CLR 02/M03 A3019 380 69 -1000 340/07 RMK AO2 SLP228 T00221028 10067 20022 51024
14840KMKG MKG20101120070009511/20/10 07:00:31  5-MIN KMKG 201200Z 34008KT 10SM CLR 02/M03 A3019 380 69 -1000 340/08 RMK AO2
14840KMKG MKG20101120070509511/20/10 07:05:31  5-MIN KMKG 201205Z 34007KT 10SM CLR 02/M03 A3020 380 69 -1000 340/07 RMK AO2
14840KMKG MKG20101120071009511/20/10 07:10:31  5-MIN KMKG 201210Z 34006KT 10SM CLR 02/M03 A3019 380 69 -1000 350/06 RMK AO2
14840KMKG MKG20101120071509511/20/10 07:15:31  5-MIN KMKG 201215Z 35005KT 10SM CLR 02/M03 A3020 380 69 -1000 350/05 RMK AO2
14840KMKG MKG20101120072009511/20/10 07:20:31  5-MIN KMKG 201220Z 35006KT 10SM CLR 02/M03 A3020 370 69 -1000 350/06 RMK AO2
14840KMKG MKG20101120072509511/20/10 07:25:31  5-MIN KMKG 201225Z 34006KT 10SM CLR 02/M03 A3020 370 72 -1100 340/06 RMK AO2
14840KMKG MKG20101120073009511/20/10 07:30:31  5-MIN KMKG 201230Z 34008KT 10SM CLR 02/M03 A3020 370 69 -1100 350/08 RMK AO2
14840KMKG MKG20101120073509511/20/10 07:35:31  5-MIN KMKG 201235Z 34007KT 10SM CLR 02/M03 A3020 370 69 -1100 340/07 RMK AO2
14840KMKG MKG20101120074009511/20/10 07:40:31  5-MIN KMKG 201240Z 33006KT 10SM CLR 02/M03 A3021 370 67 -1000 340/06 RMK AO2
14840KMKG MKG20101120074509511/20/10 07:45:31  5-MIN KMKG 201245Z 34008KT 10SM CLR 02/M04 A3021 360 64 -1000 350/08 RMK AO2
14840KMKG MKG20101120075011211/20/10 07:50:31  5-MIN KMKG 201250Z 34008KT 10SM CLR 02/M04 A3021 360 64 -1000 340/08 RMK AO2 SLP235 T00221039
14840KMKG MKG20101120075511211/20/10 07:55:31  5-MIN KMKG 201255Z 34008KT 10SM CLR 02/M04 A3021 360 61 -1000 350/08 RMK AO2 SLP236 T00221044
14840KMKG MKG20101120080009511/20/10 08:00:31  5-MIN KMKG 201300Z 34006KT 10SM CLR 02/M04 A3022 360 61 -1000 340/06 RMK AO2
14840KMKG MKG20101120080509511/20/10 08:05:31  5-MIN KMKG 201305Z 34008KT 10SM CLR 02/M04 A3022 350 61 -1000 340/08 RMK AO2
14840KMKG MKG20101120081009511/20/10 08:10:31  5-MIN KMKG 201310Z 35010KT 10SM CLR 02/M04 A3023 350 61 -1000 350/10 RMK AO2
14840KMKG MKG20101120081509511/20/10 08:15:31  5-MIN KMKG 201315Z 33007KT 10SM CLR 02/M05 A3023 350 59 -1000 340/07 RMK AO2
14840KMKG MKG20101120082009511/20/10 08:20:31  5-MIN KMKG 201320Z 34008KT 10SM CLR 02/M05 A3023 340 59 -1000 340/08 RMK AO2
14840KMKG MKG20101120082509511/20/10 08:25:31  5-MIN KMKG 201325Z 34009KT 10SM CLR 02/M05 A3024 340 59 -1000 350/09 RMK AO2
14840KMKG MKG20101120083009511/20/10 08:30:31  5-MIN KMKG 201330Z 33007KT 10SM CLR 02/M05 A3024 340 59 -1000 340/07 RMK AO2
14840KMKG MKG20101120083509511/20/10 08:35:31  5-MIN KMKG 201335Z 34008KT 10SM CLR 02/M05 A3024 330 59 -1000 350/08 RMK AO2
14840KMKG MKG20101120084009511/20/10 08:40:31  5-MIN KMKG 201340Z 34005KT 10SM CLR 03/M05 A3025 330 56 -1000 340/05 RMK AO2
14840KMKG MKG20101120084509511/20/10 08:45:31  5-MIN KMKG 201345Z 33006KT 10SM CLR 03/M04 A3025 330 59 -1000 340/06 RMK AO2
14840KMKG MKG20101120085011211/20/10 08:50:31  5-MIN KMKG 201350Z 34007KT 10SM CLR 03/M05 A3025 330 56 -1000 340/07 RMK AO2 SLP247 T00281050
14840KMKG MKG20101120085511111/20/10 08:55:31  5-MIN KMKG 201355Z 33005KT 10SM CLR 03/M04 A3025 330 57 -900 340/05 RMK AO2 SLP249 T00331044
14840KMKG MKG20101120090009411/20/10 09:00:31  5-MIN KMKG 201400Z 34005KT 10SM CLR 03/M05 A3025 320 54 -900 340/05 RMK AO2
14840KMKG MKG20101120090509411/20/10 09:05:31  5-MIN KMKG 201405Z 35007KT 10SM CLR 03/M04 A3026 320 57 -900 350/07 RMK AO2
14840KMKG MKG20101120091009411/20/10 09:10:31  5-MIN KMKG 201410Z 35006KT 10SM CLR 03/M05 A3026 320 54 -900 350/06 RMK AO2
14840KMKG MKG20101120091509411/20/10 09:15:31  5-MIN KMKG 201415Z 02008KT 10SM CLR 03/M05 A3026 310 54 -900 020/08 RMK AO2
14840KMKG MKG20101120092009411/20/10 09:20:31  5-MIN KMKG 201420Z 35004KT 10SM CLR 03/M04 A3026 310 57 -900 360/04 RMK AO2
14840KMKG MKG20101120092509411/20/10 09:25:31  5-MIN KMKG 201425Z 01007KT 10SM CLR 03/M05 A3027 310 54 -900 010/07 RMK AO2
14840KMKG MKG20101120093009411/20/10 09:30:31  5-MIN KMKG 201430Z 01008KT 10SM CLR 03/M05 A3027 310 54 -900 010/08 RMK AO2
14840KMKG MKG20101120093509411/20/10 09:35:31  5-MIN KMKG 201435Z 35006KT 10SM CLR 03/M06 A3028 300 52 -900 350/06 RMK AO2
14840KMKG MKG20101120094009511/20/10 09:40:31  5-MIN KMKG 201440Z 01007KT 10SM CLR 03/M06 A3028 300 52 -1000 020/07 RMK AO2
14840KMKG MKG20101120094509411/20/10 09:45:31  5-MIN KMKG 201445Z 01007KT 10SM CLR 03/M05 A3027 300 54 -900 010/07 RMK AO2
14840KMKG MKG20101120095011711/20/10 09:50:31  5-MIN KMKG 201450Z 02008KT 10SM CLR 04/M05 A3028 300 52 -900 020/08 RMK AO2 SLP258 T00391050 51024
14840KMKG MKG20101120095511811/20/10 09:55:31  5-MIN KMKG 201455Z 01008KT 10SM CLR 03/M06 A3028 300 52 -1000 010/08 RMK AO2 SLP259 T00331056 53030
14840KMKG MKG20101120100009411/20/10 10:00:31  5-MIN KMKG 201500Z 01007KT 10SM CLR 04/M05 A3028 300 52 -900 020/07 RMK AO2
14840KMKG MKG20101120100509511/20/10 10:05:31  5-MIN KMKG 201505Z 35007KT 10SM CLR 03/M06 A3028 300 52 -1000 350/07 RMK AO2
14840KMKG MKG20101120101009511/20/10 10:10:31  5-MIN KMKG 201510Z 36007KT 10SM CLR 03/M06 A3028 300 52 -1000 010/07 RMK AO2
14840KMKG MKG20101120101509511/20/10 10:15:31  5-MIN KMKG 201515Z 35006KT 10SM CLR 03/M06 A3029 290 52 -1000 350/06 RMK AO2
14840KMKG MKG20101120102009511/20/10 10:20:31  5-MIN KMKG 201520Z 34006KT 10SM CLR 03/M06 A3029 290 52 -1000 350/06 RMK AO2
14840KMKG MKG20101120102509511/20/10 10:25:31  5-MIN KMKG 201525Z 33007KT 10SM CLR 03/M06 A3029 290 52 -1000 340/07 RMK AO2
14840KMKG MKG20101120103009511/20/10 10:30:31  5-MIN KMKG 201530Z 01005KT 10SM CLR 03/M06 A3030 280 54 -1000 020/05 RMK AO2
14840KMKG MKG20101120103509411/20/10 10:35:31  5-MIN KMKG 201535Z 03006KT 10SM CLR 04/M06 A3030 280 50 -900 040/06 RMK AO2
14840KMKG MKG20101120104009411/20/10 10:40:31  5-MIN KMKG 201540Z 36005KT 10SM CLR 04/M06 A3030 280 50 -900 010/05 RMK AO2
14840KMKG MKG20101120104509411/20/10 10:45:31  5-MIN KMKG 201545Z 34006KT 10SM CLR 04/M06 A3030 280 50 -900 350/06 RMK AO2
14840KMKG MKG20101120105011111/20/10 10:50:31  5-MIN KMKG 201550Z 01005KT 10SM CLR 04/M06 A3030 280 48 -900 010/05 RMK AO2 SLP266 T00391061
14840KMKG MKG20101120105511111/20/10 10:55:31  5-MIN KMKG 201555Z 34004KT 10SM CLR 04/M06 A3030 280 50 -900 340/04 RMK AO2 SLP267 T00391056
14840KMKG MKG20101120110009411/20/10 11:00:31  5-MIN KMKG 201600Z VRB05KT 10SM CLR 04/M06 A3030 280 50 -900 VRB/05 RMK AO2
14840KMKG MKG20101120110509411/20/10 11:05:31  5-MIN KMKG 201605Z 33006KT 10SM CLR 04/M06 A3030 280 48 -900 330/06 RMK AO2
14840KMKG MKG20101120111009411/20/10 11:10:31  5-MIN KMKG 201610Z 34006KT 10SM CLR 04/M06 A3030 280 48 -800 350/06 RMK AO2
14840KMKG MKG20101120111509411/20/10 11:15:31  5-MIN KMKG 201615Z 35005KT 10SM CLR 04/M06 A3030 280 48 -800 350/05 RMK AO2
14840KMKG MKG20101120112009411/20/10 11:20:31  5-MIN KMKG 201620Z 36007KT 10SM CLR 04/M06 A3030 280 48 -800 010/07 RMK AO2
14840KMKG MKG20101120112509411/20/10 11:25:31  5-MIN KMKG 201625Z 32005KT 10SM CLR 04/M06 A3030 280 48 -800 320/05 RMK AO2
14840KMKG MKG20101120113009411/20/10 11:30:31  5-MIN KMKG 201630Z 34006KT 10SM CLR 04/M06 A3030 280 48 -800 350/06 RMK AO2
14840KMKG MKG20101120113509411/20/10 11:35:31  5-MIN KMKG 201635Z 04005KT 10SM CLR 04/M06 A3030 280 48 -800 050/05 RMK AO2
14840KMKG MKG20101120114009411/20/10 11:40:31  5-MIN KMKG 201640Z VRB04KT 10SM CLR 05/M06 A3030 280 46 -800 VRB/04 RMK AO2
14840KMKG MKG20101120114509411/20/10 11:45:31  5-MIN KMKG 201645Z 00000KT 10SM CLR 05/M06 A3030 280 46 -800 000/00 RMK AO2
14840KMKG MKG20101120115011111/20/10 11:50:31  5-MIN KMKG 201650Z 35007KT 10SM CLR 05/M05 A3029 290 48 -800 360/07 RMK AO2 SLP263 T00501050
14840KMKG MKG20101120115511111/20/10 11:55:31  5-MIN KMKG 201655Z 36007KT 10SM CLR 05/M06 A3029 290 46 -800 360/07 RMK AO2 SLP263 T00501056
14840KMKG MKG20101120120009411/20/10 12:00:31  5-MIN KMKG 201700Z 03007KT 10SM CLR 04/M06 A3029 290 48 -800 040/07 RMK AO2
14840KMKG MKG20101120120509411/20/10 12:05:31  5-MIN KMKG 201705Z 02006KT 10SM CLR 05/M06 A3029 290 46 -800 020/06 RMK AO2
14840KMKG MKG20101120121009411/20/10 12:10:31  5-MIN KMKG 201710Z 02006KT 10SM CLR 05/M06 A3029 290 46 -800 020/06 RMK AO2
14840KMKG MKG20101120121509411/20/10 12:15:31  5-MIN KMKG 201715Z 04007KT 10SM CLR 05/M06 A3029 290 44 -800 040/07 RMK AO2
14840KMKG MKG20101120122009411/20/10 12:20:31  5-MIN KMKG 201720Z 04007KT 10SM CLR 04/M06 A3029 290 48 -800 050/07 RMK AO2
14840KMKG MKG20101120122509411/20/10 12:25:31  5-MIN KMKG 201725Z VRB03KT 10SM CLR 05/M06 A3029 290 44 -800 VRB/03 RMK AO2
14840KMKG MKG20101120123009411/20/10 12:30:31  5-MIN KMKG 201730Z 35004KT 10SM CLR 05/M06 A3028 290 44 -800 350/04 RMK AO2
14840KMKG MKG20101120123509411/20/10 12:35:31  5-MIN KMKG 201735Z 02006KT 10SM CLR 05/M06 A3028 300 46 -800 030/06 RMK AO2
14840KMKG MKG20101120124009411/20/10 12:40:31  5-MIN KMKG 201740Z VRB05KT 10SM CLR 05/M06 A3028 300 46 -800 VRB/05 RMK AO2
14840KMKG MKG20101120124509411/20/10 12:45:31  5-MIN KMKG 201745Z VRB05KT 10SM CLR 05/M06 A3029 290 46 -800 VRB/05 RMK AO2
14840KMKG MKG20101120125013211/20/10 12:50:31  5-MIN KMKG 201750Z 07003KT 10SM FEW110 05/M06 A3029 290 44 -800 070/03 RMK AO2 SLP261 T00501061 10050 20017 53030
14840KMKG MKG20101120125512911/20/10 12:55:31  5-MIN KMKG 201755Z 00000KT 10SM CLR 05/M06 A3028 300 46 -800 000/00 RMK AO2 SLP260 T00501056 10050 20017 50001
14840KMKG MKG20101120130009411/20/10 13:00:31  5-MIN KMKG 201800Z 36005KT 10SM CLR 05/M06 A3028 300 46 -700 360/05 RMK AO2
14840KMKG MKG20101120130509411/20/10 13:05:31  5-MIN KMKG 201805Z 07005KT 10SM CLR 05/M06 A3028 300 46 -700 070/05 RMK AO2
14840KMKG MKG20101120131009411/20/10 13:10:31  5-MIN KMKG 201810Z 07004KT 10SM CLR 05/M06 A3028 300 46 -700 070/04 RMK AO2
14840KMKG MKG20101120131509411/20/10 13:15:31  5-MIN KMKG 201815Z VRB04KT 10SM CLR 05/M06 A3028 300 46 -700 VRB/04 RMK AO2
14840KMKG MKG20101120132009411/20/10 13:20:31  5-MIN KMKG 201820Z 02004KT 10SM CLR 05/M06 A3028 300 46 -700 020/04 RMK AO2
14840KMKG MKG20101120132509411/20/10 13:25:31  5-MIN KMKG 201825Z 35005KT 10SM CLR 05/M06 A3028 300 46 -700 350/05 RMK AO2
14840KMKG MKG20101120133009411/20/10 13:30:31  5-MIN KMKG 201830Z 00000KT 10SM CLR 05/M06 A3028 300 44 -700 000/00 RMK AO2
14840KMKG MKG20101120133509411/20/10 13:35:31  5-MIN KMKG 201835Z 06004KT 10SM CLR 05/M06 A3028 300 46 -700 060/04 RMK AO2
14840KMKG MKG20101120134009411/20/10 13:40:31  5-MIN KMKG 201840Z 05007KT 10SM CLR 05/M06 A3028 300 46 -700 060/07 RMK AO2
14840KMKG MKG20101120134509411/20/10 13:45:31  5-MIN KMKG 201845Z 07004KT 10SM CLR 04/M06 A3028 300 48 -800 070/04 RMK AO2
14840KMKG MKG20101120135011111/20/10 13:50:31  5-MIN KMKG 201850Z 04004KT 10SM CLR 04/M06 A3028 300 48 -800 050/04 RMK AO2 SLP260 T00441056
14840KMKG MKG20101120135511111/20/10 13:55:31  5-MIN KMKG 201855Z 03003KT 10SM CLR 05/M06 A3028 300 46 -700 040/03 RMK AO2 SLP259 T00501056
14840KMKG MKG20101120140009411/20/10 14:00:31  5-MIN KMKG 201900Z 03004KT 10SM CLR 05/M06 A3028 300 46 -700 040/04 RMK AO2
14840KMKG MKG20101120140509411/20/10 14:05:31  5-MIN KMKG 201905Z 03003KT 10SM CLR 05/M06 A3028 300 46 -700 030/03 RMK AO2
14840KMKG MKG20101120141009411/20/10 14:10:31  5-MIN KMKG 201910Z 04006KT 10SM CLR 05/M06 A3028 300 46 -700 040/06 RMK AO2
14840KMKG MKG20101120141509411/20/10 14:15:31  5-MIN KMKG 201915Z 05004KT 10SM CLR 04/M06 A3028 300 48 -800 050/04 RMK AO2
14840KMKG MKG20101120142009411/20/10 14:20:31  5-MIN KMKG 201920Z 04005KT 10SM CLR 04/M06 A3028 300 48 -800 040/05 RMK AO2
14840KMKG MKG20101120142509411/20/10 14:25:31  5-MIN KMKG 201925Z 03005KT 10SM CLR 04/M06 A3028 300 48 -800 040/05 RMK AO2
14840KMKG MKG20101120143009411/20/10 14:30:31  5-MIN KMKG 201930Z 05004KT 10SM CLR 05/M06 A3029 290 46 -800 050/04 RMK AO2
14840KMKG MKG20101120143509411/20/10 14:35:31  5-MIN KMKG 201935Z 04006KT 10SM CLR 05/M06 A3029 290 46 -800 040/06 RMK AO2
14840KMKG MKG20101120144009711/20/10 14:40:31  5-MIN KMKG 201940Z 02005KT 10SM FEW100 06/M05 A3029 290 46 -700 020/05 RMK AO2
14840KMKG MKG20101120144511311/20/10 14:45:31  5-MIN KMKG 201945Z 01007KT 340V050 10SM FEW100 06/M06 A3029 290 44 -700 010/07 340V050 RMK AO2
14840KMKG MKG20101120145011111/20/10 14:50:31  5-MIN KMKG 201950Z 05005KT 10SM CLR 05/M06 A3029 290 46 -800 060/05 RMK AO2 SLP262 T00501056
14840KMKG MKG20101120145511111/20/10 14:55:31  5-MIN KMKG 201955Z VRB04KT 10SM CLR 05/M06 A3029 290 46 -800 VRB/04 RMK AO2 SLP262 T00501056
14840KMKG MKG20101120150009611/20/10 15:00:31  5-MIN KMKG 202000Z 02006KT 10SM CLR 05/M06 A3029 290 46 -800 020/06 RMK AO2 $
14840KMKG MKG20101120150509611/20/10 15:05:31  5-MIN KMKG 202005Z 03006KT 10SM CLR 06/M06 A3029 290 44 -700 040/06 RMK AO2 $
14840KMKG MKG20101120151009611/20/10 15:10:31  5-MIN KMKG 202010Z 04006KT 10SM CLR 05/M06 A3029 290 46 -800 040/06 RMK AO2 $
14840KMKG MKG20101120151509611/20/10 15:15:31  5-MIN KMKG 202015Z 05007KT 10SM CLR 05/M06 A3029 290 46 -800 050/07 RMK AO2 $
14840KMKG MKG20101120152009611/20/10 15:20:31  5-MIN KMKG 202020Z 02007KT 10SM CLR 06/M06 A3029 290 44 -700 020/07 RMK AO2 $
14840KMKG MKG20101120152509611/20/10 15:25:31  5-MIN KMKG 202025Z 01007KT 10SM CLR 05/M06 A3029 290 46 -800 010/07 RMK AO2 $
14840KMKG MKG20101120153009611/20/10 15:30:31  5-MIN KMKG 202030Z 02008KT 10SM CLR 05/M06 A3029 290 44 -800 020/08 RMK AO2 $
14840KMKG MKG20101120153509611/20/10 15:35:31  5-MIN KMKG 202035Z 03010KT 10SM CLR 05/M06 A3028 300 46 -800 040/10 RMK AO2 $
14840KMKG MKG20101120154009611/20/10 15:40:31  5-MIN KMKG 202040Z 04006KT 10SM CLR 05/M06 A3029 290 44 -800 040/06 RMK AO2 $
14840KMKG MKG20101120154509611/20/10 15:45:31  5-MIN KMKG 202045Z 06008KT 10SM CLR 05/M06 A3029 290 44 -800 060/08 RMK AO2 $
14840KMKG MKG20101120155011911/20/10 15:50:31  5-MIN KMKG 202050Z 04006KT 10SM CLR 05/M06 A3029 290 44 -800 040/06 RMK AO2 SLP262 T00501061 50001 $
14840KMKG MKG20101120155511911/20/10 15:55:31  5-MIN KMKG 202055Z 06007KT 10SM CLR 05/M06 A3029 290 44 -800 060/07 RMK AO2 SLP263 T00501061 53003 $
14840KMKG MKG20101120160009611/20/10 16:00:31  5-MIN KMKG 202100Z 03007KT 10SM CLR 05/M06 A3029 290 44 -800 040/07 RMK AO2 $
14840KMKG MKG20101120160509611/20/10 16:05:31  5-MIN KMKG 202105Z 05006KT 10SM CLR 05/M06 A3030 280 44 -800 050/06 RMK AO2 $
14840KMKG MKG20101120161009611/20/10 16:10:31  5-MIN KMKG 202110Z 07008KT 10SM CLR 05/M06 A3029 290 44 -800 070/08 RMK AO2 $
14840KMKG MKG20101120161509611/20/10 16:15:31  5-MIN KMKG 202115Z 05009KT 10SM CLR 04/M06 A3030 280 46 -800 050/09 RMK AO2 $
14840KMKG MKG20101120162009611/20/10 16:20:31  5-MIN KMKG 202120Z 04007KT 10SM CLR 04/M06 A3030 280 46 -800 050/07 RMK AO2 $
14840KMKG MKG20101120162509411/20/10 16:25:31  5-MIN KMKG 202125Z 03007KT 10SM CLR 04/M07 A3030 280 44 -800 040/07 RMK AO2
14840KMKG MKG20101120163009411/20/10 16:30:31  5-MIN KMKG 202130Z 04007KT 10SM CLR 04/M06 A3030 280 48 -900 050/07 RMK AO2
14840KMKG MKG20101120163509411/20/10 16:35:31  5-MIN KMKG 202135Z 04007KT 10SM CLR 04/M06 A3030 280 48 -900 040/07 RMK AO2
14840KMKG MKG20101120164009411/20/10 16:40:31  5-MIN KMKG 202140Z 03006KT 10SM CLR 04/M06 A3030 280 48 -900 030/06 RMK AO2
14840KMKG MKG20101120164509411/20/10 16:45:31  5-MIN KMKG 202145Z 03004KT 10SM CLR 04/M06 A3030 280 50 -900 040/04 RMK AO2
14840KMKG MKG20101120165011111/20/10 16:50:31  5-MIN KMKG 202150Z 03007KT 10SM CLR 04/M06 A3030 280 50 -900 030/07 RMK AO2 SLP267 T00391056
14840KMKG MKG20101120165511111/20/10 16:55:31  5-MIN KMKG 202155Z 04006KT 10SM CLR 04/M06 A3030 280 48 -900 050/06 RMK AO2 SLP266 T00391061
14840KMKG MKG20101120170009511/20/10 17:00:31  5-MIN KMKG 202200Z 05005KT 10SM CLR 03/M06 A3030 280 50 -1000 050/05 RMK AO2
14840KMKG MKG20101120170509511/20/10 17:05:31  5-MIN KMKG 202205Z 03004KT 10SM CLR 03/M06 A3030 280 52 -1000 030/04 RMK AO2
14840KMKG MKG20101120171009511/20/10 17:10:31  5-MIN KMKG 202210Z 02005KT 10SM CLR 03/M06 A3031 280 52 -1000 020/05 RMK AO2
14840KMKG MKG20101120171509511/20/10 17:15:31  5-MIN KMKG 202215Z 03007KT 10SM CLR 03/M06 A3030 280 52 -1000 030/07 RMK AO2
14840KMKG MKG20101120172009511/20/10 17:20:31  5-MIN KMKG 202220Z 03006KT 10SM CLR 03/M06 A3030 280 50 -1000 030/06 RMK AO2
14840KMKG MKG20101120172509511/20/10 17:25:31  5-MIN KMKG 202225Z 03006KT 10SM CLR 03/M06 A3031 280 50 -1000 030/06 RMK AO2
14840KMKG MKG20101120173009511/20/10 17:30:31  5-MIN KMKG 202230Z 03005KT 10SM CLR 03/M06 A3030 280 52 -1000 030/05 RMK AO2
14840KMKG MKG20101120173509511/20/10 17:35:31  5-MIN KMKG 202235Z 03005KT 10SM CLR 03/M06 A3030 280 52 -1000 040/05 RMK AO2
14840KMKG MKG20101120174009511/20/10 17:40:31  5-MIN KMKG 202240Z 04005KT 10SM CLR 03/M06 A3030 280 52 -1000 040/05 RMK AO2
14840KMKG MKG20101120174509511/20/10 17:45:31  5-MIN KMKG 202245Z 03005KT 10SM CLR 02/M06 A3030 280 54 -1100 040/05 RMK AO2
14840KMKG MKG20101120175011211/20/10 17:50:31  5-MIN KMKG 202250Z 03006KT 10SM CLR 03/M06 A3030 280 52 -1000 040/06 RMK AO2 SLP265 T00281061
14840KMKG MKG20101120175511211/20/10 17:55:31  5-MIN KMKG 202255Z 03005KT 10SM CLR 03/M06 A3030 290 52 -1000 040/05 RMK AO2 SLP265 T00281061
14840KMKG MKG20101120180009511/20/10 18:00:31  5-MIN KMKG 202300Z 04005KT 10SM CLR 02/M06 A3029 290 54 -1100 050/05 RMK AO2
14840KMKG MKG20101120180509511/20/10 18:05:31  5-MIN KMKG 202305Z 04006KT 10SM CLR 02/M06 A3029 290 54 -1100 050/06 RMK AO2
14840KMKG MKG20101120181009511/20/10 18:10:31  5-MIN KMKG 202310Z 04006KT 10SM CLR 02/M06 A3029 290 54 -1100 050/06 RMK AO2
14840KMKG MKG20101120181509511/20/10 18:15:31  5-MIN KMKG 202315Z 05005KT 10SM CLR 02/M06 A3029 290 54 -1100 050/05 RMK AO2
14840KMKG MKG20101120182009511/20/10 18:20:31  5-MIN KMKG 202320Z 05006KT 10SM CLR 02/M06 A3029 290 54 -1100 060/06 RMK AO2
14840KMKG MKG20101120182509511/20/10 18:25:31  5-MIN KMKG 202325Z 05006KT 10SM CLR 02/M06 A3029 290 54 -1100 050/06 RMK AO2
14840KMKG MKG20101120183009511/20/10 18:30:31  5-MIN KMKG 202330Z 05004KT 10SM CLR 02/M06 A3029 290 56 -1200 060/04 RMK AO2
14840KMKG MKG20101120183509511/20/10 18:35:31  5-MIN KMKG 202335Z 06004KT 10SM CLR 02/M06 A3029 290 56 -1200 070/04 RMK AO2
14840KMKG MKG20101120184009511/20/10 18:40:31  5-MIN KMKG 202340Z 06005KT 10SM CLR 02/M06 A3029 290 56 -1200 070/05 RMK AO2
14840KMKG MKG20101120184509511/20/10 18:45:31  5-MIN KMKG 202345Z 07005KT 10SM CLR 02/M06 A3029 290 56 -1200 070/05 RMK AO2
14840KMKG MKG20101120185013011/20/10 18:50:31  5-MIN KMKG 202350Z 08005KT 10SM CLR 01/M06 A3029 290 58 -1200 080/05 RMK AO2 SLP264 T00111061 10056 20011 53003
14840KMKG MKG20101120185513011/20/10 18:55:31  5-MIN KMKG 202355Z 08006KT 10SM CLR 01/M06 A3029 290 58 -1200 080/06 RMK AO2 SLP265 T00111061 10056 20011 50000
14840KMKG MKG20101120190009511/20/10 19:00:31  5-MIN KMKG 210000Z 08006KT 10SM CLR 01/M06 A3029 290 58 -1200 080/06 RMK AO2
14840KMKG MKG20101120190509511/20/10 19:05:31  5-MIN KMKG 210005Z 07006KT 10SM CLR 01/M06 A3029 290 58 -1200 070/06 RMK AO2
14840KMKG MKG20101120191009511/20/10 19:10:31  5-MIN KMKG 210010Z 07007KT 10SM CLR 01/M06 A3029 290 58 -1200 070/07 RMK AO2
14840KMKG MKG20101120191509511/20/10 19:15:31  5-MIN KMKG 210015Z 06007KT 10SM CLR 01/M07 A3029 290 56 -1200 070/07 RMK AO2
14840KMKG MKG20101120192009511/20/10 19:20:31  5-MIN KMKG 210020Z 06008KT 10SM CLR 01/M07 A3029 290 56 -1200 070/08 RMK AO2
14840KMKG MKG20101120192509511/20/10 19:25:31  5-MIN KMKG 210025Z 07007KT 10SM CLR 02/M07 A3029 290 54 -1200 070/07 RMK AO2
14840KMKG MKG20101120193009511/20/10 19:30:31  5-MIN KMKG 210030Z 07007KT 10SM CLR 01/M07 A3029 290 56 -1200 070/07 RMK AO2
14840KMKG MKG20101120193509511/20/10 19:35:31  5-MIN KMKG 210035Z 07008KT 10SM CLR 01/M07 A3029 290 56 -1200 070/08 RMK AO2
14840KMKG MKG20101120194009511/20/10 19:40:31  5-MIN KMKG 210040Z 07007KT 10SM CLR 01/M07 A3029 290 56 -1200 070/07 RMK AO2
14840KMKG MKG20101120194509511/20/10 19:45:31  5-MIN KMKG 210045Z 07007KT 10SM CLR 01/M07 A3030 280 56 -1300 070/07 RMK AO2
14840KMKG MKG20101120195011211/20/10 19:50:31  5-MIN KMKG 210050Z 06007KT 10SM CLR 01/M07 A3030 280 56 -1300 070/07 RMK AO2 SLP267 T00111067
14840KMKG MKG20101120195511211/20/10 19:55:31  5-MIN KMKG 210055Z 07007KT 10SM CLR 01/M07 A3030 280 56 -1300 070/07 RMK AO2 SLP268 T00111067
14840KMKG MKG20101120200009511/20/10 20:00:31  5-MIN KMKG 210100Z 06008KT 10SM CLR 01/M07 A3030 280 56 -1300 070/08 RMK AO2
14840KMKG MKG20101120200509511/20/10 20:05:31  5-MIN KMKG 210105Z 07008KT 10SM CLR 01/M07 A3030 280 56 -1300 070/08 RMK AO2
14840KMKG MKG20101120201009511/20/10 20:10:31  5-MIN KMKG 210110Z 07007KT 10SM CLR 01/M07 A3030 280 56 -1300 070/07 RMK AO2
14840KMKG MKG20101120201509511/20/10 20:15:31  5-MIN KMKG 210115Z 07007KT 10SM CLR 01/M07 A3030 280 56 -1300 070/07 RMK AO2
14840KMKG MKG20101120202009511/20/10 20:20:31  5-MIN KMKG 210120Z 06007KT 10SM CLR 01/M07 A3031 280 56 -1300 060/07 RMK AO2
14840KMKG MKG20101120202509511/20/10 20:25:31  5-MIN KMKG 210125Z 06007KT 10SM CLR 01/M07 A3031 280 56 -1300 070/07 RMK AO2
14840KMKG MKG20101120203009511/20/10 20:30:31  5-MIN KMKG 210130Z 06007KT 10SM CLR 01/M07 A3031 270 56 -1300 060/07 RMK AO2
14840KMKG MKG20101120203509511/20/10 20:35:31  5-MIN KMKG 210135Z 06007KT 10SM CLR 01/M07 A3031 270 56 -1300 070/07 RMK AO2
14840KMKG MKG20101120204009511/20/10 20:40:31  5-MIN KMKG 210140Z 06007KT 10SM CLR 01/M07 A3031 270 56 -1300 060/07 RMK AO2
14840KMKG MKG20101120204509511/20/10 20:45:31  5-MIN KMKG 210145Z 06007KT 10SM CLR 01/M07 A3031 270 56 -1300 070/07 RMK AO2
14840KMKG MKG20101120205011211/20/10 20:50:31  5-MIN KMKG 210150Z 06008KT 10SM CLR 01/M07 A3031 280 56 -1300 060/08 RMK AO2 SLP270 T00111067
14840KMKG MKG20101120205511211/20/10 20:55:31  5-MIN KMKG 210155Z 06007KT 10SM CLR 01/M07 A3031 270 56 -1300 060/07 RMK AO2 SLP270 T00111067
14840KMKG MKG20101120210009511/20/10 21:00:31  5-MIN KMKG 210200Z 06008KT 10SM CLR 01/M06 A3030 280 58 -1300 070/08 RMK AO2
14840KMKG MKG20101120210509511/20/10 21:05:31  5-MIN KMKG 210205Z 07009KT 10SM CLR 01/M06 A3030 280 58 -1300 070/09 RMK AO2
14840KMKG MKG20101120211009511/20/10 21:10:31  5-MIN KMKG 210210Z 07008KT 10SM CLR 01/M06 A3029 290 58 -1200 070/08 RMK AO2
14840KMKG MKG20101120211509511/20/10 21:15:31  5-MIN KMKG 210215Z 07008KT 10SM CLR 01/M06 A3030 280 58 -1300 080/08 RMK AO2
14840KMKG MKG20101120212009511/20/10 21:20:31  5-MIN KMKG 210220Z 07006KT 10SM CLR 01/M06 A3030 280 58 -1300 080/06 RMK AO2
14840KMKG MKG20101120212509511/20/10 21:25:31  5-MIN KMKG 210225Z 07007KT 10SM CLR 01/M06 A3030 280 58 -1300 080/07 RMK AO2
14840KMKG MKG20101120213009511/20/10 21:30:31  5-MIN KMKG 210230Z 07008KT 10SM CLR 01/M06 A3030 280 58 -1300 080/08 RMK AO2
14840KMKG MKG20101120213509511/20/10 21:35:31  5-MIN KMKG 210235Z 07009KT 10SM CLR 01/M06 A3030 280 58 -1300 070/09 RMK AO2
14840KMKG MKG20101120214009511/20/10 21:40:31  5-MIN KMKG 210240Z 08008KT 10SM CLR 01/M06 A3030 280 58 -1300 080/08 RMK AO2
14840KMKG MKG20101120214509511/20/10 21:45:31  5-MIN KMKG 210245Z 07008KT 10SM CLR 01/M06 A3030 280 58 -1300 080/08 RMK AO2
14840KMKG MKG20101120215011811/20/10 21:50:31  5-MIN KMKG 210250Z 07008KT 10SM CLR 01/M06 A3030 280 58 -1300 080/08 RMK AO2 SLP267 T00111061 50000
14840KMKG MKG20101120215511811/20/10 21:55:31  5-MIN KMKG 210255Z 08007KT 10SM CLR 01/M06 A3030 280 58 -1300 080/07 RMK AO2 SLP266 T00111061 50001
14840KMKG MKG20101120220009511/20/10 22:00:31  5-MIN KMKG 210300Z 07007KT 10SM CLR 01/M06 A3029 290 58 -1200 070/07 RMK AO2
14840KMKG MKG20101120220509511/20/10 22:05:31  5-MIN KMKG 210305Z 07009KT 10SM CLR 01/M06 A3029 290 58 -1200 070/09 RMK AO2
14840KMKG MKG20101120221009511/20/10 22:10:31  5-MIN KMKG 210310Z 07008KT 10SM CLR 01/M06 A3029 290 58 -1200 080/08 RMK AO2
14840KMKG MKG20101120221509511/20/10 22:15:31  5-MIN KMKG 210315Z 08007KT 10SM CLR 01/M06 A3028 300 61 -1300 090/07 RMK AO2
14840KMKG MKG20101120222009511/20/10 22:20:31  5-MIN KMKG 210320Z 08007KT 10SM CLR 01/M06 A3028 300 61 -1300 090/07 RMK AO2
14840KMKG MKG20101120222509511/20/10 22:25:31  5-MIN KMKG 210325Z 09008KT 10SM CLR 01/M06 A3027 310 61 -1300 100/08 RMK AO2
14840KMKG MKG20101120223010211/20/10 22:30:31  5-MIN KMKG 210330Z 09009KT 10SM CLR 01/M06 A3026 310 61 -1300 100/09 RMK AO2 PRESFR
14840KMKG MKG20101120223509511/20/10 22:35:31  5-MIN KMKG 210335Z 09009KT 10SM CLR 01/M06 A3027 310 58 -1200 090/09 RMK AO2
14840KMKG MKG20101120224009511/20/10 22:40:31  5-MIN KMKG 210340Z 08008KT 10SM CLR 01/M06 A3027 310 58 -1200 090/08 RMK AO2
14840KMKG MKG20101120224509511/20/10 22:45:31  5-MIN KMKG 210345Z 08009KT 10SM CLR 01/M06 A3027 310 58 -1200 090/09 RMK AO2
14840KMKG MKG20101120225011211/20/10 22:50:31  5-MIN KMKG 210350Z 08007KT 10SM CLR 01/M06 A3027 310 61 -1300 090/07 RMK AO2 SLP257 T00061061
14840KMKG MKG20101120225511511/20/10 22:55:31  5-MIN KMKG 210355Z 08009KT 10SM FEW075 01/M06 A3027 310 58 -1200 080/09 RMK AO2 SLP257 T00111061
14840KMKG MKG20101120230009811/20/10 23:00:31  5-MIN KMKG 210400Z 08008KT 10SM SCT075 01/M06 A3027 300 58 -1200 090/08 RMK AO2
14840KMKG MKG20101120230509811/20/10 23:05:31  5-MIN KMKG 210405Z 08008KT 10SM BKN075 01/M06 A3027 300 61 -1200 080/08 RMK AO2
14840KMKG MKG20101120231009811/20/10 23:10:31  5-MIN KMKG 210410Z 09007KT 10SM BKN075 01/M06 A3027 300 61 -1200 090/07 RMK AO2
14840KMKG MKG20101120231509811/20/10 23:15:31  5-MIN KMKG 210415Z 08008KT 10SM BKN075 01/M06 A3027 310 61 -1200 090/08 RMK AO2
14840KMKG MKG20101120232009811/20/10 23:20:31  5-MIN KMKG 210420Z 08009KT 10SM OVC075 01/M06 A3026 310 61 -1200 090/09 RMK AO2
14840KMKG MKG20101120232509811/20/10 23:25:31  5-MIN KMKG 210425Z 09007KT 10SM OVC075 01/M06 A3026 320 61 -1200 090/07 RMK AO2
14840KMKG MKG20101120233010511/20/10 23:30:31  5-MIN KMKG 210430Z 09010KT 10SM OVC075 01/M06 A3025 330 61 -1200 090/10 RMK AO2 PRESFR
14840KMKG MKG20101120233509811/20/10 23:35:31  5-MIN KMKG 210435Z 09009KT 10SM BKN075 01/M06 A3025 330 61 -1200 090/09 RMK AO2
14840KMKG MKG20101120234009811/20/10 23:40:31  5-MIN KMKG 210440Z 09009KT 10SM BKN075 01/M06 A3024 340 61 -1200 100/09 RMK AO2
14840KMKG MKG20101120234509811/20/10 23:45:31  5-MIN KMKG 210445Z 09008KT 10SM SCT075 01/M06 A3024 340 61 -1200 100/08 RMK AO2
14840KMKG MKG20101120235012511/20/10 23:50:31  5-MIN KMKG 210450Z 10008KT 10SM FEW070 01/M06 A3024 330 61 -1200 100/08 RMK AO2 SLP247 T00111056 400720006
14840KMKG MKG20101120235512511/20/10 23:55:31  5-MIN KMKG 210455Z 10010KT 10SM FEW070 01/M06 A3024 330 61 -1200 100/10 RMK AO2 SLP247 T00111056 400720006
14840KMKG MKG20101121000009511/21/10 00:00:32  5-MIN KMKG 210500Z 09009KT 10SM CLR 01/M06 A3024 330 61 -1200 090/09 RMK AO2
14840KMKG MKG20101121000509511/21/10 00:05:31  5-MIN KMKG 210505Z 09010KT 10SM CLR 01/M06 A3025 330 61 -1200 100/10 RMK AO2
14840KMKG MKG20101121001009511/21/10 00:10:31  5-MIN KMKG 210510Z 10008KT 10SM CLR 01/M06 A3026 320 61 -1200 100/08 RMK AO2
14840KMKG MKG20101121001509511/21/10 00:15:31  5-MIN KMKG 210515Z 09009KT 10SM CLR 01/M06 A3026 320 61 -1200 100/09 RMK AO2
14840KMKG MKG20101121002009811/21/10 00:20:31  5-MIN KMKG 210520Z 09007KT 10SM FEW055 01/M06 A3026 310 61 -1200 090/07 RMK AO2
14840KMKG MKG20101121002509811/21/10 00:25:31  5-MIN KMKG 210525Z 09009KT 10SM SCT055 01/M06 A3027 310 61 -1200 090/09 RMK AO2
14840KMKG MKG20101121003009811/21/10 00:30:31  5-MIN KMKG 210530Z 09010KT 10SM SCT055 01/M06 A3026 310 61 -1200 100/10 RMK AO2
14840KMKG MKG20101121003509811/21/10 00:35:31  5-MIN KMKG 210535Z 10010KT 10SM FEW055 01/M06 A3025 320 58 -1200 100/10 RMK AO2
14840KMKG MKG20101121004009811/21/10 00:40:31  5-MIN KMKG 210540Z 10011KT 10SM FEW055 01/M06 A3025 320 58 -1200 100/11 RMK AO2
14840KMKG MKG20101121004509811/21/10 00:45:31  5-MIN KMKG 210545Z 10009KT 10SM FEW055 01/M06 A3026 320 58 -1200 100/09 RMK AO2
14840KMKG MKG20101121005013311/21/10 00:50:31  5-MIN KMKG 210550Z 09008KT 10SM FEW055 01/M06 A3026 320 58 -1200 090/08 RMK AO2 SLP252 T00111061 10017 20006 50001
14840KMKG MKG20101121005513011/21/10 00:55:31  5-MIN KMKG 210555Z 09007KT 10SM CLR 01/M06 A3026 310 58 -1200 090/07 RMK AO2 SLP255 T00111061 10017 20006 55011
14840KMKG MKG20101121010009811/21/10 01:00:31  5-MIN KMKG 210600Z 09008KT 10SM SCT070 01/M06 A3026 310 58 -1200 090/08 RMK AO2
14840KMKG MKG20101121010509811/21/10 01:05:31  5-MIN KMKG 210605Z 10010KT 10SM BKN070 01/M06 A3026 320 58 -1200 100/10 RMK AO2
14840KMKG MKG20101121011009811/21/10 01:10:31  5-MIN KMKG 210610Z 09010KT 10SM BKN065 02/M06 A3026 320 56 -1100 100/10 RMK AO2
14840KMKG MKG20101121011509811/21/10 01:15:31  5-MIN KMKG 210615Z 09011KT 10SM BKN065 02/M06 A3025 330 56 -1100 100/11 RMK AO2
14840KMKG MKG20101121012010511/21/10 01:20:31  5-MIN KMKG 210620Z 10011KT 10SM SCT065 02/M06 A3024 330 56 -1100 100/11 RMK AO2 PRESFR
14840KMKG MKG20101121012510511/21/10 01:25:31  5-MIN KMKG 210625Z 10011KT 10SM SCT065 02/M06 A3024 340 56 -1100 100/11 RMK AO2 PRESFR
14840KMKG MKG20101121013009811/21/10 01:30:31  5-MIN KMKG 210630Z 10011KT 10SM SCT065 02/M06 A3024 340 56 -1100 100/11 RMK AO2
14840KMKG MKG20101121013509811/21/10 01:35:31  5-MIN KMKG 210635Z 09011KT 10SM FEW065 02/M06 A3024 340 59 -1100 100/11 RMK AO2
14840KMKG MKG20101121014009511/21/10 01:40:31  5-MIN KMKG 210640Z 09009KT 10SM CLR 02/M06 A3024 330 59 -1100 100/09 RMK AO2
14840KMKG MKG20101121014509511/21/10 01:45:31  5-MIN KMKG 210645Z 09010KT 10SM CLR 02/M06 A3024 340 59 -1100 100/10 RMK AO2
14840KMKG MKG20101121015011211/21/10 01:50:31  5-MIN KMKG 210650Z 10012KT 10SM CLR 02/M06 A3023 340 59 -1100 100/12 RMK AO2 SLP244 T00171056
14840KMKG MKG20101121015511211/21/10 01:55:31  5-MIN KMKG 210655Z 09010KT 10SM CLR 02/M05 A3023 340 61 -1100 100/10 RMK AO2 SLP244 T00171050
14840KMKG MKG20101121020009511/21/10 02:00:31  5-MIN KMKG 210700Z 10012KT 10SM CLR 02/M05 A3023 340 61 -1100 100/12 RMK AO2
14840KMKG MKG20101121020509511/21/10 02:05:31  5-MIN KMKG 210705Z 10010KT 10SM CLR 02/M05 A3023 340 61 -1100 100/10 RMK AO2
14840KMKG MKG20101121021009511/21/10 02:10:31  5-MIN KMKG 210710Z 10011KT 10SM CLR 02/M04 A3023 350 64 -1100 100/11 RMK AO2
14840KMKG MKG20101121021510111/21/10 02:15:31  5-MIN KMKG 210715Z 10011G18KT 10SM CLR 02/M04 A3023 350 64 -1100 110/11G18 RMK AO2
14840KMKG MKG20101121022010111/21/10 02:20:31  5-MIN KMKG 210720Z 10010G20KT 10SM CLR 02/M04 A3023 340 64 -1100 100/10G20 RMK AO2
14840KMKG MKG20101121022510411/21/10 02:25:31  5-MIN KMKG 210725Z 10011G20KT 10SM FEW018 02/M04 A3023 350 64 -1100 110/11G20 RMK AO2
14840KMKG MKG20101121023009811/21/10 02:30:31  5-MIN KMKG 210730Z 10012KT 10SM SCT018 02/M04 A3022 350 64 -1100 110/12 RMK AO2
14840KMKG MKG20101121023509811/21/10 02:35:31  5-MIN KMKG 210735Z 10011KT 10SM BKN018 02/M04 A3022 350 64 -1100 100/11 RMK AO2
14840KMKG MKG20101121024009811/21/10 02:40:31  5-MIN KMKG 210740Z 10013KT 10SM BKN018 02/M04 A3022 360 66 -1100 100/13 RMK AO2
14840KMKG MKG20101121024510411/21/10 02:45:31  5-MIN KMKG 210745Z 10014G20KT 10SM BKN016 02/M04 A3021 360 64 -1000 100/14G20 RMK AO2
14840KMKG MKG20101121025012111/21/10 02:50:31  5-MIN KMKG 210750Z 10014G20KT 10SM OVC016 02/M04 A3021 360 64 -1000 100/14G20 RMK AO2 SLP236 T00221039
14840KMKG MKG20101121025512111/21/10 02:55:31  5-MIN KMKG 210755Z 11014G19KT 10SM OVC016 02/M04 A3021 370 64 -1000 110/14G19 RMK AO2 SLP235 T00221039
14840KMKG MKG20101121030010411/21/10 03:00:31  5-MIN KMKG 210800Z 10012G19KT 10SM OVC016 02/M04 A3020 370 64 -1000 110/12G19 RMK AO2
14840KMKG MKG20101121030510411/21/10 03:05:31  5-MIN KMKG 210805Z 10014G19KT 10SM OVC016 02/M04 A3021 370 64 -1000 110/14G19 RMK AO2
14840KMKG MKG20101121031010411/21/10 03:10:31  5-MIN KMKG 210810Z 10014G19KT 10SM OVC016 02/M04 A3020 370 64 -1000 110/14G19 RMK AO2
14840KMKG MKG20101121031510411/21/10 03:15:31  5-MIN KMKG 210815Z 10013G19KT 10SM OVC016 02/M04 A3020 370 64 -1000 110/13G19 RMK AO2
14840KMKG MKG20101121032010411/21/10 03:20:31  5-MIN KMKG 210820Z 10014G18KT 10SM OVC016 02/M04 A3019 380 64 -1000 100/14G18 RMK AO2
14840KMKG MKG20101121032509811/21/10 03:25:31  5-MIN KMKG 210825Z 10014KT 10SM OVC016 02/M04 A3019 380 64 -1000 100/14 RMK AO2
14840KMKG MKG20101121033010411/21/10 03:30:31  5-MIN KMKG 210830Z 10012G18KT 10SM OVC016 02/M04 A3019 380 64 -1000 100/12G18 RMK AO2
14840KMKG MKG20101121033510411/21/10 03:35:31  5-MIN KMKG 210835Z 10013G19KT 10SM OVC016 02/M04 A3019 380 64 -1000 100/13G19 RMK AO2
14840KMKG MKG20101121034009811/21/10 03:40:31  5-MIN KMKG 210840Z 10012KT 10SM OVC016 02/M03 A3019 390 67 -1000 110/12 RMK AO2
14840KMKG MKG20101121034510411/21/10 03:45:31  5-MIN KMKG 210845Z 10015G20KT 10SM OVC016 02/M03 A3018 390 67 -1000 110/15G20 RMK AO2
14840KMKG MKG20101121035012711/21/10 03:50:31  5-MIN KMKG 210850Z 10017G24KT 10SM OVC016 02/M03 A3018 390 67 -1000 110/17G24 RMK AO2 SLP226 T00221033 55011
14840KMKG MKG20101121035512711/21/10 03:55:31  5-MIN KMKG 210855Z 10014G24KT 10SM OVC016 02/M03 A3018 390 67 -1000 110/14G24 RMK AO2 SLP224 T00221033 57029
14840KMKG MKG20101121040010411/21/10 04:00:31  5-MIN KMKG 210900Z 10013G21KT 10SM OVC016 02/M03 A3018 390 67 -1000 100/13G21 RMK AO2
14840KMKG MKG20101121040510411/21/10 04:05:31  5-MIN KMKG 210905Z 11012G19KT 10SM OVC016 02/M03 A3018 390 67 -1000 110/12G19 RMK AO2
14840KMKG MKG20101121041010411/21/10 04:10:31  5-MIN KMKG 210910Z 11010G19KT 10SM OVC016 02/M03 A3018 390 67 -1000 120/10G19 RMK AO2
14840KMKG MKG20101121041509811/21/10 04:15:31  5-MIN KMKG 210915Z 11014KT 10SM OVC016 02/M03 A3018 390 67 -1000 110/14 RMK AO2
14840KMKG MKG20101121042009811/21/10 04:20:31  5-MIN KMKG 210920Z 11011KT 10SM OVC016 02/M03 A3018 390 69 -1000 110/11 RMK AO2
14840KMKG MKG20101121042509811/21/10 04:25:31  5-MIN KMKG 210925Z 11012KT 10SM OVC016 02/M03 A3017 400 69 -1000 110/12 RMK AO2
14840KMKG MKG20101121043009811/21/10 04:30:31  5-MIN KMKG 210930Z 11013KT 10SM OVC016 02/M03 A3017 400 69 -1000 110/13 RMK AO2
14840KMKG MKG20101121043509711/21/10 04:35:31  5-MIN KMKG 210935Z 11012KT 10SM OVC016 03/M03 A3017 400 67 -900 120/12 RMK AO2
14840KMKG MKG20101121044010311/21/10 04:40:31  5-MIN KMKG 210940Z 11011G17KT 10SM OVC016 03/M02 A3017 400 69 -900 120/11G17 RMK AO2
14840KMKG MKG20101121044509711/21/10 04:45:31  5-MIN KMKG 210945Z 11012KT 10SM OVC016 03/M02 A3017 400 69 -900 120/12 RMK AO2
14840KMKG MKG20101121045012011/21/10 04:50:31  5-MIN KMKG 210950Z 11014G21KT 10SM OVC016 03/M02 A3017 400 69 -900 120/14G21 RMK AO2 SLP222 T00281022
14840KMKG MKG20101121045512011/21/10 04:55:31  5-MIN KMKG 210955Z 11012G21KT 10SM OVC016 03/M02 A3017 400 69 -900 120/12G21 RMK AO2 SLP222 T00281022
14840KMKG MKG20101121050010311/21/10 05:00:31  5-MIN KMKG 211000Z 11014G18KT 10SM OVC016 03/M02 A3017 400 69 -900 120/14G18 RMK AO2
14840KMKG MKG20101121050509711/21/10 05:05:31  5-MIN KMKG 211005Z 12015KT 10SM OVC016 03/M02 A3017 400 69 -900 120/15 RMK AO2
14840KMKG MKG20101121051009711/21/10 05:10:31  5-MIN KMKG 211010Z 12014KT 10SM OVC016 03/M02 A3016 410 69 -900 120/14 RMK AO2
14840KMKG MKG20101121051509711/21/10 05:15:31  5-MIN KMKG 211015Z 11014KT 10SM OVC016 03/M02 A3016 410 69 -900 110/14 RMK AO2
14840KMKG MKG20101121052010311/21/10 05:20:31  5-MIN KMKG 211020Z 11012G19KT 10SM OVC016 03/M02 A3016 410 69 -900 110/12G19 RMK AO2
14840KMKG MKG20101121052510311/21/10 05:25:31  5-MIN KMKG 211025Z 11012G18KT 10SM OVC016 03/M02 A3016 410 69 -900 110/12G18 RMK AO2
14840KMKG MKG20101121053010311/21/10 05:30:31  5-MIN KMKG 211030Z 11011G18KT 10SM OVC016 03/M02 A3016 410 69 -900 120/11G18 RMK AO2
14840KMKG MKG20101121053509711/21/10 05:35:31  5-MIN KMKG 211035Z 10010KT 10SM OVC016 03/M02 A3016 410 72 -900 110/10 RMK AO2
14840KMKG MKG20101121054009711/21/10 05:40:31  5-MIN KMKG 211040Z 12010KT 10SM OVC016 03/M02 A3016 410 72 -900 120/10 RMK AO2
14840KMKG MKG20101121054509711/21/10 05:45:31  5-MIN KMKG 211045Z 11012KT 10SM OVC016 03/M02 A3015 420 72 -900 110/12 RMK AO2
14840KMKG MKG20101121055011411/21/10 05:50:31  5-MIN KMKG 211050Z 11012KT 10SM OVC016 03/M02 A3015 420 72 -900 110/12 RMK AO2 SLP215 T00281017
14840KMKG MKG20101121055511411/21/10 05:55:31  5-MIN KMKG 211055Z 11012KT 10SM OVC016 03/M02 A3014 430 72 -900 110/12 RMK AO2 SLP213 T00281017
14840KMKG MKG20101121060009711/21/10 06:00:31  5-MIN KMKG 211100Z 10012KT 10SM OVC016 03/M02 A3014 430 72 -900 100/12 RMK AO2
14840KMKG MKG20101121060509711/21/10 06:05:31  5-MIN KMKG 211105Z 11011KT 10SM OVC016 03/M02 A3014 430 72 -900 120/11 RMK AO2
14840KMKG MKG20101121061010311/21/10 06:10:31  5-MIN KMKG 211110Z 11010G18KT 10SM OVC016 03/M02 A3014 430 72 -900 120/10G18 RMK AO2
14840KMKG MKG20101121061510311/21/10 06:15:31  5-MIN KMKG 211115Z 10011G18KT 10SM OVC016 03/M02 A3013 430 72 -900 110/11G18 RMK AO2
14840KMKG MKG20101121062009711/21/10 06:20:31  5-MIN KMKG 211120Z 10012KT 10SM OVC016 03/M02 A3012 450 70 -800 110/12 RMK AO2
14840KMKG MKG20101121062510411/21/10 06:25:31  5-MIN KMKG 211125Z 11009KT 10SM BKN016 OVC027 03/M02 A3012 450 70 -800 110/09 RMK AO2
14840KMKG MKG20101121063011011/21/10 06:30:31  5-MIN KMKG 211130Z 10012G16KT 10SM BKN018 OVC025 03/M02 A3011 450 70 -800 110/12G16 RMK AO2
14840KMKG MKG20101121063510411/21/10 06:35:31  5-MIN KMKG 211135Z 10010KT 10SM BKN018 OVC025 03/M02 A3011 450 70 -800 110/10 RMK AO2
14840KMKG MKG20101121064010411/21/10 06:40:31  5-MIN KMKG 211140Z 10013KT 10SM BKN018 OVC025 03/M02 A3011 450 70 -800 110/13 RMK AO2
14840KMKG MKG20101121064511011/21/10 06:45:31  5-MIN KMKG 211145Z 10015G19KT 10SM BKN018 OVC025 03/M02 A3011 460 70 -800 110/15G19 RMK AO2
14840KMKG MKG20101121065014511/21/10 06:50:31  5-MIN KMKG 211150Z 10010G19KT 10SM BKN018 OVC025 03/M02 A3010 460 70 -800 110/10G19 RMK AO2 SLP201 T00331017 10033 20011 57029
14840KMKG MKG20101121065513211/21/10 06:55:31  5-MIN KMKG 211155Z 11012KT 10SM OVC018 03/M01 A3011 460 72 -800 120/12 RMK AO2 SLP202 T00331011 10033 20011 58023
14840KMKG MKG20101121070009711/21/10 07:00:31  5-MIN KMKG 211200Z 10013KT 10SM OVC018 03/M02 A3011 460 70 -800 110/13 RMK AO2
14840KMKG MKG20101121070509711/21/10 07:05:31  5-MIN KMKG 211205Z 11013KT 10SM OVC018 03/M02 A3011 460 70 -800 110/13 RMK AO2
14840KMKG MKG20101121071009711/21/10 07:10:31  5-MIN KMKG 211210Z 11012KT 10SM OVC018 03/M01 A3010 460 72 -700 110/12 RMK AO2
14840KMKG MKG20101121071509711/21/10 07:15:31  5-MIN KMKG 211215Z 10015KT 10SM OVC018 03/M02 A3010 470 70 -700 100/15 RMK AO2
14840KMKG MKG20101121072009711/21/10 07:20:31  5-MIN KMKG 211220Z 10014KT 10SM OVC018 03/M01 A3009 470 72 -700 100/14 RMK AO2
14840KMKG MKG20101121072510311/21/10 07:25:31  5-MIN KMKG 211225Z 10013G20KT 10SM OVC018 03/M02 A3009 470 70 -700 110/13G20 RMK AO2
14840KMKG MKG20101121073010311/21/10 07:30:31  5-MIN KMKG 211230Z 10014G20KT 10SM OVC018 03/M01 A3009 470 72 -700 110/14G20 RMK AO2
14840KMKG MKG20101121073510311/21/10 07:35:31  5-MIN KMKG 211235Z 10011G19KT 10SM OVC018 03/M01 A3009 470 72 -700 100/11G19 RMK AO2
14840KMKG MKG20101121074009711/21/10 07:40:31  5-MIN KMKG 211240Z 10011KT 10SM OVC018 03/M01 A3009 470 72 -700 100/11 RMK AO2
14840KMKG MKG20101121074510311/21/10 07:45:31  5-MIN KMKG 211245Z 10013G18KT 10SM OVC018 03/M01 A3009 480 72 -700 100/13G18 RMK AO2
14840KMKG MKG20101121075011411/21/10 07:50:31  5-MIN KMKG 211250Z 10012KT 10SM OVC018 03/M01 A3009 480 72 -700 110/12 RMK AO2 SLP195 T00331011
14840KMKG MKG20101121075512011/21/10 07:55:31  5-MIN KMKG 211255Z 10014G21KT 10SM OVC016 03/M01 A3008 480 72 -700 100/14G21 RMK AO2 SLP192 T00331011
14840KMKG MKG20101121080010311/21/10 08:00:31  5-MIN KMKG 211300Z 10013G21KT 10SM OVC016 03/M01 A3007 490 72 -700 110/13G21 RMK AO2
14840KMKG MKG20101121080509711/21/10 08:05:31  5-MIN KMKG 211305Z 10013KT 10SM OVC016 03/M01 A3007 500 72 -700 110/13 RMK AO2
14840KMKG MKG20101121081010311/21/10 08:10:31  5-MIN KMKG 211310Z 10014G19KT 10SM OVC016 03/M01 A3006 500 72 -700 110/14G19 RMK AO2
14840KMKG MKG20101121081510311/21/10 08:15:31  5-MIN KMKG 211315Z 10013G19KT 10SM OVC016 04/M01 A3006 500 73 -600 100/13G19 RMK AO2
14840KMKG MKG20101121082010311/21/10 08:20:31  5-MIN KMKG 211320Z 10014G19KT 10SM OVC016 04/M01 A3006 500 73 -600 110/14G19 RMK AO2
14840KMKG MKG20101121082509711/21/10 08:25:31  5-MIN KMKG 211325Z 11014KT 10SM OVC016 04/M01 A3006 500 73 -600 110/14 RMK AO2
14840KMKG MKG20101121083011011/21/10 08:30:31  5-MIN KMKG 211330Z 10014G19KT 10SM BKN016 OVC042 04/M01 A3005 510 73 -600 110/14G19 RMK AO2
14840KMKG MKG20101121083511011/21/10 08:35:31  5-MIN KMKG 211335Z 11013G19KT 10SM BKN016 OVC042 04/M01 A3006 500 73 -600 110/13G19 RMK AO2
14840KMKG MKG20101121084011711/21/10 08:40:31  5-MIN KMKG 211340Z 12012G21KT 10SM SCT016 BKN041 OVC048 04/M01 A3006 500 73 -600 120/12G21 RMK AO2
14840KMKG MKG20101121084513111/21/10 08:45:31  5-MIN KMKG 211345Z 11014G21KT 10SM FEW016 SCT031 OVC041 04/00 A3005 510 73 -600 110/14G21 RMK AO2 CIG 030 RWY 14
14840KMKG MKG20101121085012711/21/10 08:50:31  5-MIN KMKG 211350Z 11015KT 10SM FEW018 BKN031 OVC041 04/00 A3005 510 73 -600 110/15 RMK AO2 SLP182 T00440000
14840KMKG MKG20101121085512011/21/10 08:55:31  5-MIN KMKG 211355Z 11012KT 10SM BKN029 OVC041 04/00 A3006 510 73 -600 110/12 RMK AO2 SLP183 T00440000
14840KMKG MKG20101121090010311/21/10 09:00:31  5-MIN KMKG 211400Z 11013KT 10SM BKN029 OVC040 04/00 A3005 510 73 -600 120/13 RMK AO2
14840KMKG MKG20101121090511011/21/10 09:05:31  5-MIN KMKG 211405Z 11013KT 10SM BKN026 BKN031 OVC038 04/00 A3005 510 73 -600 120/13 RMK AO2
14840KMKG MKG20101121091010311/21/10 09:10:31  5-MIN KMKG 211410Z 11015KT 10SM BKN026 OVC032 04/00 A3005 510 73 -600 110/15 RMK AO2
14840KMKG MKG20101121091510311/21/10 09:15:31  5-MIN KMKG 211415Z 11012KT 10SM BKN026 OVC032 04/01 A3005 510 76 -600 110/12 RMK AO2
14840KMKG MKG20101121092009611/21/10 09:20:31  5-MIN KMKG 211420Z 11013KT 10SM OVC024 05/01 A3005 510 73 -500 120/13 RMK AO2
14840KMKG MKG20101121092509611/21/10 09:25:31  5-MIN KMKG 211425Z 11011KT 10SM OVC024 05/01 A3006 500 73 -500 120/11 RMK AO2
14840KMKG MKG20101121093009611/21/10 09:30:31  5-MIN KMKG 211430Z 12012KT 10SM OVC024 05/01 A3006 500 73 -500 120/12 RMK AO2
14840KMKG MKG20101121093509611/21/10 09:35:31  5-MIN KMKG 211435Z 11008KT 10SM OVC022 05/01 A3006 500 73 -500 120/08 RMK AO2
14840KMKG MKG20101121094009611/21/10 09:40:31  5-MIN KMKG 211440Z 11010KT 10SM OVC022 05/01 A3006 500 76 -500 110/10 RMK AO2
14840KMKG MKG20101121094509511/21/10 09:45:31  5-MIN KMKG 211445Z 11010KT 9SM OVC020 05/01 A3006 500 76 -500 110/10 RMK AO2
14840KMKG MKG20101121095011811/21/10 09:50:31  5-MIN KMKG 211450Z 11010KT 9SM OVC020 06/01 A3006 500 73 -400 120/10 RMK AO2 SLP185 T00560011 58023
14840KMKG MKG20101121095511811/21/10 09:55:31  5-MIN KMKG 211455Z 12011KT 9SM OVC020 06/01 A3005 510 73 -400 120/11 RMK AO2 SLP183 T00560011 56017
14840KMKG MKG20101121100009511/21/10 10:00:31  5-MIN KMKG 211500Z 12014KT 9SM OVC018 06/01 A3005 510 73 -400 120/14 RMK AO2
14840KMKG MKG20101121100510211/21/10 10:05:31  5-MIN KMKG 211505Z 11012KT 8SM OVC018 06/02 A3004 520 76 -400 120/12 RMK AO2 PRESFR
14840KMKG MKG20101121101009511/21/10 10:10:31  5-MIN KMKG 211510Z 12013KT 8SM OVC018 06/02 A3003 530 76 -400 120/13 RMK AO2
14840KMKG MKG20101121101509511/21/10 10:15:31  5-MIN KMKG 211515Z 13013KT 8SM OVC018 06/02 A3004 520 76 -400 130/13 RMK AO2
14840KMKG MKG20101121102009511/21/10 10:20:31  5-MIN KMKG 211520Z 12012KT 8SM OVC016 06/02 A3003 530 73 -300 130/12 RMK AO2
14840KMKG MKG20101121102509511/21/10 10:25:31  5-MIN KMKG 211525Z 13010KT 8SM OVC016 06/02 A3004 520 73 -300 140/10 RMK AO2
14840KMKG MKG20101121103009511/21/10 10:30:31  5-MIN KMKG 211530Z 13012KT 7SM OVC016 06/02 A3003 530 73 -300 130/12 RMK AO2
14840KMKG MKG20101121103509511/21/10 10:35:31  5-MIN KMKG 211535Z 12014KT 7SM OVC016 06/02 A3003 520 76 -300 130/14 RMK AO2
14840KMKG MKG20101121104010111/21/10 10:40:31  5-MIN KMKG 211540Z 13009G18KT 7SM OVC016 06/02 A3003 530 76 -300 130/09G18 RMK AO2
14840KMKG MKG20101121104509511/21/10 10:45:31  5-MIN KMKG 211545Z 13010KT 7SM OVC016 06/02 A3003 530 76 -300 130/10 RMK AO2
14840KMKG MKG20101121105011211/21/10 10:50:31  5-MIN KMKG 211550Z 12010KT 7SM OVC016 06/02 A3003 530 76 -300 130/10 RMK AO2 SLP175 T00610022
14840KMKG MKG20101121105511211/21/10 10:55:31  5-MIN KMKG 211555Z 13010KT 7SM OVC016 06/02 A3003 530 76 -300 130/10 RMK AO2 SLP174 T00610022
14840KMKG MKG20101121110009811/21/10 11:00:31  5-MIN KMKG 211600Z 13011KT 6SM HZ OVC016 06/02 A3003 530 76 -300 130/11 RMK AO2
14840KMKG MKG20101121110509811/21/10 11:05:31  5-MIN KMKG 211605Z 14009KT 6SM HZ OVC016 07/02 A3002 530 73 -300 140/09 RMK AO2
14840KMKG MKG20101121111009811/21/10 11:10:31  5-MIN KMKG 211610Z 13008KT 6SM HZ OVC014 07/03 A3003 530 76 -300 140/08 RMK AO2
14840KMKG MKG20101121111509811/21/10 11:15:31  5-MIN KMKG 211615Z 13010KT 6SM HZ OVC014 07/03 A3002 540 76 -200 140/10 RMK AO2
14840KMKG MKG20101121112009811/21/10 11:20:31  5-MIN KMKG 211620Z 14009KT 5SM HZ OVC014 07/03 A3002 530 76 -300 140/09 RMK AO2
14840KMKG MKG20101121112509811/21/10 11:25:31  5-MIN KMKG 211625Z 14009KT 5SM HZ OVC014 07/03 A3002 540 76 -200 150/09 RMK AO2
14840KMKG MKG20101121113009811/21/10 11:30:31  5-MIN KMKG 211630Z 14009KT 5SM HZ OVC014 07/03 A3002 540 76 -200 140/09 RMK AO2
14840KMKG MKG20101121113509811/21/10 11:35:31  5-MIN KMKG 211635Z 14010KT 5SM HZ OVC014 07/03 A3002 540 76 -200 150/10 RMK AO2
14840KMKG MKG20101121114009811/21/10 11:40:31  5-MIN KMKG 211640Z 14008KT 5SM HZ OVC014 07/03 A3002 540 76 -200 150/08 RMK AO2
14840KMKG MKG20101121114509811/21/10 11:45:31  5-MIN KMKG 211645Z 14008KT 5SM HZ OVC014 07/03 A3001 540 76 -200 150/08 RMK AO2
14840KMKG MKG20101121115011511/21/10 11:50:31  5-MIN KMKG 211650Z 14009KT 4SM HZ OVC014 07/04 A3001 550 79 -200 140/09 RMK AO2 SLP167 T00720039
14840KMKG MKG20101121115511511/21/10 11:55:31  5-MIN KMKG 211655Z 14008KT 4SM HZ OVC014 08/04 A3000 550 76 -100 150/08 RMK AO2 SLP166 T00780039
14840KMKG MKG20101121120009811/21/10 12:00:31  5-MIN KMKG 211700Z 15009KT 4SM HZ OVC012 08/04 A3000 550 76 -100 150/09 RMK AO2
14840KMKG MKG20101121120509811/21/10 12:05:31  5-MIN KMKG 211705Z 15008KT 4SM HZ OVC012 08/04 A3000 560 76 -100 150/08 RMK AO2
14840KMKG MKG20101121121009811/21/10 12:10:31  5-MIN KMKG 211710Z 15008KT 4SM HZ OVC012 08/04 A2999 560 76 -100 150/08 RMK AO2
14840KMKG MKG20101121121509811/21/10 12:15:31  5-MIN KMKG 211715Z 14008KT 4SM HZ OVC012 08/04 A2999 570 76 -100 140/08 RMK AO2
14840KMKG MKG20101121122010011/21/10 12:20:31  5-MIN KMKG 211720Z 14010KT 4SM HZ OVC012 08/04 A2999 570 76 -100 150/10 RMK AO2 $
14840KMKG MKG20101121122510011/21/10 12:25:31  5-MIN KMKG 211725Z 14008KT 4SM HZ OVC012 08/04 A2998 570 79 -100 150/08 RMK AO2 $
14840KMKG MKG20101121123010011/21/10 12:30:31  5-MIN KMKG 211730Z 14009KT 4SM HZ OVC012 08/04 A2999 570 79 -100 150/09 RMK AO2 $
14840KMKG MKG20101121123510011/21/10 12:35:31  5-MIN KMKG 211735Z 14008KT 4SM HZ OVC012 08/04 A2998 570 79 -100 150/08 RMK AO2 $
14840KMKG MKG20101121124010011/21/10 12:40:31  5-MIN KMKG 211740Z 14007KT 4SM HZ OVC012 08/04 A2998 580 79 -100 150/07 RMK AO2 $
14840KMKG MKG20101121124510011/21/10 12:45:31  5-MIN KMKG 211745Z 14008KT 4SM HZ OVC012 08/04 A2997 580 79 -100 150/08 RMK AO2 $
14840KMKG MKG20101121125013211/21/10 12:50:31  5-MIN KMKG 211750Z 14008KT 4SM HZ OVC012 08/04 A2997 580 76 0 140/08 RMK AO2 SLP153 T00830044 10083 20033 56017 $
14840KMKG MKG20101121125513211/21/10 12:55:31  5-MIN KMKG 211755Z 14008KT 4SM HZ OVC012 08/04 A2997 590 76 0 140/08 RMK AO2 SLP152 T00830044 10083 20033 58028 $
14840KMKG MKG20101121130009711/21/10 13:00:31  5-MIN KMKG 211800Z 15008KT 4SM HZ OVC012 08/05 A2996 590 79 0 150/08 RMK AO2 $
14840KMKG MKG20101121130509711/21/10 13:05:31  5-MIN KMKG 211805Z 14009KT 4SM HZ OVC012 08/05 A2996 600 79 0 150/09 RMK AO2 $
14840KMKG MKG20101121131009511/21/10 13:10:31  5-MIN KMKG 211810Z 14010KT 3SM HZ OVC012 08/05 A2995 600 79 0 140/10 RMK AO2
14840KMKG MKG20101121131509511/21/10 13:15:31  5-MIN KMKG 211815Z 14009KT 3SM HZ OVC012 08/05 A2995 600 79 0 140/09 RMK AO2
14840KMKG MKG20101121132009511/21/10 13:20:31  5-MIN KMKG 211820Z 14008KT 3SM HZ OVC012 08/05 A2995 610 79 0 140/08 RMK AO2
14840KMKG MKG20101121132509511/21/10 13:25:31  5-MIN KMKG 211825Z 13010KT 3SM HZ OVC012 08/05 A2994 610 79 0 140/10 RMK AO2
14840KMKG MKG20101121133009511/21/10 13:30:31  5-MIN KMKG 211830Z 14009KT 3SM HZ OVC012 08/05 A2994 610 79 0 150/09 RMK AO2
14840KMKG MKG20101121133509711/21/10 13:35:31  5-MIN KMKG 211835Z 14007KT 3SM HZ OVC012 09/06 A2994 610 79 100 150/07 RMK AO2
14840KMKG MKG20101121134009711/21/10 13:40:31  5-MIN KMKG 211840Z 15010KT 3SM HZ OVC012 09/06 A2994 610 79 100 160/10 RMK AO2
14840KMKG MKG20101121134509711/21/10 13:45:31  5-MIN KMKG 211845Z 14010KT 3SM HZ OVC012 09/06 A2994 610 79 100 150/10 RMK AO2
14840KMKG MKG20101121135011411/21/10 13:50:31  5-MIN KMKG 211850Z 15008KT 3SM HZ OVC012 09/06 A2994 610 79 100 160/08 RMK AO2 SLP143 T00890056
14840KMKG MKG20101121135511411/21/10 13:55:31  5-MIN KMKG 211855Z 15008KT 3SM HZ OVC012 09/06 A2994 610 79 100 150/08 RMK AO2 SLP143 T00890056
14840KMKG MKG20101121140009711/21/10 14:00:31  5-MIN KMKG 211900Z 15008KT 3SM HZ OVC012 09/06 A2993 620 79 100 150/08 RMK AO2
14840KMKG MKG20101121140509711/21/10 14:05:31  5-MIN KMKG 211905Z 15008KT 3SM HZ OVC012 09/06 A2994 620 79 100 150/08 RMK AO2
14840KMKG MKG20101121141010111/21/10 14:10:31  5-MIN KMKG 211910Z 14007KT 2 1/2SM HZ OVC012 09/06 A2993 620 79 100 140/07 RMK AO2
14840KMKG MKG20101121141510111/21/10 14:15:31  5-MIN KMKG 211915Z 15009KT 2 1/2SM HZ OVC012 09/06 A2993 620 79 100 150/09 RMK AO2
14840KMKG MKG20101121142011111/21/10 14:20:31  5-MIN KMKG 211920Z 14007KT 2 1/2SM HZ OVC012 09/06 A2993 620 83 100 150/07 RMK AO2 SFC VIS 3
14840KMKG MKG20101121142511111/21/10 14:25:31  5-MIN KMKG 211925Z 15008KT 2 1/2SM HZ OVC012 09/06 A2992 630 83 100 150/08 RMK AO2 SFC VIS 3
14840KMKG MKG20101121143011111/21/10 14:30:31  5-MIN KMKG 211930Z 15007KT 2 1/2SM HZ OVC012 09/06 A2992 630 83 100 150/07 RMK AO2 SFC VIS 3
14840KMKG MKG20101121143511111/21/10 14:35:31  5-MIN KMKG 211935Z 15008KT 2 1/2SM HZ OVC012 09/06 A2992 630 83 100 150/08 RMK AO2 SFC VIS 3
14840KMKG MKG20101121144011111/21/10 14:40:31  5-MIN KMKG 211940Z 15008KT 2 1/2SM HZ OVC012 09/06 A2992 630 79 200 160/08 RMK AO2 SFC VIS 3
14840KMKG MKG20101121144511111/21/10 14:45:31  5-MIN KMKG 211945Z 15006KT 2 1/2SM HZ OVC012 09/06 A2992 630 79 200 160/06 RMK AO2 SFC VIS 3
14840KMKG MKG20101121145012811/21/10 14:50:31  5-MIN KMKG 211950Z 15007KT 2 1/2SM HZ OVC012 09/06 A2992 630 79 200 150/07 RMK AO2 SFC VIS 3 SLP136 T00940061
14840KMKG MKG20101121145512811/21/10 14:55:31  5-MIN KMKG 211955Z 14007KT 2 1/2SM HZ OVC012 09/06 A2991 640 79 200 140/07 RMK AO2 SFC VIS 3 SLP131 T00940061
14840KMKG MKG20101121150011111/21/10 15:00:31  5-MIN KMKG 212000Z 15006KT 2 1/2SM HZ OVC012 09/07 A2991 640 83 200 150/06 RMK AO2 SFC VIS 3
14840KMKG MKG20101121150511111/21/10 15:05:31  5-MIN KMKG 212005Z 14005KT 2 1/2SM HZ OVC012 09/07 A2991 640 83 200 140/05 RMK AO2 SFC VIS 3
14840KMKG MKG20101121151011111/21/10 15:10:31  5-MIN KMKG 212010Z 15007KT 2 1/2SM HZ OVC012 09/07 A2991 640 83 200 160/07 RMK AO2 SFC VIS 3
14840KMKG MKG20101121151511111/21/10 15:15:31  5-MIN KMKG 212015Z 14007KT 2 1/2SM HZ OVC012 10/07 A2990 650 80 200 140/07 RMK AO2 SFC VIS 3
14840KMKG MKG20101121152011111/21/10 15:20:31  5-MIN KMKG 212020Z 14007KT 2 1/2SM HZ OVC012 10/07 A2990 650 80 200 150/07 RMK AO2 SFC VIS 3
14840KMKG MKG20101121152511811/21/10 15:25:31  5-MIN KMKG 212025Z 14010KT 2 1/2SM HZ BKN012 OVC034 10/07 A2989 650 80 300 140/10 RMK AO2 SFC VIS 3
14840KMKG MKG20101121153011811/21/10 15:30:31  5-MIN KMKG 212030Z 14009KT 2 1/2SM HZ BKN012 OVC036 10/07 A2989 660 80 300 140/09 RMK AO2 SFC VIS 3
14840KMKG MKG20101121153511811/21/10 15:35:31  5-MIN KMKG 212035Z 15009KT 2 1/2SM HZ SCT012 OVC036 10/07 A2989 660 80 300 160/09 RMK AO2 SFC VIS 3
14840KMKG MKG20101121154011811/21/10 15:40:31  5-MIN KMKG 212040Z 14010KT 2 1/2SM HZ SCT012 OVC038 10/07 A2989 660 80 300 150/10 RMK AO2 SFC VIS 3
14840KMKG MKG20101121154511811/21/10 15:45:31  5-MIN KMKG 212045Z 15008KT 2 1/2SM HZ FEW012 OVC038 10/07 A2989 660 80 300 150/08 RMK AO2 SFC VIS 3
14840KMKG MKG20101121155013411/21/10 15:50:31  5-MIN KMKG 212050Z 14009KT 2 1/2SM HZ OVC038 10/07 A2989 660 83 300 150/09 RMK AO2 SFC VIS 3 SLP125 T01000072 58028
14840KMKG MKG20101121155513411/21/10 15:55:31  5-MIN KMKG 212055Z 14008KT 2 1/2SM HZ OVC038 10/07 A2989 660 83 300 150/08 RMK AO2 SFC VIS 4 SLP125 T01000072 56027
14840KMKG MKG20101121160010711/21/10 16:00:31  5-MIN KMKG 212100Z 13006KT 3SM HZ OVC038 10/07 A2988 670 83 300 140/06 RMK AO2 SFC VIS 4
14840KMKG MKG20101121160510711/21/10 16:05:31  5-MIN KMKG 212105Z 13009KT 3SM HZ OVC038 10/07 A2988 670 83 300 140/09 RMK AO2 SFC VIS 4
14840KMKG MKG20101121161010711/21/10 16:10:31  5-MIN KMKG 212110Z 13010KT 3SM HZ OVC038 10/07 A2988 670 83 300 140/10 RMK AO2 SFC VIS 4
14840KMKG MKG20101121161510711/21/10 16:15:31  5-MIN KMKG 212115Z 13008KT 3SM HZ OVC038 10/07 A2988 670 83 300 140/08 RMK AO2 SFC VIS 4
14840KMKG MKG20101121162010711/21/10 16:20:31  5-MIN KMKG 212120Z 13010KT 3SM HZ OVC036 10/07 A2988 670 83 300 140/10 RMK AO2 SFC VIS 4
14840KMKG MKG20101121162510711/21/10 16:25:31  5-MIN KMKG 212125Z 14009KT 3SM HZ OVC036 11/07 A2988 670 80 300 140/09 RMK AO2 SFC VIS 4
14840KMKG MKG20101121163011411/21/10 16:30:31  5-MIN KMKG 212130Z 14009KT 3SM HZ FEW020 OVC036 11/07 A2988 670 80 300 140/09 RMK AO2 SFC VIS 4
14840KMKG MKG20101121163511411/21/10 16:35:31  5-MIN KMKG 212135Z 13007KT 3SM HZ SCT020 OVC036 11/07 A2988 670 80 300 130/07 RMK AO2 SFC VIS 4
14840KMKG MKG20101121164011411/21/10 16:40:31  5-MIN KMKG 212140Z 14008KT 3SM HZ SCT020 OVC036 11/07 A2987 670 80 300 140/08 RMK AO2 SFC VIS 4
14840KMKG MKG20101121164511411/21/10 16:45:31  5-MIN KMKG 212145Z 14007KT 3SM HZ FEW020 OVC036 11/07 A2987 670 80 300 140/07 RMK AO2 SFC VIS 4
14840KMKG MKG20101121165013111/21/10 16:50:31  5-MIN KMKG 212150Z 14008KT 3SM HZ FEW020 OVC036 11/07 A2987 670 80 300 140/08 RMK AO2 SFC VIS 4 SLP120 T01060072
14840KMKG MKG20101121165513111/21/10 16:55:31  5-MIN KMKG 212155Z 14008KT 3SM HZ FEW020 OVC038 11/07 A2987 670 80 300 140/08 RMK AO2 SFC VIS 4 SLP119 T01060072
14840KMKG MKG20101121170011411/21/10 17:00:31  5-MIN KMKG 212200Z 14006KT 3SM HZ FEW018 OVC038 11/08 A2987 680 83 300 140/06 RMK AO2 SFC VIS 4
14840KMKG MKG20101121170510711/21/10 17:05:31  5-MIN KMKG 212205Z 13007KT 3SM HZ OVC038 11/08 A2987 680 83 300 130/07 RMK AO2 SFC VIS 4
14840KMKG MKG20101121171010711/21/10 17:10:31  5-MIN KMKG 212210Z 14006KT 3SM HZ OVC038 11/08 A2987 670 83 300 150/06 RMK AO2 SFC VIS 4
14840KMKG MKG20101121171511411/21/10 17:15:31  5-MIN KMKG 212215Z 15006KT 3SM HZ FEW026 OVC038 11/08 A2988 670 83 300 150/06 RMK AO2 SFC VIS 5
14840KMKG MKG20101121172011411/21/10 17:20:31  5-MIN KMKG 212220Z 14006KT 3SM HZ BKN024 OVC038 11/08 A2988 670 83 300 150/06 RMK AO2 SFC VIS 5
14840KMKG MKG20101121172511411/21/10 17:25:31  5-MIN KMKG 212225Z 13008KT 3SM HZ BKN022 OVC038 11/08 A2987 680 83 300 140/08 RMK AO2 SFC VIS 5
14840KMKG MKG20101121173011411/21/10 17:30:31  5-MIN KMKG 212230Z 15007KT 3SM HZ BKN022 OVC038 11/08 A2987 680 83 300 150/07 RMK AO2 SFC VIS 5
14840KMKG MKG20101121173512711/21/10 17:35:31  5-MIN KMKG 212235Z 14008KT 3SM -RA BKN022 OVC038 11/08 A2987 680 83 300 140/08 RMK AO2 SFC VIS 4 RAB35 P0000
14840KMKG MKG20101121174012011/21/10 17:40:31  5-MIN KMKG 212240Z 14007KT 3SM -RA OVC022 11/08 A2987 680 83 300 150/07 RMK AO2 SFC VIS 4 RAB35 P0000
14840KMKG MKG20101121174512211/21/10 17:45:31  5-MIN KMKG 212245Z 14008KT 3SM BR OVC022 11/08 A2987 680 86 300 140/08 RMK AO2 SFC VIS 5 RAB35E44 P0000
14840KMKG MKG20101121175013911/21/10 17:50:31  5-MIN KMKG 212250Z 14007KT 3SM BR OVC020 11/08 A2987 680 86 300 150/07 RMK AO2 SFC VIS 5 RAB35E44 SLP118 P0000 T01060083
14840KMKG MKG20101121175513911/21/10 17:55:31  5-MIN KMKG 212255Z 14007KT 3SM BR OVC020 11/08 A2987 680 86 300 150/07 RMK AO2 SFC VIS 5 RAB35E44 SLP117 P0000 T01060083
14840KMKG MKG20101121180010711/21/10 18:00:31  5-MIN KMKG 212300Z 14007KT 3SM BR OVC020 11/08 A2987 680 86 300 140/07 RMK AO2 SFC VIS 5
14840KMKG MKG20101121180510711/21/10 18:05:31  5-MIN KMKG 212305Z 14007KT 3SM BR OVC020 11/08 A2987 680 86 300 140/07 RMK AO2 SFC VIS 5
14840KMKG MKG20101121181010711/21/10 18:10:31  5-MIN KMKG 212310Z 15007KT 3SM BR OVC020 11/08 A2987 680 86 300 150/07 RMK AO2 SFC VIS 5
14840KMKG MKG20101121181510711/21/10 18:15:31  5-MIN KMKG 212315Z 14007KT 3SM BR OVC020 11/08 A2987 680 86 300 140/07 RMK AO2 SFC VIS 5
14840KMKG MKG20101121182010711/21/10 18:20:31  5-MIN KMKG 212320Z 15006KT 3SM BR OVC020 11/08 A2987 680 86 300 150/06 RMK AO2 SFC VIS 5
14840KMKG MKG20101121182510711/21/10 18:25:31  5-MIN KMKG 212325Z 14006KT 3SM BR OVC020 11/08 A2987 680 86 300 140/06 RMK AO2 SFC VIS 5
14840KMKG MKG20101121183010711/21/10 18:30:31  5-MIN KMKG 212330Z 14007KT 3SM BR OVC020 11/08 A2986 680 86 400 150/07 RMK AO2 SFC VIS 5
14840KMKG MKG20101121183510711/21/10 18:35:31  5-MIN KMKG 212335Z 15007KT 3SM HZ OVC020 11/08 A2986 680 83 400 160/07 RMK AO2 SFC VIS 5
14840KMKG MKG20101121184010711/21/10 18:40:31  5-MIN KMKG 212340Z 16006KT 3SM BR OVC020 11/09 A2986 680 86 400 170/06 RMK AO2 SFC VIS 5
14840KMKG MKG20101121184509711/21/10 18:45:31  5-MIN KMKG 212345Z 17010KT 5SM BR OVC018 11/09 A2987 680 86 400 170/10 RMK AO2
14840KMKG MKG20101121185013811/21/10 18:50:31  5-MIN KMKG 212350Z 16007KT 5SM HZ OVC018 12/09 A2987 680 83 500 170/07 RMK AO2 SLP117 60000 T01170089 10117 20083 56027
14840KMKG MKG20101121185513811/21/10 18:55:31  5-MIN KMKG 212355Z 18009KT 6SM HZ OVC018 12/09 A2987 680 83 500 190/09 RMK AO2 SLP117 60000 T01170089 10117 20083 56007
14840KMKG MKG20101121190010311/21/10 19:00:31  5-MIN KMKG 220000Z 18014G21KT 6SM HZ OVC018 12/09 A2986 680 80 600 190/14G21 RMK AO2
14840KMKG MKG20101121190510011/21/10 19:05:31  5-MIN KMKG 220005Z 18016G21KT 7SM OVC018 13/09 A2986 690 77 700 180/16G21 RMK AO2
14840KMKG MKG20101121191010011/21/10 19:10:31  5-MIN KMKG 220010Z 18016G23KT 7SM OVC018 13/09 A2986 690 77 700 190/16G23 RMK AO2
14840KMKG MKG20101121191510011/21/10 19:15:31  5-MIN KMKG 220015Z 19014G23KT 7SM OVC016 13/09 A2986 690 77 700 190/14G23 RMK AO2
14840KMKG MKG20101121192010011/21/10 19:20:31  5-MIN KMKG 220020Z 19016G22KT 7SM OVC016 13/09 A2986 690 77 700 190/16G22 RMK AO2
14840KMKG MKG20101121192510011/21/10 19:25:31  5-MIN KMKG 220025Z 19017G25KT 7SM OVC014 13/10 A2985 690 80 700 190/17G25 RMK AO2
14840KMKG MKG20101121193010011/21/10 19:30:31  5-MIN KMKG 220030Z 19017G25KT 7SM OVC014 13/10 A2985 690 80 700 190/17G25 RMK AO2
14840KMKG MKG20101121193511811/21/10 19:35:31  5-MIN KMKG 220035Z 19018G26KT 7SM OVC014 13/10 A2985 690 80 700 190/18G26 RMK AO2 PK WND 18026/0031
14840KMKG MKG20101121194011811/21/10 19:40:31  5-MIN KMKG 220040Z 19014G26KT 7SM OVC014 13/10 A2986 690 80 700 190/14G26 RMK AO2 PK WND 18026/0031
14840KMKG MKG20101121194511811/21/10 19:45:31  5-MIN KMKG 220045Z 19016G25KT 7SM OVC014 13/10 A2985 690 80 700 190/16G25 RMK AO2 PK WND 18026/0031
14840KMKG MKG20101121195013511/21/10 19:50:31  5-MIN KMKG 220050Z 19015G25KT 7SM OVC014 13/10 A2985 690 80 700 190/15G25 RMK AO2 PK WND 18026/0031 SLP113 T01330100
14840KMKG MKG20101121195513511/21/10 19:55:31  5-MIN KMKG 220055Z 19016G23KT 7SM OVC012 13/10 A2986 690 80 700 190/16G23 RMK AO2 PK WND 18026/0031 SLP114 T01330100
14840KMKG MKG20101121200010011/21/10 20:00:31  5-MIN KMKG 220100Z 19014G23KT 7SM OVC012 13/10 A2985 690 80 700 190/14G23 RMK AO2
14840KMKG MKG20101121200510011/21/10 20:05:31  5-MIN KMKG 220105Z 19015G23KT 7SM OVC012 13/11 A2985 690 83 700 190/15G23 RMK AO2
14840KMKG MKG20101121201010611/21/10 20:10:31  5-MIN KMKG 220110Z 19015G23KT 7SM OVC012 13/11 A2986 690 83 700 190/15G23 RMK AO2 P0001
14840KMKG MKG20101121201510611/21/10 20:15:31  5-MIN KMKG 220115Z 19014G23KT 7SM OVC012 13/11 A2986 690 86 600 190/14G23 RMK AO2 P0001
14840KMKG MKG20101121202012411/21/10 20:20:31  5-MIN KMKG 220120Z 19015G28KT 7SM OVC010 13/11 A2985 690 83 700 190/15G28 RMK AO2 PK WND 19028/0117 P0001
14840KMKG MKG20101121202512411/21/10 20:25:31  5-MIN KMKG 220125Z 19016G28KT 7SM OVC010 13/11 A2986 690 86 600 190/16G28 RMK AO2 PK WND 19028/0117 P0001
14840KMKG MKG20101121203012411/21/10 20:30:31  5-MIN KMKG 220130Z 19016G26KT 7SM OVC010 13/11 A2986 690 83 700 200/16G26 RMK AO2 PK WND 19028/0117 P0001
14840KMKG MKG20101121203512411/21/10 20:35:31  5-MIN KMKG 220135Z 19015G26KT 7SM OVC010 13/11 A2985 690 86 600 190/15G26 RMK AO2 PK WND 19028/0117 P0001
14840KMKG MKG20101121204013411/21/10 20:40:31  5-MIN KMKG 220140Z 19013G23KT 7SM -RA OVC010 13/11 A2985 690 86 600 190/13G23 RMK AO2 PK WND 19028/0117 RAB36 P0001
14840KMKG MKG20101121204513411/21/10 20:45:31  5-MIN KMKG 220145Z 18019G24KT 7SM -RA OVC010 13/11 A2985 700 86 600 190/19G24 RMK AO2 PK WND 19028/0117 RAB36 P0001
14840KMKG MKG20101121205016211/21/10 20:50:31  5-MIN KMKG 220150Z 18015G26KT 7SM OVC010 13/11 A2985 700 83 700 190/15G26 RMK AO2 PK WND 19028/0117 RAB36E47 CIG 008V013 SLP110 P0001 T01330106
14840KMKG MKG20101121205516211/21/10 20:55:31  5-MIN KMKG 220155Z 19018G26KT 7SM OVC010 13/11 A2985 700 83 700 190/18G26 RMK AO2 PK WND 19028/0117 RAB36E47 CIG 008V013 SLP110 P0001 T01330106
14840KMKG MKG20101121210011511/21/10 21:00:31  5-MIN KMKG 220200Z 18016G23KT 6SM HZ OVC010 13/11 A2985 700 83 700 190/16G23 RMK AO2 CIG 008V013
14840KMKG MKG20101121210510311/21/10 21:05:31  5-MIN KMKG 220205Z 19016G23KT 6SM BR OVC010 13/11 A2984 700 86 600 190/16G23 RMK AO2
14840KMKG MKG20101121211010311/21/10 21:10:31  5-MIN KMKG 220210Z 19016G23KT 6SM HZ OVC010 13/11 A2985 700 83 700 190/16G23 RMK AO2
14840KMKG MKG20101121211511011/21/10 21:15:31  5-MIN KMKG 220215Z 19013G24KT 6SM BR BKN010 OVC014 13/11 A2984 700 86 700 190/13G24 RMK AO2
14840KMKG MKG20101121212011011/21/10 21:20:31  5-MIN KMKG 220220Z 19016G24KT 6SM BR BKN010 OVC014 13/11 A2984 700 86 700 200/16G24 RMK AO2
14840KMKG MKG20101121212511011/21/10 21:25:31  5-MIN KMKG 220225Z 19016G21KT 6SM BR BKN010 OVC014 13/11 A2984 700 86 700 200/16G21 RMK AO2
14840KMKG MKG20101121213011011/21/10 21:30:31  5-MIN KMKG 220230Z 19016G24KT 6SM BR BKN010 OVC014 13/11 A2984 700 86 700 190/16G24 RMK AO2
14840KMKG MKG20101121213512211/21/10 21:35:31  5-MIN KMKG 220235Z 19016G24KT 6SM BR BKN010 OVC016 13/11 A2984 700 86 700 200/16G24 RMK AO2 CIG 008V014
14840KMKG MKG20101121214012211/21/10 21:40:31  5-MIN KMKG 220240Z 19016G24KT 6SM BR BKN010 OVC016 13/11 A2984 710 86 700 190/16G24 RMK AO2 CIG 008V013
14840KMKG MKG20101121214511011/21/10 21:45:31  5-MIN KMKG 220245Z 19014G22KT 6SM BR BKN010 OVC016 13/11 A2984 700 86 700 200/14G22 RMK AO2
14840KMKG MKG20101121215013911/21/10 21:50:31  5-MIN KMKG 220250Z 19018G24KT 6SM BR BKN010 OVC018 13/11 A2984 700 86 700 200/18G24 RMK AO2 SLP107 60001 T01330111 56007
14840KMKG MKG20101121215514611/21/10 21:55:31  5-MIN KMKG 220255Z 19016G24KT 6SM BR SCT010 BKN013 OVC070 13/11 A2984 700 86 700 190/16G24 RMK AO2 SLP107 60001 T01330111 56008
14840KMKG MKG20101121220013811/21/10 22:00:31  5-MIN KMKG 220300Z 19017G24KT 6SM BR SCT010 BKN018 OVC070 13/11 A2984 710 86 700 190/17G24 RMK AO2 CIG 013 RWY 14 P0001
14840KMKG MKG20101121220513811/21/10 22:05:31  5-MIN KMKG 220305Z 20016G24KT 6SM BR SCT010 BKN018 OVC075 13/11 A2984 700 86 700 200/16G24 RMK AO2 CIG 010 RWY 14 P0001
14840KMKG MKG20101121221011611/21/10 22:10:31  5-MIN KMKG 220310Z 19014G24KT 6SM BR SCT010 OVC075 13/11 A2984 700 86 700 190/14G24 RMK AO2 P0001
14840KMKG MKG20101121221511611/21/10 22:15:31  5-MIN KMKG 220315Z 19015G21KT 6SM BR FEW010 OVC070 13/11 A2984 700 86 700 200/15G21 RMK AO2 P0001
14840KMKG MKG20101121222012311/21/10 22:20:31  5-MIN KMKG 220320Z 20015G21KT 6SM BR FEW010 BKN060 OVC075 13/11 A2985 700 86 700 210/15G21 RMK AO2 P0001
14840KMKG MKG20101121222512311/21/10 22:25:31  5-MIN KMKG 220325Z 19013G23KT 6SM BR FEW010 BKN065 OVC080 13/11 A2985 700 86 700 200/13G23 RMK AO2 P0001
14840KMKG MKG20101121223013811/21/10 22:30:31  5-MIN KMKG 220330Z 19015G24KT 6SM BR FEW010 BKN065 OVC080 13/11 A2985 700 86 700 200/15G24 RMK AO2 CIG 050 RWY 14 P0001
14840KMKG MKG20101121223512311/21/10 22:35:31  5-MIN KMKG 220335Z 19015G24KT 6SM BR FEW043 BKN065 OVC080 13/11 A2985 700 86 700 200/15G24 RMK AO2 P0001
14840KMKG MKG20101121224012311/21/10 22:40:31  5-MIN KMKG 220340Z 19017G24KT 6SM BR FEW038 BKN047 OVC080 13/11 A2985 700 86 700 190/17G24 RMK AO2 P0001
14840KMKG MKG20101121224512311/21/10 22:45:31  5-MIN KMKG 220345Z 19016G22KT 6SM BR BKN045 BKN060 OVC085 13/11 A2984 700 86 700 200/16G22 RMK AO2 P0001
14840KMKG MKG20101121225014011/21/10 22:50:31  5-MIN KMKG 220350Z 20017G22KT 6SM BR SCT045 BKN070 OVC085 13/11 A2984 700 86 700 200/17G22 RMK AO2 SLP109 P0001 T01330111
14840KMKG MKG20101121225517311/21/10 22:55:31  5-MIN KMKG 220355Z 19014G27KT 6SM HZ SCT046 BKN080 OVC090 14/11 A2984 700 83 800 200/14G27 RMK AO2 PK WND 18027/0352 CIG 060 RWY 14 SLP107 P0001 T01390111
14840KMKG MKG20101121230012911/21/10 23:00:31  5-MIN KMKG 220400Z 19017G27KT 7SM FEW043 SCT050 OVC085 14/11 A2984 710 83 800 190/17G27 RMK AO2 CIG 055 RWY 14
14840KMKG MKG20101121230510711/21/10 23:05:31  5-MIN KMKG 220405Z 19016G24KT 7SM FEW043 BKN080 14/11 A2984 710 83 800 200/16G24 RMK AO2
14840KMKG MKG20101121231011411/21/10 23:10:31  5-MIN KMKG 220410Z 20016G24KT 7SM FEW042 SCT070 BKN085 14/11 A2984 700 83 800 200/16G24 RMK AO2
14840KMKG MKG20101121231513211/21/10 23:15:31  5-MIN KMKG 220415Z 19016G26KT 7SM FEW042 SCT070 BKN085 14/11 A2984 710 83 800 190/16G26 RMK AO2 PK WND 19026/0411
14840KMKG MKG20101121232013211/21/10 23:20:31  5-MIN KMKG 220420Z 19015G26KT 7SM FEW050 SCT065 BKN080 14/11 A2984 710 83 800 200/15G26 RMK AO2 PK WND 19026/0411
14840KMKG MKG20101121232513211/21/10 23:25:31  5-MIN KMKG 220425Z 20015G23KT 7SM FEW040 BKN070 BKN080 14/11 A2984 700 83 800 200/15G23 RMK AO2 PK WND 19026/0411
14840KMKG MKG20101121233012511/21/10 23:30:31  5-MIN KMKG 220430Z 19018G23KT 7SM FEW040 BKN075 14/11 A2984 700 83 800 200/18G23 RMK AO2 PK WND 19026/0411
14840KMKG MKG20101121233512511/21/10 23:35:31  5-MIN KMKG 220435Z 19016G22KT 7SM FEW040 OVC070 14/11 A2984 700 83 800 190/16G22 RMK AO2 PK WND 19026/0411
14840KMKG MKG20101121234011811/21/10 23:40:31  5-MIN KMKG 220440Z 19015G24KT 7SM OVC070 14/11 A2984 700 83 800 200/15G24 RMK AO2 PK WND 19026/0411
14840KMKG MKG20101121234512511/21/10 23:45:31  5-MIN KMKG 220445Z 20015G24KT 7SM FEW050 OVC070 13/11 A2984 700 86 700 200/15G24 RMK AO2 PK WND 19026/0411
14840KMKG MKG20101121235015911/21/10 23:50:31  5-MIN KMKG 220450Z 19014G22KT 7SM FEW038 SCT050 OVC070 13/11 A2984 700 86 700 200/14G22 RMK AO2 PK WND 19026/0411 SLP108 T01330111 401390011
14840KMKG MKG20101121235515911/21/10 23:55:31  5-MIN KMKG 220455Z 19015G22KT 7SM SCT038 SCT050 OVC070 13/11 A2984 700 86 700 200/15G22 RMK AO2 PK WND 19026/0411 SLP108 T01330111 401390011
14840KMKG MKG20101122000010811/22/10 00:00:32  5-MIN KMKG 220500Z 19015KT 7SM SCT040 SCT050 OVC070 13/11 A2984 700 86 700 200/15 RMK AO2
14840KMKG MKG20101122000511411/22/10 00:05:31  5-MIN KMKG 220505Z 19016G22KT 7SM SCT040 BKN050 OVC075 13/11 A2984 700 86 700 200/16G22 RMK AO2
14840KMKG MKG20101122001011411/22/10 00:10:31  5-MIN KMKG 220510Z 19013G23KT 7SM BKN040 BKN060 OVC075 14/11 A2984 700 83 800 200/13G23 RMK AO2
14840KMKG MKG20101122001511311/22/10 00:15:31  5-MIN KMKG 220515Z 19015G23KT 7SM BKN038 OVC070 14/11 A2985 700 83 800 200/15G23 RMK AO2 P0001
14840KMKG MKG20101122002011311/22/10 00:20:31  5-MIN KMKG 220520Z 20019G25KT 8SM BKN038 OVC070 14/11 A2985 700 83 800 200/19G25 RMK AO2 P0001
14840KMKG MKG20101122002511311/22/10 00:25:31  5-MIN KMKG 220525Z 20015G25KT 8SM BKN040 OVC070 14/11 A2984 700 83 800 200/15G25 RMK AO2 P0001
14840KMKG MKG20101122003012011/22/10 00:30:31  5-MIN KMKG 220530Z 20016G25KT 8SM BKN040 BKN046 OVC070 14/11 A2984 700 83 800 200/16G25 RMK AO2 P0001
14840KMKG MKG20101122003513811/22/10 00:35:31  5-MIN KMKG 220535Z 19019G28KT 8SM BKN040 BKN046 OVC070 14/11 A2984 700 83 800 200/19G28 RMK AO2 PK WND 20028/0535 P0001
14840KMKG MKG20101122004013211/22/10 00:40:31  5-MIN KMKG 220540Z 19018G28KT 8SM BKN040 BKN046 OVC075 14/12 A2984 700 86 800 200/18G28 RMK AO2 PK WND 20028/0535
14840KMKG MKG20101122004513211/22/10 00:45:31  5-MIN KMKG 220545Z 19017G25KT 8SM BKN038 BKN046 OVC075 14/11 A2984 700 83 800 200/17G25 RMK AO2 PK WND 20028/0535
14840KMKG MKG20101122005018211/22/10 00:50:31  5-MIN KMKG 220550Z 19014G24KT 8SM SCT038 BKN046 OVC075 14/11 A2984 700 83 800 190/14G24 RMK AO2 PK WND 20028/0535 CIG 039 RWY 14 SLP107 T01390111 10139 20122 56008
14840KMKG MKG20101122005516711/22/10 00:55:31  5-MIN KMKG 220555Z 19016G23KT 8SM SCT038 BKN046 OVC075 14/12 A2984 700 86 800 200/16G23 RMK AO2 PK WND 20028/0535 SLP107 T01390117 10139 20122 51001
14840KMKG MKG20101122010011411/22/10 01:00:31  5-MIN KMKG 220600Z 19015G23KT 8SM FEW022 BKN037 OVC075 14/12 A2985 700 86 800 200/15G23 RMK AO2
14840KMKG MKG20101122010511411/22/10 01:05:31  5-MIN KMKG 220605Z 19014G21KT 8SM SCT022 BKN037 OVC075 14/12 A2984 700 86 800 200/14G21 RMK AO2
14840KMKG MKG20101122011011411/22/10 01:10:31  5-MIN KMKG 220610Z 19016G21KT 8SM BKN022 BKN035 OVC075 14/12 A2984 700 86 800 200/16G21 RMK AO2
14840KMKG MKG20101122011511411/22/10 01:15:31  5-MIN KMKG 220615Z 20012G22KT 8SM BKN022 BKN035 OVC046 14/12 A2984 700 86 800 200/12G22 RMK AO2
14840KMKG MKG20101122012010711/22/10 01:20:31  5-MIN KMKG 220620Z 20015G22KT 8SM BKN022 OVC035 14/12 A2984 700 86 800 200/15G22 RMK AO2
14840KMKG MKG20101122012510011/22/10 01:25:31  5-MIN KMKG 220625Z 20014G22KT 8SM OVC022 14/12 A2984 700 86 800 200/14G22 RMK AO2
14840KMKG MKG20101122013010011/22/10 01:30:31  5-MIN KMKG 220630Z 20016G21KT 8SM OVC020 14/12 A2984 700 86 800 200/16G21 RMK AO2
14840KMKG MKG20101122013510711/22/10 01:35:31  5-MIN KMKG 220635Z 20014G21KT 8SM BKN022 OVC034 14/12 A2984 700 86 800 200/14G21 RMK AO2
14840KMKG MKG20101122014010711/22/10 01:40:31  5-MIN KMKG 220640Z 20013G20KT 8SM BKN022 OVC034 14/12 A2984 700 86 800 200/13G20 RMK AO2
14840KMKG MKG20101122014510011/22/10 01:45:31  5-MIN KMKG 220645Z 19013G22KT 8SM OVC022 14/12 A2984 700 86 800 200/13G22 RMK AO2
14840KMKG MKG20101122015011711/22/10 01:50:31  5-MIN KMKG 220650Z 20015G22KT 8SM OVC020 14/12 A2984 710 83 800 210/15G22 RMK AO2 SLP106 T01440117
14840KMKG MKG20101122015511711/22/10 01:55:31  5-MIN KMKG 220655Z 20016G23KT 8SM OVC020 14/12 A2984 700 83 800 200/16G23 RMK AO2 SLP107 T01440117
14840KMKG MKG20101122020010011/22/10 02:00:31  5-MIN KMKG 220700Z 20014G23KT 8SM OVC020 14/12 A2984 700 83 800 200/14G23 RMK AO2
14840KMKG MKG20101122020510011/22/10 02:05:31  5-MIN KMKG 220705Z 20016G24KT 8SM OVC020 14/12 A2984 700 83 800 200/16G24 RMK AO2
14840KMKG MKG20101122021010011/22/10 02:10:31  5-MIN KMKG 220710Z 20014G24KT 8SM OVC020 14/12 A2984 710 83 800 200/14G24 RMK AO2
14840KMKG MKG20101122021510011/22/10 02:15:31  5-MIN KMKG 220715Z 20016G20KT 8SM OVC020 14/12 A2984 710 83 800 200/16G20 RMK AO2
14840KMKG MKG20101122022010011/22/10 02:20:31  5-MIN KMKG 220720Z 20014G20KT 8SM OVC020 14/12 A2984 710 83 800 200/14G20 RMK AO2
14840KMKG MKG20101122022510011/22/10 02:25:31  5-MIN KMKG 220725Z 20017G22KT 8SM OVC020 14/12 A2984 710 83 800 200/17G22 RMK AO2
14840KMKG MKG20101122023010011/22/10 02:30:31  5-MIN KMKG 220730Z 20017G22KT 8SM OVC020 14/12 A2984 710 83 800 200/17G22 RMK AO2
14840KMKG MKG20101122023511811/22/10 02:35:31  5-MIN KMKG 220735Z 20015G26KT 8SM OVC020 14/12 A2984 710 83 800 200/15G26 RMK AO2 PK WND 21026/0732
14840KMKG MKG20101122024011811/22/10 02:40:31  5-MIN KMKG 220740Z 20018G26KT 8SM OVC022 14/12 A2983 710 83 800 200/18G26 RMK AO2 PK WND 21026/0732
14840KMKG MKG20101122024511811/22/10 02:45:31  5-MIN KMKG 220745Z 20015G23KT 8SM OVC022 14/12 A2984 710 83 800 200/15G23 RMK AO2 PK WND 21026/0732
14840KMKG MKG20101122025013511/22/10 02:50:31  5-MIN KMKG 220750Z 19017G24KT 8SM OVC022 14/12 A2983 710 83 900 200/17G24 RMK AO2 PK WND 21026/0732 SLP104 T01440117
14840KMKG MKG20101122025513511/22/10 02:55:31  5-MIN KMKG 220755Z 20016G24KT 8SM OVC022 14/12 A2983 710 83 900 210/16G24 RMK AO2 PK WND 21026/0732 SLP104 T01440117
14840KMKG MKG20101122030010011/22/10 03:00:31  5-MIN KMKG 220800Z 20014G22KT 8SM OVC022 14/12 A2984 700 83 800 210/14G22 RMK AO2
14840KMKG MKG20101122030510011/22/10 03:05:31  5-MIN KMKG 220805Z 20013G21KT 8SM OVC022 14/12 A2984 710 83 800 200/13G21 RMK AO2
14840KMKG MKG20101122031010011/22/10 03:10:31  5-MIN KMKG 220810Z 20016G21KT 8SM OVC022 14/12 A2984 710 83 800 210/16G21 RMK AO2
14840KMKG MKG20101122031510611/22/10 03:15:31  5-MIN KMKG 220815Z 20016G21KT 8SM OVC022 14/12 A2984 710 83 800 200/16G21 RMK AO2 P0001
14840KMKG MKG20101122032010611/22/10 03:20:31  5-MIN KMKG 220820Z 20014G22KT 8SM OVC022 14/12 A2984 710 83 800 210/14G22 RMK AO2 P0001
14840KMKG MKG20101122032510011/22/10 03:25:31  5-MIN KMKG 220825Z 20014G22KT 8SM OVC020 14/12 A2984 710 83 800 200/14G22 RMK AO2
14840KMKG MKG20101122033010011/22/10 03:30:31  5-MIN KMKG 220830Z 20016G22KT 8SM OVC020 14/12 A2984 710 83 800 200/16G22 RMK AO2
14840KMKG MKG20101122033510011/22/10 03:35:31  5-MIN KMKG 220835Z 20015G22KT 8SM OVC020 14/12 A2984 710 83 800 210/15G22 RMK AO2
14840KMKG MKG20101122034010011/22/10 03:40:31  5-MIN KMKG 220840Z 20017G22KT 8SM OVC020 14/12 A2984 710 83 800 210/17G22 RMK AO2
14840KMKG MKG20101122034510011/22/10 03:45:31  5-MIN KMKG 220845Z 20015G22KT 8SM OVC020 14/12 A2983 710 83 800 200/15G22 RMK AO2
14840KMKG MKG20101122035014511/22/10 03:50:31  5-MIN KMKG 220850Z 20015G22KT 8SM -RA OVC020 14/12 A2983 710 86 800 210/15G22 RMK AO2 RAB49 SLP104 P0001 60001 T01390117 51001
14840KMKG MKG20101122035514511/22/10 03:55:31  5-MIN KMKG 220855Z 20014G23KT 8SM -RA OVC020 14/12 A2983 710 86 800 210/14G23 RMK AO2 RAB49 SLP104 P0001 60001 T01390117 57003
14840KMKG MKG20101122040011411/22/10 04:00:31  5-MIN KMKG 220900Z 20016G23KT 8SM OVC020 14/12 A2983 710 86 800 200/16G23 RMK AO2 RAE0859 P0000
14840KMKG MKG20101122040511011/22/10 04:05:31  5-MIN KMKG 220905Z 20012G22KT 7SM -RA OVC020 14/12 A2983 720 86 800 200/12G22 RMK AO2 P0000
14840KMKG MKG20101122041014711/22/10 04:10:31  5-MIN KMKG 220910Z 20015G21KT 7SM -TSRA OVC020 14/12 A2983 710 86 800 200/15G21 RMK AO2 OCNL LTGICCC SW TSB08 TS SW MOV NE P0000
14840KMKG MKG20101122041515011/22/10 04:15:31  5-MIN KMKG 220915Z 20014G21KT 6SM -TSRA BR OVC020 14/12 A2983 710 86 800 210/14G21 RMK AO2 OCNL LTGICCC SW TSB10 TS SW MOV NE P0000
14840KMKG MKG20101122042015811/22/10 04:20:31  5-MIN KMKG 220920Z 20017KT 6SM -TSRA BR FEW011 BKN018 OVC027 14/12 A2983 710 86 800 210/17 RMK AO2 OCNL LTGICCC SW TSB10 TS SW MOV NE P0000
14840KMKG MKG20101122042515711/22/10 04:25:31  5-MIN KMKG 220925Z 21013G22KT 6SM -TSRA BR FEW007 OVC020 14/12 A2983 720 90 800 210/13G22 RMK AO2 OCNL LTGICCC SW TSB10 TS SW MOV NE P0000
14840KMKG MKG20101122043015411/22/10 04:30:31  5-MIN KMKG 220930Z 21015G22KT 6SM TS BR FEW007 OVC020 14/12 A2983 710 90 800 210/15G22 RMK AO2 OCNL LTGICCC SW TSB10 TS SW MOV NE P0001
14840KMKG MKG20101122043513111/22/10 04:35:31  5-MIN KMKG 220935Z 21016G21KT 6SM BR FEW007 OVC020 14/12 A2983 720 90 800 210/16G21 RMK AO2 RAE30 TSB10E32 P0001
14840KMKG MKG20101122044013111/22/10 04:40:31  5-MIN KMKG 220940Z 20014G21KT 6SM BR FEW007 OVC020 14/12 A2983 720 90 800 210/14G21 RMK AO2 RAE30 TSB10E32 P0001
14840KMKG MKG20101122044513511/22/10 04:45:31  5-MIN KMKG 220945Z 20017G23KT 7SM FEW007 BKN018 OVC085 14/12 A2983 710 90 800 200/17G23 RMK AO2 RAE30 TSB10E32 P0001
14840KMKG MKG20101122045014511/22/10 04:50:31  5-MIN KMKG 220950Z 20016G23KT 7SM FEW007 OVC018 14/12 A2983 720 90 800 200/16G23 RMK AO2 SLP102 RAE30 TSB10E32 P0001 T01390122
14840KMKG MKG20101122045514511/22/10 04:55:31  5-MIN KMKG 220955Z 20013G22KT 7SM BKN018 OVC090 14/12 A2983 720 90 800 200/13G22 RMK AO2 SLP102 RAE30 TSB10E32 P0001 T01390122
14840KMKG MKG20101122050011011/22/10 05:00:31  5-MIN KMKG 221000Z 20015G22KT 6SM BR BKN018 OVC090 14/12 A2983 710 90 800 200/15G22 RMK AO2
14840KMKG MKG20101122050512511/22/10 05:05:31  5-MIN KMKG 221005Z 21014G19KT 6SM BR SCT018 OVC090 14/12 A2984 710 86 800 210/14G19 RMK AO2 CIG 020 RWY 14
14840KMKG MKG20101122051010411/22/10 05:10:31  5-MIN KMKG 221010Z 21013KT 6SM BR SCT018 OVC095 13/12 A2985 700 89 700 220/13 RMK AO2
14840KMKG MKG20101122051511011/22/10 05:15:31  5-MIN KMKG 221015Z 22014G22KT 6SM BR FEW018 OVC095 13/12 A2985 700 89 700 220/14G22 RMK AO2
14840KMKG MKG20101122052011711/22/10 05:20:31  5-MIN KMKG 221020Z 21012G22KT 6SM BR FEW008 SCT022 OVC095 13/12 A2985 700 89 700 210/12G22 RMK AO2
14840KMKG MKG20101122052511711/22/10 05:25:31  5-MIN KMKG 221025Z 21014G23KT 6SM BR FEW008 SCT025 OVC095 13/12 A2984 700 89 700 210/14G23 RMK AO2
14840KMKG MKG20101122053013311/22/10 05:30:31  5-MIN KMKG 221030Z 20013G23KT 6SM -RA BR FEW008 SCT025 OVC090 13/12 A2983 710 89 700 200/13G23 RMK AO2 RAB29 P0000
14840KMKG MKG20101122053512711/22/10 05:35:31  5-MIN KMKG 221035Z 21015KT 5SM -RA BR FEW008 BKN080 OVC095 13/12 A2984 710 89 700 210/15 RMK AO2 RAB29 P0001
14840KMKG MKG20101122054012711/22/10 05:40:31  5-MIN KMKG 221040Z 21012KT 5SM -RA BR FEW008 BKN075 OVC090 13/12 A2984 700 93 700 210/12 RMK AO2 RAB29 P0001
14840KMKG MKG20101122054512611/22/10 05:45:31  5-MIN KMKG 221045Z 21013KT 6SM BR FEW008 BKN021 OVC090 13/12 A2984 700 93 700 210/13 RMK AO2 RAB29E43 P0001
14840KMKG MKG20101122055012611/22/10 05:50:31  5-MIN KMKG 221050Z 21013KT 6SM BR BKN019 BKN075 OVC090 13/12 A2985 700 93 700 220/13 RMK AO2 RAB29E43 P0001
14840KMKG MKG20101122055514911/22/10 05:55:31  5-MIN KMKG 221055Z 21011G18KT 6SM BR BKN019 BKN075 OVC090 13/12 A2985 700 89 700 220/11G18 RMK AO2 RAB29E43 SLP108 P0001 T01330117
14840KMKG MKG20101122060011711/22/10 06:00:31  5-MIN KMKG 221100Z 21012G18KT 5SM BR FEW012 BKN017 OVC090 13/12 A2984 700 89 700 210/12G18 RMK AO2
14840KMKG MKG20101122060510411/22/10 06:05:31  5-MIN KMKG 221105Z 20011KT 5SM BR FEW007 OVC017 13/12 A2984 700 89 700 200/11 RMK AO2
14840KMKG MKG20101122061011111/22/10 06:10:31  5-MIN KMKG 221110Z 20012KT 5SM BR FEW007 BKN013 OVC017 13/12 A2984 710 89 700 200/12 RMK AO2
14840KMKG MKG20101122061511111/22/10 06:15:31  5-MIN KMKG 221115Z 20010KT 5SM BR FEW006 BKN009 OVC017 13/12 A2984 710 89 700 210/10 RMK AO2
14840KMKG MKG20101122062011611/22/10 06:20:31  5-MIN KMKG 221120Z 19012KT 5SM BR BKN009 OVC015 13/12 A2983 710 89 700 200/12 RMK AO2 CIG 005V012
14840KMKG MKG20101122062511611/22/10 06:25:31  5-MIN KMKG 221125Z 20010KT 5SM BR BKN007 OVC015 13/12 A2983 710 89 700 210/10 RMK AO2 CIG 005V012
14840KMKG MKG20101122063010911/22/10 06:30:31  5-MIN KMKG 221130Z 22011KT 5SM BR OVC007 13/12 A2984 710 89 700 220/11 RMK AO2 CIG 005V012
14840KMKG MKG20101122063510911/22/10 06:35:31  5-MIN KMKG 221135Z 22010KT 5SM BR OVC007 13/12 A2984 700 89 700 220/10 RMK AO2 CIG 005V011
14840KMKG MKG20101122064010911/22/10 06:40:31  5-MIN KMKG 221140Z 22009KT 5SM BR OVC007 13/12 A2984 700 89 700 220/09 RMK AO2 CIG 005V010
14840KMKG MKG20101122064510911/22/10 06:45:31  5-MIN KMKG 221145Z 22009KT 4SM BR OVC007 13/12 A2984 700 93 600 220/09 RMK AO2 CIG 005V010
14840KMKG MKG20101122065014411/22/10 06:50:31  5-MIN KMKG 221150Z 22009KT 4SM BR OVC007 13/12 A2984 700 93 600 230/09 RMK AO2 CIG 005V010 SLP107 T01280117 10144 20128 57003
14840KMKG MKG20101122065515611/22/10 06:55:31  5-MIN KMKG 221155Z 23009KT 4SM BR OVC007 13/12 A2985 700 93 600 230/09 RMK AO2 CIG 005V009 SLP108 60003 70004 T01280117 10144 20128 53004
14840KMKG MKG20101122070010911/22/10 07:00:31  5-MIN KMKG 221200Z 23008KT 4SM BR OVC007 13/12 A2985 700 93 600 240/08 RMK AO2 CIG 005V009
14840KMKG MKG20101122070510911/22/10 07:05:31  5-MIN KMKG 221205Z 24008KT 4SM BR OVC007 13/12 A2985 700 93 600 250/08 RMK AO2 CIG 005V009
14840KMKG MKG20101122071010911/22/10 07:10:31  5-MIN KMKG 221210Z 24007KT 4SM BR OVC007 13/12 A2985 700 93 600 250/07 RMK AO2 CIG 005V009
14840KMKG MKG20101122071510911/22/10 07:15:31  5-MIN KMKG 221215Z 24006KT 4SM BR OVC007 13/12 A2984 700 93 600 240/06 RMK AO2 CIG 004V009
14840KMKG MKG20101122072009711/22/10 07:20:31  5-MIN KMKG 221220Z 24006KT 4SM BR OVC005 13/12 A2984 700 93 600 240/06 RMK AO2
14840KMKG MKG20101122072509711/22/10 07:25:31  5-MIN KMKG 221225Z 24007KT 4SM BR OVC005 13/12 A2984 700 93 600 250/07 RMK AO2
14840KMKG MKG20101122073010411/22/10 07:30:31  5-MIN KMKG 221230Z 24007KT 4SM BR BKN005 OVC013 13/12 A2984 700 93 600 250/07 RMK AO2
14840KMKG MKG20101122073511611/22/10 07:35:31  5-MIN KMKG 221235Z 24008KT 4SM BR BKN005 OVC013 13/12 A2984 700 93 600 240/08 RMK AO2 CIG 004V008
14840KMKG MKG20101122074011611/22/10 07:40:31  5-MIN KMKG 221240Z 26006KT 4SM BR BKN005 OVC013 13/12 A2984 710 93 600 260/06 RMK AO2 CIG 004V008
14840KMKG MKG20101122074511611/22/10 07:45:31  5-MIN KMKG 221245Z 25005KT 4SM BR BKN005 OVC013 13/12 A2984 700 93 600 260/05 RMK AO2 CIG 004V008
14840KMKG MKG20101122075013311/22/10 07:50:31  5-MIN KMKG 221250Z 25004KT 4SM BR BKN005 OVC013 13/12 A2984 700 93 600 250/04 RMK AO2 CIG 004V008 SLP105 T01280117
14840KMKG MKG20101122075515311/22/10 07:55:31  5-MIN KMKG 221255Z 23004KT 2 1/2SM -RA BR BKN005 OVC013 13/12 A2984 700 93 600 240/04 RMK AO2 RAB52 CIG 004V008 SLP105 P0000 T01280117
14840KMKG MKG20101122080012311/22/10 08:00:31  5-MIN KMKG 221300Z 26003KT 1 3/4SM -RA BR OVC005 13/12 A2984 710 93 600 260/03 RMK AO2 CIG 004V008 P0000
14840KMKG MKG20101122080512111/22/10 08:05:31  5-MIN KMKG 221305Z 25003KT 2SM BR OVC005 13/12 A2984 710 93 700 250/03 RMK AO2 RAE05 CIG 003V007 P0000
14840KMKG MKG20101122081011311/22/10 08:10:31  5-MIN KMKG 221310Z 23003KT 1 3/4SM BR OVC005 12/11 A2984 710 93 600 240/03 RMK AO2 RAE05 P0000
14840KMKG MKG20101122081511111/22/10 08:15:31  5-MIN KMKG 221315Z 23004KT 1 1/2SM -RA BR OVC005 12/11 A2984 710 93 600 240/04 RMK AO2 P0000
14840KMKG MKG20101122082011111/22/10 08:20:31  5-MIN KMKG 221320Z 21004KT 1 1/2SM -RA BR OVC005 12/11 A2984 710 93 600 210/04 RMK AO2 P0000
14840KMKG MKG20101122082511111/22/10 08:25:31  5-MIN KMKG 221325Z 21004KT 1 1/4SM -RA BR OVC005 12/11 A2983 710 93 600 210/04 RMK AO2 P0000
14840KMKG MKG20101122083011111/22/10 08:30:31  5-MIN KMKG 221330Z 21004KT 1 1/4SM -RA BR OVC005 12/11 A2983 710 93 600 220/04 RMK AO2 P0000
14840KMKG MKG20101122083511111/22/10 08:35:31  5-MIN KMKG 221335Z 22003KT 1 1/4SM -RA BR OVC003 12/12 A2983 710 96 600 220/03 RMK AO2 P0001
14840KMKG MKG20101122084011111/22/10 08:40:31  5-MIN KMKG 221340Z 22003KT 1 1/4SM -RA BR OVC003 12/12 A2983 710 96 600 220/03 RMK AO2 P0001
14840KMKG MKG20101122084511111/22/10 08:45:31  5-MIN KMKG 221345Z 21004KT 1 1/4SM -RA BR OVC003 12/12 A2983 710 96 600 210/04 RMK AO2 P0001
14840KMKG MKG20101122085012411/22/10 08:50:31  5-MIN KMKG 221350Z 20005KT 1SM -RA BR OVC003 12/12 A2983 710 96 600 200/05 RMK AO2 SLP103 P0001 T01220117
14840KMKG MKG20101122085512811/22/10 08:55:31  5-MIN KMKG 221355Z 20004KT 1 1/4SM -RA BR OVC003 12/12 A2983 710 96 600 200/04 RMK AO2 SLP103 P0002 T01220117
14840KMKG MKG20101122090011111/22/10 09:00:31  5-MIN KMKG 221400Z 19005KT 1 1/2SM -RA BR OVC003 12/12 A2983 710 96 600 200/05 RMK AO2 P0000
14840KMKG MKG20101122090511111/22/10 09:05:31  5-MIN KMKG 221405Z 19005KT 1 1/2SM -RA BR OVC003 13/12 A2983 710 93 700 200/05 RMK AO2 P0000
14840KMKG MKG20101122091011811/22/10 09:10:31  5-MIN KMKG 221410Z 20005KT 1 1/2SM -RA BR BKN003 OVC007 13/12 A2984 710 93 700 200/05 RMK AO2 P0000
14840KMKG MKG20101122091511811/22/10 09:15:31  5-MIN KMKG 221415Z 18005KT 1 1/2SM -RA BR BKN003 OVC008 13/12 A2984 710 93 700 190/05 RMK AO2 P0000
14840KMKG MKG20101122092012811/22/10 09:20:31  5-MIN KMKG 221420Z 18006KT 1SM -RA BR BKN003 OVC009 13/12 A2983 710 93 700 190/06 RMK AO2 SFC VIS 1 1/2 P0000
14840KMKG MKG20101122092514311/22/10 09:25:31  5-MIN KMKG 221425Z 19005KT 1SM -RA BR SCT003 OVC007 13/12 A2984 710 93 700 190/05 RMK AO2 SFC VIS 1 1/4 CIG 003 RWY 14 P0000
14840KMKG MKG20101122093014311/22/10 09:30:31  5-MIN KMKG 221430Z 20005KT 1SM -RA BR FEW003 OVC007 13/12 A2984 710 93 600 210/05 RMK AO2 SFC VIS 1 1/4 CIG 003 RWY 14 P0000
14840KMKG MKG20101122093513611/22/10 09:35:31  5-MIN KMKG 221435Z 23004KT 1SM -RA BR OVC007 13/12 A2984 710 93 600 230/04 RMK AO2 SFC VIS 1 1/4 CIG 003 RWY 14 P0001
14840KMKG MKG20101122094013511/22/10 09:40:31  5-MIN KMKG 221440Z 00000KT 1SM -RA BR OVC007 13/12 A2984 710 93 600 000/00 RMK AO2 SFC VIS 1 1/4 CIG 002V010 P0001 $
14840KMKG MKG20101122094513511/22/10 09:45:31  5-MIN KMKG 221445Z 20003KT 1SM -RA BR OVC005 13/12 A2984 710 93 700 210/03 RMK AO2 SFC VIS 1 1/4 CIG 002V009 P0001 $
14840KMKG MKG20101122095016411/22/10 09:50:31  5-MIN KMKG 221450Z 20004KT 1SM -RA BR OVC005 13/12 A2984 710 93 700 200/04 RMK AO2 SFC VIS 1 1/4 CIG 002V009 SLP104 P0001 60003 T01280117 53004 $
14840KMKG MKG20101122095516411/22/10 09:55:31  5-MIN KMKG 221455Z 20003KT 1SM -RA BR OVC005 13/12 A2983 710 93 700 200/03 RMK AO2 SFC VIS 1 1/4 CIG 002V007 SLP103 P0001 60003 T01280117 55005 $
14840KMKG MKG20101122100012311/22/10 10:00:31  5-MIN KMKG 221500Z 20003KT 1SM -RA BR OVC005 13/12 A2983 710 93 700 210/03 RMK AO2 SFC VIS 1 1/4 P0000 $
14840KMKG MKG20101122100512511/22/10 10:05:31  5-MIN KMKG 221505Z 00000KT 1SM BR OVC005 13/12 A2983 720 93 700 000/00 RMK AO2 SFC VIS 1 1/4 RAE03 P0000 $
14840KMKG MKG20101122101012511/22/10 10:10:31  5-MIN KMKG 221510Z 22003KT 1SM BR OVC005 13/12 A2983 710 93 700 220/03 RMK AO2 SFC VIS 1 1/4 RAE03 P0000 $
14840KMKG MKG20101122101512511/22/10 10:15:31  5-MIN KMKG 221515Z 00000KT 1SM BR OVC005 13/12 A2983 720 93 700 000/00 RMK AO2 SFC VIS 1 1/4 RAE03 P0000 $
14840KMKG MKG20101122102012511/22/10 10:20:31  5-MIN KMKG 221520Z 00000KT 1SM BR OVC005 13/12 A2982 720 93 700 000/00 RMK AO2 SFC VIS 1 1/4 RAE03 P0000 $
14840KMKG MKG20101122102517011/22/10 10:25:31  5-MIN KMKG 221525Z 21004KT 1SM -TSRA BR OVC005 13/12 A2983 710 93 700 210/04 RMK AO2 SFC VIS 1 1/4 TSB24RAE03B22 OCNL LTGIC SW-W TS SW-W MOV NE P0000 $
14840KMKG MKG20101122103015711/22/10 10:30:31  5-MIN KMKG 221530Z 19008KT 1SM TSRA BR OVC005 13/12 A2984 710 93 600 200/08 RMK AO2 TSB24RAE03B22 OCNL LTGICCC SW-W TS SW-W MOV NE P0000 $
14840KMKG MKG20101122103518111/22/10 10:35:31  5-MIN KMKG 221535Z 19006KT 3/4SM +TSRA BR BKN005 OVC029 13/12 A2982 720 93 700 190/06 RMK AO2 TWR VIS 1 1/4 TSB24RAE03B22 OCNL LTGICCC SW-W TS SW-W MOV NE P0006 $
14840KMKG MKG20101122104018111/22/10 10:40:31  5-MIN KMKG 221540Z 21010KT 1SM -TSRA BR BKN005 OVC034 13/12 A2983 710 93 700 220/10 RMK AO2 TWR VIS 1 1/4 TSB24RAE03B22 OCNL LTGICCC SW-NW TS SW-NW MOV NE P0009 $
14840KMKG MKG20101122104518711/22/10 10:45:31  5-MIN KMKG 221545Z 24009KT 1SM TSRA BR SCT005 SCT012 OVC034 13/12 A2984 710 93 700 240/09 RMK AO2 TWR VIS 1 1/2 TSB24RAE03B22 OCNL LTGICCC SW-NW TS SW-NW MOV NE P0010 $
14840KMKG MKG20101122105020411/22/10 10:50:31  5-MIN KMKG 221550Z 24011KT 1SM TSRA BR SCT005 BKN012 OVC032 13/12 A2985 690 93 700 250/11 RMK AO2 TWR VIS 1 1/2 TSB24RAE03B22 SLP109 OCNL LTGICCC SW-NW TS SW-NW MOV NE P0010 T01330122 $
14840KMKG MKG20101122105522111/22/10 10:55:31  5-MIN KMKG 221555Z 29014G22KT 1 1/2SM TSRA BR SCT005 BKN010 OVC032 13/12 A2985 690 93 600 290/14G22 RMK AO2 SFC VIS 2 TSB24RAE03B22 CIG 005 RWY 14 SLP109 OCNL LTGICCC S-N TS S-N MOV NE P0011 T01280117 $
14840KMKG MKG20101122110013011/22/10 11:00:31  5-MIN KMKG 221600Z 31012G22KT 2SM TSRA BR BKN005 BKN013 OVC032 12/11 A2985 690 93 500 310/12G22 RMK AO2 P0001 $
14840KMKG MKG20101122110512411/22/10 11:05:31  5-MIN KMKG 221605Z 31010KT 2SM TSRA BR BKN005 BKN011 OVC036 11/09 A2986 690 93 400 320/10 RMK AO2 P0002 $
14840KMKG MKG20101122111013911/22/10 11:10:31  5-MIN KMKG 221610Z 32008KT 2SM -TSRA BR BKN005 BKN015 OVC027 11/09 A2985 700 93 400 330/08 RMK AO2 SFC VIS 2 1/2 P0003 $
14840KMKG MKG20101122111515811/22/10 11:15:31  5-MIN KMKG 221615Z 35006KT 3SM -TSRA BR SCT005 BKN015 OVC049 11/09 A2985 700 93 400 350/06 RMK AO2 OCNL LTGICCC N-SE TS N-SE MOV NE P0003 $
14840KMKG MKG20101122112015811/22/10 11:20:31  5-MIN KMKG 221620Z 03004KT 3SM -TSRA BR SCT005 BKN015 OVC050 11/09 A2984 710 93 400 030/04 RMK AO2 OCNL LTGICCC N-SE TS N-SE MOV NE P0003 $
14840KMKG MKG20101122112515411/22/10 11:25:31  5-MIN KMKG 221625Z 00000KT 3SM -RA BR FEW005 BKN033 OVC043 11/10 A2983 710 93 500 000/00 RMK AO2 SFC VIS 3 VIS 2 1/2 RWY 14 TSE23 P0004
14840KMKG MKG20101122113014411/22/10 11:30:31  5-MIN KMKG 221630Z 06004KT 3SM -RA BR FEW005 BKN031 OVC050 11/10 A2983 720 93 500 060/04 RMK AO2 SFC VIS 5 TSE23 PRESFR P0004
14840KMKG MKG20101122113513711/22/10 11:35:31  5-MIN KMKG 221635Z 06003KT 3SM -RA BR FEW015 SCT025 BKN033 11/10 A2982 720 93 500 060/03 RMK AO2 SFC VIS 5 TSE23 P0004
14840KMKG MKG20101122114012811/22/10 11:40:31  5-MIN KMKG 221640Z 08004KT 5SM BR FEW025 SCT033 BKN042 12/10 A2982 730 89 500 080/04 RMK AO2 TSE23RAE38 P0004
14840KMKG MKG20101122114512111/22/10 11:45:31  5-MIN KMKG 221645Z 09004KT 5SM BR FEW025 SCT033 12/11 A2981 730 89 600 090/04 RMK AO2 TSE23RAE38 P0004
14840KMKG MKG20101122115013111/22/10 11:50:31  5-MIN KMKG 221650Z 07003KT 5SM BR FEW025 12/11 A2981 730 89 600 070/03 RMK AO2 TSE23RAE38 SLP096 P0004 T01220106
14840KMKG MKG20101122115513811/22/10 11:55:31  5-MIN KMKG 221655Z 07004KT 5SM BR FEW025 12/11 A2980 740 93 600 080/04 RMK AO2 TSE23RAE38 PRESFR SLP092 P0004 T01220111
14840KMKG MKG20101122120009411/22/10 12:00:31  5-MIN KMKG 221700Z 07004KT 6SM BR CLR 13/11 A2980 750 89 700 070/04 RMK AO2
14840KMKG MKG20101122120509111/22/10 12:05:31  5-MIN KMKG 221705Z 07003KT 8SM CLR 13/12 A2980 750 89 800 070/03 RMK AO2
14840KMKG MKG20101122121009211/22/10 12:10:31  5-MIN KMKG 221710Z 08003KT 10SM CLR 14/12 A2979 750 86 800 080/03 RMK AO2
14840KMKG MKG20101122121509511/22/10 12:15:31  5-MIN KMKG 221715Z 08003KT 10SM FEW060 14/12 A2979 750 86 800 090/03 RMK AO2
14840KMKG MKG20101122122009511/22/10 12:20:31  5-MIN KMKG 221720Z 09004KT 10SM FEW060 14/12 A2978 760 90 800 100/04 RMK AO2
14840KMKG MKG20101122122509511/22/10 12:25:31  5-MIN KMKG 221725Z 11004KT 10SM FEW060 14/12 A2978 760 86 900 110/04 RMK AO2
14840KMKG MKG20101122123009611/22/10 12:30:31  5-MIN KMKG 221730Z 12005KT 10SM FEW060 15/12 A2978 760 83 1000 130/05 RMK AO2
14840KMKG MKG20101122123509611/22/10 12:35:31  5-MIN KMKG 221735Z 13007KT 10SM FEW060 15/13 A2978 760 86 1000 130/07 RMK AO2
14840KMKG MKG20101122124009611/22/10 12:40:31  5-MIN KMKG 221740Z 12008KT 10SM FEW060 15/12 A2978 760 83 1000 130/08 RMK AO2
14840KMKG MKG20101122124509311/22/10 12:45:31  5-MIN KMKG 221745Z 13009KT 10SM CLR 16/12 A2978 760 80 1000 130/09 RMK AO2
14840KMKG MKG20101122125013411/22/10 12:50:31  5-MIN KMKG 221750Z 14010KT 10SM CLR 16/13 A2977 770 83 1100 140/10 RMK AO2 SLP080 60018 T01560128 10156 20106 55005
14840KMKG MKG20101122125513711/22/10 12:55:31  5-MIN KMKG 221755Z 13008KT 10SM FEW025 16/13 A2977 770 83 1100 140/08 RMK AO2 SLP081 60018 T01560128 10156 20106 58020
14840KMKG MKG20101122130009611/22/10 13:00:31  5-MIN KMKG 221800Z 15007KT 10SM FEW070 16/13 A2977 770 80 1100 160/07 RMK AO2
14840KMKG MKG20101122130509611/22/10 13:05:31  5-MIN KMKG 221805Z 16009KT 10SM FEW070 16/12 A2977 770 77 1100 160/09 RMK AO2
14840KMKG MKG20101122131009611/22/10 13:10:31  5-MIN KMKG 221810Z 15010KT 10SM SCT070 16/12 A2977 770 80 1100 160/10 RMK AO2
14840KMKG MKG20101122131510311/22/10 13:15:31  5-MIN KMKG 221815Z 16010KT 10SM SCT019 BKN070 16/12 A2977 770 80 1100 170/10 RMK AO2
14840KMKG MKG20101122132010311/22/10 13:20:31  5-MIN KMKG 221820Z 15010KT 10SM SCT021 BKN070 15/12 A2976 780 83 1000 160/10 RMK AO2
14840KMKG MKG20101122132512511/22/10 13:25:31  5-MIN KMKG 221825Z 15010KT 10SM SCT014 SCT021 BKN070 16/12 A2976 780 80 1100 160/10 RMK AO2 CIG 020 RWY 14
14840KMKG MKG20101122133012511/22/10 13:30:31  5-MIN KMKG 221830Z 16009KT 10SM SCT014 BKN021 OVC070 16/12 A2976 780 80 1100 160/09 RMK AO2 CIG 013 RWY 14
14840KMKG MKG20101122133511011/22/10 13:35:31  5-MIN KMKG 221835Z 16010KT 10SM BKN012 BKN021 OVC070 16/13 A2975 790 83 1100 160/10 RMK AO2
14840KMKG MKG20101122134010311/22/10 13:40:31  5-MIN KMKG 221840Z 18011KT 10SM BKN012 OVC021 15/12 A2975 790 83 1000 180/11 RMK AO2
14840KMKG MKG20101122134510311/22/10 13:45:31  5-MIN KMKG 221845Z 16010KT 10SM BKN009 OVC014 15/13 A2975 790 86 1000 170/10 RMK AO2
14840KMKG MKG20101122135010811/22/10 13:50:31  5-MIN KMKG 221850Z 17010KT 10SM OVC009 15/13 A2975 790 86 1000 170/10 RMK AO2 CIG 007V015
14840KMKG MKG20101122135512511/22/10 13:55:31  5-MIN KMKG 221855Z 17009KT 10SM OVC009 15/13 A2974 800 86 1000 170/09 RMK AO2 CIG 007V013 SLP071 T01500128
14840KMKG MKG20101122140011311/22/10 14:00:31  5-MIN KMKG 221900Z 17014G17KT 9SM OVC007 15/13 A2974 800 86 1000 170/14G17 RMK AO2 CIG 007V010
14840KMKG MKG20101122140510711/22/10 14:05:31  5-MIN KMKG 221905Z 17011KT 9SM OVC007 15/13 A2973 800 90 1000 180/11 RMK AO2 CIG 007V010
14840KMKG MKG20101122141011311/22/10 14:10:31  5-MIN KMKG 221910Z 17014G19KT 9SM OVC007 15/13 A2973 800 90 1000 180/14G19 RMK AO2 CIG 007V010
14840KMKG MKG20101122141511311/22/10 14:15:31  5-MIN KMKG 221915Z 18013G19KT 9SM OVC007 16/13 A2973 810 86 1100 190/13G19 RMK AO2 CIG 007V010
14840KMKG MKG20101122142012411/22/10 14:20:31  5-MIN KMKG 221920Z 18013G20KT 7SM -RA BKN007 OVC016 15/13 A2973 810 90 1000 180/13G20 RMK AO2 RAB20 P0000
14840KMKG MKG20101122142512711/22/10 14:25:31  5-MIN KMKG 221925Z 18013G20KT 4SM -RA BR BKN007 OVC016 15/13 A2972 810 90 1000 180/13G20 RMK AO2 RAB20 P0000
14840KMKG MKG20101122143013911/22/10 14:30:31  5-MIN KMKG 221930Z 18011G19KT 4SM -RA BR BKN007 OVC014 15/13 A2972 820 90 1000 190/11G19 RMK AO2 RAB20 CIG 006V011 P0000
14840KMKG MKG20101122143513611/22/10 14:35:31  5-MIN KMKG 221935Z 18013G19KT 8SM -RA BKN009 OVC016 15/13 A2972 820 90 1100 180/13G19 RMK AO2 RAB20 CIG 006V012 P0000
14840KMKG MKG20101122144012411/22/10 14:40:31  5-MIN KMKG 221940Z 17010G18KT 10SM BKN007 OVC011 15/13 A2971 820 90 1100 180/10G18 RMK AO2 RAB20E40 P0000
14840KMKG MKG20101122144511911/22/10 14:45:31  5-MIN KMKG 221945Z 17012KT 10SM -RA BKN007 OVC013 15/13 A2971 830 90 1100 170/12 RMK AO2 RAB20 P0000
14840KMKG MKG20101122145013611/22/10 14:50:31  5-MIN KMKG 221950Z 17012KT 10SM -RA BKN007 OVC013 16/14 A2971 830 90 1100 180/12 RMK AO2 RAB20 SLP058 P0000 T01560139
14840KMKG MKG20101122145514111/22/10 14:55:31  5-MIN KMKG 221955Z 17013G19KT 10SM BKN007 OVC011 16/14 A2970 830 90 1100 180/13G19 RMK AO2 RAB20E52 SLP058 P0000 T01560139
14840KMKG MKG20101122150012111/22/10 15:00:31  5-MIN KMKG 222000Z 18014G21KT 10SM BKN007 OVC016 16/14 A2970 830 90 1100 180/14G21 RMK AO2 CIG 006V011
14840KMKG MKG20101122150510911/22/10 15:05:31  5-MIN KMKG 222005Z 18016G22KT 10SM BKN007 OVC016 16/14 A2970 840 90 1200 190/16G22 RMK AO2
14840KMKG MKG20101122151012111/22/10 15:10:31  5-MIN KMKG 222010Z 18015G23KT 10SM BKN007 OVC016 16/14 A2970 840 90 1200 180/15G23 RMK AO2 CIG 006V011
14840KMKG MKG20101122151510911/22/10 15:15:31  5-MIN KMKG 222015Z 17016G25KT 10SM BKN007 OVC016 17/14 A2969 840 86 1300 180/16G25 RMK AO2
14840KMKG MKG20101122152010911/22/10 15:20:31  5-MIN KMKG 222020Z 18017G25KT 10SM BKN007 OVC016 17/14 A2969 850 86 1300 180/17G25 RMK AO2
14840KMKG MKG20101122152510911/22/10 15:25:31  5-MIN KMKG 222025Z 18014G23KT 10SM BKN007 OVC016 17/14 A2969 850 86 1300 190/14G23 RMK AO2
14840KMKG MKG20101122153012711/22/10 15:30:31  5-MIN KMKG 222030Z 18021G27KT 10SM BKN007 OVC016 17/14 A2968 850 83 1300 180/21G27 RMK AO2 PK WND 18027/2029
14840KMKG MKG20101122153512711/22/10 15:35:31  5-MIN KMKG 222035Z 18016G27KT 10SM BKN007 OVC016 17/14 A2968 850 83 1400 180/16G27 RMK AO2 PK WND 18027/2029
14840KMKG MKG20101122154013311/22/10 15:40:31  5-MIN KMKG 222040Z 18016G24KT 10SM BKN007 OVC016 17/14 A2968 860 83 1400 180/16G24 RMK AO2 PK WND 18027/2029 P0001
14840KMKG MKG20101122154513311/22/10 15:45:31  5-MIN KMKG 222045Z 18015G26KT 10SM BKN007 OVC016 17/14 A2967 860 83 1400 180/15G26 RMK AO2 PK WND 18027/2029 P0001
14840KMKG MKG20101122155016211/22/10 15:50:31  5-MIN KMKG 222050Z 18019G28KT 10SM BKN007 OVC016 17/14 A2967 860 83 1400 180/19G28 RMK AO2 PK WND 18028/2050 SLP047 P0001 60001 T01720144 58020
14840KMKG MKG20101122155516211/22/10 15:55:31  5-MIN KMKG 222055Z 18019G28KT 10SM BKN007 OVC016 17/14 A2967 860 83 1400 180/19G28 RMK AO2 PK WND 18028/2050 SLP047 P0001 60001 T01720144 58034
14840KMKG MKG20101122160012011/22/10 16:00:31  5-MIN KMKG 222100Z 18018G27KT 10SM OVC025 17/14 A2967 870 83 1400 180/18G27 RMK AO2 PK WND 18027/2100
14840KMKG MKG20101122160512011/22/10 16:05:31  5-MIN KMKG 222105Z 18018G27KT 10SM OVC025 17/14 A2967 860 83 1400 180/18G27 RMK AO2 PK WND 18027/2100
14840KMKG MKG20101122161012711/22/10 16:10:31  5-MIN KMKG 222110Z 18018G25KT 10SM BKN025 OVC031 17/14 A2967 870 83 1400 180/18G25 RMK AO2 PK WND 18027/2100
14840KMKG MKG20101122161513411/22/10 16:15:31  5-MIN KMKG 222115Z 18019G26KT 10SM SCT023 BKN028 OVC034 17/14 A2967 860 83 1400 190/19G26 RMK AO2 PK WND 18027/2100
14840KMKG MKG20101122162012711/22/10 16:20:31  5-MIN KMKG 222120Z 18019G26KT 10SM BKN028 OVC034 17/14 A2967 860 83 1400 180/19G26 RMK AO2 PK WND 18027/2100
14840KMKG MKG20101122162513411/22/10 16:25:31  5-MIN KMKG 222125Z 18016G28KT 10SM FEW023 BKN028 OVC034 18/14 A2967 860 81 1400 190/16G28 RMK AO2 PK WND 18028/2121
14840KMKG MKG20101122163013411/22/10 16:30:31  5-MIN KMKG 222130Z 19020G29KT 10SM FEW022 BKN028 OVC034 18/14 A2968 860 81 1400 190/20G29 RMK AO2 PK WND 19029/2130
14840KMKG MKG20101122163512711/22/10 16:35:31  5-MIN KMKG 222135Z 19020G29KT 10SM BKN028 OVC036 18/14 A2967 860 81 1400 190/20G29 RMK AO2 PK WND 19029/2130
14840KMKG MKG20101122164013411/22/10 16:40:31  5-MIN KMKG 222140Z 18018G27KT 10SM BKN028 BKN036 OVC044 18/14 A2967 860 81 1400 190/18G27 RMK AO2 PK WND 19029/2130
14840KMKG MKG20101122164514911/22/10 16:45:31  5-MIN KMKG 222145Z 18021G31KT 10SM SCT028 BKN036 OVC050 18/14 A2967 860 81 1400 180/21G31 RMK AO2 PK WND 17031/2144 CIG 028 RWY 14
14840KMKG MKG20101122165015111/22/10 16:50:31  5-MIN KMKG 222150Z 19022G31KT 10SM BKN028 BKN038 OVC050 18/14 A2968 860 81 1400 190/22G31 RMK AO2 PK WND 17031/2144 SLP049 T01780144
14840KMKG MKG20101122165515111/22/10 16:55:31  5-MIN KMKG 222155Z 18020G29KT 10SM BKN028 BKN038 OVC055 18/14 A2968 850 81 1400 190/20G29 RMK AO2 PK WND 17031/2144 SLP049 T01780144
14840KMKG MKG20101122170014911/22/10 17:00:31  5-MIN KMKG 222200Z 19019G29KT 10SM SCT026 BKN035 OVC055 18/14 A2967 860 81 1400 190/19G29 RMK AO2 PK WND 20026/2159 CIG 026 RWY 14
14840KMKG MKG20101122170512711/22/10 17:05:31  5-MIN KMKG 222205Z 18022G29KT 10SM SCT026 BKN033 17/14 A2967 860 80 1400 190/22G29 RMK AO2 PK WND 17029/2205
14840KMKG MKG20101122171013411/22/10 17:10:31  5-MIN KMKG 222210Z 18017G29KT 10SM SCT026 BKN033 BKN100 17/14 A2967 870 80 1400 180/17G29 RMK AO2 PK WND 17029/2207
14840KMKG MKG20101122171514311/22/10 17:15:31  5-MIN KMKG 222215Z 19018G29KT 10SM -RA SCT030 BKN095 17/14 A2967 860 80 1400 190/18G29 RMK AO2 PK WND 17029/2207 RAB15 P0000
14840KMKG MKG20101122172015011/22/10 17:20:31  5-MIN KMKG 222220Z 18020G29KT 10SM -RA FEW026 BKN075 OVC090 17/14 A2966 870 80 1400 190/20G29 RMK AO2 PK WND 18029/2218 RAB15 P0000
14840KMKG MKG20101122172515011/22/10 17:25:31  5-MIN KMKG 222225Z 18016G29KT 10SM -RA FEW026 BKN065 OVC090 17/14 A2966 880 80 1400 190/16G29 RMK AO2 PK WND 18029/2218 RAB15 P0000
14840KMKG MKG20101122173016511/22/10 17:30:31  5-MIN KMKG 222230Z 18018G25KT 10SM -RA SCT034 BKN065 OVC090 17/14 A2965 880 80 1400 190/18G25 RMK AO2 PK WND 18029/2218 RAB15 CIG 031 RWY 14 P0000
14840KMKG MKG20101122173514911/22/10 17:35:31  5-MIN KMKG 222235Z 18015G27KT 10SM BKN034 BKN075 OVC090 17/14 A2965 880 80 1400 190/15G27 RMK AO2 PK WND 18029/2218 RAB15E35 P0000
14840KMKG MKG20101122174016411/22/10 17:40:31  5-MIN KMKG 222240Z 18018G27KT 10SM SCT034 BKN045 OVC120 18/14 A2965 880 78 1500 190/18G27 RMK AO2 PK WND 18029/2218 RAB15E35 CIG 035 RWY 14 P0000
14840KMKG MKG20101122174516411/22/10 17:45:31  5-MIN KMKG 222245Z 18016G26KT 10SM SCT036 BKN045 OVC120 18/14 A2966 880 78 1400 190/16G26 RMK AO2 PK WND 18029/2218 RAB15E35 CIG 035 RWY 14 P0000
14840KMKG MKG20101122175016611/22/10 17:50:31  5-MIN KMKG 222250Z 18017G26KT 10SM BKN036 BKN046 OVC060 18/14 A2965 880 78 1400 190/17G26 RMK AO2 PK WND 18029/2218 RAB15E35 SLP040 P0000 T01780139
14840KMKG MKG20101122175517311/22/10 17:55:31  5-MIN KMKG 222255Z 18020G27KT 10SM -RA BKN036 BKN049 OVC120 18/14 A2965 880 78 1400 180/20G27 RMK AO2 PK WND 18029/2218 RAB15E35B55 SLP041 P0000 T01780139
14840KMKG MKG20101122180014411/22/10 18:00:31  5-MIN KMKG 222300Z 18021G29KT 10SM -RA BKN034 BKN049 OVC120 18/14 A2965 880 78 1500 180/21G29 RMK AO2 PK WND 18029/2300 P0000
14840KMKG MKG20101122180514311/22/10 18:05:31  5-MIN KMKG 222305Z 18021G30KT 9SM -RA BKN034 BKN049 OVC120 18/14 A2964 890 81 1500 180/21G30 RMK AO2 PK WND 19030/2305 P0000
14840KMKG MKG20101122181013611/22/10 18:10:31  5-MIN KMKG 222310Z 18021G30KT 9SM -RA BKN036 OVC049 18/14 A2964 890 81 1500 190/21G30 RMK AO2 PK WND 17030/2310 P0000
14840KMKG MKG20101122181518711/22/10 18:15:31  5-MIN KMKG 222315Z 18022G31KT 10SM -TSRA BKN036 OVC049 17/14 A2964 890 80 1400 190/22G31 RMK AO2 PK WND 17031/2311 TSB13 OCNL LTGIC W-NW RAB03TSB05 TS W-NW MOV NE P0000
14840KMKG MKG20101122182019411/22/10 18:20:31  5-MIN KMKG 222320Z 18023G32KT 10SM -TSRA FEW028 BKN036 OVC055 17/14 A2964 890 80 1400 180/23G32 RMK AO2 PK WND 19032/2319 TSB13 OCNL LTGIC W-NW RAB03TSB05 TS W-NW MOV NE P0000
14840KMKG MKG20101122182520911/22/10 18:25:31  5-MIN KMKG 222325Z 19022G33KT 10SM -TSRA FEW024 BKN047 OVC065 17/14 A2965 880 80 1400 190/22G33 RMK AO2 PK WND 17033/2323 TSB13 CIG 036 RWY 14 OCNL LTGIC W-NW RAB03TSB05 TS W-NW MOV NE P0000
14840KMKG MKG20101122183020811/22/10 18:30:31  5-MIN KMKG 222330Z 18022G33KT 9SM -TSRA FEW024 BKN045 OVC080 17/14 A2965 880 80 1400 180/22G33 RMK AO2 PK WND 17033/2323 TSB13 CIG 036 RWY 14 OCNL LTGIC W-NW RAB03TSB05 TS W-NW MOV NE P0000
14840KMKG MKG20101122183520711/22/10 18:35:31  5-MIN KMKG 222335Z 18023G35KT 8SM TSRA FEW021 BKN060 OVC080 17/14 A2964 890 83 1300 180/23G35 RMK AO2 PK WND 19035/2333 TSB13 CIG 048 RWY 14 OCNL LTGIC W-NW RAB03TSB05 TS W-NW MOV NE P0000
14840KMKG MKG20101122184019211/22/10 18:40:31  5-MIN KMKG 222340Z 18024G35KT 8SM TSRA FEW019 SCT042 OVC080 17/14 A2966 870 83 1300 190/24G35 RMK AO2 PK WND 18035/2340 TSB13 OCNL LTGIC W-NW RAB03TSB05 TS W-NW MOV NE P0001
14840KMKG MKG20101122184519511/22/10 18:45:31  5-MIN KMKG 222345Z 18027G35KT 9SM TSRA FEW017 SCT042 OVC080 16/14 A2966 880 86 1300 190/27G35 RMK AO2 PK WND 19035/2345 TSB13 OCNL LTGIC W-NW RAB03TSB05E44 TS W-NW MOV NE P0001
14840KMKG MKG20101122185019611/22/10 18:50:31  5-MIN KMKG 222350Z 18027G37KT 7SM RA FEW015 BKN070 OVC085 16/14 A2966 870 86 1200 190/27G37 RMK AO2 PK WND 18037/2348 TSB13E46 OCNL LTGIC W-NW RAB03TSB05E44 TS W-NW MOV NE P0001
14840KMKG MKG20101122185524111/22/10 18:55:31  5-MIN KMKG 222355Z 18028G38KT 5SM RA BR FEW013 BKN070 OVC085 16/13 A2966 870 86 1200 180/28G38 RMK AO2 PK WND 18038/2355 TSB13E46 CIG 019 RWY 14 SLP043 OCNL LTGIC W-NW TS W-NW MOV NE P0001 60002 T01560133 10178 20150 56007
14840KMKG MKG20101122190014511/22/10 19:00:31  5-MIN KMKG 230000Z 19025G38KT 4SM RA BR FEW011 SCT032 OVC070 15/13 A2966 870 90 1100 190/25G38 RMK AO2 PK WND 18037/2359 P0004
14840KMKG MKG20101122190514511/22/10 19:05:31  5-MIN KMKG 230005Z 18022G37KT 4SM RA BR FEW011 SCT032 OVC065 15/13 A2966 880 86 1100 190/22G37 RMK AO2 PK WND 18037/2359 P0004
14840KMKG MKG20101122191013811/22/10 19:10:31  5-MIN KMKG 230010Z 18023G32KT 4SM RA BR FEW011 OVC060 14/13 A2966 870 90 1000 190/23G32 RMK AO2 PK WND 18037/2359 P0007
14840KMKG MKG20101122191517311/22/10 19:15:31  5-MIN KMKG 230015Z 18018G31KT 4SM TSRA BR FEW011 SCT039 OVC060 14/13 A2965 880 90 1100 180/18G31 RMK AO2 PK WND 18037/2359 TSB12 OCNL LTGICCG N TS N P0009
14840KMKG MKG20101122192017311/22/10 19:20:31  5-MIN KMKG 230020Z 18019G29KT 6SM TSRA BR SCT047 BKN060 OVC075 14/12 A2965 880 86 1100 190/19G29 RMK AO2 PK WND 18037/2359 TSB12 OCNL LTGICCG N TS N P0010
14840KMKG MKG20101122192517011/22/10 19:25:31  5-MIN KMKG 230025Z 18018G28KT 8SM TSRA BKN060 BKN075 OVC090 14/12 A2966 870 86 1100 190/18G28 RMK AO2 PK WND 18037/2359 TSB12 OCNL LTGICCG N TS N P0011
14840KMKG MKG20101122193018611/22/10 19:30:31  5-MIN KMKG 230030Z 18017G28KT 10SM TSRA BKN060 BKN070 OVC090 14/12 A2965 880 86 1100 190/17G28 RMK AO2 PK WND 18037/2359 TSB12 CIG 050 RWY 14 OCNL LTGICCG N TS N P0011
14840KMKG MKG20101122193517111/22/10 19:35:31  5-MIN KMKG 230035Z 18012G28KT 10SM TSRA BKN055 BKN075 OVC090 14/12 A2965 880 86 1100 180/12G28 RMK AO2 PK WND 18037/2359 TSB12 OCNL LTGICCG N TS N P0011
14840KMKG MKG20101122194017111/22/10 19:40:31  5-MIN KMKG 230040Z 18014G20KT 10SM TSRA BKN055 BKN075 OVC090 14/12 A2965 880 86 1100 190/14G20 RMK AO2 PK WND 18037/2359 TSB12 OCNL LTGICCG N TS N P0011
14840KMKG MKG20101122194518611/22/10 19:45:31  5-MIN KMKG 230045Z 19014G20KT 10SM TSRA SCT055 BKN075 OVC090 14/12 A2965 880 83 1100 190/14G20 RMK AO2 PK WND 18037/2359 TSB12 CIG 055 RWY 14 OCNL LTGICCG N TS N P0011
14840KMKG MKG20101122195017411/22/10 19:50:31  5-MIN KMKG 230050Z 18015G21KT 10SM BKN050 BKN070 OVC090 14/12 A2966 870 83 1100 190/15G21 RMK AO2 PK WND 18037/2359 TSB12E50RAE50 OCNL LTGICCG N TS N P0011
14840KMKG MKG20101122195519111/22/10 19:55:31  5-MIN KMKG 230055Z 18014G21KT 10SM BKN050 BKN070 OVC090 14/12 A2966 870 83 1000 190/14G21 RMK AO2 PK WND 18037/2359 TSB12E50RAE50 SLP044 OCNL LTGICCG N TS N P0011 T01440117
14840KMKG MKG20101122200011611/22/10 20:00:31  5-MIN KMKG 230100Z 19014G21KT 10SM FEW030 BKN050 OVC090 14/12 A2966 880 83 1100 190/14G21 RMK AO2
14840KMKG MKG20101122200511611/22/10 20:05:31  5-MIN KMKG 230105Z 18013G20KT 10SM SCT025 SCT031 OVC050 14/12 A2965 880 86 1100 180/13G20 RMK AO2
14840KMKG MKG20101122201011611/22/10 20:10:31  5-MIN KMKG 230110Z 19014G20KT 10SM SCT021 BKN027 OVC048 14/12 A2965 880 86 1100 190/14G20 RMK AO2
14840KMKG MKG20101122201514911/22/10 20:15:31  5-MIN KMKG 230115Z 18020G28KT 10SM SCT021 BKN025 OVC048 15/13 A2965 880 86 1100 190/20G28 RMK AO2 PK WND 18028/0115 CIG 020 RWY 14
14840KMKG MKG20101122202015611/22/10 20:20:31  5-MIN KMKG 230120Z 18019G28KT 10SM SCT021 BKN025 OVC048 16/13 A2963 900 83 1200 190/19G28 RMK AO2 PK WND 19028/0117 CIG 020 RWY 14 PRESFR
14840KMKG MKG20101122202513411/22/10 20:25:31  5-MIN KMKG 230125Z 19019G28KT 10SM FEW021 BKN025 OVC046 16/13 A2964 890 86 1200 200/19G28 RMK AO2 PK WND 19028/0117
14840KMKG MKG20101122203013411/22/10 20:30:31  5-MIN KMKG 230130Z 19016G27KT 10SM SCT019 BKN025 OVC044 16/13 A2964 890 83 1200 190/16G27 RMK AO2 PK WND 19028/0117
14840KMKG MKG20101122203514911/22/10 20:35:31  5-MIN KMKG 230135Z 19018G31KT 10SM FEW013 BKN025 OVC044 16/13 A2965 880 83 1200 200/18G31 RMK AO2 PK WND 20031/0133 CIG 020 RWY 14
14840KMKG MKG20101122204013411/22/10 20:40:31  5-MIN KMKG 230140Z 19018G31KT 10SM FEW013 BKN022 OVC034 15/13 A2965 880 86 1100 200/18G31 RMK AO2 PK WND 20031/0133
14840KMKG MKG20101122204513411/22/10 20:45:31  5-MIN KMKG 230145Z 20018G27KT 10SM FEW013 BKN024 OVC034 15/13 A2964 890 86 1100 200/18G27 RMK AO2 PK WND 20031/0133
14840KMKG MKG20101122205015111/22/10 20:50:31  5-MIN KMKG 230150Z 20017G27KT 10SM FEW013 BKN024 OVC034 15/13 A2964 890 86 1100 200/17G27 RMK AO2 PK WND 20031/0133 SLP038 T01500128
14840KMKG MKG20101122205515111/22/10 20:55:31  5-MIN KMKG 230155Z 20019G25KT 10SM FEW013 BKN022 OVC028 15/13 A2964 890 86 1100 200/19G25 RMK AO2 PK WND 20031/0133 SLP038 T01500128
14840KMKG MKG20101122210013411/22/10 21:00:31  5-MIN KMKG 230200Z 20019G28KT 10SM FEW011 BKN020 OVC026 15/13 A2965 890 86 1100 210/19G28 RMK AO2 PK WND 20028/0200
14840KMKG MKG20101122210513411/22/10 21:05:31  5-MIN KMKG 230205Z 20017G28KT 10SM FEW009 BKN020 OVC024 15/13 A2964 890 86 1100 210/17G28 RMK AO2 PK WND 20028/0200
14840KMKG MKG20101122211013411/22/10 21:10:31  5-MIN KMKG 230210Z 20018G29KT 10SM FEW009 BKN018 OVC025 15/13 A2964 890 86 1100 210/18G29 RMK AO2 PK WND 19029/0208
14840KMKG MKG20101122211512711/22/10 21:15:31  5-MIN KMKG 230215Z 21014G29KT 10SM FEW007 OVC018 14/13 A2964 890 90 1100 210/14G29 RMK AO2 PK WND 19029/0208
14840KMKG MKG20101122212012711/22/10 21:20:31  5-MIN KMKG 230220Z 21017G22KT 10SM FEW007 OVC018 14/13 A2964 890 90 1100 210/17G22 RMK AO2 PK WND 19029/0208
14840KMKG MKG20101122212512611/22/10 21:25:31  5-MIN KMKG 230225Z 20017G22KT 9SM FEW007 OVC018 14/13 A2964 890 90 1100 210/17G22 RMK AO2 PK WND 19029/0208
14840KMKG MKG20101122213013311/22/10 21:30:31  5-MIN KMKG 230230Z 20015G24KT 9SM FEW007 BKN018 OVC050 14/13 A2964 890 90 1100 200/15G24 RMK AO2 PK WND 19029/0208
14840KMKG MKG20101122213514811/22/10 21:35:31  5-MIN KMKG 230235Z 20016G24KT 8SM SCT007 BKN016 OVC050 14/13 A2964 890 90 1100 200/16G24 RMK AO2 PK WND 19029/0208 CIG 006 RWY 14
14840KMKG MKG20101122214014811/22/10 21:40:31  5-MIN KMKG 230240Z 20015G22KT 8SM SCT007 BKN016 OVC050 14/13 A2964 890 90 1100 210/15G22 RMK AO2 PK WND 19029/0208 CIG 006 RWY 14
14840KMKG MKG20101122214512711/22/10 21:45:31  5-MIN KMKG 230245Z 21015KT 7SM BKN005 BKN016 OVC050 14/13 A2964 890 90 1100 210/15 RMK AO2 PK WND 19029/0208
14840KMKG MKG20101122215016811/22/10 21:50:31  5-MIN KMKG 230250Z 21015KT 7SM BKN005 BKN018 OVC050 14/13 A2964 890 90 1100 210/15 RMK AO2 PK WND 19029/0208 CIG 004V011 SLP038 60011 T01440128 56007
14840KMKG MKG20101122215515511/22/10 21:55:31  5-MIN KMKG 230255Z 22014G21KT 7SM BKN005 OVC050 14/13 A2965 890 93 1000 230/14G21 RMK AO2 PK WND 19029/0208 SLP039 60011 T01390128 58004
14840KMKG MKG20101122220011111/22/10 22:00:31  5-MIN KMKG 230300Z 22013G20KT 6SM BR BKN005 OVC050 14/13 A2965 880 93 1000 230/13G20 RMK AO2
14840KMKG MKG20101122220511111/22/10 22:05:31  5-MIN KMKG 230305Z 23013G21KT 6SM BR BKN005 OVC025 14/12 A2964 890 90 1000 230/13G21 RMK AO2
14840KMKG MKG20101122221012011/22/10 22:10:31  5-MIN KMKG 230310Z 24013G21KT 7SM BKN005 OVC025 14/12 A2965 880 90 1000 250/13G21 RMK AO2 CIG 004V008
14840KMKG MKG20101122221512011/22/10 22:15:31  5-MIN KMKG 230315Z 24013G20KT 8SM BKN005 OVC025 14/12 A2965 880 90 1000 250/13G20 RMK AO2 CIG 004V007
14840KMKG MKG20101122222012011/22/10 22:20:31  5-MIN KMKG 230320Z 25012G18KT 9SM BKN005 OVC025 14/12 A2965 880 90 1000 250/12G18 RMK AO2 CIG 004V007
14840KMKG MKG20101122222511411/22/10 22:25:31  5-MIN KMKG 230325Z 26011G18KT 9SM SCT005 BKN014 OVC025 13/12 A2966 880 89 900 260/11G18 RMK AO2
14840KMKG MKG20101122223012111/22/10 22:30:31  5-MIN KMKG 230330Z 27011KT 10SM FEW005 BKN010 OVC025 13/11 A2966 870 86 900 270/11 RMK AO2 CIG 008V011
14840KMKG MKG20101122223511511/22/10 22:35:31  5-MIN KMKG 230335Z 27014G18KT 10SM SCT007 BKN013 OVC036 13/11 A2966 870 89 800 280/14G18 RMK AO2
14840KMKG MKG20101122224011511/22/10 22:40:31  5-MIN KMKG 230340Z 28016G21KT 10SM FEW007 BKN026 OVC034 12/09 A2967 860 83 800 280/16G21 RMK AO2
14840KMKG MKG20101122224511511/22/10 22:45:31  5-MIN KMKG 230345Z 27011G21KT 10SM FEW007 SCT013 OVC034 12/08 A2968 860 77 800 270/11G21 RMK AO2
14840KMKG MKG20101122225013211/22/10 22:50:31  5-MIN KMKG 230350Z 27011G19KT 10SM FEW007 SCT013 OVC034 12/08 A2967 860 80 700 280/11G19 RMK AO2 SLP050 T01170083
14840KMKG MKG20101122225513211/22/10 22:55:31  5-MIN KMKG 230355Z 27012G18KT 10SM FEW009 SCT021 OVC034 12/08 A2967 860 80 700 270/12G18 RMK AO2 SLP050 T01170083
14840KMKG MKG20101122230010811/22/10 23:00:31  5-MIN KMKG 230400Z 28012G18KT 10SM BKN021 OVC034 12/08 A2968 860 80 700 280/12G18 RMK AO2
14840KMKG MKG20101122230510811/22/10 23:05:31  5-MIN KMKG 230405Z 28013G18KT 10SM BKN023 OVC032 12/08 A2968 860 77 700 280/13G18 RMK AO2
14840KMKG MKG20101122231010211/22/10 23:10:31  5-MIN KMKG 230410Z 28013KT 10SM BKN023 OVC032 11/08 A2967 860 80 600 280/13 RMK AO2
14840KMKG MKG20101122231510811/22/10 23:15:31  5-MIN KMKG 230415Z 27011G19KT 10SM BKN025 OVC032 11/08 A2968 860 80 600 280/11G19 RMK AO2
14840KMKG MKG20101122232010111/22/10 23:20:31  5-MIN KMKG 230420Z 28013G19KT 10SM BKN025 11/08 A2968 850 80 600 280/13G19 RMK AO2
14840KMKG MKG20101122232510111/22/10 23:25:31  5-MIN KMKG 230425Z 27012G18KT 10SM BKN025 11/08 A2968 850 83 600 270/12G18 RMK AO2
14840KMKG MKG20101122233010811/22/10 23:30:31  5-MIN KMKG 230430Z 28014G22KT 10SM BKN023 BKN028 11/07 A2968 850 80 600 280/14G22 RMK AO2
14840KMKG MKG20101122233511511/22/10 23:35:31  5-MIN KMKG 230435Z 28013G22KT 10SM FEW014 BKN023 BKN028 11/07 A2969 850 80 600 290/13G22 RMK AO2
14840KMKG MKG20101122234013311/22/10 23:40:31  5-MIN KMKG 230440Z 29016G26KT 10SM SCT014 BKN023 BKN027 11/07 A2969 850 80 600 290/16G26 RMK AO2 PK WND 30026/0440
14840KMKG MKG20101122234512611/22/10 23:45:31  5-MIN KMKG 230445Z 29018G26KT 10SM BKN014 BKN023 09/07 A2970 840 83 400 300/18G26 RMK AO2 PK WND 30026/0441
14840KMKG MKG20101122235013611/22/10 23:50:31  5-MIN KMKG 230450Z 29016G26KT 10SM BKN014 OVC023 09/07 A2970 840 83 400 290/16G26 RMK AO2 PK WND 29026/0446 401780094
14840KMKG MKG20101122235515311/22/10 23:55:31  5-MIN KMKG 230455Z 29016G26KT 10SM BKN014 OVC023 09/06 A2970 830 79 400 290/16G26 RMK AO2 PK WND 29026/0446 SLP060 T00940061 401780094
14840KMKG MKG20101123000010111/23/10 00:00:32  5-MIN KMKG 230500Z 29017G25KT 10SM OVC014 09/06 A2970 830 83 300 290/17G25 RMK AO2
14840KMKG MKG20101123000510111/23/10 00:05:31  5-MIN KMKG 230505Z 28019G25KT 10SM OVC012 09/06 A2971 830 79 300 290/19G25 RMK AO2
14840KMKG MKG20101123001010111/23/10 00:10:31  5-MIN KMKG 230510Z 30015G25KT 10SM OVC012 09/06 A2971 820 79 300 300/15G25 RMK AO2
14840KMKG MKG20101123001510111/23/10 00:15:31  5-MIN KMKG 230515Z 29015G23KT 10SM OVC012 08/06 A2972 820 82 300 290/15G23 RMK AO2
14840KMKG MKG20101123002010111/23/10 00:20:31  5-MIN KMKG 230520Z 28014G24KT 10SM OVC012 08/06 A2972 820 82 300 280/14G24 RMK AO2
14840KMKG MKG20101123005516011/23/10 00:55:31  5-MIN KMKG 230555Z 27017G26KT 10SM OVC014 07/04 A2975 790 79 100 270/17G26 RMK AO2 PK WND 29030/0541 SLP076 60011 T00720039 10156 20072 53036
14840KMKG MKG20101123010011911/23/10 01:00:31  5-MIN KMKG 230600Z 28019G27KT 10SM OVC014 07/03 A2975 790 76 100 280/19G27 RMK AO2 PK WND 28027/0600
14840KMKG MKG20101123010511711/23/10 01:05:31  5-MIN KMKG 230605Z 28018G28KT 10SM OVC016 07/03 A2976 780 76 0 280/18G28 RMK AO2 PK WND 28028/0603
14840KMKG MKG20101123011011711/23/10 01:10:31  5-MIN KMKG 230610Z 28020G28KT 10SM OVC016 07/03 A2976 780 76 0 280/20G28 RMK AO2 PK WND 28028/0608
14840KMKG MKG20101123011511711/23/10 01:15:31  5-MIN KMKG 230615Z 29017G28KT 10SM OVC016 07/03 A2976 780 76 0 290/17G28 RMK AO2 PK WND 28028/0608
14840KMKG MKG20101123012011711/23/10 01:20:31  5-MIN KMKG 230620Z 28018G27KT 10SM OVC018 07/02 A2976 780 73 0 290/18G27 RMK AO2 PK WND 28028/0608
14840KMKG MKG20101123012511711/23/10 01:25:31  5-MIN KMKG 230625Z 28019G24KT 10SM OVC018 07/02 A2977 770 73 0 290/19G24 RMK AO2 PK WND 28028/0608
14840KMKG MKG20101123013011711/23/10 01:30:31  5-MIN KMKG 230630Z 27015G24KT 10SM OVC018 07/02 A2977 770 73 0 280/15G24 RMK AO2 PK WND 28028/0608
14840KMKG MKG20101123013512411/23/10 01:35:31  5-MIN KMKG 230635Z 29016G24KT 10SM OVC018 07/02 A2978 760 73 0 290/16G24 RMK AO2 PK WND 28028/0608 PRESRR
14840KMKG MKG20101123014011711/23/10 01:40:31  5-MIN KMKG 230640Z 30016G24KT 10SM OVC018 07/02 A2978 760 73 0 300/16G24 RMK AO2 PK WND 28028/0608
14840KMKG MKG20101123014512411/23/10 01:45:31  5-MIN KMKG 230645Z 29019G25KT 10SM OVC020 07/02 A2979 750 73 0 290/19G25 RMK AO2 PK WND 28028/0608 PRESRR
14840KMKG MKG20101123015014111/23/10 01:50:31  5-MIN KMKG 230650Z 28015G25KT 10SM OVC020 07/02 A2980 740 73 0 280/15G25 RMK AO2 PK WND 28028/0608 PRESRR SLP091 T00670022
14840KMKG MKG20101123015514111/23/10 01:55:31  5-MIN KMKG 230655Z 27014G22KT 10SM OVC020 07/02 A2981 740 73 0 280/14G22 RMK AO2 PK WND 28028/0608 PRESRR SLP095 T00670022
14840KMKG MKG20101123020009911/23/10 02:00:31  5-MIN KMKG 230700Z 27013G23KT 10SM OVC020 07/02 A2980 740 73 0 270/13G23 RMK AO2
14840KMKG MKG20101123020510211/23/10 02:05:31  5-MIN KMKG 230705Z 27013G23KT 10SM OVC020 06/02 A2980 740 73 -100 280/13G23 RMK AO2
14840KMKG MKG20101123021010211/23/10 02:10:31  5-MIN KMKG 230710Z 28016G22KT 10SM OVC020 06/02 A2980 740 73 -100 280/16G22 RMK AO2
14840KMKG MKG20101123021512011/23/10 02:15:31  5-MIN KMKG 230715Z 28014G26KT 10SM OVC020 06/02 A2981 740 73 -100 280/14G26 RMK AO2 PK WND 27026/0712
14840KMKG MKG20101123022012011/23/10 02:20:31  5-MIN KMKG 230720Z 29018G26KT 10SM OVC020 06/02 A2981 740 73 -100 290/18G26 RMK AO2 PK WND 27026/0712
14840KMKG MKG20101123022512011/23/10 02:25:31  5-MIN KMKG 230725Z 29014G24KT 10SM OVC020 06/02 A2981 730 73 -100 290/14G24 RMK AO2 PK WND 27026/0712
14840KMKG MKG20101123023012011/23/10 02:30:31  5-MIN KMKG 230730Z 27013G23KT 10SM OVC020 06/02 A2981 730 73 -100 270/13G23 RMK AO2 PK WND 27026/0712
14840KMKG MKG20101123023512011/23/10 02:35:31  5-MIN KMKG 230735Z 27017G23KT 10SM OVC020 06/02 A2981 730 73 -100 280/17G23 RMK AO2 PK WND 27026/0712
14840KMKG MKG20101123024012011/23/10 02:40:31  5-MIN KMKG 230740Z 27016G23KT 10SM OVC020 06/01 A2981 740 70 -100 270/16G23 RMK AO2 PK WND 27026/0712
14840KMKG MKG20101123024512011/23/10 02:45:31  5-MIN KMKG 230745Z 27016G23KT 10SM OVC020 06/01 A2981 730 73 -100 280/16G23 RMK AO2 PK WND 27026/0712
14840KMKG MKG20101123025014411/23/10 02:50:31  5-MIN KMKG 230750Z 27017G23KT 10SM BKN020 OVC025 06/01 A2982 720 73 -200 280/17G23 RMK AO2 PK WND 27026/0712 SLP100 T00560011
14840KMKG MKG20101123025513711/23/10 02:55:31  5-MIN KMKG 230755Z 28013G23KT 10SM OVC022 06/01 A2982 720 70 -200 280/13G23 RMK AO2 PK WND 27026/0712 SLP100 T00560006
14840KMKG MKG20101123030010911/23/10 03:00:31  5-MIN KMKG 230800Z 27016G22KT 10SM BKN022 OVC027 06/01 A2983 720 70 -200 280/16G22 RMK AO2
14840KMKG MKG20101123030510911/23/10 03:05:31  5-MIN KMKG 230805Z 28010G22KT 10SM BKN022 OVC027 06/01 A2983 720 70 -200 280/10G22 RMK AO2
14840KMKG MKG20101123031010211/23/10 03:10:31  5-MIN KMKG 230810Z 26014G20KT 10SM OVC022 06/01 A2983 710 70 -200 270/14G20 RMK AO2
14840KMKG MKG20101123031510211/23/10 03:15:31  5-MIN KMKG 230815Z 27011G21KT 10SM OVC022 06/01 A2983 720 70 -200 270/11G21 RMK AO2
14840KMKG MKG20101123032010211/23/10 03:20:31  5-MIN KMKG 230820Z 27016G24KT 10SM OVC022 05/01 A2983 710 73 -200 280/16G24 RMK AO2
14840KMKG MKG20101123032510911/23/10 03:25:31  5-MIN KMKG 230825Z 28014G24KT 10SM BKN022 OVC027 05/00 A2983 710 70 -200 280/14G24 RMK AO2
14840KMKG MKG20101123033010211/23/10 03:30:31  5-MIN KMKG 230830Z 28017G25KT 10SM OVC022 05/00 A2983 710 70 -200 280/17G25 RMK AO2
14840KMKG MKG20101123033510211/23/10 03:35:31  5-MIN KMKG 230835Z 27015G25KT 10SM OVC022 05/01 A2983 720 73 -200 280/15G25 RMK AO2
14840KMKG MKG20101123034010211/23/10 03:40:31  5-MIN KMKG 230840Z 28011G23KT 10SM OVC022 06/01 A2983 710 70 -200 280/11G23 RMK AO2
14840KMKG MKG20101123034510211/23/10 03:45:31  5-MIN KMKG 230845Z 27012G20KT 10SM OVC022 06/01 A2983 710 73 -200 280/12G20 RMK AO2
14840KMKG MKG20101123035012511/23/10 03:50:31  5-MIN KMKG 230850Z 28014G21KT 10SM OVC022 06/01 A2983 710 73 -200 280/14G21 RMK AO2 SLP103 T00560011 53036
14840KMKG MKG20101123035512511/23/10 03:55:31  5-MIN KMKG 230855Z 27014G21KT 10SM OVC022 06/01 A2983 710 73 -200 280/14G21 RMK AO2 SLP104 T00560011 51027
14840KMKG MKG20101123040010211/23/10 04:00:31  5-MIN KMKG 230900Z 27011G19KT 10SM OVC022 06/01 A2984 710 73 -200 280/11G19 RMK AO2
14840KMKG MKG20101123040510211/23/10 04:05:31  5-MIN KMKG 230905Z 27013G18KT 10SM OVC022 06/01 A2984 710 70 -200 270/13G18 RMK AO2
14840KMKG MKG20101123041010911/23/10 04:10:31  5-MIN KMKG 230910Z 26013G18KT 10SM BKN022 OVC028 06/01 A2983 710 70 -200 270/13G18 RMK AO2
14840KMKG MKG20101123041510911/23/10 04:15:31  5-MIN KMKG 230915Z 26017G23KT 10SM BKN022 OVC028 05/00 A2984 710 70 -200 260/17G23 RMK AO2
14840KMKG MKG20101123042010911/23/10 04:20:31  5-MIN KMKG 230920Z 26016G24KT 10SM BKN022 OVC027 05/00 A2984 710 70 -200 270/16G24 RMK AO2
14840KMKG MKG20101123042510911/23/10 04:25:31  5-MIN KMKG 230925Z 26018G25KT 10SM BKN022 OVC029 05/00 A2984 710 70 -200 260/18G25 RMK AO2
14840KMKG MKG20101123043011011/23/10 04:30:31  5-MIN KMKG 230930Z 26015G25KT 10SM BKN022 OVC029 04/M02 A2985 700 64 -300 270/15G25 RMK AO2
14840KMKG MKG20101123043511011/23/10 04:35:31  5-MIN KMKG 230935Z 27014G24KT 10SM BKN024 OVC031 04/M02 A2985 700 64 -300 270/14G24 RMK AO2
14840KMKG MKG20101123044011011/23/10 04:40:31  5-MIN KMKG 230940Z 26015G24KT 10SM BKN024 OVC031 04/M01 A2985 700 67 -300 270/15G24 RMK AO2
14840KMKG MKG20101123044511711/23/10 04:45:31  5-MIN KMKG 230945Z 27011G19KT 10SM FEW021 BKN028 OVC037 04/M01 A2985 700 67 -300 280/11G19 RMK AO2
14840KMKG MKG20101123045012711/23/10 04:50:31  5-MIN KMKG 230950Z 29017G21KT 10SM BKN028 OVC035 04/M01 A2985 690 67 -300 290/17G21 RMK AO2 SLP110 T00441011
14840KMKG MKG20101123045512711/23/10 04:55:31  5-MIN KMKG 230955Z 26014G21KT 10SM BKN028 OVC035 04/M02 A2985 700 64 -300 270/14G21 RMK AO2 SLP109 T00441017
14840KMKG MKG20101123050012811/23/10 05:00:31  5-MIN KMKG 231000Z 26016G26KT 10SM BKN028 OVC035 04/M02 A2985 700 64 -300 260/16G26 RMK AO2 PK WND 25026/0959
14840KMKG MKG20101123050513511/23/10 05:05:31  5-MIN KMKG 231005Z 27016G26KT 10SM SCT025 BKN030 OVC035 04/M02 A2986 690 62 -300 270/16G26 RMK AO2 PK WND 25026/0959
14840KMKG MKG20101123051014311/23/10 05:10:31  5-MIN KMKG 231010Z 26017G23KT 10SM SCT026 OVC035 04/M02 A2986 680 64 -300 260/17G23 RMK AO2 PK WND 25026/0959 CIG 030 RWY 14
14840KMKG MKG20101123051512811/23/10 05:15:31  5-MIN KMKG 231015Z 27013G23KT 10SM BKN028 OVC035 04/M02 A2987 680 67 -400 280/13G23 RMK AO2 PK WND 25026/0959
14840KMKG MKG20101123052012811/23/10 05:20:31  5-MIN KMKG 231020Z 27018G25KT 10SM BKN028 OVC035 04/M02 A2986 680 64 -400 270/18G25 RMK AO2 PK WND 25026/0959
14840KMKG MKG20101123052512811/23/10 05:25:31  5-MIN KMKG 231025Z 27014G25KT 10SM BKN028 BKN035 04/M02 A2987 680 64 -400 280/14G25 RMK AO2 PK WND 25026/0959
14840KMKG MKG20101123053014311/23/10 05:30:31  5-MIN KMKG 231030Z 28013G23KT 10SM SCT028 BKN035 04/M03 A2987 680 62 -400 280/13G23 RMK AO2 PK WND 25026/0959 CIG 030 RWY 14
14840KMKG MKG20101123053512811/23/10 05:35:31  5-MIN KMKG 231035Z 29014G23KT 10SM BKN031 OVC038 04/M03 A2987 680 62 -400 290/14G23 RMK AO2 PK WND 25026/0959
14840KMKG MKG20101123054012811/23/10 05:40:31  5-MIN KMKG 231040Z 28012G25KT 10SM BKN029 OVC036 04/M03 A2987 670 62 -400 280/12G25 RMK AO2 PK WND 25026/0959
14840KMKG MKG20101123054512811/23/10 05:45:31  5-MIN KMKG 231045Z 28015G25KT 10SM BKN029 OVC036 03/M03 A2987 670 64 -500 280/15G25 RMK AO2 PK WND 25026/0959
14840KMKG MKG20101123055014511/23/10 05:50:31  5-MIN KMKG 231050Z 28014G23KT 10SM BKN029 OVC035 03/M03 A2987 670 64 -500 280/14G23 RMK AO2 PK WND 25026/0959 SLP118 T00331028
14840KMKG MKG20101123055514511/23/10 05:55:31  5-MIN KMKG 231055Z 26015G23KT 10SM BKN031 OVC039 03/M03 A2988 670 61 -500 270/15G23 RMK AO2 PK WND 25026/0959 SLP120 T00331033
14840KMKG MKG20101123060012811/23/10 06:00:31  5-MIN KMKG 231100Z 26015G26KT 10SM BKN031 OVC036 03/M03 A2988 670 61 -500 260/15G26 RMK AO2 PK WND 26026/1100
14840KMKG MKG20101123060512811/23/10 06:05:31  5-MIN KMKG 231105Z 28019G26KT 10SM BKN031 OVC036 03/M03 A2989 660 64 -500 290/19G26 RMK AO2 PK WND 26026/1100
14840KMKG MKG20101123061012811/23/10 06:10:31  5-MIN KMKG 231110Z 28014G24KT 10SM BKN031 BKN039 03/M03 A2988 660 64 -600 290/14G24 RMK AO2 PK WND 26026/1100
14840KMKG MKG20101123061512811/23/10 06:15:31  5-MIN KMKG 231115Z 28013G24KT 10SM BKN029 OVC035 03/M03 A2989 660 64 -600 280/13G24 RMK AO2 PK WND 26026/1100
14840KMKG MKG20101123062012811/23/10 06:20:31  5-MIN KMKG 231120Z 27014G21KT 10SM BKN029 OVC035 03/M03 A2989 660 64 -600 280/14G21 RMK AO2 PK WND 26026/1100
14840KMKG MKG20101123062512811/23/10 06:25:31  5-MIN KMKG 231125Z 28018G25KT 10SM BKN029 OVC035 03/M03 A2989 660 64 -600 280/18G25 RMK AO2 PK WND 26026/1100
14840KMKG MKG20101123063012811/23/10 06:30:31  5-MIN KMKG 231130Z 27013G25KT 10SM BKN029 OVC035 03/M03 A2989 650 64 -600 280/13G25 RMK AO2 PK WND 26026/1100
14840KMKG MKG20101123063512811/23/10 06:35:31  5-MIN KMKG 231135Z 27015G20KT 10SM BKN029 OVC035 02/M04 A2990 650 64 -700 270/15G20 RMK AO2 PK WND 26026/1100
14840KMKG MKG20101123064012811/23/10 06:40:31  5-MIN KMKG 231140Z 28014G23KT 10SM BKN029 OVC035 02/M04 A2991 640 64 -700 280/14G23 RMK AO2 PK WND 26026/1100
14840KMKG MKG20101123064512811/23/10 06:45:31  5-MIN KMKG 231145Z 27014G23KT 10SM BKN029 OVC035 02/M03 A2991 640 67 -700 280/14G23 RMK AO2 PK WND 26026/1100
14840KMKG MKG20101123065016911/23/10 06:50:31  5-MIN KMKG 231150Z 27016G22KT 10SM BKN029 BKN035 02/M04 A2991 640 64 -700 280/16G22 RMK AO2 PK WND 26026/1100 SLP130 70031 T00221039 10072 20022 51027
14840KMKG MKG20101123065516911/23/10 06:55:31  5-MIN KMKG 231155Z 27015G22KT 10SM SCT029 BKN036 02/M04 A2991 640 61 -700 280/15G22 RMK AO2 PK WND 26026/1100 SLP130 70031 T00221044 10072 20022 53024
14840KMKG MKG20101123070013711/23/10 07:00:31  5-MIN KMKG 231200Z 28019G28KT 10SM FEW025 BKN033 BKN040 02/M04 A2991 640 61 -700 280/19G28 RMK AO2 PK WND 29028/1159 $
14840KMKG MKG20101123070513011/23/10 07:05:31  5-MIN KMKG 231205Z 28017G28KT 10SM FEW025 BKN033 02/M05 A2992 630 61 -700 280/17G28 RMK AO2 PK WND 29028/1159 $
14840KMKG MKG20101123071013011/23/10 07:10:31  5-MIN KMKG 231210Z 29016G23KT 10SM FEW025 BKN035 02/M05 A2992 630 61 -700 290/16G23 RMK AO2 PK WND 29028/1159 $
14840KMKG MKG20101123071513011/23/10 07:15:31  5-MIN KMKG 231215Z 28018G24KT 10SM BKN033 BKN039 02/M05 A2992 630 61 -800 290/18G24 RMK AO2 PK WND 29028/1159 $
14840KMKG MKG20101123072012311/23/10 07:20:31  5-MIN KMKG 231220Z 28018G24KT 10SM BKN033 01/M06 A2992 630 58 -800 290/18G24 RMK AO2 PK WND 29028/1159 $
14840KMKG MKG20101123072512311/23/10 07:25:31  5-MIN KMKG 231225Z 28016G24KT 10SM SCT033 01/M06 A2993 620 61 -800 280/16G24 RMK AO2 PK WND 29028/1159 $
14840KMKG MKG20101123073012311/23/10 07:30:31  5-MIN KMKG 231230Z 29016G25KT 10SM SCT033 01/M06 A2993 620 61 -800 300/16G25 RMK AO2 PK WND 29028/1159 $
14840KMKG MKG20101123073512311/23/10 07:35:31  5-MIN KMKG 231235Z 28018G25KT 10SM BKN033 01/M06 A2994 620 61 -800 280/18G25 RMK AO2 PK WND 29028/1159 $
14840KMKG MKG20101123074012311/23/10 07:40:31  5-MIN KMKG 231240Z 28016G25KT 10SM BKN033 01/M05 A2994 610 64 -800 280/16G25 RMK AO2 PK WND 29028/1159 $
14840KMKG MKG20101123074512311/23/10 07:45:31  5-MIN KMKG 231245Z 29011G23KT 10SM BKN033 01/M05 A2994 610 64 -800 290/11G23 RMK AO2 PK WND 29028/1159 $
14840KMKG MKG20101123075014711/23/10 07:50:31  5-MIN KMKG 231250Z 29016G24KT 10SM SCT030 BKN036 01/M05 A2995 610 64 -800 290/16G24 RMK AO2 PK WND 29028/1159 SLP144 T00111050 $
14840KMKG MKG20101123075514711/23/10 07:55:31  5-MIN KMKG 231255Z 29013G24KT 10SM BKN030 OVC036 01/M06 A2995 600 61 -900 290/13G24 RMK AO2 PK WND 29028/1159 SLP146 T00111056 $
14840KMKG MKG20101123080011211/23/10 08:00:31  5-MIN KMKG 231300Z 28011G23KT 10SM BKN030 OVC036 01/M05 A2995 600 64 -900 280/11G23 RMK AO2 $
14840KMKG MKG20101123080511211/23/10 08:05:31  5-MIN KMKG 231305Z 28011G17KT 10SM BKN030 OVC036 01/M04 A2995 600 66 -900 290/11G17 RMK AO2 $
14840KMKG MKG20101123081011211/23/10 08:10:31  5-MIN KMKG 231310Z 29013G18KT 10SM BKN027 OVC036 01/M04 A2996 600 66 -900 290/13G18 RMK AO2 $
14840KMKG MKG20101123081511911/23/10 08:15:31  5-MIN KMKG 231315Z 29016G20KT 10SM BKN024 BKN030 OVC036 01/M04 A2996 590 66 -900 300/16G20 RMK AO2 $
14840KMKG MKG20101123082011211/23/10 08:20:31  5-MIN KMKG 231320Z 28012G20KT 10SM BKN024 OVC030 01/M04 A2996 590 66 -900 290/12G20 RMK AO2 $
14840KMKG MKG20101123082511211/23/10 08:25:31  5-MIN KMKG 231325Z 27011G20KT 10SM BKN024 OVC030 01/M04 A2996 590 69 -900 280/11G20 RMK AO2 $
14840KMKG MKG20101123083010511/23/10 08:30:31  5-MIN KMKG 231330Z 28014G21KT 10SM OVC022 01/M04 A2997 590 69 -900 280/14G21 RMK AO2 $
14840KMKG MKG20101123083510511/23/10 08:35:31  5-MIN KMKG 231335Z 27015G21KT 10SM OVC022 01/M04 A2997 580 69 -900 270/15G21 RMK AO2 $
14840KMKG MKG20101123084010511/23/10 08:40:31  5-MIN KMKG 231340Z 28017G24KT 10SM OVC022 01/M04 A2997 580 69 -900 280/17G24 RMK AO2 $
14840KMKG MKG20101123084510511/23/10 08:45:31  5-MIN KMKG 231345Z 26014G24KT 10SM OVC022 01/M04 A2998 580 69 -900 270/14G24 RMK AO2 $
14840KMKG MKG20101123085014111/23/10 08:50:31  5-MIN KMKG 231350Z 28020G30KT 10SM OVC022 01/M04 A2998 570 69 -1000 280/20G30 RMK AO2 PK WND 28030/1349 SLP157 T00061044 $
14840KMKG MKG20101123085514111/23/10 08:55:31  5-MIN KMKG 231355Z 28019G30KT 10SM OVC024 01/M05 A2999 570 66 -1000 280/19G30 RMK AO2 PK WND 28030/1349 SLP158 T00061050 $
14840KMKG MKG20101123090012211/23/10 09:00:31  5-MIN KMKG 231400Z 27016G27KT 10SM OVC024 00/M06 A2999 560 66 -1000 280/16G27 RMK AO2 PK WND 28027/1356
14840KMKG MKG20101123090512911/23/10 09:05:31  5-MIN KMKG 231405Z 27017G27KT 10SM BKN024 OVC029 00/M06 A3000 560 66 -1000 280/17G27 RMK AO2 PK WND 28027/1356
14840KMKG MKG20101123091012911/23/10 09:10:31  5-MIN KMKG 231410Z 27020G26KT 10SM BKN026 OVC033 00/M06 A3000 560 63 -1100 270/20G26 RMK AO2 PK WND 28027/1356
14840KMKG MKG20101123091512911/23/10 09:15:31  5-MIN KMKG 231415Z 27016G26KT 10SM BKN026 OVC033 00/M06 A3000 550 63 -1100 280/16G26 RMK AO2 PK WND 28027/1356
14840KMKG MKG20101123092012311/23/10 09:20:31  5-MIN KMKG 231420Z 27017G26KT 10SM OVC026 M01/M06 A3001 550 66 -1100 280/17G26 RMK AO2 PK WND 28027/1356
14840KMKG MKG20101123092512311/23/10 09:25:31  5-MIN KMKG 231425Z 28016G26KT 10SM OVC026 M01/M06 A3000 550 66 -1100 280/16G26 RMK AO2 PK WND 28027/1356
14840KMKG MKG20101123093012311/23/10 09:30:31  5-MIN KMKG 231430Z 28017G27KT 10SM OVC026 M01/M06 A3001 550 66 -1100 280/17G27 RMK AO2 PK WND 28027/1428
14840KMKG MKG20101123093512311/23/10 09:35:31  5-MIN KMKG 231435Z 27015G27KT 10SM OVC026 M01/M06 A3001 550 66 -1100 280/15G27 RMK AO2 PK WND 28027/1428
14840KMKG MKG20101123094012311/23/10 09:40:31  5-MIN KMKG 231440Z 27014G22KT 10SM OVC026 M01/M06 A3002 540 66 -1100 270/14G22 RMK AO2 PK WND 28027/1428
14840KMKG MKG20101123094512311/23/10 09:45:31  5-MIN KMKG 231445Z 27013G23KT 10SM OVC026 M01/M06 A3002 540 66 -1100 270/13G23 RMK AO2 PK WND 28027/1428
14840KMKG MKG20101123095014611/23/10 09:50:31  5-MIN KMKG 231450Z 28017G23KT 10SM OVC026 M01/M06 A3002 540 66 -1100 290/17G23 RMK AO2 PK WND 28027/1428 SLP170 T10061061 53024
14840KMKG MKG20101123095514611/23/10 09:55:31  5-MIN KMKG 231455Z 28014G23KT 10SM OVC026 M01/M07 A3003 530 63 -1200 280/14G23 RMK AO2 PK WND 28027/1428 SLP173 T10061067 51041
14840KMKG MKG20101123100010511/23/10 10:00:31  5-MIN KMKG 231500Z 28014G20KT 10SM OVC026 M01/M07 A3003 530 63 -1200 290/14G20 RMK AO2
14840KMKG MKG20101123100510511/23/10 10:05:31  5-MIN KMKG 231505Z 27015G20KT 10SM OVC026 M01/M07 A3004 520 63 -1200 270/15G20 RMK AO2
14840KMKG MKG20101123101010511/23/10 10:10:31  5-MIN KMKG 231510Z 28015G24KT 10SM OVC026 M01/M07 A3004 520 66 -1200 280/15G24 RMK AO2
14840KMKG MKG20101123101510511/23/10 10:15:31  5-MIN KMKG 231515Z 29015G24KT 10SM OVC026 M01/M07 A3004 520 66 -1200 290/15G24 RMK AO2
14840KMKG MKG20101123102010511/23/10 10:20:31  5-MIN KMKG 231520Z 28014G22KT 10SM OVC026 M01/M07 A3005 510 66 -1200 280/14G22 RMK AO2
14840KMKG MKG20101123102510511/23/10 10:25:31  5-MIN KMKG 231525Z 27016G23KT 10SM OVC026 M01/M07 A3005 510 66 -1200 270/16G23 RMK AO2
14840KMKG MKG20101123103010511/23/10 10:30:31  5-MIN KMKG 231530Z 28013G23KT 10SM OVC026 M01/M07 A3005 510 66 -1300 290/13G23 RMK AO2
14840KMKG MKG20101123103511211/23/10 10:35:31  5-MIN KMKG 231535Z 27014G24KT 10SM BKN024 OVC029 M01/M07 A3005 510 66 -1300 280/14G24 RMK AO2
14840KMKG MKG20101123104010511/23/10 10:40:31  5-MIN KMKG 231540Z 27018G24KT 10SM OVC024 M01/M06 A3005 510 69 -1300 270/18G24 RMK AO2
14840KMKG MKG20101123104510511/23/10 10:45:31  5-MIN KMKG 231545Z 27013G23KT 10SM OVC024 M01/M06 A3005 510 69 -1300 280/13G23 RMK AO2
14840KMKG MKG20101123105012211/23/10 10:50:31  5-MIN KMKG 231550Z 28012G23KT 10SM OVC022 M01/M06 A3006 500 69 -1300 290/12G23 RMK AO2 SLP183 T10111061
14840KMKG MKG20101123105512211/23/10 10:55:31  5-MIN KMKG 231555Z 27013G22KT 10SM OVC022 M01/M06 A3006 510 69 -1300 280/13G22 RMK AO2 SLP182 T10111061
14840KMKG MKG20101123110010511/23/10 11:00:31  5-MIN KMKG 231600Z 29012G22KT 10SM OVC022 M01/M07 A3006 500 66 -1300 300/12G22 RMK AO2
14840KMKG MKG20101123110509911/23/10 11:05:31  5-MIN KMKG 231605Z 29013KT 10SM OVC022 M01/M07 A3006 500 66 -1300 300/13 RMK AO2
14840KMKG MKG20101123111009911/23/10 11:10:31  5-MIN KMKG 231610Z 29011KT 10SM OVC022 M01/M07 A3007 490 63 -1300 300/11 RMK AO2
14840KMKG MKG20101123111510511/23/10 11:15:31  5-MIN KMKG 231615Z 28011G21KT 10SM OVC022 M01/M07 A3007 490 66 -1300 280/11G21 RMK AO2
14840KMKG MKG20101123112010511/23/10 11:20:31  5-MIN KMKG 231620Z 29014G21KT 10SM OVC022 M01/M07 A3007 490 66 -1300 290/14G21 RMK AO2
14840KMKG MKG20101123112510511/23/10 11:25:31  5-MIN KMKG 231625Z 28014G23KT 10SM OVC022 M01/M07 A3007 490 66 -1300 290/14G23 RMK AO2
14840KMKG MKG20101123113010511/23/10 11:30:31  5-MIN KMKG 231630Z 28011G23KT 10SM OVC022 M02/M07 A3008 490 69 -1400 280/11G23 RMK AO2
14840KMKG MKG20101123113510511/23/10 11:35:31  5-MIN KMKG 231635Z 29012G23KT 10SM OVC022 M01/M07 A3008 480 66 -1300 290/12G23 RMK AO2
14840KMKG MKG20101123114010511/23/10 11:40:31  5-MIN KMKG 231640Z 30012G23KT 10SM OVC022 M02/M07 A3009 480 69 -1400 300/12G23 RMK AO2
14840KMKG MKG20101123114510511/23/10 11:45:31  5-MIN KMKG 231645Z 28016G23KT 10SM OVC020 M02/M06 A3009 480 72 -1400 280/16G23 RMK AO2
14840KMKG MKG20101123115012211/23/10 11:50:31  5-MIN KMKG 231650Z 28015G23KT 10SM OVC020 M02/M06 A3009 470 72 -1400 280/15G23 RMK AO2 SLP196 T10171061
14840KMKG MKG20101123115512211/23/10 11:55:31  5-MIN KMKG 231655Z 27012G22KT 10SM OVC020 M02/M07 A3009 470 69 -1400 270/12G22 RMK AO2 SLP196 T10171067
14840KMKG MKG20101123120010511/23/10 12:00:31  5-MIN KMKG 231700Z 29018G23KT 10SM OVC022 M02/M07 A3010 470 66 -1400 290/18G23 RMK AO2
14840KMKG MKG20101123120510511/23/10 12:05:31  5-MIN KMKG 231705Z 30016G23KT 10SM OVC022 M02/M07 A3010 470 69 -1400 300/16G23 RMK AO2
14840KMKG MKG20101123121010511/23/10 12:10:31  5-MIN KMKG 231710Z 28015G21KT 10SM OVC022 M01/M07 A3010 470 66 -1300 280/15G21 RMK AO2
14840KMKG MKG20101123121510511/23/10 12:15:31  5-MIN KMKG 231715Z 28014G21KT 10SM OVC022 M01/M07 A3010 460 66 -1300 280/14G21 RMK AO2
14840KMKG MKG20101123122010611/23/10 12:20:31  5-MIN KMKG 231720Z 28014KT 10SM BKN022 OVC029 M02/M07 A3010 460 69 -1400 290/14 RMK AO2
14840KMKG MKG20101123122510511/23/10 12:25:31  5-MIN KMKG 231725Z 29012G20KT 10SM OVC022 M02/M07 A3011 460 69 -1400 300/12G20 RMK AO2
14840KMKG MKG20101123123010511/23/10 12:30:31  5-MIN KMKG 231730Z 28012G20KT 10SM OVC022 M02/M07 A3011 460 69 -1400 290/12G20 RMK AO2
14840KMKG MKG20101123123510511/23/10 12:35:31  5-MIN KMKG 231735Z 30012G18KT 10SM OVC022 M02/M07 A3011 460 69 -1400 310/12G18 RMK AO2
14840KMKG MKG20101123124010511/23/10 12:40:31  5-MIN KMKG 231740Z 27012G18KT 10SM OVC020 M02/M06 A3011 450 72 -1400 280/12G18 RMK AO2
14840KMKG MKG20101123124511211/23/10 12:45:31  5-MIN KMKG 231745Z 27015G20KT 10SM BKN018 OVC023 M02/M06 A3011 450 72 -1400 280/15G20 RMK AO2
14840KMKG MKG20101123125014011/23/10 12:50:31  5-MIN KMKG 231750Z 29012G20KT 10SM OVC018 M02/M06 A3011 450 72 -1400 290/12G20 RMK AO2 SLP203 T10171061 10022 21017 51041
14840KMKG MKG20101123125514011/23/10 12:55:31  5-MIN KMKG 231755Z 27013G19KT 10SM OVC018 M02/M06 A3011 450 72 -1400 280/13G19 RMK AO2 SLP203 T10171061 10022 21017 51028
14840KMKG MKG20101123130010511/23/10 13:00:31  5-MIN KMKG 231800Z 28013G19KT 10SM OVC018 M02/M07 A3012 450 69 -1400 290/13G19 RMK AO2
14840KMKG MKG20101123130510511/23/10 13:05:31  5-MIN KMKG 231805Z 29013G21KT 10SM OVC018 M02/M06 A3012 450 72 -1400 300/13G21 RMK AO2
14840KMKG MKG20101123131010511/23/10 13:10:31  5-MIN KMKG 231810Z 27011G21KT 10SM OVC018 M02/M06 A3012 440 72 -1400 280/11G21 RMK AO2
14840KMKG MKG20101123131509911/23/10 13:15:31  5-MIN KMKG 231815Z 28012KT 10SM OVC018 M02/M06 A3013 440 72 -1400 290/12 RMK AO2
14840KMKG MKG20101123132010511/23/10 13:20:31  5-MIN KMKG 231820Z 27012G19KT 10SM OVC018 M02/M06 A3013 440 72 -1400 280/12G19 RMK AO2
14840KMKG MKG20101123132509911/23/10 13:25:31  5-MIN KMKG 231825Z 28014KT 10SM OVC018 M02/M06 A3013 440 72 -1400 290/14 RMK AO2
14840KMKG MKG20101123133010511/23/10 13:30:31  5-MIN KMKG 231830Z 29013G21KT 10SM OVC018 M01/M06 A3013 440 69 -1300 290/13G21 RMK AO2
14840KMKG MKG20101123133510511/23/10 13:35:31  5-MIN KMKG 231835Z 28014G21KT 10SM OVC018 M01/M06 A3013 440 69 -1300 290/14G21 RMK AO2
14840KMKG MKG20101123134010511/23/10 13:40:31  5-MIN KMKG 231840Z 27014G19KT 10SM OVC020 M01/M06 A3013 430 69 -1300 280/14G19 RMK AO2
14840KMKG MKG20101123134510511/23/10 13:45:31  5-MIN KMKG 231845Z 28012G20KT 10SM OVC020 M01/M06 A3014 430 69 -1300 280/12G20 RMK AO2
14840KMKG MKG20101123135012211/23/10 13:50:31  5-MIN KMKG 231850Z 29014G20KT 10SM OVC020 M01/M06 A3014 430 69 -1300 290/14G20 RMK AO2 SLP211 T10111061
14840KMKG MKG20101123135512211/23/10 13:55:31  5-MIN KMKG 231855Z 29015G19KT 10SM OVC020 M01/M06 A3014 430 69 -1300 290/15G19 RMK AO2 SLP211 T10111061
14840KMKG MKG20101123140010511/23/10 14:00:31  5-MIN KMKG 231900Z 29012G19KT 10SM OVC022 M01/M06 A3014 430 69 -1400 290/12G19 RMK AO2
14840KMKG MKG20101123140509911/23/10 14:05:31  5-MIN KMKG 231905Z 28013KT 10SM OVC022 M01/M06 A3014 420 72 -1400 290/13 RMK AO2
14840KMKG MKG20101123141009911/23/10 14:10:31  5-MIN KMKG 231910Z 28012KT 10SM OVC020 M01/M06 A3015 420 72 -1400 280/12 RMK AO2
14840KMKG MKG20101123141510511/23/10 14:15:31  5-MIN KMKG 231915Z 28015G19KT 10SM OVC020 M01/M06 A3015 420 72 -1400 290/15G19 RMK AO2
14840KMKG MKG20101123142010511/23/10 14:20:31  5-MIN KMKG 231920Z 28010G19KT 10SM OVC020 M01/M06 A3015 420 72 -1400 280/10G19 RMK AO2
14840KMKG MKG20101123142509911/23/10 14:25:31  5-MIN KMKG 231925Z 26013KT 10SM OVC020 M01/M06 A3015 420 66 -1300 270/13 RMK AO2
14840KMKG MKG20101123143010511/23/10 14:30:31  5-MIN KMKG 231930Z 28012G19KT 10SM OVC020 M01/M06 A3015 420 66 -1300 280/12G19 RMK AO2
14840KMKG MKG20101123143510511/23/10 14:35:31  5-MIN KMKG 231935Z 27014G20KT 10SM OVC020 M01/M06 A3015 420 69 -1300 270/14G20 RMK AO2
14840KMKG MKG20101123144010511/23/10 14:40:31  5-MIN KMKG 231940Z 27012G23KT 10SM OVC020 M01/M06 A3015 420 66 -1300 280/12G23 RMK AO2
14840KMKG MKG20101123144510511/23/10 14:45:31  5-MIN KMKG 231945Z 28011G23KT 10SM OVC022 M01/M06 A3015 420 66 -1300 290/11G23 RMK AO2
14840KMKG MKG20101123145012211/23/10 14:50:31  5-MIN KMKG 231950Z 28009G17KT 10SM OVC022 M01/M06 A3015 420 69 -1300 290/09G17 RMK AO2 SLP216 T10061056
14840KMKG MKG20101123145512211/23/10 14:55:31  5-MIN KMKG 231955Z 28014G17KT 10SM OVC022 M01/M06 A3015 420 69 -1300 290/14G17 RMK AO2 SLP216 T10061056
14840KMKG MKG20101123150009911/23/10 15:00:31  5-MIN KMKG 232000Z 29010KT 10SM OVC022 M01/M06 A3016 410 69 -1300 290/10 RMK AO2
14840KMKG MKG20101123150510611/23/10 15:05:31  5-MIN KMKG 232005Z 28013KT 10SM BKN022 OVC029 M01/M06 A3016 410 69 -1300 280/13 RMK AO2
14840KMKG MKG20101123151009911/23/10 15:10:31  5-MIN KMKG 232010Z 28010KT 10SM OVC024 M01/M06 A3016 410 66 -1300 280/10 RMK AO2
14840KMKG MKG20101123151509911/23/10 15:15:31  5-MIN KMKG 232015Z 28013KT 10SM OVC024 M01/M06 A3017 400 66 -1300 280/13 RMK AO2
14840KMKG MKG20101123152010511/23/10 15:20:31  5-MIN KMKG 232020Z 28013G20KT 10SM OVC024 M01/M06 A3017 400 66 -1300 290/13G20 RMK AO2
14840KMKG MKG20101123152510511/23/10 15:25:31  5-MIN KMKG 232025Z 28010G20KT 10SM OVC024 M01/M06 A3017 400 69 -1300 290/10G20 RMK AO2
14840KMKG MKG20101123153009911/23/10 15:30:31  5-MIN KMKG 232030Z 28012KT 10SM OVC024 M01/M06 A3017 400 66 -1300 280/12 RMK AO2
14840KMKG MKG20101123153510411/23/10 15:35:31  5-MIN KMKG 232035Z 29012G18KT 10SM OVC024 00/M06 A3017 400 63 -1300 290/12G18 RMK AO2
14840KMKG MKG20101123154011111/23/10 15:40:31  5-MIN KMKG 232040Z 29009G18KT 10SM BKN024 OVC030 00/M06 A3017 400 66 -1300 290/09G18 RMK AO2
14840KMKG MKG20101123154510511/23/10 15:45:31  5-MIN KMKG 232045Z 29014KT 10SM BKN024 OVC030 00/M06 A3018 390 66 -1300 290/14 RMK AO2
14840KMKG MKG20101123155013411/23/10 15:50:31  5-MIN KMKG 232050Z 28010G17KT 10SM BKN024 OVC030 00/M06 A3018 390 66 -1300 280/10G17 RMK AO2 SLP224 T00001056 51028
14840KMKG MKG20101123155512711/23/10 15:55:31  5-MIN KMKG 232055Z 29013G18KT 10SM OVC024 00/M06 A3018 390 63 -1300 290/13G18 RMK AO2 SLP225 T00001061 53021
14840KMKG MKG20101123160010411/23/10 16:00:31  5-MIN KMKG 232100Z 30011G19KT 10SM OVC026 00/M06 A3018 390 63 -1300 300/11G19 RMK AO2
14840KMKG MKG20101123160511111/23/10 16:05:31  5-MIN KMKG 232105Z 29012G19KT 10SM BKN026 OVC032 00/M06 A3019 390 63 -1300 300/12G19 RMK AO2
14840KMKG MKG20101123161011111/23/10 16:10:31  5-MIN KMKG 232110Z 29011G19KT 10SM BKN026 OVC032 00/M06 A3018 390 63 -1300 290/11G19 RMK AO2
14840KMKG MKG20101123161510411/23/10 16:15:31  5-MIN KMKG 232115Z 29012G19KT 10SM OVC028 00/M06 A3019 380 63 -1300 290/12G19 RMK AO2
14840KMKG MKG20101123162011111/23/10 16:20:31  5-MIN KMKG 232120Z 30014G18KT 10SM BKN025 OVC031 00/M06 A3019 380 63 -1300 300/14G18 RMK AO2
14840KMKG MKG20101123162510411/23/10 16:25:31  5-MIN KMKG 232125Z 29010G18KT 10SM OVC028 00/M06 A3019 380 66 -1300 290/10G18 RMK AO2
14840KMKG MKG20101123163011111/23/10 16:30:31  5-MIN KMKG 232130Z 30013G20KT 10SM BKN028 OVC034 00/M06 A3019 380 66 -1300 300/13G20 RMK AO2
14840KMKG MKG20101123163511111/23/10 16:35:31  5-MIN KMKG 232135Z 29011G20KT 10SM BKN028 OVC034 00/M06 A3019 380 63 -1300 290/11G20 RMK AO2
14840KMKG MKG20101123164010411/23/10 16:40:31  5-MIN KMKG 232140Z 28014G18KT 10SM OVC028 00/M06 A3019 380 63 -1300 290/14G18 RMK AO2
14840KMKG MKG20101123164510411/23/10 16:45:31  5-MIN KMKG 232145Z 29010G18KT 10SM OVC028 00/M06 A3020 380 66 -1300 290/10G18 RMK AO2
14840KMKG MKG20101123165012111/23/10 16:50:31  5-MIN KMKG 232150Z 29011G17KT 10SM OVC026 00/M06 A3020 370 66 -1300 290/11G17 RMK AO2 SLP234 T00001056
14840KMKG MKG20101123165512111/23/10 16:55:31  5-MIN KMKG 232155Z 29013G18KT 10SM OVC026 00/M06 A3020 370 66 -1300 300/13G18 RMK AO2 SLP234 T00001056
14840KMKG MKG20101123170010411/23/10 17:00:31  5-MIN KMKG 232200Z 30008G18KT 10SM OVC026 00/M06 A3021 370 66 -1300 300/08G18 RMK AO2
14840KMKG MKG20101123170509811/23/10 17:05:31  5-MIN KMKG 232205Z 30011KT 10SM OVC026 00/M06 A3021 360 66 -1300 300/11 RMK AO2
14840KMKG MKG20101123171010411/23/10 17:10:31  5-MIN KMKG 232210Z 31009G19KT 10SM OVC026 00/M06 A3021 360 66 -1300 310/09G19 RMK AO2
14840KMKG MKG20101123171511111/23/10 17:15:31  5-MIN KMKG 232215Z 30011G19KT 10SM BKN026 OVC032 00/M06 A3022 360 66 -1300 310/11G19 RMK AO2
14840KMKG MKG20101123172011111/23/10 17:20:31  5-MIN KMKG 232220Z 31011G16KT 10SM BKN026 OVC032 00/M06 A3021 360 63 -1300 310/11G16 RMK AO2
14840KMKG MKG20101123172511111/23/10 17:25:31  5-MIN KMKG 232225Z 30010G18KT 10SM BKN026 OVC032 00/M06 A3022 360 66 -1300 300/10G18 RMK AO2
14840KMKG MKG20101123173010411/23/10 17:30:31  5-MIN KMKG 232230Z 30010G18KT 10SM OVC029 00/M06 A3022 350 66 -1300 300/10G18 RMK AO2
14840KMKG MKG20101123173510411/23/10 17:35:31  5-MIN KMKG 232235Z 31010G15KT 10SM OVC029 00/M06 A3022 350 63 -1300 320/10G15 RMK AO2
14840KMKG MKG20101123174009811/23/10 17:40:31  5-MIN KMKG 232240Z 31007KT 10SM OVC029 01/M06 A3023 350 63 -1200 310/07 RMK AO2
14840KMKG MKG20101123174510411/23/10 17:45:31  5-MIN KMKG 232245Z 31013G18KT 10SM OVC029 01/M06 A3023 350 61 -1200 320/13G18 RMK AO2
14840KMKG MKG20101123175012111/23/10 17:50:31  5-MIN KMKG 232250Z 31009G18KT 10SM OVC029 01/M06 A3023 340 61 -1200 310/09G18 RMK AO2 SLP245 T00061061
14840KMKG MKG20101123175512111/23/10 17:55:31  5-MIN KMKG 232255Z 32012G17KT 10SM OVC029 01/M06 A3023 340 61 -1200 320/12G17 RMK AO2 SLP244 T00061061
14840KMKG MKG20101123180010411/23/10 18:00:31  5-MIN KMKG 232300Z 30010G17KT 10SM OVC029 01/M06 A3023 340 63 -1200 300/10G17 RMK AO2
14840KMKG MKG20101123180510411/23/10 18:05:31  5-MIN KMKG 232305Z 30012G17KT 10SM OVC029 00/M06 A3024 340 63 -1300 300/12G17 RMK AO2
14840KMKG MKG20101123181010411/23/10 18:10:31  5-MIN KMKG 232310Z 30009G17KT 10SM OVC029 00/M06 A3024 340 63 -1300 310/09G17 RMK AO2
14840KMKG MKG20101123181510411/23/10 18:15:31  5-MIN KMKG 232315Z 31011G17KT 10SM OVC029 01/M06 A3024 330 61 -1300 320/11G17 RMK AO2
14840KMKG MKG20101123182010411/23/10 18:20:31  5-MIN KMKG 232320Z 32010G16KT 10SM OVC029 00/M06 A3025 330 63 -1300 320/10G16 RMK AO2
14840KMKG MKG20101123182510411/23/10 18:25:31  5-MIN KMKG 232325Z 31008G17KT 10SM OVC031 01/M06 A3025 330 61 -1300 310/08G17 RMK AO2
14840KMKG MKG20101123183010411/23/10 18:30:31  5-MIN KMKG 232330Z 30010G17KT 10SM OVC031 01/M06 A3025 320 61 -1300 300/10G17 RMK AO2
14840KMKG MKG20101123183509811/23/10 18:35:31  5-MIN KMKG 232335Z 31009KT 10SM OVC029 01/M06 A3026 320 63 -1300 320/09 RMK AO2
14840KMKG MKG20101123184009811/23/10 18:40:31  5-MIN KMKG 232340Z 32011KT 10SM OVC029 01/M06 A3026 320 63 -1300 320/11 RMK AO2
14840KMKG MKG20101123184509811/23/10 18:45:31  5-MIN KMKG 232345Z 32012KT 10SM OVC029 01/M06 A3026 320 63 -1300 320/12 RMK AO2
14840KMKG MKG20101123185013311/23/10 18:50:31  5-MIN KMKG 232350Z 32011KT 10SM OVC029 01/M06 A3026 320 63 -1300 320/11 RMK AO2 SLP254 T00061056 10006 21017 53021
14840KMKG MKG20101123185513911/23/10 18:55:31  5-MIN KMKG 232355Z 32010G18KT 10SM OVC029 01/M06 A3026 310 63 -1300 320/10G18 RMK AO2 SLP255 T00061056 10006 21017 53028
14840KMKG MKG20101123190009811/23/10 19:00:31  5-MIN KMKG 240000Z 33012KT 10SM OVC029 00/M06 A3027 310 66 -1400 330/12 RMK AO2
14840KMKG MKG20101123190509811/23/10 19:05:31  5-MIN KMKG 240005Z 33010KT 10SM OVC029 00/M06 A3027 310 66 -1400 330/10 RMK AO2
14840KMKG MKG20101123191009811/23/10 19:10:31  5-MIN KMKG 240010Z 32011KT 10SM OVC027 00/M06 A3027 310 66 -1400 320/11 RMK AO2
14840KMKG MKG20101123191509811/23/10 19:15:31  5-MIN KMKG 240015Z 32011KT 10SM OVC027 00/M06 A3027 310 66 -1400 330/11 RMK AO2
14840KMKG MKG20101123192009811/23/10 19:20:31  5-MIN KMKG 240020Z 33012KT 10SM OVC027 00/M06 A3028 300 66 -1400 330/12 RMK AO2
14840KMKG MKG20101123192509811/23/10 19:25:31  5-MIN KMKG 240025Z 33012KT 10SM OVC027 00/M06 A3027 310 66 -1400 330/12 RMK AO2
14840KMKG MKG20101123193010411/23/10 19:30:31  5-MIN KMKG 240030Z 34010G17KT 10SM OVC027 00/M06 A3028 300 66 -1400 340/10G17 RMK AO2
14840KMKG MKG20101123193510411/23/10 19:35:31  5-MIN KMKG 240035Z 33011G17KT 10SM OVC027 00/M06 A3028 300 63 -1400 340/11G17 RMK AO2
14840KMKG MKG20101123194010411/23/10 19:40:31  5-MIN KMKG 240040Z 33012G17KT 10SM OVC027 00/M06 A3028 300 63 -1400 340/12G17 RMK AO2
14840KMKG MKG20101123194510411/23/10 19:45:31  5-MIN KMKG 240045Z 33010G17KT 10SM OVC027 00/M06 A3027 300 63 -1400 340/10G17 RMK AO2
14840KMKG MKG20101123195011511/23/10 19:50:31  5-MIN KMKG 240050Z 34012KT 10SM OVC027 00/M06 A3028 300 66 -1400 340/12 RMK AO2 SLP260 T00001056
14840KMKG MKG20101123195511511/23/10 19:55:31  5-MIN KMKG 240055Z 35010KT 10SM OVC027 00/M06 A3028 300 63 -1400 350/10 RMK AO2 SLP261 T00001061
14840KMKG MKG20101123200009811/23/10 20:00:31  5-MIN KMKG 240100Z 34009KT 10SM OVC027 00/M06 A3028 300 66 -1400 340/09 RMK AO2
14840KMKG MKG20101123200509811/23/10 20:05:31  5-MIN KMKG 240105Z 33009KT 10SM OVC027 00/M06 A3029 290 66 -1400 340/09 RMK AO2
14840KMKG MKG20101123201009811/23/10 20:10:31  5-MIN KMKG 240110Z 33010KT 10SM OVC027 00/M06 A3029 290 66 -1400 340/10 RMK AO2
14840KMKG MKG20101123201510411/23/10 20:15:31  5-MIN KMKG 240115Z 33011G16KT 10SM OVC027 00/M06 A3029 290 63 -1400 330/11G16 RMK AO2
14840KMKG MKG20101123202009811/23/10 20:20:31  5-MIN KMKG 240120Z 34008KT 10SM OVC027 00/M06 A3030 280 66 -1400 340/08 RMK AO2
14840KMKG MKG20101123202509811/23/10 20:25:31  5-MIN KMKG 240125Z 34009KT 10SM OVC027 00/M06 A3030 290 63 -1400 340/09 RMK AO2
14840KMKG MKG20101123203009811/23/10 20:30:31  5-MIN KMKG 240130Z 35008KT 10SM OVC027 00/M06 A3030 290 63 -1400 350/08 RMK AO2
14840KMKG MKG20101123203509811/23/10 20:35:31  5-MIN KMKG 240135Z 34009KT 10SM OVC027 00/M06 A3029 290 63 -1400 340/09 RMK AO2
14840KMKG MKG20101123204009811/23/10 20:40:31  5-MIN KMKG 240140Z 34006KT 10SM OVC027 00/M06 A3029 290 63 -1400 340/06 RMK AO2
14840KMKG MKG20101123204509811/23/10 20:45:31  5-MIN KMKG 240145Z 35009KT 10SM OVC027 00/M06 A3030 280 63 -1400 360/09 RMK AO2
14840KMKG MKG20101123205011511/23/10 20:50:31  5-MIN KMKG 240150Z 36008KT 10SM OVC027 00/M06 A3030 280 63 -1400 360/08 RMK AO2 SLP270 T00001061
14840KMKG MKG20101123205511611/23/10 20:55:31  5-MIN KMKG 240155Z 36007KT 10SM OVC027 M01/M06 A3030 280 66 -1500 360/07 RMK AO2 SLP270 T10061061
14840KMKG MKG20101123210009911/23/10 21:00:31  5-MIN KMKG 240200Z 36008KT 10SM OVC027 M01/M06 A3030 280 66 -1500 010/08 RMK AO2
14840KMKG MKG20101123210509911/23/10 21:05:31  5-MIN KMKG 240205Z 35006KT 10SM OVC027 M01/M06 A3030 280 66 -1500 360/06 RMK AO2
14840KMKG MKG20101123211009911/23/10 21:10:31  5-MIN KMKG 240210Z 35007KT 10SM OVC027 M01/M06 A3030 280 66 -1500 360/07 RMK AO2
14840KMKG MKG20101123211509911/23/10 21:15:31  5-MIN KMKG 240215Z 35005KT 10SM OVC027 M01/M06 A3030 280 66 -1500 350/05 RMK AO2
14840KMKG MKG20101123212009911/23/10 21:20:31  5-MIN KMKG 240220Z 02005KT 10SM OVC027 M01/M06 A3030 280 66 -1500 020/05 RMK AO2
14840KMKG MKG20101123212509911/23/10 21:25:31  5-MIN KMKG 240225Z 36006KT 10SM OVC027 M01/M06 A3030 280 66 -1500 360/06 RMK AO2
14840KMKG MKG20101123213009911/23/10 21:30:31  5-MIN KMKG 240230Z 36006KT 10SM OVC027 M01/M07 A3031 280 63 -1500 360/06 RMK AO2
14840KMKG MKG20101123213509911/23/10 21:35:31  5-MIN KMKG 240235Z 36007KT 10SM OVC027 M01/M07 A3031 280 63 -1500 010/07 RMK AO2
14840KMKG MKG20101123214009911/23/10 21:40:31  5-MIN KMKG 240240Z 01006KT 10SM OVC027 M01/M07 A3031 270 63 -1500 010/06 RMK AO2
14840KMKG MKG20101123214509911/23/10 21:45:31  5-MIN KMKG 240245Z 36005KT 10SM OVC027 M01/M07 A3031 270 63 -1500 010/05 RMK AO2
14840KMKG MKG20101123215012211/23/10 21:50:31  5-MIN KMKG 240250Z 36004KT 10SM OVC027 M01/M07 A3032 270 63 -1500 010/04 RMK AO2 SLP274 T10061067 53028
14840KMKG MKG20101123215512211/23/10 21:55:31  5-MIN KMKG 240255Z 02005KT 10SM OVC027 M01/M07 A3032 260 63 -1500 030/05 RMK AO2 SLP275 T10061067 53018
14840KMKG MKG20101123220009911/23/10 22:00:31  5-MIN KMKG 240300Z 01005KT 10SM OVC027 M01/M07 A3032 270 63 -1500 010/05 RMK AO2
14840KMKG MKG20101123220509911/23/10 22:05:31  5-MIN KMKG 240305Z 01006KT 10SM OVC027 M01/M07 A3032 260 63 -1500 010/06 RMK AO2
14840KMKG MKG20101123221009911/23/10 22:10:31  5-MIN KMKG 240310Z 01007KT 10SM OVC027 M01/M07 A3032 260 63 -1500 020/07 RMK AO2
14840KMKG MKG20101123221509911/23/10 22:15:31  5-MIN KMKG 240315Z 01007KT 10SM OVC027 M01/M07 A3032 260 63 -1500 010/07 RMK AO2
14840KMKG MKG20101123222009911/23/10 22:20:31  5-MIN KMKG 240320Z 36005KT 10SM OVC027 M01/M07 A3033 260 63 -1500 010/05 RMK AO2
14840KMKG MKG20101123231009911/23/10 23:10:31  5-MIN KMKG 240410Z 01005KT 10SM OVC027 M01/M07 A3033 260 63 -1500 020/05 RMK AO2
14840KMKG MKG20101123231509911/23/10 23:15:31  5-MIN KMKG 240415Z 04005KT 10SM OVC027 M01/M07 A3033 250 63 -1500 040/05 RMK AO2
14840KMKG MKG20101123232009911/23/10 23:20:31  5-MIN KMKG 240420Z 04006KT 10SM OVC027 M01/M07 A3033 250 63 -1500 050/06 RMK AO2
14840KMKG MKG20101123232509911/23/10 23:25:31  5-MIN KMKG 240425Z 03007KT 10SM OVC027 M01/M07 A3033 250 63 -1500 040/07 RMK AO2
14840KMKG MKG20101123233009911/23/10 23:30:31  5-MIN KMKG 240430Z 03006KT 10SM OVC027 M01/M07 A3033 260 63 -1500 040/06 RMK AO2
14840KMKG MKG20101123233509911/23/10 23:35:31  5-MIN KMKG 240435Z 05006KT 10SM OVC027 M01/M07 A3033 260 63 -1500 050/06 RMK AO2
14840KMKG MKG20101123234009911/23/10 23:40:31  5-MIN KMKG 240440Z 05006KT 10SM OVC027 M01/M07 A3033 250 63 -1500 050/06 RMK AO2
14840KMKG MKG20101123234509911/23/10 23:45:31  5-MIN KMKG 240445Z 04005KT 10SM OVC027 M01/M07 A3033 250 63 -1500 050/05 RMK AO2
14840KMKG MKG20101123235012611/23/10 23:50:31  5-MIN KMKG 240450Z 03006KT 10SM OVC027 M01/M07 A3033 250 63 -1500 030/06 RMK AO2 SLP280 T10061067 400891017
14840KMKG MKG20101123235512611/23/10 23:55:31  5-MIN KMKG 240455Z 03005KT 10SM OVC027 M01/M07 A3034 250 63 -1500 040/05 RMK AO2 SLP282 T10061067 400891017
14840KMKG MKG20101124000009911/24/10 00:00:32  5-MIN KMKG 240500Z 05005KT 10SM OVC027 M01/M07 A3034 250 63 -1500 060/05 RMK AO2
14840KMKG MKG20101124000509911/24/10 00:05:31  5-MIN KMKG 240505Z 02005KT 10SM OVC027 M01/M07 A3034 250 63 -1500 030/05 RMK AO2
14840KMKG MKG20101124001009911/24/10 00:10:31  5-MIN KMKG 240510Z 05004KT 10SM OVC027 M01/M07 A3034 250 63 -1500 050/04 RMK AO2
14840KMKG MKG20101124001509911/24/10 00:15:31  5-MIN KMKG 240515Z 04004KT 10SM OVC027 M01/M07 A3034 240 63 -1500 040/04 RMK AO2
14840KMKG MKG20101124002009911/24/10 00:20:31  5-MIN KMKG 240520Z 05003KT 10SM OVC027 M01/M07 A3035 240 63 -1500 050/03 RMK AO2
14840KMKG MKG20101124002509911/24/10 00:25:31  5-MIN KMKG 240525Z 00000KT 10SM OVC027 M01/M07 A3035 240 63 -1500 000/00 RMK AO2
14840KMKG MKG20101124003009911/24/10 00:30:31  5-MIN KMKG 240530Z 00000KT 10SM OVC027 M01/M07 A3035 240 63 -1500 000/00 RMK AO2
14840KMKG MKG20101124003509911/24/10 00:35:31  5-MIN KMKG 240535Z 05003KT 10SM OVC027 M01/M06 A3035 240 66 -1500 050/03 RMK AO2
14840KMKG MKG20101124004009911/24/10 00:40:31  5-MIN KMKG 240540Z 05003KT 10SM OVC027 M01/M07 A3034 240 63 -1500 060/03 RMK AO2
14840KMKG MKG20101124004509911/24/10 00:45:31  5-MIN KMKG 240545Z 07004KT 10SM OVC027 M01/M07 A3034 240 63 -1500 080/04 RMK AO2
14840KMKG MKG20101124005013411/24/10 00:50:31  5-MIN KMKG 240550Z 06003KT 10SM OVC027 M01/M07 A3034 240 63 -1500 070/03 RMK AO2 SLP284 T10061067 10006 21006 53018
14840KMKG MKG20101124005513411/24/10 00:55:31  5-MIN KMKG 240555Z 07005KT 10SM OVC027 M01/M06 A3034 250 66 -1500 070/05 RMK AO2 SLP282 T10061061 10006 21006 51006
14840KMKG MKG20101124010009911/24/10 01:00:31  5-MIN KMKG 240600Z 06005KT 10SM OVC027 M01/M06 A3034 250 66 -1500 070/05 RMK AO2
14840KMKG MKG20101124010509911/24/10 01:05:31  5-MIN KMKG 240605Z 07004KT 10SM OVC027 M01/M07 A3034 250 63 -1500 070/04 RMK AO2
14840KMKG MKG20101124011009911/24/10 01:10:31  5-MIN KMKG 240610Z 08004KT 10SM OVC027 M01/M07 A3034 240 63 -1500 080/04 RMK AO2
14840KMKG MKG20101124011509911/24/10 01:15:31  5-MIN KMKG 240615Z 07004KT 10SM OVC027 M01/M07 A3034 240 63 -1500 070/04 RMK AO2
14840KMKG MKG20101124012009911/24/10 01:20:31  5-MIN KMKG 240620Z 00000KT 10SM OVC027 M01/M06 A3035 240 66 -1500 000/00 RMK AO2
14840KMKG MKG20101124012509911/24/10 01:25:31  5-MIN KMKG 240625Z 00000KT 10SM OVC029 M01/M07 A3035 230 63 -1500 000/00 RMK AO2
14840KMKG MKG20101124013009911/24/10 01:30:31  5-MIN KMKG 240630Z 00000KT 10SM OVC029 M01/M07 A3035 230 63 -1500 000/00 RMK AO2
14840KMKG MKG20101124013509911/24/10 01:35:31  5-MIN KMKG 240635Z 00000KT 10SM OVC029 M01/M06 A3035 240 66 -1500 000/00 RMK AO2
14840KMKG MKG20101124014009911/24/10 01:40:31  5-MIN KMKG 240640Z 10003KT 10SM OVC029 M01/M06 A3035 240 69 -1600 110/03 RMK AO2
14840KMKG MKG20101124014509911/24/10 01:45:31  5-MIN KMKG 240645Z 00000KT 10SM OVC029 M01/M06 A3034 240 66 -1500 000/00 RMK AO2
14840KMKG MKG20101124015011611/24/10 01:50:31  5-MIN KMKG 240650Z 00000KT 10SM OVC029 M01/M06 A3034 240 66 -1500 000/00 RMK AO2 SLP283 T10061061
14840KMKG MKG20101124015511611/24/10 01:55:31  5-MIN KMKG 240655Z 00000KT 10SM OVC029 M01/M06 A3034 240 69 -1600 000/00 RMK AO2 SLP284 T10111061
14840KMKG MKG20101124020009911/24/10 02:00:31  5-MIN KMKG 240700Z 07003KT 10SM OVC029 M01/M06 A3034 240 69 -1600 080/03 RMK AO2
14840KMKG MKG20101124020509911/24/10 02:05:31  5-MIN KMKG 240705Z 10003KT 10SM OVC029 M01/M06 A3034 240 69 -1600 110/03 RMK AO2
14840KMKG MKG20101124021009911/24/10 02:10:31  5-MIN KMKG 240710Z 00000KT 10SM OVC029 M01/M06 A3034 240 69 -1600 000/00 RMK AO2
14840KMKG MKG20101124021509911/24/10 02:15:31  5-MIN KMKG 240715Z 08004KT 10SM OVC029 M01/M06 A3034 240 69 -1600 090/04 RMK AO2
14840KMKG MKG20101124022009911/24/10 02:20:31  5-MIN KMKG 240720Z 00000KT 10SM OVC029 M01/M06 A3034 240 69 -1600 000/00 RMK AO2
14840KMKG MKG20101124022509911/24/10 02:25:31  5-MIN KMKG 240725Z 08003KT 10SM OVC029 M01/M07 A3034 240 66 -1600 080/03 RMK AO2
14840KMKG MKG20101124023009911/24/10 02:30:31  5-MIN KMKG 240730Z 07003KT 10SM OVC029 M01/M07 A3034 240 66 -1600 070/03 RMK AO2
14840KMKG MKG20101124023509911/24/10 02:35:31  5-MIN KMKG 240735Z 00000KT 10SM OVC029 M01/M06 A3035 240 69 -1600 000/00 RMK AO2
14840KMKG MKG20101124024009911/24/10 02:40:31  5-MIN KMKG 240740Z 00000KT 10SM OVC029 M01/M06 A3035 230 69 -1600 000/00 RMK AO2
14840KMKG MKG20101124024509911/24/10 02:45:31  5-MIN KMKG 240745Z 00000KT 10SM OVC029 M01/M07 A3035 230 66 -1600 000/00 RMK AO2
14840KMKG MKG20101124025011611/24/10 02:50:31  5-MIN KMKG 240750Z 00000KT 10SM OVC029 M01/M07 A3035 230 66 -1600 000/00 RMK AO2 SLP286 T10111067
14840KMKG MKG20101124025511611/24/10 02:55:31  5-MIN KMKG 240755Z 00000KT 10SM OVC029 M01/M06 A3035 240 69 -1600 000/00 RMK AO2 SLP284 T10111061
14840KMKG MKG20101124030009911/24/10 03:00:31  5-MIN KMKG 240800Z 00000KT 10SM OVC029 M01/M07 A3035 240 66 -1600 000/00 RMK AO2
14840KMKG MKG20101124030509911/24/10 03:05:31  5-MIN KMKG 240805Z 00000KT 10SM BKN029 M01/M07 A3034 240 66 -1600 000/00 RMK AO2
14840KMKG MKG20101124031009911/24/10 03:10:31  5-MIN KMKG 240810Z 00000KT 10SM BKN029 M01/M07 A3034 240 66 -1600 000/00 RMK AO2
14840KMKG MKG20101124031509911/24/10 03:15:31  5-MIN KMKG 240815Z 00000KT 10SM SCT029 M02/M07 A3034 250 69 -1600 000/00 RMK AO2
14840KMKG MKG20101124032009911/24/10 03:20:31  5-MIN KMKG 240820Z 00000KT 10SM FEW029 M02/M07 A3034 240 69 -1700 000/00 RMK AO2
14840KMKG MKG20101124032509911/24/10 03:25:31  5-MIN KMKG 240825Z 11003KT 10SM FEW029 M02/M07 A3034 240 69 -1700 110/03 RMK AO2
14840KMKG MKG20101124033009911/24/10 03:30:31  5-MIN KMKG 240830Z 00000KT 10SM FEW029 M02/M07 A3034 250 72 -1700 000/00 RMK AO2
14840KMKG MKG20101124033509611/24/10 03:35:31  5-MIN KMKG 240835Z 00000KT 10SM CLR M02/M07 A3034 250 72 -1700 000/00 RMK AO2
14840KMKG MKG20101124034009611/24/10 03:40:31  5-MIN KMKG 240840Z 00000KT 10SM CLR M03/M07 A3034 240 75 -1800 000/00 RMK AO2
14840KMKG MKG20101124034509611/24/10 03:45:31  5-MIN KMKG 240845Z 00000KT 10SM CLR M02/M07 A3034 240 72 -1700 000/00 RMK AO2
14840KMKG MKG20101124035011911/24/10 03:50:31  5-MIN KMKG 240850Z 00000KT 10SM CLR M02/M06 A3034 240 75 -1700 000/00 RMK AO2 SLP284 T10221061 51006
14840KMKG MKG20101124035511911/24/10 03:55:31  5-MIN KMKG 240855Z 00000KT 10SM CLR M03/M07 A3034 240 75 -1800 000/00 RMK AO2 SLP284 T10281067 50001
14840KMKG MKG20101124040009611/24/10 04:00:31  5-MIN KMKG 240900Z 00000KT 10SM CLR M03/M07 A3034 250 75 -1800 000/00 RMK AO2
14840KMKG MKG20101124040509611/24/10 04:05:31  5-MIN KMKG 240905Z 08003KT 10SM CLR M02/M07 A3033 250 72 -1700 080/03 RMK AO2
14840KMKG MKG20101124041009611/24/10 04:10:31  5-MIN KMKG 240910Z 07004KT 10SM CLR M03/M07 A3033 250 75 -1800 080/04 RMK AO2
14840KMKG MKG20101124041509811/24/10 04:15:31  5-MIN KMKG 240915Z 07004KT 10SM CLR M03/M07 A3033 250 75 -1800 070/04 RMK AO2 $
14840KMKG MKG20101124042009811/24/10 04:20:31  5-MIN KMKG 240920Z 08003KT 10SM CLR M03/M07 A3033 250 75 -1800 080/03 RMK AO2 $
14840KMKG MKG20101124042509811/24/10 04:25:31  5-MIN KMKG 240925Z 09003KT 10SM CLR M03/M07 A3034 240 75 -1800 100/03 RMK AO2 $
14840KMKG MKG20101124043009811/24/10 04:30:31  5-MIN KMKG 240930Z 00000KT 10SM CLR M03/M07 A3034 240 75 -1800 000/00 RMK AO2 $
14840KMKG MKG20101124043509811/24/10 04:35:31  5-MIN KMKG 240935Z 00000KT 10SM CLR M03/M07 A3034 240 75 -1800 000/00 RMK AO2 $
14840KMKG MKG20101124044009811/24/10 04:40:31  5-MIN KMKG 240940Z 12003KT 10SM CLR M03/M07 A3034 240 78 -1900 120/03 RMK AO2 $
14840KMKG MKG20101124044509811/24/10 04:45:31  5-MIN KMKG 240945Z 11003KT 10SM CLR M03/M07 A3034 250 75 -1800 110/03 RMK AO2 $
14840KMKG MKG20101124045011511/24/10 04:50:31  5-MIN KMKG 240950Z 10003KT 10SM CLR M03/M07 A3033 250 75 -1800 100/03 RMK AO2 SLP281 T10281067 $
14840KMKG MKG20101124045511511/24/10 04:55:31  5-MIN KMKG 240955Z 10003KT 10SM CLR M03/M07 A3033 250 78 -1900 100/03 RMK AO2 SLP281 T10331067 $
14840KMKG MKG20101124050009811/24/10 05:00:31  5-MIN KMKG 241000Z 11004KT 10SM CLR M04/M07 A3034 250 81 -1900 110/04 RMK AO2 $
14840KMKG MKG20101124050509811/24/10 05:05:31  5-MIN KMKG 241005Z 10004KT 10SM CLR M03/M07 A3033 250 78 -1900 110/04 RMK AO2 $
14840KMKG MKG20101124051009811/24/10 05:10:31  5-MIN KMKG 241010Z 10004KT 10SM CLR M03/M07 A3034 250 78 -1900 100/04 RMK AO2 $
14840KMKG MKG20101124051509811/24/10 05:15:31  5-MIN KMKG 241015Z 10004KT 10SM CLR M03/M07 A3033 250 75 -1800 110/04 RMK AO2 $
14840KMKG MKG20101124052009811/24/10 05:20:31  5-MIN KMKG 241020Z 11004KT 10SM CLR M03/M07 A3033 250 78 -1900 120/04 RMK AO2 $
14840KMKG MKG20101124052509811/24/10 05:25:31  5-MIN KMKG 241025Z 11004KT 10SM CLR M04/M07 A3033 250 81 -1900 110/04 RMK AO2 $
14840KMKG MKG20101124053009811/24/10 05:30:31  5-MIN KMKG 241030Z 11004KT 10SM CLR M04/M07 A3033 250 81 -1900 110/04 RMK AO2 $
14840KMKG MKG20101124053509811/24/10 05:35:31  5-MIN KMKG 241035Z 11004KT 10SM CLR M04/M07 A3033 250 81 -1900 120/04 RMK AO2 $
14840KMKG MKG20101124054009811/24/10 05:40:31  5-MIN KMKG 241040Z 11004KT 10SM CLR M04/M07 A3033 250 81 -1900 110/04 RMK AO2 $
14840KMKG MKG20101124054509811/24/10 05:45:31  5-MIN KMKG 241045Z 10004KT 10SM CLR M04/M07 A3033 260 81 -1900 110/04 RMK AO2 $
14840KMKG MKG20101124055011511/24/10 05:50:31  5-MIN KMKG 241050Z 11004KT 10SM CLR M03/M07 A3033 260 78 -1800 110/04 RMK AO2 SLP278 T10331067 $
14840KMKG MKG20101124055511511/24/10 05:55:31  5-MIN KMKG 241055Z 10004KT 10SM CLR M03/M07 A3032 260 78 -1800 110/04 RMK AO2 SLP278 T10331067 $
14840KMKG MKG20101124060009811/24/10 06:00:31  5-MIN KMKG 241100Z 10004KT 10SM CLR M04/M07 A3032 260 81 -1900 110/04 RMK AO2 $
14840KMKG MKG20101124060509811/24/10 06:05:31  5-MIN KMKG 241105Z 09005KT 10SM CLR M03/M07 A3032 260 78 -1800 100/05 RMK AO2 $
14840KMKG MKG20101124061009811/24/10 06:10:31  5-MIN KMKG 241110Z 08005KT 10SM CLR M03/M07 A3032 270 78 -1800 080/05 RMK AO2 $
14840KMKG MKG20101124061509811/24/10 06:15:31  5-MIN KMKG 241115Z 10006KT 10SM CLR M03/M07 A3032 260 78 -1800 100/06 RMK AO2 $
14840KMKG MKG20101124062009811/24/10 06:20:31  5-MIN KMKG 241120Z 10005KT 10SM CLR M03/M07 A3032 270 78 -1800 100/05 RMK AO2 $
14840KMKG MKG20101124062509811/24/10 06:25:31  5-MIN KMKG 241125Z 09005KT 10SM CLR M03/M07 A3031 270 78 -1800 090/05 RMK AO2 $
14840KMKG MKG20101124063009811/24/10 06:30:31  5-MIN KMKG 241130Z 09006KT 10SM CLR M03/M07 A3031 270 78 -1800 100/06 RMK AO2 $
14840KMKG MKG20101124063509811/24/10 06:35:31  5-MIN KMKG 241135Z 08006KT 10SM CLR M03/M07 A3030 280 78 -1800 090/06 RMK AO2 $
14840KMKG MKG20101124064009811/24/10 06:40:31  5-MIN KMKG 241140Z 08006KT 10SM CLR M03/M07 A3030 280 78 -1800 090/06 RMK AO2 $
14840KMKG MKG20101124064509811/24/10 06:45:31  5-MIN KMKG 241145Z 09006KT 10SM CLR M03/M07 A3031 280 78 -1800 100/06 RMK AO2 $
14840KMKG MKG20101124065013311/24/10 06:50:31  5-MIN KMKG 241150Z 10006KT 10SM CLR M03/M07 A3031 270 78 -1800 110/06 RMK AO2 SLP273 T10331067 11006 21039 50001 $
14840KMKG MKG20101124065513311/24/10 06:55:31  5-MIN KMKG 241155Z 10005KT 10SM CLR M03/M07 A3031 270 78 -1800 100/05 RMK AO2 SLP274 T10331067 11006 21039 58010 $
14840KMKG MKG20101124070009811/24/10 07:00:31  5-MIN KMKG 241200Z 09005KT 10SM CLR M03/M07 A3031 270 78 -1800 090/05 RMK AO2 $
14840KMKG MKG20101124070509811/24/10 07:05:31  5-MIN KMKG 241205Z 08006KT 10SM CLR M03/M07 A3031 270 78 -1800 080/06 RMK AO2 $
14840KMKG MKG20101124071009811/24/10 07:10:31  5-MIN KMKG 241210Z 08007KT 10SM CLR M03/M07 A3031 270 78 -1800 090/07 RMK AO2 $
14840KMKG MKG20101124071509811/24/10 07:15:31  5-MIN KMKG 241215Z 09007KT 10SM CLR M03/M07 A3031 270 78 -1800 090/07 RMK AO2 $
14840KMKG MKG20101124072009811/24/10 07:20:31  5-MIN KMKG 241220Z 09007KT 10SM CLR M03/M07 A3031 270 75 -1800 090/07 RMK AO2 $
14840KMKG MKG20101124072509811/24/10 07:25:31  5-MIN KMKG 241225Z 09007KT 10SM CLR M03/M07 A3031 270 75 -1800 090/07 RMK AO2 $
14840KMKG MKG20101124073009811/24/10 07:30:31  5-MIN KMKG 241230Z 09006KT 10SM CLR M03/M07 A3031 270 75 -1800 090/06 RMK AO2 $
14840KMKG MKG20101124073509811/24/10 07:35:31  5-MIN KMKG 241235Z 10006KT 10SM CLR M03/M07 A3031 270 75 -1800 100/06 RMK AO2 $
14840KMKG MKG20101124074009811/24/10 07:40:31  5-MIN KMKG 241240Z 10007KT 10SM CLR M03/M07 A3032 270 75 -1800 110/07 RMK AO2 $
14840KMKG MKG20101124074509811/24/10 07:45:31  5-MIN KMKG 241245Z 10005KT 10SM CLR M03/M07 A3032 260 75 -1800 110/05 RMK AO2 $
14840KMKG MKG20101124075011511/24/10 07:50:31  5-MIN KMKG 241250Z 10006KT 10SM CLR M03/M07 A3032 260 75 -1800 100/06 RMK AO2 SLP276 T10281067 $
14840KMKG MKG20101124075511311/24/10 07:55:31  5-MIN KMKG 241255Z 11006KT 10SM CLR M03/M07 A3032 260 75 -1800 110/06 RMK AO2 SLP276 T10281067
14840KMKG MKG20101124080009611/24/10 08:00:31  5-MIN KMKG 241300Z 11005KT 10SM CLR M03/M07 A3032 260 75 -1800 120/05 RMK AO2
14840KMKG MKG20101124080509611/24/10 08:05:31  5-MIN KMKG 241305Z 11005KT 10SM CLR M03/M07 A3032 260 75 -1800 110/05 RMK AO2
14840KMKG MKG20101124081009611/24/10 08:10:31  5-MIN KMKG 241310Z 10006KT 10SM CLR M03/M07 A3032 260 75 -1800 100/06 RMK AO2
14840KMKG MKG20101124081509611/24/10 08:15:31  5-MIN KMKG 241315Z 10006KT 10SM CLR M03/M07 A3032 260 75 -1800 100/06 RMK AO2
14840KMKG MKG20101124082009611/24/10 08:20:31  5-MIN KMKG 241320Z 09006KT 10SM CLR M03/M07 A3031 270 75 -1800 100/06 RMK AO2
14840KMKG MKG20101124082509611/24/10 08:25:31  5-MIN KMKG 241325Z 10006KT 10SM CLR M03/M07 A3031 270 75 -1800 100/06 RMK AO2
14840KMKG MKG20101124083009611/24/10 08:30:31  5-MIN KMKG 241330Z 10007KT 10SM CLR M02/M07 A3031 270 72 -1700 100/07 RMK AO2
14840KMKG MKG20101124083509611/24/10 08:35:31  5-MIN KMKG 241335Z 10007KT 10SM CLR M02/M07 A3031 270 72 -1700 100/07 RMK AO2
14840KMKG MKG20101124084009611/24/10 08:40:31  5-MIN KMKG 241340Z 11007KT 10SM CLR M02/M07 A3031 270 72 -1700 110/07 RMK AO2
14840KMKG MKG20101124084509611/24/10 08:45:31  5-MIN KMKG 241345Z 12006KT 10SM CLR M02/M06 A3032 260 75 -1700 120/06 RMK AO2
14840KMKG MKG20101124085011311/24/10 08:50:31  5-MIN KMKG 241350Z 12007KT 10SM CLR M02/M06 A3032 260 75 -1700 120/07 RMK AO2 SLP276 T10221061
14840KMKG MKG20101124085511311/24/10 08:55:31  5-MIN KMKG 241355Z 12008KT 10SM CLR M02/M06 A3032 260 75 -1700 130/08 RMK AO2 SLP277 T10221061
14840KMKG MKG20101124090009611/24/10 09:00:31  5-MIN KMKG 241400Z 12009KT 10SM CLR M02/M06 A3032 260 72 -1600 120/09 RMK AO2
14840KMKG MKG20101124090509611/24/10 09:05:31  5-MIN KMKG 241405Z 11007KT 10SM CLR M02/M06 A3032 260 72 -1600 120/07 RMK AO2
14840KMKG MKG20101124091009611/24/10 09:10:31  5-MIN KMKG 241410Z 11009KT 10SM CLR M02/M06 A3032 270 72 -1600 110/09 RMK AO2
14840KMKG MKG20101124091509611/24/10 09:15:31  5-MIN KMKG 241415Z 11009KT 10SM CLR M02/M06 A3032 270 72 -1600 110/09 RMK AO2
14840KMKG MKG20101124092009611/24/10 09:20:31  5-MIN KMKG 241420Z 11009KT 10SM CLR M02/M06 A3032 260 72 -1600 120/09 RMK AO2
14840KMKG MKG20101124092509611/24/10 09:25:31  5-MIN KMKG 241425Z 11009KT 10SM CLR M02/M06 A3032 270 72 -1600 120/09 RMK AO2
14840KMKG MKG20101124093009611/24/10 09:30:31  5-MIN KMKG 241430Z 11010KT 10SM CLR M01/M06 A3032 260 69 -1600 120/10 RMK AO2
14840KMKG MKG20101124093509611/24/10 09:35:31  5-MIN KMKG 241435Z 12011KT 10SM CLR M01/M06 A3032 260 69 -1600 120/11 RMK AO2
14840KMKG MKG20101124094009611/24/10 09:40:31  5-MIN KMKG 241440Z 11009KT 10SM CLR M01/M06 A3031 280 69 -1500 120/09 RMK AO2
14840KMKG MKG20101124094510211/24/10 09:45:31  5-MIN KMKG 241445Z 11013G18KT 10SM CLR M01/M06 A3031 280 69 -1500 120/13G18 RMK AO2
14840KMKG MKG20101124095012511/24/10 09:50:31  5-MIN KMKG 241450Z 11011G18KT 10SM CLR M01/M06 A3030 280 69 -1500 120/11G18 RMK AO2 SLP268 T10111061 58010
14840KMKG MKG20101124095511911/24/10 09:55:31  5-MIN KMKG 241455Z 11010KT 10SM CLR M01/M06 A3030 280 69 -1500 120/10 RMK AO2 SLP268 T10111061 58005
14840KMKG MKG20101124100009611/24/10 10:00:31  5-MIN KMKG 241500Z 12012KT 10SM CLR M01/M06 A3030 280 69 -1500 120/12 RMK AO2
14840KMKG MKG20101124100509611/24/10 10:05:31  5-MIN KMKG 241505Z 11012KT 10SM CLR M01/M06 A3029 290 69 -1500 110/12 RMK AO2
14840KMKG MKG20101124101009611/24/10 10:10:31  5-MIN KMKG 241510Z 11011KT 10SM CLR M01/M06 A3030 290 69 -1500 120/11 RMK AO2
14840KMKG MKG20101124101509611/24/10 10:15:31  5-MIN KMKG 241515Z 11013KT 10SM CLR M01/M06 A3029 290 66 -1500 110/13 RMK AO2
14840KMKG MKG20101124102009611/24/10 10:20:31  5-MIN KMKG 241520Z 11012KT 10SM CLR M01/M06 A3028 300 66 -1400 110/12 RMK AO2
14840KMKG MKG20101124102510211/24/10 10:25:31  5-MIN KMKG 241525Z 11010G17KT 10SM CLR M01/M06 A3027 310 69 -1400 110/10G17 RMK AO2
14840KMKG MKG20101124103010211/24/10 10:30:31  5-MIN KMKG 241530Z 11015G21KT 10SM CLR M01/M06 A3027 310 66 -1400 110/15G21 RMK AO2
14840KMKG MKG20101124103510911/24/10 10:35:31  5-MIN KMKG 241535Z 11015G21KT 10SM CLR M01/M06 A3026 320 66 -1400 120/15G21 RMK AO2 PRESFR
14840KMKG MKG20101124104010911/24/10 10:40:31  5-MIN KMKG 241540Z 11013G21KT 10SM CLR M01/M06 A3026 320 69 -1400 110/13G21 RMK AO2 PRESFR
14840KMKG MKG20101124104510111/24/10 10:45:31  5-MIN KMKG 241545Z 11016G23KT 10SM CLR 00/M06 A3026 320 63 -1300 110/16G23 RMK AO2
14840KMKG MKG20101124105012511/24/10 10:50:31  5-MIN KMKG 241550Z 10017G24KT 10SM CLR 00/M06 A3025 330 63 -1300 100/17G24 RMK AO2 PRESFR SLP250 T00001061
14840KMKG MKG20101124105511811/24/10 10:55:31  5-MIN KMKG 241555Z 11018G24KT 10SM CLR 00/M06 A3025 320 63 -1300 110/18G24 RMK AO2 SLP253 T00001061
14840KMKG MKG20101124110010111/24/10 11:00:31  5-MIN KMKG 241600Z 10013G23KT 10SM CLR 00/M06 A3025 320 66 -1300 110/13G23 RMK AO2
14840KMKG MKG20101124110511911/24/10 11:05:31  5-MIN KMKG 241605Z 11021G26KT 10SM CLR 00/M06 A3025 330 63 -1300 110/21G26 RMK AO2 PK WND 11026/1605
14840KMKG MKG20101124111011911/24/10 11:10:31  5-MIN KMKG 241610Z 11018G27KT 10SM CLR 00/M06 A3025 330 63 -1300 120/18G27 RMK AO2 PK WND 10027/1607
14840KMKG MKG20101124111511911/24/10 11:15:31  5-MIN KMKG 241615Z 13014G27KT 10SM CLR 00/M06 A3027 310 66 -1400 130/14G27 RMK AO2 PK WND 10027/1607
14840KMKG MKG20101124112011911/24/10 11:20:31  5-MIN KMKG 241620Z 13014G20KT 10SM CLR 00/M06 A3027 310 66 -1400 130/14G20 RMK AO2 PK WND 10027/1607
14840KMKG MKG20101124112511311/24/10 11:25:31  5-MIN KMKG 241625Z 12015KT 10SM CLR 00/M06 A3027 310 66 -1400 120/15 RMK AO2 PK WND 10027/1607
14840KMKG MKG20101124113011911/24/10 11:30:31  5-MIN KMKG 241630Z 12017G21KT 10SM CLR 01/M06 A3027 310 63 -1300 120/17G21 RMK AO2 PK WND 10027/1607
14840KMKG MKG20101124113511911/24/10 11:35:31  5-MIN KMKG 241635Z 12015G21KT 10SM CLR 01/M06 A3026 320 63 -1300 120/15G21 RMK AO2 PK WND 10027/1607
14840KMKG MKG20101124114011911/24/10 11:40:31  5-MIN KMKG 241640Z 11012G21KT 10SM CLR 01/M06 A3026 320 63 -1300 120/12G21 RMK AO2 PK WND 10027/1607
14840KMKG MKG20101124114511311/24/10 11:45:31  5-MIN KMKG 241645Z 11011KT 10SM CLR 01/M06 A3026 320 63 -1300 110/11 RMK AO2 PK WND 10027/1607
14840KMKG MKG20101124115013011/24/10 11:50:31  5-MIN KMKG 241650Z 11016KT 10SM CLR 01/M06 A3025 320 63 -1300 120/16 RMK AO2 PK WND 10027/1607 SLP252 T00061056
14840KMKG MKG20101124115513011/24/10 11:55:31  5-MIN KMKG 241655Z 12018KT 10SM CLR 01/M06 A3025 320 63 -1300 120/18 RMK AO2 PK WND 10027/1607 SLP252 T00061056
14840KMKG MKG20101124120009511/24/10 12:00:31  5-MIN KMKG 241700Z 11015KT 10SM CLR 01/M06 A3026 320 63 -1300 110/15 RMK AO2
14840KMKG MKG20101124120510111/24/10 12:05:31  5-MIN KMKG 241705Z 11017G22KT 10SM CLR 01/M06 A3025 320 63 -1300 120/17G22 RMK AO2
14840KMKG MKG20101124121010411/24/10 12:10:31  5-MIN KMKG 241710Z 11017G22KT 10SM FEW120 01/M06 A3025 320 63 -1300 110/17G22 RMK AO2
14840KMKG MKG20101124121509811/24/10 12:15:31  5-MIN KMKG 241715Z 11014KT 10SM SCT110 01/M06 A3025 320 63 -1300 120/14 RMK AO2
14840KMKG MKG20101124122009811/24/10 12:20:31  5-MIN KMKG 241720Z 10015KT 10SM BKN110 01/M06 A3025 330 63 -1300 110/15 RMK AO2
14840KMKG MKG20101124122510411/24/10 12:25:31  5-MIN KMKG 241725Z 12014G21KT 10SM BKN110 01/M06 A3024 330 63 -1300 120/14G21 RMK AO2
14840KMKG MKG20101124123010411/24/10 12:30:31  5-MIN KMKG 241730Z 10015G21KT 10SM BKN110 01/M06 A3024 330 63 -1300 100/15G21 RMK AO2
14840KMKG MKG20101124123510411/24/10 12:35:31  5-MIN KMKG 241735Z 11012G20KT 10SM OVC110 01/M06 A3024 340 63 -1300 110/12G20 RMK AO2
14840KMKG MKG20101124124010511/24/10 12:40:31  5-MIN KMKG 241740Z 10013KT 10SM OVC110 01/M05 A3022 350 64 -1200 110/13 RMK AO2 PRESFR
14840KMKG MKG20101124124510411/24/10 12:45:31  5-MIN KMKG 241745Z 11015G21KT 10SM OVC110 01/M06 A3022 350 61 -1200 110/15G21 RMK AO2
14840KMKG MKG20101124125013911/24/10 12:50:31  5-MIN KMKG 241750Z 11014G21KT 10SM OVC110 01/M06 A3022 360 61 -1200 110/14G21 RMK AO2 SLP240 T00111056 10011 21033 58005
14840KMKG MKG20101124125513911/24/10 12:55:31  5-MIN KMKG 241755Z 11011G19KT 10SM OVC110 01/M05 A3022 360 64 -1200 120/11G19 RMK AO2 SLP241 T00111050 10011 21033 56026
14840KMKG MKG20101124130009811/24/10 13:00:31  5-MIN KMKG 241800Z 10012KT 10SM OVC110 01/M05 A3022 360 64 -1200 110/12 RMK AO2
14840KMKG MKG20101124130509811/24/10 13:05:31  5-MIN KMKG 241805Z 11011KT 10SM BKN110 01/M05 A3022 350 64 -1200 110/11 RMK AO2
14840KMKG MKG20101124131009811/24/10 13:10:31  5-MIN KMKG 241810Z 12013KT 10SM BKN110 01/M05 A3021 360 64 -1200 120/13 RMK AO2
14840KMKG MKG20101124131510411/24/10 13:15:31  5-MIN KMKG 241815Z 12016G20KT 10SM OVC110 01/M05 A3021 360 64 -1200 120/16G20 RMK AO2
14840KMKG MKG20101124132009811/24/10 13:20:31  5-MIN KMKG 241820Z 13015KT 10SM BKN110 01/M05 A3021 360 64 -1200 130/15 RMK AO2
14840KMKG MKG20101124132510411/24/10 13:25:31  5-MIN KMKG 241825Z 12013G20KT 10SM BKN110 01/M06 A3020 370 61 -1100 120/13G20 RMK AO2
14840KMKG MKG20101124133010411/24/10 13:30:31  5-MIN KMKG 241830Z 11016G21KT 10SM SCT110 01/M06 A3020 370 63 -1200 110/16G21 RMK AO2
14840KMKG MKG20101124133510411/24/10 13:35:31  5-MIN KMKG 241835Z 11014G21KT 10SM SCT110 01/M06 A3019 380 61 -1100 120/14G21 RMK AO2
14840KMKG MKG20101124134010511/24/10 13:40:31  5-MIN KMKG 241840Z 12014KT 10SM FEW110 01/M06 A3018 390 61 -1100 120/14 RMK AO2 PRESFR
14840KMKG MKG20101124134509811/24/10 13:45:31  5-MIN KMKG 241845Z 12017KT 10SM FEW110 01/M05 A3018 390 66 -1200 120/17 RMK AO2
14840KMKG MKG20101124135012511/24/10 13:50:31  5-MIN KMKG 241850Z 11019G24KT 10SM CLR 01/M05 A3016 400 64 -1100 120/19G24 RMK AO2 PRESFR SLP223 T00111050
14840KMKG MKG20101124135512811/24/10 13:55:31  5-MIN KMKG 241855Z 12016G24KT 10SM SCT110 01/M05 A3016 410 64 -1100 120/16G24 RMK AO2 PRESFR SLP221 T00111050
14840KMKG MKG20101124140009811/24/10 14:00:31  5-MIN KMKG 241900Z 10016KT 10SM SCT110 01/M06 A3016 410 63 -1200 110/16 RMK AO2
14840KMKG MKG20101124140510411/24/10 14:05:31  5-MIN KMKG 241905Z 11017G23KT 10SM SCT110 01/M05 A3016 410 64 -1100 110/17G23 RMK AO2
14840KMKG MKG20101124141010411/24/10 14:10:31  5-MIN KMKG 241910Z 12018G24KT 10SM SCT110 01/M05 A3016 410 64 -1100 120/18G24 RMK AO2
14840KMKG MKG20101124141510411/24/10 14:15:31  5-MIN KMKG 241915Z 11014G24KT 10SM SCT110 01/M05 A3016 410 64 -1100 110/14G24 RMK AO2
14840KMKG MKG20101124142010411/24/10 14:20:31  5-MIN KMKG 241920Z 11016G22KT 10SM FEW100 01/M05 A3015 420 64 -1100 110/16G22 RMK AO2
14840KMKG MKG20101124142509811/24/10 14:25:31  5-MIN KMKG 241925Z 11016KT 10SM FEW100 01/M05 A3015 420 64 -1100 110/16 RMK AO2
14840KMKG MKG20101124143010411/24/10 14:30:31  5-MIN KMKG 241930Z 11015G22KT 10SM FEW100 01/M05 A3015 420 64 -1100 110/15G22 RMK AO2
14840KMKG MKG20101124143510411/24/10 14:35:31  5-MIN KMKG 241935Z 11011G20KT 10SM FEW100 01/M05 A3014 420 64 -1100 110/11G20 RMK AO2
14840KMKG MKG20101124144010411/24/10 14:40:31  5-MIN KMKG 241940Z 11013G18KT 10SM SCT100 01/M05 A3014 430 64 -1100 110/13G18 RMK AO2
14840KMKG MKG20101124144510411/24/10 14:45:31  5-MIN KMKG 241945Z 11015G20KT 10SM SCT100 01/M05 A3014 430 64 -1100 120/15G20 RMK AO2
14840KMKG MKG20101124145012111/24/10 14:50:31  5-MIN KMKG 241950Z 10017G24KT 10SM SCT100 01/M05 A3013 430 64 -1100 110/17G24 RMK AO2 SLP212 T00111050
14840KMKG MKG20101124145512811/24/10 14:55:31  5-MIN KMKG 241955Z 11014G24KT 10SM SCT095 01/M05 A3012 450 64 -1000 110/14G24 RMK AO2 PRESFR SLP206 T00111050
14840KMKG MKG20101124150011111/24/10 15:00:31  5-MIN KMKG 242000Z 11019G24KT 10SM SCT090 01/M05 A3011 450 64 -1000 110/19G24 RMK AO2 PRESFR
14840KMKG MKG20101124150512211/24/10 15:05:31  5-MIN KMKG 242005Z 10017G26KT 10SM SCT090 01/M05 A3011 460 64 -1000 110/17G26 RMK AO2 PK WND 10026/2002
14840KMKG MKG20101124151012211/24/10 15:10:31  5-MIN KMKG 242010Z 11017G26KT 10SM FEW095 01/M05 A3011 460 64 -1000 110/17G26 RMK AO2 PK WND 10026/2002
14840KMKG MKG20101124151512211/24/10 15:15:31  5-MIN KMKG 242015Z 11014G22KT 10SM FEW090 01/M05 A3010 460 64 -1000 110/14G22 RMK AO2 PK WND 10026/2002
14840KMKG MKG20101124152012211/24/10 15:20:31  5-MIN KMKG 242020Z 11014G21KT 10SM FEW085 01/M04 A3010 460 66 -1000 110/14G21 RMK AO2 PK WND 10026/2002
14840KMKG MKG20101124152511911/24/10 15:25:31  5-MIN KMKG 242025Z 11017G21KT 10SM CLR 02/M04 A3011 460 64 -1000 110/17G21 RMK AO2 PK WND 10026/2002
14840KMKG MKG20101124153011911/24/10 15:30:31  5-MIN KMKG 242030Z 11015G22KT 10SM CLR 02/M04 A3011 460 64 -1000 110/15G22 RMK AO2 PK WND 10026/2002
14840KMKG MKG20101124153511911/24/10 15:35:31  5-MIN KMKG 242035Z 11015G22KT 10SM CLR 02/M04 A3011 460 64 -1000 110/15G22 RMK AO2 PK WND 10026/2002
14840KMKG MKG20101124154011911/24/10 15:40:31  5-MIN KMKG 242040Z 11015G20KT 10SM CLR 02/M04 A3010 460 64 -1000 120/15G20 RMK AO2 PK WND 10026/2002
14840KMKG MKG20101124154511811/24/10 15:45:31  5-MIN KMKG 242045Z 11016G24KT 10SM CLR 02/M04 A3009 470 64 -900 110/16G24 RMK AO2 PK WND 10026/2002
14840KMKG MKG20101124155014811/24/10 15:50:31  5-MIN KMKG 242050Z 10017G24KT 10SM CLR 02/M04 A3008 480 64 -900 110/17G24 RMK AO2 PK WND 10026/2002 PRESFR SLP193 T00171044 56026
14840KMKG MKG20101124155514111/24/10 15:55:31  5-MIN KMKG 242055Z 11017G23KT 10SM CLR 02/M04 A3008 480 64 -900 110/17G23 RMK AO2 PK WND 10026/2002 SLP194 T00171044 56045
14840KMKG MKG20101124160010011/24/10 16:00:31  5-MIN KMKG 242100Z 11016G24KT 10SM CLR 02/M04 A3008 480 66 -900 120/16G24 RMK AO2
14840KMKG MKG20101124160510311/24/10 16:05:31  5-MIN KMKG 242105Z 11019G24KT 10SM FEW100 02/M04 A3008 480 66 -900 110/19G24 RMK AO2
14840KMKG MKG20101124161009711/24/10 16:10:31  5-MIN KMKG 242110Z 11015KT 10SM FEW100 02/M04 A3007 490 66 -900 120/15 RMK AO2
14840KMKG MKG20101124161512811/24/10 16:15:31  5-MIN KMKG 242115Z 11020G26KT 10SM SCT100 02/M04 A3006 500 66 -900 120/20G26 RMK AO2 PK WND 11026/2114 PRESFR
14840KMKG MKG20101124162012811/24/10 16:20:31  5-MIN KMKG 242120Z 11018G26KT 10SM BKN095 02/M04 A3005 510 66 -900 110/18G26 RMK AO2 PK WND 11026/2114 PRESFR
14840KMKG MKG20101124162512811/24/10 16:25:31  5-MIN KMKG 242125Z 11018G24KT 10SM BKN090 02/M04 A3004 520 66 -900 110/18G24 RMK AO2 PK WND 11026/2114 PRESFR
14840KMKG MKG20101124163012111/24/10 16:30:31  5-MIN KMKG 242130Z 11016G24KT 10SM BKN090 02/M04 A3005 510 66 -900 110/16G24 RMK AO2 PK WND 11026/2114
14840KMKG MKG20101124163512111/24/10 16:35:31  5-MIN KMKG 242135Z 10018G24KT 10SM SCT090 02/M04 A3005 510 66 -900 110/18G24 RMK AO2 PK WND 11026/2114
14840KMKG MKG20101124164012111/24/10 16:40:31  5-MIN KMKG 242140Z 10016G25KT 10SM SCT085 02/M04 A3005 510 66 -900 100/16G25 RMK AO2 PK WND 11026/2114
14840KMKG MKG20101124164512111/24/10 16:45:31  5-MIN KMKG 242145Z 10017G25KT 10SM SCT085 02/M04 A3004 520 66 -900 100/17G25 RMK AO2 PK WND 11026/2114
14840KMKG MKG20101124165013811/24/10 16:50:31  5-MIN KMKG 242150Z 10015G22KT 10SM FEW080 02/M04 A3005 510 66 -900 100/15G22 RMK AO2 PK WND 11026/2114 SLP182 T00171039
14840KMKG MKG20101124165513511/24/10 16:55:31  5-MIN KMKG 242155Z 10016G23KT 10SM CLR 02/M04 A3005 510 64 -800 100/16G23 RMK AO2 PK WND 11026/2114 SLP182 T00221039
14840KMKG MKG20101124170010011/24/10 17:00:31  5-MIN KMKG 242200Z 11016G25KT 10SM CLR 02/M04 A3004 520 64 -800 110/16G25 RMK AO2
14840KMKG MKG20101124170510011/24/10 17:05:31  5-MIN KMKG 242205Z 11017G25KT 10SM CLR 02/M04 A3004 520 64 -800 110/17G25 RMK AO2
14840KMKG MKG20101124171010311/24/10 17:10:31  5-MIN KMKG 242210Z 11015G23KT 10SM FEW120 02/M04 A3003 530 64 -800 110/15G23 RMK AO2
14840KMKG MKG20101124171510311/24/10 17:15:31  5-MIN KMKG 242215Z 10015G25KT 10SM FEW080 02/M03 A3003 530 67 -800 100/15G25 RMK AO2
14840KMKG MKG20101124172010311/24/10 17:20:31  5-MIN KMKG 242220Z 11016G25KT 10SM SCT080 02/M03 A3002 540 67 -800 110/16G25 RMK AO2
14840KMKG MKG20101124172511011/24/10 17:25:31  5-MIN KMKG 242225Z 10018G23KT 10SM SCT080 02/M03 A3001 540 67 -800 110/18G23 RMK AO2 PRESFR
14840KMKG MKG20101124173011011/24/10 17:30:31  5-MIN KMKG 242230Z 10018G25KT 10SM BKN070 BKN085 02/M03 A3001 550 67 -800 100/18G25 RMK AO2
14840KMKG MKG20101124173513311/24/10 17:35:31  5-MIN KMKG 242235Z 10017G25KT 10SM -RA FEW050 BKN070 BKN085 02/M03 A3001 550 67 -800 110/17G25 RMK AO2 RAB31 P0000
14840KMKG MKG20101124174015111/24/10 17:40:31  5-MIN KMKG 242240Z 10020G28KT 10SM -RA SCT050 BKN070 OVC085 02/M03 A3000 550 67 -800 100/20G28 RMK AO2 PK WND 11028/2240 RAB31 P0000
14840KMKG MKG20101124174515011/24/10 17:45:31  5-MIN KMKG 242245Z 10018G29KT 10SM PLRA SCT050 OVC070 02/M03 A2999 560 69 -800 110/18G29 RMK AO2 PK WND 11029/2241 RAB31PLB45 P0000
14840KMKG MKG20101124175017411/24/10 17:50:31  5-MIN KMKG 242250Z 10017G29KT 10SM PLRA SCT050 BKN070 OVC095 02/M03 A2999 560 69 -800 110/17G29 RMK AO2 PK WND 11029/2241 RAB31PLB45 SLP164 P0000 T00221028
14840KMKG MKG20101124175518911/24/10 17:55:31  5-MIN KMKG 242255Z 11021G28KT 10SM PLRA SCT050 BKN065 OVC090 02/M03 A2999 560 69 -800 110/21G28 RMK AO2 PK WND 11029/2241 RAB31PLB45 CIG 048 RWY 14 SLP164 P0000 T00221028
14840KMKG MKG20101124180012811/24/10 18:00:31  5-MIN KMKG 242300Z 10015G28KT 10SM PLRA BKN050 BKN065 OVC090 02/M02 A2999 570 72 -800 100/15G28 RMK AO2 P0000
14840KMKG MKG20101124180513311/24/10 18:05:31  5-MIN KMKG 242305Z 11014G23KT 10SM -RA BKN050 BKN065 OVC100 02/M02 A2999 570 72 -800 110/14G23 RMK AO2 PLE01 P0000
14840KMKG MKG20101124181012711/24/10 18:10:31  5-MIN KMKG 242310Z 10016G25KT 10SM BKN050 OVC100 02/M02 A2999 570 72 -800 110/16G25 RMK AO2 RAE08PLE01 P0000
14840KMKG MKG20101124181514511/24/10 18:15:31  5-MIN KMKG 242315Z 10015G26KT 10SM BKN050 OVC090 02/M02 A2998 570 72 -800 100/15G26 RMK AO2 PK WND 11026/2313 RAE08PLE01 P0000
14840KMKG MKG20101124182013811/24/10 18:20:31  5-MIN KMKG 242320Z 10017G26KT 10SM OVC050 02/M02 A2998 580 72 -700 110/17G26 RMK AO2 PK WND 11026/2313 RAE08PLE01 P0000
14840KMKG MKG20101124182513811/24/10 18:25:31  5-MIN KMKG 242325Z 10017G25KT 10SM OVC050 02/M02 A2998 580 72 -700 100/17G25 RMK AO2 PK WND 11026/2313 RAE08PLE01 P0000
14840KMKG MKG20101124183013811/24/10 18:30:31  5-MIN KMKG 242330Z 10019G25KT 10SM OVC050 02/M02 A2998 580 72 -700 110/19G25 RMK AO2 PK WND 11026/2313 RAE08PLE01 P0000
14840KMKG MKG20101124183513811/24/10 18:35:31  5-MIN KMKG 242335Z 10018G25KT 10SM OVC048 03/M02 A2997 580 69 -700 110/18G25 RMK AO2 PK WND 11026/2313 RAE08PLE01 P0000
14840KMKG MKG20101124184013811/24/10 18:40:31  5-MIN KMKG 242340Z 10018G25KT 10SM OVC048 03/M02 A2997 580 69 -700 100/18G25 RMK AO2 PK WND 11026/2313 RAE08PLE01 P0000
14840KMKG MKG20101124184513811/24/10 18:45:31  5-MIN KMKG 242345Z 10018G24KT 10SM OVC048 03/M02 A2997 580 69 -700 100/18G24 RMK AO2 PK WND 11026/2313 RAE08PLE01 P0000
14840KMKG MKG20101124185017911/24/10 18:50:31  5-MIN KMKG 242350Z 10019G25KT 10SM OVC046 03/M02 A2997 580 69 -700 110/19G25 RMK AO2 PK WND 11026/2313 RAE08PLE01 SLP157 P0000 60000 T00281022 10028 20006 56045
14840KMKG MKG20101124185517911/24/10 18:55:31  5-MIN KMKG 242355Z 11018G25KT 10SM OVC046 03/M02 A2997 590 69 -700 110/18G25 RMK AO2 PK WND 11026/2313 RAE08PLE01 SLP156 P0000 60000 T00281022 10028 20006 56038
14840KMKG MKG20101124190012111/24/10 19:00:31  5-MIN KMKG 250000Z 10019G26KT 10SM OVC046 03/M02 A2997 590 69 -700 110/19G26 RMK AO2 PK WND 11026/2359
14840KMKG MKG20101124190514411/24/10 19:05:31  5-MIN KMKG 250005Z 10018G26KT 10SM -RA BKN048 OVC055 03/M02 A2996 590 69 -700 100/18G26 RMK AO2 PK WND 11026/2359 RAB05 P0000
14840KMKG MKG20101124191014411/24/10 19:10:31  5-MIN KMKG 250010Z 10018G28KT 10SM -RA BKN048 OVC055 03/M02 A2996 590 69 -700 110/18G28 RMK AO2 PK WND 10028/0007 RAB05 P0000
14840KMKG MKG20101124191513711/24/10 19:15:31  5-MIN KMKG 250015Z 10019G28KT 10SM -RA OVC048 03/M02 A2996 590 72 -700 110/19G28 RMK AO2 PK WND 10028/0007 RAB05 P0000
14840KMKG MKG20101124192014411/24/10 19:20:31  5-MIN KMKG 250020Z 10020G25KT 10SM -RA BKN046 OVC055 03/M02 A2996 600 72 -700 100/20G25 RMK AO2 PK WND 10028/0007 RAB05 P0000
14840KMKG MKG20101124192514411/24/10 19:25:31  5-MIN KMKG 250025Z 10018G25KT 10SM -RA BKN046 OVC055 02/M02 A2996 600 75 -700 100/18G25 RMK AO2 PK WND 10028/0007 RAB05 P0000
14840KMKG MKG20101124193014411/24/10 19:30:31  5-MIN KMKG 250030Z 10015G23KT 10SM -RA BKN044 OVC055 02/M02 A2995 600 75 -700 100/15G23 RMK AO2 PK WND 10028/0007 RAB05 P0000
14840KMKG MKG20101124193514411/24/10 19:35:31  5-MIN KMKG 250035Z 10015G23KT 10SM -RA BKN046 OVC055 02/M02 A2995 600 75 -700 100/15G23 RMK AO2 PK WND 10028/0007 RAB05 P0000
14840KMKG MKG20101124194014411/24/10 19:40:31  5-MIN KMKG 250040Z 10016G24KT 10SM -RA BKN046 OVC055 02/M02 A2994 610 75 -700 110/16G24 RMK AO2 PK WND 10028/0007 RAB05 P0000
14840KMKG MKG20101124194514411/24/10 19:45:31  5-MIN KMKG 250045Z 10015G24KT 10SM -RA BKN045 OVC055 02/M02 A2994 620 75 -700 100/15G24 RMK AO2 PK WND 10028/0007 RAB05 P0000
14840KMKG MKG20101124195016011/24/10 19:50:31  5-MIN KMKG 250050Z 10016G22KT 8SM -RA BKN045 OVC055 02/M01 A2994 620 78 -700 110/16G22 RMK AO2 PK WND 10028/0007 RAB05 SLP144 P0000 T00221011
14840KMKG MKG20101124195516011/24/10 19:55:31  5-MIN KMKG 250055Z 10014G21KT 9SM -RA BKN045 OVC055 02/M01 A2994 620 78 -700 100/14G21 RMK AO2 PK WND 10028/0007 RAB05 SLP145 P0000 T00221011
14840KMKG MKG20101124200011411/24/10 20:00:31  5-MIN KMKG 250100Z 10015KT 10SM -RA BKN047 OVC055 02/M01 A2994 610 78 -700 110/15 RMK AO2 P0000
14840KMKG MKG20101124200512011/24/10 20:05:31  5-MIN KMKG 250105Z 10014G20KT 10SM -RA BKN047 OVC055 02/M01 A2994 610 78 -700 100/14G20 RMK AO2 P0001
14840KMKG MKG20101124201012011/24/10 20:10:31  5-MIN KMKG 250110Z 10016G22KT 10SM -RA BKN047 OVC055 02/M01 A2993 620 82 -700 100/16G22 RMK AO2 P0001
14840KMKG MKG20101124201512011/24/10 20:15:31  5-MIN KMKG 250115Z 10017G23KT 10SM -RA SCT047 OVC055 02/M01 A2993 620 82 -700 110/17G23 RMK AO2 P0001
14840KMKG MKG20101124202012011/24/10 20:20:31  5-MIN KMKG 250120Z 11017G23KT 10SM -RA BKN050 OVC060 02/M01 A2993 620 82 -700 110/17G23 RMK AO2 P0001
14840KMKG MKG20101124202511411/24/10 20:25:31  5-MIN KMKG 250125Z 11016KT 10SM -RA BKN048 OVC060 02/M01 A2993 620 82 -700 110/16 RMK AO2 P0001
14840KMKG MKG20101124203011911/24/10 20:30:31  5-MIN KMKG 250130Z 11014G24KT 9SM -RA BKN050 OVC060 02/M01 A2993 620 82 -700 110/14G24 RMK AO2 P0001
14840KMKG MKG20101124203511911/24/10 20:35:31  5-MIN KMKG 250135Z 11015G24KT 8SM -RA BKN050 OVC060 02/M01 A2993 620 82 -700 120/15G24 RMK AO2 P0001
14840KMKG MKG20101124204012511/24/10 20:40:31  5-MIN KMKG 250140Z 11016G24KT 7SM -RA FEW040 BKN050 OVC060 02/00 A2993 620 85 -700 110/16G24 RMK AO2 P0001
14840KMKG MKG20101124204512811/24/10 20:45:31  5-MIN KMKG 250145Z 11014G22KT 6SM -RA BR FEW039 BKN050 OVC060 02/00 A2993 620 85 -700 110/14G22 RMK AO2 P0002
14840KMKG MKG20101124205013911/24/10 20:50:31  5-MIN KMKG 250150Z 11016KT 6SM -RA BR FEW015 BKN050 OVC055 02/00 A2993 620 85 -700 120/16 RMK AO2 SLP143 P0002 T00220000
14840KMKG MKG20101124205515311/24/10 20:55:31  5-MIN KMKG 250155Z 11014KT 6SM RA BR FEW018 SCT032 OVC050 02/00 A2992 630 85 -700 110/14 RMK AO2 CIG 033 RWY 14 SLP141 P0003 T00220000
14840KMKG MKG20101124210014211/24/10 21:00:31  5-MIN KMKG 250200Z 11015G22KT 6SM RA BR SCT018 BKN040 OVC050 02/00 A2992 630 85 -700 110/15G22 RMK AO2 CIG 016 RWY 14 P0000
14840KMKG MKG20101124210515011/24/10 21:05:31  5-MIN KMKG 250205Z 10016G22KT 6SM -RA BR SCT018 BKN032 OVC055 02/00 A2990 650 85 -700 110/16G22 RMK AO2 CIG 016 RWY 14 PRESFR P0001
14840KMKG MKG20101124211015011/24/10 21:10:31  5-MIN KMKG 250210Z 10016G24KT 6SM -RA BR FEW018 BKN032 OVC050 02/00 A2990 650 85 -700 110/16G24 RMK AO2 CIG 016 RWY 14 PRESFR P0001
14840KMKG MKG20101124211513211/24/10 21:15:31  5-MIN KMKG 250215Z 10017G24KT 7SM -RA FEW016 BKN032 OVC050 02/00 A2989 660 85 -600 100/17G24 RMK AO2 PRESFR P0002
14840KMKG MKG20101124212014011/24/10 21:20:31  5-MIN KMKG 250220Z 10015G25KT 8SM -RA FEW016 BKN032 OVC050 02/00 A2989 660 85 -600 110/15G25 RMK AO2 CIG 015 RWY 14 P0003
14840KMKG MKG20101124212514011/24/10 21:25:31  5-MIN KMKG 250225Z 11017G25KT 8SM -RA SCT016 BKN032 OVC050 02/01 A2989 660 89 -600 110/17G25 RMK AO2 CIG 015 RWY 14 P0003
14840KMKG MKG20101124213014011/24/10 21:30:31  5-MIN KMKG 250230Z 11015G24KT 8SM -RA SCT014 BKN030 OVC037 03/01 A2990 650 85 -600 120/15G24 RMK AO2 CIG 015 RWY 14 P0003
14840KMKG MKG20101124213513211/24/10 21:35:31  5-MIN KMKG 250235Z 11017G24KT 7SM -RA BKN014 BKN030 OVC037 03/01 A2991 640 85 -600 110/17G24 RMK AO2 PRESRR P0004
14840KMKG MKG20101124214012811/24/10 21:40:31  5-MIN KMKG 250240Z 11011G24KT 6SM -RA BR BKN014 OVC030 03/01 A2992 630 85 -600 110/11G24 RMK AO2 PRESRR P0004
14840KMKG MKG20101124214511511/24/10 21:45:31  5-MIN KMKG 250245Z 11011KT 6SM -RA BR BKN014 OVC030 03/01 A2993 620 85 -600 120/11 RMK AO2 P0005
14840KMKG MKG20101124215014411/24/10 21:50:31  5-MIN KMKG 250250Z 11013KT 6SM -RA BR BKN014 OVC030 03/01 A2992 630 85 -600 110/13 RMK AO2 SLP138 P0005 60008 T00280006 56038
14840KMKG MKG20101124215513611/24/10 21:55:31  5-MIN KMKG 250255Z 11012KT 6SM RA BR OVC014 03/01 A2992 630 85 -600 110/12 RMK AO2 SLP137 P0005 60008 T00280006 56017
14840KMKG MKG20101124220010811/24/10 22:00:31  5-MIN KMKG 250300Z 11013KT 5SM -RA BR OVC014 03/01 A2991 640 85 -600 110/13 RMK AO2 P0001
14840KMKG MKG20101124220511411/24/10 22:05:31  5-MIN KMKG 250305Z 11010G19KT 5SM -RA BR OVC014 03/01 A2990 650 85 -600 110/10G19 RMK AO2 P0002
14840KMKG MKG20101124221010811/24/10 22:10:31  5-MIN KMKG 250310Z 11012KT 5SM -RA BR OVC014 02/01 A2990 650 89 -700 110/12 RMK AO2 P0002
14840KMKG MKG20101124221511511/24/10 22:15:31  5-MIN KMKG 250315Z 10014KT 6SM -RA BR OVC014 02/01 A2989 660 89 -600 100/14 RMK AO2 PRESFR P0002
14840KMKG MKG20101124222011211/24/10 22:20:31  5-MIN KMKG 250320Z 10014KT 7SM -RA BKN014 OVC030 03/01 A2989 660 85 -600 110/14 RMK AO2 P0003
14840KMKG MKG20101124222511911/24/10 22:25:31  5-MIN KMKG 250325Z 10013KT 9SM -RA SCT014 BKN019 OVC030 03/01 A2988 670 85 -600 110/13 RMK AO2 P0003
14840KMKG MKG20101124223013311/24/10 22:30:31  5-MIN KMKG 250330Z 10015G23KT 10SM -RA SCT014 BKN019 OVC030 03/01 A2987 670 85 -600 100/15G23 RMK AO2 PRESFR P0003
14840KMKG MKG20101124223513311/24/10 22:35:31  5-MIN KMKG 250335Z 10015G23KT 10SM -RA FEW014 BKN028 OVC035 03/01 A2986 680 85 -500 100/15G23 RMK AO2 PRESFR P0003
14840KMKG MKG20101124224012511/24/10 22:40:31  5-MIN KMKG 250340Z 10015G24KT 9SM -RA FEW013 BKN028 OVC033 03/01 A2986 690 85 -500 100/15G24 RMK AO2 P0003
14840KMKG MKG20101124224512511/24/10 22:45:31  5-MIN KMKG 250345Z 10014G24KT 9SM -RA FEW014 BKN028 OVC033 03/01 A2987 680 85 -500 110/14G24 RMK AO2 P0003
14840KMKG MKG20101124225014311/24/10 22:50:31  5-MIN KMKG 250350Z 10015G21KT 10SM -RA FEW014 BKN026 OVC033 03/01 A2986 690 85 -500 110/15G21 RMK AO2 SLP116 P0003 T00280006
14840KMKG MKG20101124225515011/24/10 22:55:31  5-MIN KMKG 250355Z 10017G21KT 10SM -RA FEW016 BKN026 OVC033 03/01 A2984 710 85 -500 100/17G21 RMK AO2 PRESFR SLP110 P0003 T00280006
14840KMKG MKG20101124230012611/24/10 23:00:31  5-MIN KMKG 250400Z 11018G23KT 10SM -RA FEW014 BKN026 OVC033 03/01 A2983 710 85 -500 110/18G23 RMK AO2 P0000
14840KMKG MKG20101124230511811/24/10 23:05:31  5-MIN KMKG 250405Z 10016G23KT 9SM -RA FEW014 OVC026 03/01 A2984 710 85 -500 110/16G23 RMK AO2 P0000
14840KMKG MKG20101124231011811/24/10 23:10:31  5-MIN KMKG 250410Z 11015G22KT 8SM -RA FEW012 OVC026 03/01 A2983 710 85 -500 110/15G22 RMK AO2 P0000
14840KMKG MKG20101124231514411/24/10 23:15:31  5-MIN KMKG 250415Z 11016G26KT 10SM -RA FEW012 SCT018 OVC026 03/01 A2983 720 85 -500 110/16G26 RMK AO2 PK WND 11026/0413 P0000
14840KMKG MKG20101124232014611/24/10 23:20:31  5-MIN KMKG 250420Z 10015G26KT 10SM FEW012 SCT018 OVC026 03/01 A2982 730 85 -500 100/15G26 RMK AO2 PK WND 10026/0418 RAE18 P0000
14840KMKG MKG20101124232513911/24/10 23:25:31  5-MIN KMKG 250425Z 10015G26KT 10SM SCT014 OVC026 03/01 A2983 720 85 -500 110/15G26 RMK AO2 PK WND 10026/0418 RAE18 P0000
14840KMKG MKG20101124233014611/24/10 23:30:31  5-MIN KMKG 250430Z 10017G25KT 10SM SCT014 SCT018 OVC026 03/01 A2982 730 85 -500 110/17G25 RMK AO2 PK WND 10026/0418 RAE18 P0000
14840KMKG MKG20101124233516111/24/10 23:35:31  5-MIN KMKG 250435Z 11016G26KT 10SM SCT014 BKN019 OVC026 03/01 A2981 730 85 -500 110/16G26 RMK AO2 PK WND 11026/0434 RAE18 CIG 013 RWY 14 P0000
14840KMKG MKG20101124234016111/24/10 23:40:31  5-MIN KMKG 250440Z 10017G26KT 10SM SCT012 BKN019 OVC026 03/01 A2981 730 85 -500 110/17G26 RMK AO2 PK WND 11026/0434 RAE18 CIG 013 RWY 14 P0000
14840KMKG MKG20101124234515411/24/10 23:45:31  5-MIN KMKG 250445Z 11015G24KT 10SM SCT014 OVC024 03/01 A2982 730 85 -500 120/15G24 RMK AO2 PK WND 11026/0434 RAE18 CIG 013 RWY 14 P0000
14840KMKG MKG20101124235015611/24/10 23:50:31  5-MIN KMKG 250450Z 11013G22KT 10SM BKN014 BKN020 OVC024 03/01 A2983 710 85 -500 120/13G22 RMK AO2 PK WND 11026/0434 RAE18 P0000 400281039
14840KMKG MKG20101124235517311/24/10 23:55:31  5-MIN KMKG 250455Z 12017G22KT 10SM BKN014 BKN020 OVC024 03/01 A2984 710 85 -500 120/17G22 RMK AO2 PK WND 11026/0434 RAE18 SLP109 P0000 T00280006 400281039
14840KMKG MKG20101125000010911/25/10 00:00:32  5-MIN KMKG 250500Z 11012G22KT 10SM BKN014 OVC024 03/01 A2984 700 85 -500 110/12G22 RMK AO2
14840KMKG MKG20101125000510911/25/10 00:05:31  5-MIN KMKG 250505Z 09010G17KT 10SM BKN014 OVC022 03/01 A2985 700 85 -500 090/10G17 RMK AO2
14840KMKG MKG20101125001010911/25/10 00:10:31  5-MIN KMKG 250510Z 10010G17KT 10SM BKN016 OVC022 03/01 A2984 700 85 -500 110/10G17 RMK AO2
14840KMKG MKG20101125001511811/25/10 00:15:31  5-MIN KMKG 250515Z 10014KT 9SM -RA BKN016 OVC022 03/01 A2983 710 85 -500 110/14 RMK AO2 RAB11 P0000
14840KMKG MKG20101125002012411/25/10 00:20:31  5-MIN KMKG 250520Z 11015G22KT 8SM -RA BKN016 OVC024 03/01 A2983 720 85 -500 110/15G22 RMK AO2 RAB11 P0001
14840KMKG MKG20101125002513111/25/10 00:25:31  5-MIN KMKG 250525Z 11016G22KT 7SM -RA SCT018 OVC024 03/01 A2981 730 85 -500 110/16G22 RMK AO2 RAB11 PRESFR P0001
14840KMKG MKG20101125003011611/25/10 00:30:31  5-MIN KMKG 250530Z 11015G21KT 7SM RA OVC021 03/01 A2981 730 85 -500 110/15G21 RMK AO2 RAB11 P0001
14840KMKG MKG20101125003511811/25/10 00:35:31  5-MIN KMKG 250535Z 11014KT 8SM -RA OVC021 03/01 A2980 740 85 -500 110/14 RMK AO2 RAB11 PRESFR P0002
14840KMKG MKG20101125004011911/25/10 00:40:31  5-MIN KMKG 250540Z 10016KT 10SM -RA OVC021 03/01 A2978 760 85 -500 110/16 RMK AO2 RAB11 PRESFR P0002
14840KMKG MKG20101125004511711/25/10 00:45:31  5-MIN KMKG 250545Z 11015G24KT 10SM OVC021 03/01 A2978 760 85 -500 110/15G24 RMK AO2 RAB11E45 P0002
14840KMKG MKG20101125005015811/25/10 00:50:31  5-MIN KMKG 250550Z 11014G24KT 10SM OVC019 03/01 A2978 760 85 -500 110/14G24 RMK AO2 RAB11E45 SLP091 P0002 60013 T00280006 10028 20022 56017
14840KMKG MKG20101125005515811/25/10 00:55:31  5-MIN KMKG 250555Z 10015G21KT 10SM OVC019 03/01 A2977 770 85 -400 110/15G21 RMK AO2 RAB11E45 SLP088 P0002 60013 T00280006 10028 20022 56047
14840KMKG MKG20101125010010211/25/10 01:00:31  5-MIN KMKG 250600Z 10014G23KT 10SM OVC019 03/01 A2978 760 85 -400 110/14G23 RMK AO2
14840KMKG MKG20101125010510211/25/10 01:05:31  5-MIN KMKG 250605Z 10013G23KT 10SM OVC019 03/01 A2978 760 85 -400 110/13G23 RMK AO2
14840KMKG MKG20101125011009611/25/10 01:10:31  5-MIN KMKG 250610Z 11014KT 10SM OVC017 03/01 A2977 770 85 -400 120/14 RMK AO2
14840KMKG MKG20101125011509611/25/10 01:15:31  5-MIN KMKG 250615Z 11015KT 10SM OVC017 03/01 A2977 770 85 -400 110/15 RMK AO2
14840KMKG MKG20101125012010211/25/10 01:20:31  5-MIN KMKG 250620Z 11016G22KT 10SM OVC017 03/01 A2976 780 85 -400 110/16G22 RMK AO2
14840KMKG MKG20101125012510211/25/10 01:25:31  5-MIN KMKG 250625Z 11013G22KT 10SM OVC017 03/01 A2976 780 85 -400 110/13G22 RMK AO2
14840KMKG MKG20101125013009611/25/10 01:30:31  5-MIN KMKG 250630Z 11017KT 10SM OVC015 03/01 A2975 780 85 -400 110/17 RMK AO2
14840KMKG MKG20101125013510211/25/10 01:35:31  5-MIN KMKG 250635Z 11013G21KT 10SM OVC015 03/01 A2975 790 85 -400 110/13G21 RMK AO2
14840KMKG MKG20101125014009611/25/10 01:40:31  5-MIN KMKG 250640Z 11014KT 10SM OVC015 03/01 A2975 780 85 -400 110/14 RMK AO2
14840KMKG MKG20101125014510211/25/10 01:45:31  5-MIN KMKG 250645Z 11014G21KT 10SM OVC015 03/01 A2976 770 85 -400 120/14G21 RMK AO2
14840KMKG MKG20101125015011911/25/10 01:50:31  5-MIN KMKG 250650Z 11015G21KT 10SM OVC015 03/01 A2976 780 82 -400 120/15G21 RMK AO2 SLP085 T00330006
14840KMKG MKG20101125015511211/25/10 01:55:31  5-MIN KMKG 250655Z 13012KT 9SM OVC013 03/01 A2977 770 82 -400 130/12 RMK AO2 SLP088 T00330006
14840KMKG MKG20101125020009611/25/10 02:00:31  5-MIN KMKG 250700Z 13010KT 10SM OVC013 03/01 A2978 760 82 -400 130/10 RMK AO2
14840KMKG MKG20101125020509611/25/10 02:05:31  5-MIN KMKG 250705Z 13012KT 10SM OVC013 03/01 A2977 770 85 -400 130/12 RMK AO2
14840KMKG MKG20101125021009611/25/10 02:10:31  5-MIN KMKG 250710Z 12013KT 10SM OVC013 03/01 A2977 770 82 -400 120/13 RMK AO2
14840KMKG MKG20101125021511111/25/10 02:15:31  5-MIN KMKG 250715Z 11012KT 9SM -RA OVC013 03/01 A2976 780 85 -400 120/12 RMK AO2 RAB11 P0000
14840KMKG MKG20101125022011111/25/10 02:20:31  5-MIN KMKG 250720Z 12013KT 7SM -RA OVC013 03/01 A2976 780 85 -400 120/13 RMK AO2 RAB11 P0000
14840KMKG MKG20101125022512011/25/10 02:25:31  5-MIN KMKG 250725Z 12011G18KT 5SM -RA BR OVC013 03/01 A2976 780 89 -400 120/11G18 RMK AO2 RAB11 P0000
14840KMKG MKG20101125023011111/25/10 02:30:31  5-MIN KMKG 250730Z 12012KT 7SM -RA OVC011 03/01 A2976 780 85 -400 130/12 RMK AO2 RAB11 P0000
14840KMKG MKG20101125023511611/25/10 02:35:31  5-MIN KMKG 250735Z 12015G18KT 9SM OVC011 03/01 A2976 780 85 -400 120/15G18 RMK AO2 RAB11E32 P0000
14840KMKG MKG20101125024011711/25/10 02:40:31  5-MIN KMKG 250740Z 12014G18KT 10SM OVC011 03/01 A2975 780 85 -400 120/14G18 RMK AO2 RAB11E32 P0000
14840KMKG MKG20101125024511011/25/10 02:45:31  5-MIN KMKG 250745Z 12014KT 9SM OVC011 03/01 A2976 780 85 -400 120/14 RMK AO2 RAB11E32 P0000
14840KMKG MKG20101125025012711/25/10 02:50:31  5-MIN KMKG 250750Z 12013KT 7SM OVC011 03/01 A2976 780 85 -400 130/13 RMK AO2 RAB11E32 SLP082 P0000 T00330011
14840KMKG MKG20101125025513711/25/10 02:55:31  5-MIN KMKG 250755Z 12011KT 5SM -RA BR OVC011 03/01 A2975 790 85 -300 120/11 RMK AO2 RAB11E32B53 SLP081 P0000 T00330011
14840KMKG MKG20101125030010811/25/10 03:00:31  5-MIN KMKG 250800Z 12012KT 4SM -RA BR OVC011 03/02 A2975 790 89 -300 120/12 RMK AO2 P0000
14840KMKG MKG20101125030510811/25/10 03:05:31  5-MIN KMKG 250805Z 11011KT 3SM -RA BR OVC011 03/02 A2975 790 89 -300 110/11 RMK AO2 P0000
14840KMKG MKG20101125031012211/25/10 03:10:31  5-MIN KMKG 250810Z 11013KT 3SM BR OVC011 03/02 A2974 800 89 -300 120/13 RMK AO2 RAE09 CIG 008V012 P0000
14840KMKG MKG20101125031512011/25/10 03:15:31  5-MIN KMKG 250815Z 11011KT 3SM -RA BR OVC011 03/02 A2974 800 89 -300 110/11 RMK AO2 CIG 008V013 P0000
14840KMKG MKG20101125032012011/25/10 03:20:31  5-MIN KMKG 250820Z 11011KT 3SM -RA BR OVC011 03/02 A2974 800 89 -300 110/11 RMK AO2 CIG 007V013 P0000
14840KMKG MKG20101125032512011/25/10 03:25:31  5-MIN KMKG 250825Z 11012KT 3SM -RA BR OVC009 03/02 A2974 800 89 -300 120/12 RMK AO2 CIG 006V013 P0000
14840KMKG MKG20101125033012211/25/10 03:30:31  5-MIN KMKG 250830Z 11011KT 3SM BR OVC009 03/02 A2973 810 89 -300 120/11 RMK AO2 RAE26 CIG 006V013 P0000
14840KMKG MKG20101125033512211/25/10 03:35:31  5-MIN KMKG 250835Z 12012KT 3SM BR OVC009 03/02 A2973 810 89 -300 120/12 RMK AO2 RAE26 CIG 006V013 P0000
14840KMKG MKG20101125034013311/25/10 03:40:31  5-MIN KMKG 250840Z 12012KT 2 1/2SM BR OVC009 03/02 A2972 820 89 -300 120/12 RMK AO2 RAE26 CIG 006V013 PRESFR P0000
14840KMKG MKG20101125034512911/25/10 03:45:31  5-MIN KMKG 250845Z 12011KT 2SM BR BKN007 OVC011 03/02 A2972 820 89 -300 120/11 RMK AO2 RAE26 CIG 005V009 P0000
14840KMKG MKG20101125035015111/25/10 03:50:31  5-MIN KMKG 250850Z 12010KT 2SM BR OVC007 03/02 A2972 810 89 -300 130/10 RMK AO2 RAE26 CIG 005V009 SLP071 P0001 60001 T00330017 56047
14840KMKG MKG20101125035515511/25/10 03:55:31  5-MIN KMKG 250855Z 12013KT 2 1/2SM BR OVC007 03/02 A2973 810 89 -300 130/13 RMK AO2 RAE26 CIG 005V011 SLP072 P0001 60001 T00330017 58015
14840KMKG MKG20101125040011411/25/10 04:00:31  5-MIN KMKG 250900Z 12010KT 2 1/2SM BR OVC007 03/02 A2973 810 89 -300 120/10 RMK AO2 CIG 005V011
14840KMKG MKG20101125040511411/25/10 04:05:31  5-MIN KMKG 250905Z 12011KT 2 1/2SM BR OVC007 03/02 A2973 810 92 -300 130/11 RMK AO2 CIG 005V011
14840KMKG MKG20101125041011411/25/10 04:10:31  5-MIN KMKG 250910Z 12011KT 2 1/2SM BR OVC007 03/02 A2973 810 89 -300 120/11 RMK AO2 CIG 005V010
14840KMKG MKG20101125041511011/25/10 04:15:31  5-MIN KMKG 250915Z 12010KT 2SM BR OVC007 03/02 A2973 810 92 -300 120/10 RMK AO2 CIG 005V010
14840KMKG MKG20101125042011011/25/10 04:20:31  5-MIN KMKG 250920Z 12010KT 2SM BR OVC007 03/02 A2973 800 92 -300 130/10 RMK AO2 CIG 005V012
14840KMKG MKG20101125042511011/25/10 04:25:31  5-MIN KMKG 250925Z 12011KT 2SM BR OVC007 03/02 A2973 810 92 -300 130/11 RMK AO2 CIG 005V010
14840KMKG MKG20101125043010911/25/10 04:30:31  5-MIN KMKG 250930Z 12011KT 2 1/2SM BR BKN007 OVC011 03/02 A2973 810 92 -300 120/11 RMK AO2
14840KMKG MKG20101125043511411/25/10 04:35:31  5-MIN KMKG 250935Z 12011KT 2 1/2SM BR OVC007 03/02 A2973 810 92 -300 130/11 RMK AO2 CIG 005V010
14840KMKG MKG20101125044011011/25/10 04:40:31  5-MIN KMKG 250940Z 12010KT 2SM BR OVC007 03/02 A2973 810 92 -300 120/10 RMK AO2 CIG 005V010
14840KMKG MKG20101125044511611/25/10 04:45:31  5-MIN KMKG 250945Z 13009KT 2SM BR OVC007 03/02 A2973 800 92 -300 130/09 RMK AO2 CIG 005V010 P0001
14840KMKG MKG20101125045013711/25/10 04:50:31  5-MIN KMKG 250950Z 13009KT 2 1/2SM BR OVC007 03/02 A2974 800 92 -300 130/09 RMK AO2 CIG 005V010 SLP076 P0001 T00330022
14840KMKG MKG20101125045513711/25/10 04:55:31  5-MIN KMKG 250955Z 13009KT 2 1/2SM BR OVC007 03/02 A2975 790 92 -300 140/09 RMK AO2 CIG 005V010 SLP078 P0001 T00330022
14840KMKG MKG20101125050011411/25/10 05:00:31  5-MIN KMKG 251000Z 13007KT 2 1/2SM BR OVC007 03/02 A2974 790 92 -300 130/07 RMK AO2 CIG 005V012
14840KMKG MKG20101125050511411/25/10 05:05:31  5-MIN KMKG 251005Z 13008KT 2 1/2SM BR OVC007 03/02 A2974 800 92 -300 130/08 RMK AO2 CIG 005V010
14840KMKG MKG20101125051011011/25/10 05:10:31  5-MIN KMKG 251010Z 13009KT 3SM BR OVC007 03/02 A2975 790 92 -300 140/09 RMK AO2 CIG 005V010
14840KMKG MKG20101125051511011/25/10 05:15:31  5-MIN KMKG 251015Z 13008KT 3SM BR OVC007 03/02 A2975 790 92 -300 130/08 RMK AO2 CIG 005V012
14840KMKG MKG20101125052011011/25/10 05:20:31  5-MIN KMKG 251020Z 13008KT 3SM BR OVC007 03/02 A2975 790 92 -300 130/08 RMK AO2 CIG 005V012
14840KMKG MKG20101125052511011/25/10 05:25:31  5-MIN KMKG 251025Z 12007KT 3SM BR OVC007 03/02 A2974 790 92 -300 130/07 RMK AO2 CIG 005V012
14840KMKG MKG20101125053011011/25/10 05:30:31  5-MIN KMKG 251030Z 12007KT 3SM BR OVC007 03/02 A2974 800 92 -300 120/07 RMK AO2 CIG 005V012
14840KMKG MKG20101125053511411/25/10 05:35:31  5-MIN KMKG 251035Z 13007KT 2 1/2SM BR OVC007 03/02 A2973 800 92 -300 130/07 RMK AO2 CIG 005V011
14840KMKG MKG20101125054011411/25/10 05:40:31  5-MIN KMKG 251040Z 12008KT 2 1/2SM BR OVC007 03/02 A2973 800 92 -300 120/08 RMK AO2 CIG 005V011
14840KMKG MKG20101125054511411/25/10 05:45:31  5-MIN KMKG 251045Z 12008KT 2 1/2SM BR OVC007 03/02 A2973 800 92 -300 120/08 RMK AO2 CIG 005V011
14840KMKG MKG20101125055013111/25/10 05:50:31  5-MIN KMKG 251050Z 12008KT 2 1/2SM BR OVC007 03/02 A2973 810 92 -300 120/08 RMK AO2 CIG 005V011 SLP073 T00330022
14840KMKG MKG20101125055513111/25/10 05:55:31  5-MIN KMKG 251055Z 12008KT 2 1/2SM BR OVC007 03/02 A2972 810 92 -300 130/08 RMK AO2 CIG 004V009 SLP070 T00330022
14840KMKG MKG20101125060011011/25/10 06:00:31  5-MIN KMKG 251100Z 12008KT 3SM BR OVC007 03/02 A2972 820 92 -300 130/08 RMK AO2 CIG 004V011
14840KMKG MKG20101125060512111/25/10 06:05:31  5-MIN KMKG 251105Z 12009KT 2 1/2SM BR OVC007 03/02 A2971 820 92 -300 130/09 RMK AO2 CIG 004V011 PRESFR
14840KMKG MKG20101125061012111/25/10 06:10:31  5-MIN KMKG 251110Z 12008KT 2 1/2SM BR OVC007 03/02 A2970 830 92 -300 120/08 RMK AO2 CIG 004V011 PRESFR
14840KMKG MKG20101125061511711/25/10 06:15:31  5-MIN KMKG 251115Z 12009KT 3SM BR OVC007 03/02 A2970 840 92 -300 120/09 RMK AO2 CIG 004V011 PRESFR
14840KMKG MKG20101125062012411/25/10 06:20:31  5-MIN KMKG 251120Z 12009KT 2 1/2SM BR OVC007 03/02 A2969 840 92 -300 120/09 RMK AO2 SFC VIS 3 CIG 004V011
14840KMKG MKG20101125062512411/25/10 06:25:31  5-MIN KMKG 251125Z 12009KT 2 1/2SM BR OVC007 03/02 A2969 840 92 -300 120/09 RMK AO2 SFC VIS 3 CIG 004V010
14840KMKG MKG20101125063012411/25/10 06:30:31  5-MIN KMKG 251130Z 12009KT 2 1/2SM BR OVC005 03/02 A2969 840 92 -300 120/09 RMK AO2 SFC VIS 4 CIG 004V009
14840KMKG MKG20101125063512411/25/10 06:35:31  5-MIN KMKG 251135Z 12010KT 2 1/2SM BR OVC005 03/02 A2969 840 92 -300 130/10 RMK AO2 SFC VIS 4 CIG 004V009
14840KMKG MKG20101125064012411/25/10 06:40:31  5-MIN KMKG 251140Z 12009KT 2 1/2SM BR OVC005 03/02 A2969 850 92 -300 120/09 RMK AO2 SFC VIS 4 CIG 004V009
14840KMKG MKG20101125064512411/25/10 06:45:31  5-MIN KMKG 251145Z 12010KT 2 1/2SM BR OVC005 03/02 A2969 850 92 -300 120/10 RMK AO2 SFC VIS 4 CIG 004V009
14840KMKG MKG20101125065017111/25/10 06:50:31  5-MIN KMKG 251150Z 12009KT 2 1/2SM BR OVC005 03/02 A2969 850 92 -300 120/09 RMK AO2 SFC VIS 4 CIG 004V008 SLP058 60002 70015 T00330022 10033 20028 58015
14840KMKG MKG20101125065515911/25/10 06:55:31  5-MIN KMKG 251155Z 11010KT 2 1/2SM BR OVC005 03/02 A2968 850 92 -300 120/10 RMK AO2 SFC VIS 5 SLP057 60002 70015 T00330022 10033 20028 58015
14840KMKG MKG20101125070011211/25/10 07:00:31  5-MIN KMKG 251200Z 12008KT 2 1/2SM BR OVC005 04/02 A2968 850 89 -200 120/08 RMK AO2 SFC VIS 5
14840KMKG MKG20101125070509811/25/10 07:05:31  5-MIN KMKG 251205Z 11008KT 5SM BR OVC005 04/02 A2968 850 89 -200 120/08 RMK AO2
14840KMKG MKG20101125071009811/25/10 07:10:31  5-MIN KMKG 251210Z 12007KT 4SM BR OVC005 04/02 A2968 850 89 -200 130/07 RMK AO2
14840KMKG MKG20101125072509811/25/10 07:25:31  5-MIN KMKG 251225Z 12007KT 4SM BR OVC005 04/03 A2967 860 92 -200 120/07 RMK AO2
14840KMKG MKG20101125073009811/25/10 07:30:31  5-MIN KMKG 251230Z 12008KT 4SM BR OVC005 04/03 A2967 860 92 -200 120/08 RMK AO2
14840KMKG MKG20101125073509811/25/10 07:35:31  5-MIN KMKG 251235Z 12007KT 4SM BR OVC005 04/03 A2968 860 92 -200 120/07 RMK AO2
14840KMKG MKG20101125074009811/25/10 07:40:31  5-MIN KMKG 251240Z 12007KT 4SM BR OVC005 04/03 A2968 850 92 -200 120/07 RMK AO2
14840KMKG MKG20101125074509811/25/10 07:45:31  5-MIN KMKG 251245Z 13007KT 4SM BR OVC005 04/03 A2968 850 92 -200 130/07 RMK AO2
14840KMKG MKG20101125075011511/25/10 07:50:31  5-MIN KMKG 251250Z 13006KT 4SM BR OVC005 04/03 A2969 850 92 -200 130/06 RMK AO2 SLP058 T00390028
14840KMKG MKG20101125075511511/25/10 07:55:31  5-MIN KMKG 251255Z 13006KT 4SM BR OVC005 04/03 A2968 850 92 -200 140/06 RMK AO2 SLP057 T00390028
14840KMKG MKG20101125080009811/25/10 08:00:31  5-MIN KMKG 251300Z 13007KT 3SM BR OVC005 04/03 A2968 850 92 -200 140/07 RMK AO2
14840KMKG MKG20101125080510211/25/10 08:05:31  5-MIN KMKG 251305Z 13009KT 2 1/2SM BR OVC005 04/03 A2967 860 92 -200 130/09 RMK AO2
14840KMKG MKG20101125081010211/25/10 08:10:31  5-MIN KMKG 251310Z 13008KT 2 1/2SM BR OVC005 04/03 A2968 850 92 -200 130/08 RMK AO2
14840KMKG MKG20101125081510211/25/10 08:15:31  5-MIN KMKG 251315Z 12010KT 1 3/4SM BR OVC005 04/03 A2967 870 92 -200 130/10 RMK AO2
14840KMKG MKG20101125082010211/25/10 08:20:31  5-MIN KMKG 251320Z 14008KT 1 1/2SM BR OVC005 04/03 A2968 850 92 -200 140/08 RMK AO2
14840KMKG MKG20101125082510211/25/10 08:25:31  5-MIN KMKG 251325Z 16006KT 1 1/2SM BR OVC005 04/03 A2969 840 92 -200 160/06 RMK AO2
14840KMKG MKG20101125083010211/25/10 08:30:31  5-MIN KMKG 251330Z 16005KT 1 3/4SM BR OVC005 04/03 A2970 840 96 -200 160/05 RMK AO2
14840KMKG MKG20101125083510211/25/10 08:35:31  5-MIN KMKG 251335Z 16006KT 1 1/2SM BR OVC005 04/03 A2969 840 92 -200 160/06 RMK AO2
14840KMKG MKG20101125084010211/25/10 08:40:31  5-MIN KMKG 251340Z 15006KT 1 1/2SM BR OVC005 04/03 A2969 840 92 -200 160/06 RMK AO2
14840KMKG MKG20101125084510211/25/10 08:45:31  5-MIN KMKG 251345Z 16007KT 1 1/2SM BR OVC005 04/03 A2970 840 92 -200 160/07 RMK AO2
14840KMKG MKG20101125085011911/25/10 08:50:31  5-MIN KMKG 251350Z 15006KT 1 1/4SM BR OVC005 04/03 A2969 840 92 -200 160/06 RMK AO2 SLP060 T00390028
14840KMKG MKG20101125085511911/25/10 08:55:31  5-MIN KMKG 251355Z 15006KT 1 1/4SM BR OVC005 04/03 A2969 840 96 -200 150/06 RMK AO2 SLP060 T00390033
14840KMKG MKG20101125090010211/25/10 09:00:31  5-MIN KMKG 251400Z 15006KT 1 1/4SM BR OVC005 04/03 A2970 840 96 -200 150/06 RMK AO2
14840KMKG MKG20101125090510211/25/10 09:05:31  5-MIN KMKG 251405Z 16004KT 1 1/2SM BR OVC005 04/03 A2970 830 96 -200 160/04 RMK AO2
14840KMKG MKG20101125091010211/25/10 09:10:31  5-MIN KMKG 251410Z 16006KT 1 1/4SM BR OVC005 04/03 A2970 830 92 -200 160/06 RMK AO2
14840KMKG MKG20101125091510211/25/10 09:15:31  5-MIN KMKG 251415Z 15006KT 1 1/4SM BR OVC005 04/03 A2970 840 92 -100 150/06 RMK AO2
14840KMKG MKG20101125092010211/25/10 09:20:31  5-MIN KMKG 251420Z 15005KT 1 1/4SM BR OVC005 04/03 A2970 840 92 -100 150/05 RMK AO2
14840KMKG MKG20101125092510211/25/10 09:25:31  5-MIN KMKG 251425Z 14005KT 1 1/4SM BR OVC005 04/03 A2969 840 92 -100 150/05 RMK AO2
14840KMKG MKG20101125093010211/25/10 09:30:31  5-MIN KMKG 251430Z 15004KT 1 1/4SM BR OVC003 04/03 A2969 840 92 -100 150/04 RMK AO2
14840KMKG MKG20101125093510211/25/10 09:35:31  5-MIN KMKG 251435Z 15005KT 1 1/4SM BR OVC003 04/03 A2970 840 92 -100 150/05 RMK AO2
14840KMKG MKG20101125094009811/25/10 09:40:31  5-MIN KMKG 251440Z 15005KT 1SM BR OVC003 04/03 A2970 840 92 -100 160/05 RMK AO2
14840KMKG MKG20101125094509811/25/10 09:45:31  5-MIN KMKG 251445Z 16005KT 1SM BR OVC003 04/03 A2970 840 92 -100 160/05 RMK AO2
14840KMKG MKG20101125095012111/25/10 09:50:31  5-MIN KMKG 251450Z 15005KT 1SM BR OVC003 04/03 A2970 840 92 -100 160/05 RMK AO2 SLP061 T00440033 58015
14840KMKG MKG20101125095512111/25/10 09:55:31  5-MIN KMKG 251455Z 16004KT 1SM BR OVC003 04/03 A2970 840 92 -100 160/04 RMK AO2 SLP062 T00440033 53005
14840KMKG MKG20101125100009811/25/10 10:00:31  5-MIN KMKG 251500Z 15006KT 1SM BR OVC003 04/03 A2970 840 92 -100 160/06 RMK AO2
14840KMKG MKG20101125100509811/25/10 10:05:31  5-MIN KMKG 251505Z 15005KT 1SM BR OVC003 04/03 A2970 830 92 -200 150/05 RMK AO2
14840KMKG MKG20101125101009811/25/10 10:10:31  5-MIN KMKG 251510Z 15005KT 1SM BR OVC003 04/04 A2970 830 96 -200 150/05 RMK AO2
14840KMKG MKG20101125101509811/25/10 10:15:31  5-MIN KMKG 251515Z 14005KT 1SM BR OVC003 04/04 A2970 840 96 -100 150/05 RMK AO2
14840KMKG MKG20101125102009811/25/10 10:20:31  5-MIN KMKG 251520Z 14005KT 1SM BR OVC003 04/04 A2969 840 96 -100 140/05 RMK AO2
14840KMKG MKG20101125102510411/25/10 10:25:31  5-MIN KMKG 251525Z 14008KT 1SM BR OVC003 05/04 A2969 840 92 -100 140/08 RMK AO2 P0001
14840KMKG MKG20101125103010811/25/10 10:30:31  5-MIN KMKG 251530Z 14007KT 1 1/4SM BR OVC003 05/04 A2970 840 92 -100 140/07 RMK AO2 P0001
14840KMKG MKG20101125103510811/25/10 10:35:31  5-MIN KMKG 251535Z 15006KT 1 1/4SM BR OVC003 05/04 A2970 840 92 -100 150/06 RMK AO2 P0001
14840KMKG MKG20101125104010211/25/10 10:40:31  5-MIN KMKG 251540Z 14006KT 1 1/4SM BR OVC003 05/04 A2969 840 92 -100 140/06 RMK AO2
14840KMKG MKG20101125104511211/25/10 10:45:31  5-MIN KMKG 251545Z 15006KT 1 1/2SM -DZ BR OVC003 05/04 A2969 840 92 -100 150/06 RMK AO2 DZB43
14840KMKG MKG20101125105010811/25/10 10:50:31  5-MIN KMKG 251550Z 17003KT 2SM -DZ BR OVC003 05/04 A2970 840 92 -100 180/03 RMK AO2 DZB43
14840KMKG MKG20101125105513511/25/10 10:55:31  5-MIN KMKG 251555Z 28006KT 2 1/2SM -DZ BR OVC003 05/04 A2970 840 92 -100 290/06 RMK AO2 DZB43 SLP061 P0001 T00500039
14840KMKG MKG20101125110010811/25/10 11:00:31  5-MIN KMKG 251600Z 00000KT 3SM -DZ BR OVC003 05/04 A2969 840 92 -100 000/00 RMK AO2 P0000
14840KMKG MKG20101125110510811/25/10 11:05:31  5-MIN KMKG 251605Z 11003KT 4SM -DZ BR OVC003 05/04 A2969 850 92 -100 120/03 RMK AO2 P0000
14840KMKG MKG20101125111010811/25/10 11:10:31  5-MIN KMKG 251610Z 12003KT 4SM -DZ BR OVC003 05/04 A2968 850 92 -100 120/03 RMK AO2 P0000
14840KMKG MKG20101125111512011/25/10 11:15:31  5-MIN KMKG 251615Z VRB03KT 3SM -DZ BR OVC003 05/04 A2969 850 92 -100 VRB/03 RMK AO2 CIG 002V006 P0000
14840KMKG MKG20101125112011711/25/10 11:20:31  5-MIN KMKG 251620Z 14003KT 4SM -DZ BR OVC003 06/04 A2968 850 92 0 140/03 RMK AO2 CIG 002V009 P0000
14840KMKG MKG20101125112511711/25/10 11:25:31  5-MIN KMKG 251625Z 00000KT 4SM -DZ BR OVC005 06/04 A2968 850 92 0 000/00 RMK AO2 CIG 002V009 P0000
14840KMKG MKG20101125113010511/25/10 11:30:31  5-MIN KMKG 251630Z 00000KT 4SM -DZ BR OVC005 06/04 A2968 850 92 0 000/00 RMK AO2 P0000
14840KMKG MKG20101125113510511/25/10 11:35:31  5-MIN KMKG 251635Z 00000KT 3SM -DZ BR OVC005 06/04 A2969 850 92 0 000/00 RMK AO2 P0000
14840KMKG MKG20101125114010911/25/10 11:40:31  5-MIN KMKG 251640Z 00000KT 2 1/2SM -DZ BR OVC005 06/04 A2968 860 92 0 000/00 RMK AO2 P0000
14840KMKG MKG20101125114511211/25/10 11:45:31  5-MIN KMKG 251645Z VRB03KT 2SM -DZ BR BKN005 OVC009 06/04 A2967 860 89 0 VRB/03 RMK AO2 P0000
14840KMKG MKG20101125115012911/25/10 11:50:31  5-MIN KMKG 251650Z 29003KT 2SM -DZ BR BKN005 OVC009 06/05 A2967 860 93 0 300/03 RMK AO2 SLP052 P0000 T00610050
14840KMKG MKG20101125115513111/25/10 11:55:31  5-MIN KMKG 251655Z 29004KT 3SM -DZ BR BKN005 OVC009 07/05 A2967 860 89 100 290/04 RMK AO2 SLP051 P0000 T00670050
14840KMKG MKG20101125120011411/25/10 12:00:31  5-MIN KMKG 251700Z 28004KT 5SM -DZ BR BKN005 OVC009 07/05 A2967 860 89 100 290/04 RMK AO2 P0000
14840KMKG MKG20101125120512611/25/10 12:05:31  5-MIN KMKG 251705Z 29004KT 5SM -DZ BR BKN005 OVC009 07/05 A2966 870 89 100 290/04 RMK AO2 CIG 004V008 P0000
14840KMKG MKG20101125121012611/25/10 12:10:31  5-MIN KMKG 251710Z 28004KT 5SM -DZ BR BKN008 OVC011 07/06 A2966 870 93 100 280/04 RMK AO2 CIG 005V010 P0000
14840KMKG MKG20101125121511411/25/10 12:15:31  5-MIN KMKG 251715Z 27004KT 6SM -DZ BR BKN006 OVC011 07/05 A2966 870 89 100 280/04 RMK AO2 P0000
14840KMKG MKG20101125122012611/25/10 12:20:31  5-MIN KMKG 251720Z 28004KT 5SM -DZ BR BKN008 OVC013 07/05 A2966 870 89 100 280/04 RMK AO2 CIG 005V010 P0000
14840KMKG MKG20101125122512611/25/10 12:25:31  5-MIN KMKG 251725Z 27004KT 5SM -DZ BR BKN006 OVC012 07/06 A2967 860 93 100 270/04 RMK AO2 CIG 005V009 P0000
14840KMKG MKG20101125123012611/25/10 12:30:31  5-MIN KMKG 251730Z 28006KT 4SM -DZ BR BKN006 OVC012 07/06 A2967 860 93 100 280/06 RMK AO2 CIG 004V009 P0000
14840KMKG MKG20101125123512611/25/10 12:35:31  5-MIN KMKG 251735Z 28006KT 4SM -DZ BR BKN006 OVC012 07/05 A2967 860 89 100 280/06 RMK AO2 CIG 004V009 P0000
14840KMKG MKG20101125124012611/25/10 12:40:31  5-MIN KMKG 251740Z 28007KT 4SM -DZ BR BKN006 OVC010 07/05 A2966 870 89 100 290/07 RMK AO2 CIG 004V009 P0000
14840KMKG MKG20101125124513311/25/10 12:45:31  5-MIN KMKG 251745Z 30004KT 5SM -DZ BR BKN006 OVC010 07/05 A2965 880 89 100 300/04 RMK AO2 CIG 004V009 PRESFR P0000
14840KMKG MKG20101125125015511/25/10 12:50:31  5-MIN KMKG 251750Z 29005KT 4SM -DZ BR BKN006 OVC009 06/05 A2965 880 93 100 300/05 RMK AO2 SLP046 P0000 60001 T00610050 10067 20033 53005
14840KMKG MKG20101125125516711/25/10 12:55:31  5-MIN KMKG 251755Z 29005KT 4SM -DZ BR BKN006 OVC009 06/05 A2965 880 93 100 300/05 RMK AO2 CIG 004V008 SLP046 P0000 60001 T00610050 10067 20033 58016
14840KMKG MKG20101125130011911/25/10 13:00:31  5-MIN KMKG 251800Z 29006KT 3SM -DZ BR OVC006 06/05 A2965 880 93 100 300/06 RMK AO2 CIG 004V010 P0000
14840KMKG MKG20101125130511911/25/10 13:05:31  5-MIN KMKG 251805Z 29006KT 3SM -DZ BR OVC008 06/04 A2965 880 89 100 290/06 RMK AO2 CIG 005V010 P0000
14840KMKG MKG20101125131012311/25/10 13:10:31  5-MIN KMKG 251810Z 29006KT 2 1/2SM -DZ BR OVC008 06/04 A2964 890 89 100 300/06 RMK AO2 CIG 005V011 P0000
14840KMKG MKG20101125131512311/25/10 13:15:31  5-MIN KMKG 251815Z 29006KT 2 1/2SM -DZ BR OVC008 06/04 A2965 890 89 100 290/06 RMK AO2 CIG 005V011 P0000
14840KMKG MKG20101125132011911/25/10 13:20:31  5-MIN KMKG 251820Z 29005KT 3SM -DZ BR OVC006 06/04 A2965 880 89 100 300/05 RMK AO2 CIG 005V011 P0000
14840KMKG MKG20101125132511911/25/10 13:25:31  5-MIN KMKG 251825Z 29006KT 3SM -DZ BR OVC006 06/04 A2966 880 89 100 290/06 RMK AO2 CIG 005V011 P0000
14840KMKG MKG20101125133011911/25/10 13:30:31  5-MIN KMKG 251830Z 27006KT 4SM -DZ BR OVC006 06/04 A2966 880 89 100 280/06 RMK AO2 CIG 005V011 P0000
14840KMKG MKG20101125133511911/25/10 13:35:31  5-MIN KMKG 251835Z 28006KT 5SM -DZ BR OVC008 06/04 A2965 880 89 100 290/06 RMK AO2 CIG 005V012 P0000
14840KMKG MKG20101125134012311/25/10 13:40:31  5-MIN KMKG 251840Z 27006KT 7SM -DZ BKN008 OVC011 06/04 A2965 880 89 100 270/06 RMK AO2 CIG 005V010 P0000
14840KMKG MKG20101125134511911/25/10 13:45:31  5-MIN KMKG 251845Z 26006KT 10SM OVC009 06/04 A2964 890 89 100 270/06 RMK AO2 DZE42 CIG 005V014 P0000
14840KMKG MKG20101125135011911/25/10 13:50:31  5-MIN KMKG 251850Z 26006KT 10SM OVC011 06/04 A2964 890 86 100 260/06 RMK AO2 DZE42 CIG 005V014 P0000
14840KMKG MKG20101125135513611/25/10 13:55:31  5-MIN KMKG 251855Z 28006KT 10SM OVC011 06/04 A2964 890 86 100 280/06 RMK AO2 DZE42 CIG 005V014 SLP041 P0000 T00610039
14840KMKG MKG20101125140009511/25/10 14:00:31  5-MIN KMKG 251900Z 27009KT 10SM OVC011 06/04 A2965 890 86 100 280/09 RMK AO2
14840KMKG MKG20101125140510311/25/10 14:05:31  5-MIN KMKG 251905Z 27012G15KT 6SM BR OVC011 06/04 A2965 880 86 100 280/12G15 RMK AO2
14840KMKG MKG20101125141011111/25/10 14:10:31  5-MIN KMKG 251910Z 28009KT 3SM -RA BR OVC011 06/04 A2965 880 89 0 280/09 RMK AO2 RAB08 P0000
14840KMKG MKG20101125141511111/25/10 14:15:31  5-MIN KMKG 251915Z 27009KT 2SM -RA BR OVC014 06/04 A2964 890 89 0 280/09 RMK AO2 RAB08 P0000
14840KMKG MKG20101125142011511/25/10 14:20:31  5-MIN KMKG 251920Z 28009KT 2 1/2SM -RA BR OVC012 06/04 A2965 880 89 0 280/09 RMK AO2 RAB08 P0000
14840KMKG MKG20101125142513311/25/10 14:25:31  5-MIN KMKG 251925Z 28009KT 3SM -RA BR SCT010 OVC015 06/04 A2964 890 89 0 290/09 RMK AO2 RAB08 CIG 010 RWY 14 P0000
14840KMKG MKG20101125143011811/25/10 14:30:31  5-MIN KMKG 251930Z 29009KT 3SM -RA BR FEW007 OVC015 06/04 A2964 890 89 0 290/09 RMK AO2 RAB08 P0000
14840KMKG MKG20101125143513411/25/10 14:35:31  5-MIN KMKG 251935Z 27010KT 2 1/2SM -RA BR BKN009 OVC015 06/04 A2965 880 89 0 280/10 RMK AO2 RAB08 CIG 006V012 P0000
14840KMKG MKG20101125144011811/25/10 14:40:31  5-MIN KMKG 251940Z 27008KT 3SM -RA BR SCT009 OVC015 06/04 A2964 890 89 0 280/08 RMK AO2 RAB08 P0000
14840KMKG MKG20101125144513011/25/10 14:45:31  5-MIN KMKG 251945Z 28009KT 4SM -RA BR BKN009 OVC016 05/04 A2964 890 92 0 280/09 RMK AO2 RAB08 CIG 006V012 P0000
14840KMKG MKG20101125145014111/25/10 14:50:31  5-MIN KMKG 251950Z 28009KT 4SM BR SCT009 BKN013 OVC019 05/04 A2963 900 92 0 290/09 RMK AO2 RAB08E46 SLP040 P0000 T00500039
14840KMKG MKG20101125145513411/25/10 14:55:31  5-MIN KMKG 251955Z 27010KT 5SM BR SCT009 OVC013 05/03 A2965 880 89 0 280/10 RMK AO2 RAB08E46 SLP045 P0000 T00500033
14840KMKG MKG20101125150009911/25/10 15:00:31  5-MIN KMKG 252000Z 27011KT 9SM SCT009 OVC013 05/03 A2964 890 85 0 280/11 RMK AO2
14840KMKG MKG20101125150510011/25/10 15:05:31  5-MIN KMKG 252005Z 27010KT 10SM FEW009 OVC013 05/03 A2965 880 85 0 270/10 RMK AO2
14840KMKG MKG20101125151010011/25/10 15:10:31  5-MIN KMKG 252010Z 27010KT 10SM FEW009 OVC013 05/03 A2965 880 85 0 270/10 RMK AO2
14840KMKG MKG20101125151510011/25/10 15:15:31  5-MIN KMKG 252015Z 27010KT 10SM FEW009 OVC015 05/03 A2965 880 85 0 280/10 RMK AO2
14840KMKG MKG20101125152009311/25/10 15:20:31  5-MIN KMKG 252020Z 27010KT 10SM OVC015 05/02 A2965 880 82 0 280/10 RMK AO2
14840KMKG MKG20101125152509911/25/10 15:25:31  5-MIN KMKG 252025Z 28007G15KT 10SM OVC015 05/02 A2965 880 82 0 290/07G15 RMK AO2
14840KMKG MKG20101125153009311/25/10 15:30:31  5-MIN KMKG 252030Z 28008KT 10SM OVC015 05/02 A2965 890 82 0 280/08 RMK AO2
14840KMKG MKG20101125153509311/25/10 15:35:31  5-MIN KMKG 252035Z 27011KT 10SM OVC015 05/02 A2965 890 82 0 270/11 RMK AO2
14840KMKG MKG20101125154009311/25/10 15:40:31  5-MIN KMKG 252040Z 28010KT 10SM OVC015 05/02 A2964 890 79 0 280/10 RMK AO2
14840KMKG MKG20101125154509611/25/10 15:45:31  5-MIN KMKG 252045Z 27008KT 10SM OVC015 04/02 A2965 880 82 -100 270/08 RMK AO2
14840KMKG MKG20101125155012511/25/10 15:50:31  5-MIN KMKG 252050Z 26010KT 10SM OVC015 04/02 A2966 870 82 -100 270/10 RMK AO2 SLP049 60000 T00440017 58016
14840KMKG MKG20101125155512511/25/10 15:55:31  5-MIN KMKG 252055Z 27011KT 10SM OVC015 04/02 A2966 870 82 -100 280/11 RMK AO2 SLP049 60000 T00440017 53006
14840KMKG MKG20101125160009611/25/10 16:00:31  5-MIN KMKG 252100Z 28010KT 10SM OVC015 04/02 A2966 870 82 -100 280/10 RMK AO2
14840KMKG MKG20101125160509611/25/10 16:05:31  5-MIN KMKG 252105Z 29013KT 10SM OVC015 04/02 A2965 880 82 -100 290/13 RMK AO2
14840KMKG MKG20101125161009611/25/10 16:10:31  5-MIN KMKG 252110Z 27010KT 10SM OVC015 04/01 A2966 870 79 -100 280/10 RMK AO2
14840KMKG MKG20101125161510211/25/10 16:15:31  5-MIN KMKG 252115Z 27009G16KT 10SM OVC017 04/01 A2966 870 79 -100 270/09G16 RMK AO2
14840KMKG MKG20101125162010211/25/10 16:20:31  5-MIN KMKG 252120Z 27012G16KT 10SM OVC017 04/01 A2966 870 79 -100 280/12G16 RMK AO2
14840KMKG MKG20101125162509611/25/10 16:25:31  5-MIN KMKG 252125Z 28011KT 10SM OVC017 04/01 A2965 880 79 -100 280/11 RMK AO2
14840KMKG MKG20101125163009611/25/10 16:30:31  5-MIN KMKG 252130Z 28011KT 10SM OVC017 04/01 A2966 870 79 -100 280/11 RMK AO2
14840KMKG MKG20101125163510211/25/10 16:35:31  5-MIN KMKG 252135Z 27011G18KT 10SM OVC017 04/01 A2965 880 79 -100 270/11G18 RMK AO2
14840KMKG MKG20101125164010211/25/10 16:40:31  5-MIN KMKG 252140Z 29011G18KT 10SM OVC017 04/01 A2965 880 79 -100 290/11G18 RMK AO2
14840KMKG MKG20101125164509611/25/10 16:45:31  5-MIN KMKG 252145Z 29013KT 10SM OVC015 04/01 A2965 880 82 -200 290/13 RMK AO2
14840KMKG MKG20101125165010911/25/10 16:50:31  5-MIN KMKG 252150Z 29012G19KT 10SM BKN012 OVC019 03/01 A2965 880 85 -200 290/12G19 RMK AO2
14840KMKG MKG20101125165512611/25/10 16:55:31  5-MIN KMKG 252155Z 28014G19KT 10SM BKN012 OVC017 03/01 A2966 870 85 -200 280/14G19 RMK AO2 SLP048 T00330011
14840KMKG MKG20101125170009611/25/10 17:00:31  5-MIN KMKG 252200Z 29012KT 10SM OVC012 03/01 A2966 870 85 -200 290/12 RMK AO2
14840KMKG MKG20101125170510211/25/10 17:05:31  5-MIN KMKG 252205Z 29012G20KT 10SM OVC012 03/01 A2966 870 82 -200 290/12G20 RMK AO2
14840KMKG MKG20101125171010211/25/10 17:10:31  5-MIN KMKG 252210Z 28013G22KT 10SM OVC012 03/01 A2966 870 82 -200 290/13G22 RMK AO2
14840KMKG MKG20101125171510211/25/10 17:15:31  5-MIN KMKG 252215Z 28008G22KT 10SM OVC014 03/01 A2966 870 82 -200 290/08G22 RMK AO2
14840KMKG MKG20101125172010211/25/10 17:20:31  5-MIN KMKG 252220Z 29013G19KT 10SM OVC014 03/00 A2967 870 79 -200 290/13G19 RMK AO2
14840KMKG MKG20101125172510211/25/10 17:25:31  5-MIN KMKG 252225Z 28009G19KT 10SM OVC014 03/00 A2966 870 79 -200 280/09G19 RMK AO2
14840KMKG MKG20101125173010211/25/10 17:30:31  5-MIN KMKG 252230Z 29015G21KT 10SM OVC016 03/00 A2966 870 79 -200 300/15G21 RMK AO2
14840KMKG MKG20101125173510311/25/10 17:35:31  5-MIN KMKG 252235Z 28013G21KT 10SM OVC018 03/M01 A2967 870 79 -300 280/13G21 RMK AO2
14840KMKG MKG20101125174010311/25/10 17:40:31  5-MIN KMKG 252240Z 30014G20KT 10SM OVC016 03/M01 A2966 880 79 -300 300/14G20 RMK AO2
14840KMKG MKG20101125174510311/25/10 17:45:31  5-MIN KMKG 252245Z 29015G22KT 10SM OVC016 03/M01 A2965 880 79 -300 300/15G22 RMK AO2
14840KMKG MKG20101125175012011/25/10 17:50:31  5-MIN KMKG 252250Z 29013G22KT 10SM OVC016 03/M01 A2966 870 79 -300 300/13G22 RMK AO2 SLP050 T00281006
14840KMKG MKG20101125175512011/25/10 17:55:31  5-MIN KMKG 252255Z 29011G19KT 10SM OVC016 02/M01 A2967 860 82 -400 300/11G19 RMK AO2 SLP051 T00221006
14840KMKG MKG20101125180010311/25/10 18:00:31  5-MIN KMKG 252300Z 30014G20KT 10SM OVC016 02/M01 A2966 870 82 -400 300/14G20 RMK AO2
14840KMKG MKG20101125180510311/25/10 18:05:31  5-MIN KMKG 252305Z 29014G20KT 10SM OVC016 02/M01 A2966 870 78 -400 290/14G20 RMK AO2
14840KMKG MKG20101125181009711/25/10 18:10:31  5-MIN KMKG 252310Z 29013KT 10SM OVC016 02/M02 A2966 870 75 -400 290/13 RMK AO2
14840KMKG MKG20101125181510311/25/10 18:15:31  5-MIN KMKG 252315Z 29014G19KT 10SM OVC018 02/M02 A2966 870 75 -400 300/14G19 RMK AO2
14840KMKG MKG20101125182010311/25/10 18:20:31  5-MIN KMKG 252320Z 29016G23KT 10SM OVC018 02/M02 A2966 870 75 -400 290/16G23 RMK AO2
14840KMKG MKG20101125182510311/25/10 18:25:31  5-MIN KMKG 252325Z 29015G23KT 10SM OVC020 02/M03 A2967 870 72 -500 300/15G23 RMK AO2
14840KMKG MKG20101125183011711/25/10 18:30:31  5-MIN KMKG 252330Z 29017G24KT 10SM BKN020 OVC030 02/M03 A2969 850 72 -500 300/17G24 RMK AO2 PRESRR
14840KMKG MKG20101125183514211/25/10 18:35:31  5-MIN KMKG 252335Z 29016G26KT 10SM BKN020 BKN028 OVC033 02/M03 A2970 840 69 -500 300/16G26 RMK AO2 PK WND 29026/2332 PRESRR
14840KMKG MKG20101125184014211/25/10 18:40:31  5-MIN KMKG 252340Z 29015G26KT 10SM SCT022 BKN028 OVC034 01/M04 A2970 830 69 -600 300/15G26 RMK AO2 PK WND 29026/2332 PRESRR
14840KMKG MKG20101125184514311/25/10 18:45:31  5-MIN KMKG 252345Z 29017G23KT 10SM SCT025 OVC030 01/M04 A2971 830 66 -600 290/17G23 RMK AO2 PK WND 29026/2332 CIG 024 RWY 14
14840KMKG MKG20101125185012811/25/10 18:50:31  5-MIN KMKG 252350Z 29017G26KT 10SM SCT025 BKN030 01/M05 A2971 830 66 -600 290/17G26 RMK AO2 PK WND 29026/2348
14840KMKG MKG20101125185516911/25/10 18:55:31  5-MIN KMKG 252355Z 28015G26KT 10SM SCT027 BKN034 01/M06 A2972 820 61 -700 290/15G26 RMK AO2 PK WND 29026/2348 SLP069 60000 T00061061 10061 20006 53019
14840KMKG MKG20101125190011011/25/10 19:00:31  5-MIN KMKG 260000Z 30014G23KT 10SM FEW027 SCT034 01/M07 A2972 820 58 -700 300/14G23 RMK AO2
14840KMKG MKG20101125190512811/25/10 19:05:31  5-MIN KMKG 260005Z 29018G27KT 10SM FEW027 SCT034 01/M08 A2971 820 54 -600 300/18G27 RMK AO2 PK WND 29027/0004
14840KMKG MKG20101125191012111/25/10 19:10:31  5-MIN KMKG 260010Z 29013G27KT 10SM FEW027 01/M08 A2971 820 54 -600 290/13G27 RMK AO2 PK WND 29027/0004
14840KMKG MKG20101125191511811/25/10 19:15:31  5-MIN KMKG 260015Z 29014G20KT 10SM CLR 01/M08 A2970 830 51 -600 290/14G20 RMK AO2 PK WND 29027/0004
14840KMKG MKG20101125192011811/25/10 19:20:31  5-MIN KMKG 260020Z 29016G23KT 10SM CLR 00/M08 A2971 820 53 -700 290/16G23 RMK AO2 PK WND 29027/0004
14840KMKG MKG20101125192511811/25/10 19:25:31  5-MIN KMKG 260025Z 30018G24KT 10SM CLR 00/M08 A2972 820 53 -700 300/18G24 RMK AO2 PK WND 29027/0004
14840KMKG MKG20101125193011811/25/10 19:30:31  5-MIN KMKG 260030Z 29016G24KT 10SM CLR 00/M09 A2971 820 51 -700 300/16G24 RMK AO2 PK WND 29027/0004
14840KMKG MKG20101125193511811/25/10 19:35:31  5-MIN KMKG 260035Z 30015G24KT 10SM CLR 00/M09 A2971 830 51 -700 310/15G24 RMK AO2 PK WND 29027/0004
14840KMKG MKG20101125194011811/25/10 19:40:31  5-MIN KMKG 260040Z 30014G24KT 10SM CLR 00/M08 A2971 820 53 -700 300/14G24 RMK AO2 PK WND 29027/0004
14840KMKG MKG20101125194511811/25/10 19:45:31  5-MIN KMKG 260045Z 29017G22KT 10SM CLR 00/M08 A2971 830 53 -700 290/17G22 RMK AO2 PK WND 29027/0004
14840KMKG MKG20101125195013811/25/10 19:50:31  5-MIN KMKG 260050Z 29016G22KT 10SM FEW035 00/M08 A2971 820 56 -700 300/16G22 RMK AO2 PK WND 29027/0004 SLP067 T00001078
14840KMKG MKG20101125195513811/25/10 19:55:31  5-MIN KMKG 260055Z 29013G22KT 10SM SCT035 00/M07 A2971 830 58 -700 300/13G22 RMK AO2 PK WND 29027/0004 SLP066 T00001072
14840KMKG MKG20101125200010311/25/10 20:00:31  5-MIN KMKG 260100Z 29015G24KT 10SM SCT035 00/M07 A2972 820 61 -700 300/15G24 RMK AO2
14840KMKG MKG20101125200510311/25/10 20:05:31  5-MIN KMKG 260105Z 28016G24KT 10SM BKN037 00/M07 A2972 820 61 -700 280/16G24 RMK AO2
14840KMKG MKG20101125201011011/25/10 20:10:31  5-MIN KMKG 260110Z 28017G24KT 10SM BKN037 BKN045 00/M08 A2972 810 56 -700 290/17G24 RMK AO2
14840KMKG MKG20101125201511011/25/10 20:15:31  5-MIN KMKG 260115Z 29015G24KT 10SM BKN037 BKN045 00/M08 A2973 810 53 -700 290/15G24 RMK AO2
14840KMKG MKG20101125202012111/25/10 20:20:31  5-MIN KMKG 260120Z 29016G26KT 10SM BKN039 00/M08 A2973 810 53 -700 290/16G26 RMK AO2 PK WND 30026/0120
14840KMKG MKG20101125202512211/25/10 20:25:31  5-MIN KMKG 260125Z 29016G26KT 10SM BKN039 M01/M09 A2973 810 53 -800 300/16G26 RMK AO2 PK WND 27026/0122
14840KMKG MKG20101125203012211/25/10 20:30:31  5-MIN KMKG 260130Z 29015G26KT 10SM BKN039 M01/M08 A2973 810 56 -800 290/15G26 RMK AO2 PK WND 27026/0122
14840KMKG MKG20101125203512211/25/10 20:35:31  5-MIN KMKG 260135Z 29015G28KT 10SM BKN041 M01/M08 A2973 810 56 -800 300/15G28 RMK AO2 PK WND 29028/0131
14840KMKG MKG20101125204012911/25/10 20:40:31  5-MIN KMKG 260140Z 28021G28KT 10SM BKN039 BKN046 M01/M08 A2973 800 56 -800 290/21G28 RMK AO2 PK WND 29028/0131
14840KMKG MKG20101125204512211/25/10 20:45:31  5-MIN KMKG 260145Z 29017G29KT 10SM SCT039 M01/M09 A2973 800 51 -800 290/17G29 RMK AO2 PK WND 30029/0141
14840KMKG MKG20101125205013911/25/10 20:50:31  5-MIN KMKG 260150Z 28020G29KT 10SM FEW039 M01/M11 A2974 800 49 -900 280/20G29 RMK AO2 PK WND 30029/0141 SLP077 T10111106
14840KMKG MKG20101125205513911/25/10 20:55:31  5-MIN KMKG 260155Z 29021G28KT 10SM FEW039 M01/M11 A2974 800 49 -900 290/21G28 RMK AO2 PK WND 30029/0141 SLP078 T10111106
14840KMKG MKG20101125210012211/25/10 21:00:31  5-MIN KMKG 260200Z 28021G32KT 10SM FEW041 M01/M11 A2974 790 47 -900 290/21G32 RMK AO2 PK WND 27032/0158
14840KMKG MKG20101125210512311/25/10 21:05:31  5-MIN KMKG 260205Z 30017G32KT 10SM FEW039 M02/M12 A2974 800 44 -1000 300/17G32 RMK AO2 PK WND 27032/0158
14840KMKG MKG20101125211012011/25/10 21:10:31  5-MIN KMKG 260210Z 29013G28KT 10SM CLR M02/M12 A2975 790 46 -1000 290/13G28 RMK AO2 PK WND 27032/0158
14840KMKG MKG20101125211512311/25/10 21:15:31  5-MIN KMKG 260215Z 29019G27KT 10SM FEW046 M02/M11 A2975 790 49 -1000 290/19G27 RMK AO2 PK WND 27032/0158
14840KMKG MKG20101125212012311/25/10 21:20:31  5-MIN KMKG 260220Z 29022G28KT 10SM SCT046 M02/M12 A2974 800 46 -1000 300/22G28 RMK AO2 PK WND 27032/0158
14840KMKG MKG20101125212512311/25/10 21:25:31  5-MIN KMKG 260225Z 29016G32KT 10SM BKN046 M02/M11 A2975 790 49 -1000 290/16G32 RMK AO2 PK WND 30032/0221
14840KMKG MKG20101125213013011/25/10 21:30:31  5-MIN KMKG 260230Z 28020G32KT 10SM BKN046 BKN055 M02/M11 A2974 800 49 -1000 290/20G32 RMK AO2 PK WND 30032/0221
14840KMKG MKG20101125213513011/25/10 21:35:31  5-MIN KMKG 260235Z 30013G29KT 10SM BKN046 BKN055 M02/M11 A2974 800 51 -1000 300/13G29 RMK AO2 PK WND 30032/0221
14840KMKG MKG20101125214013011/25/10 21:40:31  5-MIN KMKG 260240Z 28013G27KT 10SM BKN046 OVC055 M02/M11 A2974 800 51 -1000 280/13G27 RMK AO2 PK WND 30032/0221
14840KMKG MKG20101125214512311/25/10 21:45:31  5-MIN KMKG 260245Z 28014G22KT 10SM OVC044 M02/M11 A2974 790 51 -1000 280/14G22 RMK AO2 PK WND 30032/0221
14840KMKG MKG20101125215015311/25/10 21:50:31  5-MIN KMKG 260250Z 27022G27KT 10SM BKN044 BKN050 M02/M12 A2975 790 46 -1000 280/22G27 RMK AO2 PK WND 30032/0221 SLP080 T10171117 53019
14840KMKG MKG20101125215515311/25/10 21:55:31  5-MIN KMKG 260255Z 28015G27KT 10SM SCT042 BKN050 M02/M12 A2975 790 46 -1000 280/15G27 RMK AO2 PK WND 30032/0221 SLP081 T10171117 53011
14840KMKG MKG20101125220013011/25/10 22:00:31  5-MIN KMKG 260300Z 28018G29KT 10SM SCT042 BKN050 M02/M12 A2975 790 46 -1000 280/18G29 RMK AO2 PK WND 27029/0258
14840KMKG MKG20101125220513011/25/10 22:05:31  5-MIN KMKG 260305Z 28017G29KT 10SM BKN042 BKN050 M02/M11 A2975 790 49 -1000 280/17G29 RMK AO2 PK WND 27029/0258
14840KMKG MKG20101125221013011/25/10 22:10:31  5-MIN KMKG 260310Z 27019G29KT 10SM BKN045 BKN050 M02/M11 A2975 790 49 -1000 280/19G29 RMK AO2 PK WND 28029/0310
14840KMKG MKG20101125221512311/25/10 22:15:31  5-MIN KMKG 260315Z 28017G29KT 10SM BKN047 M02/M11 A2975 790 49 -1000 280/17G29 RMK AO2 PK WND 28029/0310
14840KMKG MKG20101125222012311/25/10 22:20:31  5-MIN KMKG 260320Z 28020G29KT 10SM OVC047 M02/M12 A2975 790 48 -1000 280/20G29 RMK AO2 PK WND 29029/0320
14840KMKG MKG20101125222513011/25/10 22:25:31  5-MIN KMKG 260325Z 28021G30KT 10SM BKN047 OVC060 M02/M12 A2975 790 48 -1000 290/21G30 RMK AO2 PK WND 28030/0325
14840KMKG MKG20101125223012311/25/10 22:30:31  5-MIN KMKG 260330Z 28014G30KT 10SM OVC047 M02/M12 A2975 790 48 -1000 290/14G30 RMK AO2 PK WND 28030/0325
14840KMKG MKG20101125223512311/25/10 22:35:31  5-MIN KMKG 260335Z 28016G29KT 10SM OVC047 M02/M11 A2974 800 51 -1000 290/16G29 RMK AO2 PK WND 28030/0325
14840KMKG MKG20101125224012311/25/10 22:40:31  5-MIN KMKG 260340Z 28015G25KT 10SM OVC045 M02/M11 A2973 810 53 -1000 280/15G25 RMK AO2 PK WND 28030/0325
14840KMKG MKG20101125224512311/25/10 22:45:31  5-MIN KMKG 260345Z 29017G24KT 10SM OVC045 M02/M11 A2974 800 53 -1000 290/17G24 RMK AO2 PK WND 28030/0325
14840KMKG MKG20101125225014711/25/10 22:50:31  5-MIN KMKG 260350Z 28016G24KT 10SM BKN042 OVC049 M02/M11 A2973 800 53 -1000 280/16G24 RMK AO2 PK WND 28030/0325 SLP074 T10221106
14840KMKG MKG20101125225514711/25/10 22:55:31  5-MIN KMKG 260355Z 27019G27KT 10SM BKN042 OVC049 M02/M11 A2973 810 53 -1000 270/19G27 RMK AO2 PK WND 28030/0325 SLP073 T10221106
14840KMKG MKG20101125230013011/25/10 23:00:31  5-MIN KMKG 260400Z 29023G29KT 10SM BKN040 OVC049 M02/M11 A2973 810 51 -1000 290/23G29 RMK AO2 PK WND 29029/0359
14840KMKG MKG20101125230512311/25/10 23:05:31  5-MIN KMKG 260405Z 27017G29KT 10SM OVC040 M02/M11 A2973 810 51 -1000 280/17G29 RMK AO2 PK WND 29029/0359
14840KMKG MKG20101125231012311/25/10 23:10:31  5-MIN KMKG 260410Z 29015G25KT 10SM OVC040 M02/M11 A2974 800 53 -1000 290/15G25 RMK AO2 PK WND 29029/0359
14840KMKG MKG20101125231512311/25/10 23:15:31  5-MIN KMKG 260415Z 28016G23KT 10SM OVC040 M02/M11 A2973 810 53 -1000 290/16G23 RMK AO2 PK WND 29029/0359
14840KMKG MKG20101125232012311/25/10 23:20:31  5-MIN KMKG 260420Z 29018G26KT 10SM OVC040 M02/M10 A2973 800 55 -1000 290/18G26 RMK AO2 PK WND 29029/0359
14840KMKG MKG20101125232512311/25/10 23:25:31  5-MIN KMKG 260425Z 27016G26KT 10SM OVC040 M02/M10 A2973 800 55 -1000 280/16G26 RMK AO2 PK WND 29029/0359
14840KMKG MKG20101125233012311/25/10 23:30:31  5-MIN KMKG 260430Z 29019G33KT 10SM OVC038 M02/M10 A2974 800 55 -1000 290/19G33 RMK AO2 PK WND 29033/0430
14840KMKG MKG20101125233512311/25/10 23:35:31  5-MIN KMKG 260435Z 28014G33KT 10SM OVC038 M03/M11 A2974 800 55 -1100 280/14G33 RMK AO2 PK WND 29033/0430
14840KMKG MKG20101125234012311/25/10 23:40:31  5-MIN KMKG 260440Z 26015G27KT 10SM OVC038 M03/M10 A2974 800 58 -1100 270/15G27 RMK AO2 PK WND 29033/0430
14840KMKG MKG20101125234512311/25/10 23:45:31  5-MIN KMKG 260445Z 27014G24KT 10SM OVC036 M03/M10 A2974 800 58 -1100 270/14G24 RMK AO2 PK WND 29033/0430
14840KMKG MKG20101125235015011/25/10 23:50:31  5-MIN KMKG 260450Z 26020G28KT 10SM OVC036 M03/M11 A2973 810 55 -1100 270/20G28 RMK AO2 PK WND 29033/0430 SLP074 T10281106 400671028
14840KMKG MKG20101125235515011/25/10 23:55:31  5-MIN KMKG 260455Z 26017G28KT 10SM OVC036 M03/M10 A2973 800 58 -1100 260/17G28 RMK AO2 PK WND 29033/0430 SLP075 T10281100 400671028
14840KMKG MKG20101126000010511/26/10 00:00:32  5-MIN KMKG 260500Z 27015G25KT 10SM OVC036 M03/M11 A2973 800 53 -1100 270/15G25 RMK AO2
14840KMKG MKG20101126000510511/26/10 00:05:31  5-MIN KMKG 260505Z 28013G25KT 10SM BKN036 M03/M11 A2973 800 53 -1100 280/13G25 RMK AO2
14840KMKG MKG20101126001010511/26/10 00:10:31  5-MIN KMKG 260510Z 26018G23KT 10SM OVC036 M03/M11 A2974 800 53 -1100 270/18G23 RMK AO2
14840KMKG MKG20101126001512311/26/10 00:15:31  5-MIN KMKG 260515Z 25017G26KT 10SM OVC036 M03/M11 A2973 810 53 -1100 260/17G26 RMK AO2 PK WND 25026/0515
14840KMKG MKG20101126002013011/26/10 00:20:31  5-MIN KMKG 260520Z 27015G26KT 10SM BKN036 OVC046 M03/M11 A2974 800 55 -1100 280/15G26 RMK AO2 PK WND 25026/0515
14840KMKG MKG20101126002513011/26/10 00:25:31  5-MIN KMKG 260525Z 27016G24KT 10SM BKN038 OVC046 M03/M11 A2974 800 53 -1100 280/16G24 RMK AO2 PK WND 25026/0515
14840KMKG MKG20101126003013011/26/10 00:30:31  5-MIN KMKG 260530Z 27017G27KT 10SM BKN038 OVC046 M03/M12 A2974 800 53 -1200 270/17G27 RMK AO2 PK WND 29027/0528
14840KMKG MKG20101126003513011/26/10 00:35:31  5-MIN KMKG 260535Z 27016G27KT 10SM BKN038 OVC048 M03/M11 A2974 800 53 -1100 280/16G27 RMK AO2 PK WND 29027/0528
14840KMKG MKG20101126004012311/26/10 00:40:31  5-MIN KMKG 260540Z 26017G24KT 10SM OVC038 M03/M11 A2974 790 53 -1100 270/17G24 RMK AO2 PK WND 29027/0528
14840KMKG MKG20101126004513011/26/10 00:45:31  5-MIN KMKG 260545Z 26016G24KT 10SM BKN038 OVC048 M03/M11 A2974 800 53 -1100 260/16G24 RMK AO2 PK WND 29027/0528
14840KMKG MKG20101126005016511/26/10 00:50:31  5-MIN KMKG 260550Z 27015G25KT 10SM BKN038 OVC048 M03/M11 A2974 790 53 -1100 270/15G25 RMK AO2 PK WND 29027/0528 SLP078 T10281111 10006 21033 53011
14840KMKG MKG20101126005515811/26/10 00:55:31  5-MIN KMKG 260555Z 27020G27KT 10SM OVC038 M03/M11 A2974 800 53 -1100 270/20G27 RMK AO2 PK WND 26027/0551 SLP078 T10281111 10006 21033 55003
14840KMKG MKG20101126010012311/26/10 01:00:31  5-MIN KMKG 260600Z 26021G35KT 10SM OVC038 M03/M11 A2975 790 53 -1100 260/21G35 RMK AO2 PK WND 26035/0558
14840KMKG MKG20101126010512311/26/10 01:05:31  5-MIN KMKG 260605Z 26015G35KT 10SM OVC038 M03/M12 A2975 790 50 -1100 270/15G35 RMK AO2 PK WND 26035/0558
14840KMKG MKG20101126011012311/26/10 01:10:31  5-MIN KMKG 260610Z 27019G29KT 10SM OVC038 M03/M12 A2974 790 50 -1100 280/19G29 RMK AO2 PK WND 26035/0558
14840KMKG MKG20101126011512311/26/10 01:15:31  5-MIN KMKG 260615Z 27016G28KT 10SM OVC038 M03/M11 A2975 790 53 -1100 280/16G28 RMK AO2 PK WND 26035/0558
14840KMKG MKG20101126012012311/26/10 01:20:31  5-MIN KMKG 260620Z 26017G27KT 10SM OVC038 M03/M11 A2974 790 53 -1100 270/17G27 RMK AO2 PK WND 26035/0558
14840KMKG MKG20101126012512311/26/10 01:25:31  5-MIN KMKG 260625Z 26019G25KT 10SM OVC038 M03/M11 A2975 790 53 -1100 260/19G25 RMK AO2 PK WND 26035/0558
14840KMKG MKG20101126013013011/26/10 01:30:31  5-MIN KMKG 260630Z 28015G25KT 10SM BKN038 OVC047 M03/M11 A2975 790 55 -1100 280/15G25 RMK AO2 PK WND 26035/0558
14840KMKG MKG20101126013513011/26/10 01:35:31  5-MIN KMKG 260635Z 26010G24KT 10SM BKN038 OVC047 M03/M11 A2975 790 55 -1100 260/10G24 RMK AO2 PK WND 26035/0558
14840KMKG MKG20101126014012311/26/10 01:40:31  5-MIN KMKG 260640Z 26017G25KT 10SM OVC038 M03/M11 A2975 790 55 -1100 260/17G25 RMK AO2 PK WND 26035/0558
14840KMKG MKG20101126014513011/26/10 01:45:31  5-MIN KMKG 260645Z 26018G28KT 10SM BKN038 OVC047 M03/M11 A2975 790 55 -1100 260/18G28 RMK AO2 PK WND 26035/0558
14840KMKG MKG20101126015014711/26/10 01:50:31  5-MIN KMKG 260650Z 27018G28KT 10SM BKN036 OVC047 M03/M11 A2975 790 55 -1100 270/18G28 RMK AO2 PK WND 26035/0558 SLP080 T10281106
14840KMKG MKG20101126015514711/26/10 01:55:31  5-MIN KMKG 260655Z 27016G24KT 10SM BKN038 OVC045 M03/M11 A2975 790 55 -1100 270/16G24 RMK AO2 PK WND 26035/0558 SLP080 T10281106
14840KMKG MKG20101126020011211/26/10 02:00:31  5-MIN KMKG 260700Z 25016G24KT 10SM BKN038 OVC046 M03/M11 A2975 790 55 -1100 250/16G24 RMK AO2
14840KMKG MKG20101126020511211/26/10 02:05:31  5-MIN KMKG 260705Z 26014G24KT 10SM BKN038 OVC046 M03/M11 A2975 790 55 -1100 270/14G24 RMK AO2
14840KMKG MKG20101126021013011/26/10 02:10:31  5-MIN KMKG 260710Z 27019G26KT 10SM BKN038 OVC046 M03/M10 A2975 790 58 -1100 270/19G26 RMK AO2 PK WND 25026/0708
14840KMKG MKG20101126021513011/26/10 02:15:31  5-MIN KMKG 260715Z 25019G28KT 10SM BKN036 OVC044 M03/M11 A2975 790 55 -1100 260/19G28 RMK AO2 PK WND 23028/0715
14840KMKG MKG20101126022013011/26/10 02:20:31  5-MIN KMKG 260720Z 26015G28KT 10SM BKN036 OVC044 M03/M10 A2976 780 58 -1100 270/15G28 RMK AO2 PK WND 23028/0715
14840KMKG MKG20101126022513011/26/10 02:25:31  5-MIN KMKG 260725Z 27020G27KT 10SM BKN036 OVC047 M03/M10 A2976 780 58 -1100 280/20G27 RMK AO2 PK WND 23028/0715
14840KMKG MKG20101126023012311/26/10 02:30:31  5-MIN KMKG 260730Z 26018G27KT 10SM OVC036 M03/M10 A2976 780 58 -1100 270/18G27 RMK AO2 PK WND 23028/0715
14840KMKG MKG20101126023512311/26/10 02:35:31  5-MIN KMKG 260735Z 27015G30KT 10SM OVC036 M03/M09 A2976 780 60 -1100 270/15G30 RMK AO2 PK WND 27030/0733
14840KMKG MKG20101126024013011/26/10 02:40:31  5-MIN KMKG 260740Z 26021G30KT 10SM FEW029 OVC036 M03/M10 A2976 780 58 -1100 270/21G30 RMK AO2 PK WND 27030/0733
14840KMKG MKG20101126024513011/26/10 02:45:31  5-MIN KMKG 260745Z 25017G29KT 10SM BKN032 OVC039 M03/M09 A2976 780 60 -1100 260/17G29 RMK AO2 PK WND 27030/0733
14840KMKG MKG20101126025014711/26/10 02:50:31  5-MIN KMKG 260750Z 26015G28KT 10SM BKN032 OVC039 M03/M09 A2977 770 60 -1100 270/15G28 RMK AO2 PK WND 27030/0733 SLP086 T10281094
14840KMKG MKG20101126025514011/26/10 02:55:31  5-MIN KMKG 260755Z 25017G28KT 10SM OVC032 M03/M09 A2976 780 60 -1100 250/17G28 RMK AO2 PK WND 27030/0733 SLP085 T10281094
14840KMKG MKG20101126030011211/26/10 03:00:31  5-MIN KMKG 260800Z 26016G25KT 10SM BKN032 OVC039 M03/M09 A2976 770 60 -1100 260/16G25 RMK AO2
14840KMKG MKG20101126030510511/26/10 03:05:31  5-MIN KMKG 260805Z 26015G25KT 10SM OVC034 M03/M09 A2977 770 60 -1100 260/15G25 RMK AO2
14840KMKG MKG20101126031011211/26/10 03:10:31  5-MIN KMKG 260810Z 26014G24KT 10SM BKN032 OVC040 M03/M09 A2976 780 60 -1100 260/14G24 RMK AO2
14840KMKG MKG20101126031513011/26/10 03:15:31  5-MIN KMKG 260815Z 25017G30KT 10SM BKN030 OVC037 M03/M09 A2976 780 60 -1100 260/17G30 RMK AO2 PK WND 28030/0812
14840KMKG MKG20101126032013011/26/10 03:20:31  5-MIN KMKG 260820Z 27016G30KT 10SM BKN030 OVC037 M03/M09 A2976 780 60 -1100 270/16G30 RMK AO2 PK WND 28030/0812
14840KMKG MKG20101126032514511/26/10 03:25:31  5-MIN KMKG 260825Z 26017G22KT 10SM SCT026 OVC035 M03/M09 A2976 780 63 -1100 270/17G22 RMK AO2 PK WND 28030/0812 CIG 028 RWY 14
14840KMKG MKG20101126033013011/26/10 03:30:31  5-MIN KMKG 260830Z 27015G25KT 10SM BKN030 OVC038 M03/M09 A2977 770 60 -1100 280/15G25 RMK AO2 PK WND 28030/0812
14840KMKG MKG20101126033513011/26/10 03:35:31  5-MIN KMKG 260835Z 25016G25KT 10SM BKN030 OVC038 M03/M09 A2977 770 60 -1100 260/16G25 RMK AO2 PK WND 28030/0812
14840KMKG MKG20101126034013011/26/10 03:40:31  5-MIN KMKG 260840Z 25018G25KT 10SM BKN030 OVC037 M03/M09 A2976 780 60 -1100 250/18G25 RMK AO2 PK WND 28030/0812
14840KMKG MKG20101126034513011/26/10 03:45:31  5-MIN KMKG 260845Z 27016G25KT 10SM BKN030 OVC037 M03/M09 A2976 780 60 -1100 270/16G25 RMK AO2 PK WND 28030/0812
14840KMKG MKG20101126035015311/26/10 03:50:31  5-MIN KMKG 260850Z 26016G24KT 10SM BKN030 OVC037 M03/M10 A2976 780 58 -1100 260/16G24 RMK AO2 PK WND 28030/0812 SLP084 T10281100 55003
14840KMKG MKG20101126035515311/26/10 03:55:31  5-MIN KMKG 260855Z 27016G23KT 10SM BKN030 OVC036 M03/M09 A2976 780 60 -1100 270/16G23 RMK AO2 PK WND 28030/0812 SLP083 T10281094 50005
14840KMKG MKG20101126040010511/26/10 04:00:31  5-MIN KMKG 260900Z 26019G24KT 10SM OVC032 M03/M09 A2976 780 60 -1100 260/19G24 RMK AO2
14840KMKG MKG20101126040511211/26/10 04:05:31  5-MIN KMKG 260905Z 27016G24KT 10SM SCT027 OVC034 M03/M09 A2976 780 60 -1100 270/16G24 RMK AO2
14840KMKG MKG20101126041013011/26/10 04:10:31  5-MIN KMKG 260910Z 26016G26KT 10SM SCT027 OVC034 M03/M09 A2976 780 60 -1100 260/16G26 RMK AO2 PK WND 27026/0908
14840KMKG MKG20101126041513011/26/10 04:15:31  5-MIN KMKG 260915Z 26016G26KT 10SM BKN027 OVC034 M03/M09 A2976 780 63 -1100 270/16G26 RMK AO2 PK WND 27026/0908
14840KMKG MKG20101126042013011/26/10 04:20:31  5-MIN KMKG 260920Z 25015G24KT 10SM BKN027 OVC034 M03/M09 A2976 780 63 -1100 260/15G24 RMK AO2 PK WND 27026/0908
14840KMKG MKG20101126042513011/26/10 04:25:31  5-MIN KMKG 260925Z 26014G26KT 10SM BKN029 OVC035 M03/M09 A2976 780 63 -1100 260/14G26 RMK AO2 PK WND 25026/0921
14840KMKG MKG20101126043013011/26/10 04:30:31  5-MIN KMKG 260930Z 26016G26KT 10SM BKN027 OVC035 M03/M09 A2976 780 63 -1100 270/16G26 RMK AO2 PK WND 25026/0921
14840KMKG MKG20101126043513011/26/10 04:35:31  5-MIN KMKG 260935Z 25017G24KT 10SM BKN027 OVC031 M03/M09 A2976 780 63 -1100 260/17G24 RMK AO2 PK WND 25026/0921
14840KMKG MKG20101126044013011/26/10 04:40:31  5-MIN KMKG 260940Z 25015G25KT 10SM BKN027 OVC031 M03/M09 A2976 780 63 -1100 260/15G25 RMK AO2 PK WND 25026/0921
14840KMKG MKG20101126044513011/26/10 04:45:31  5-MIN KMKG 260945Z 25018G26KT 10SM BKN027 OVC032 M03/M08 A2976 780 66 -1100 260/18G26 RMK AO2 PK WND 27026/0942
14840KMKG MKG20101126045014011/26/10 04:50:31  5-MIN KMKG 260950Z 26016G26KT 10SM OVC027 M03/M09 A2976 780 63 -1100 260/16G26 RMK AO2 PK WND 27026/0942 SLP085 T10281089
14840KMKG MKG20101126045514711/26/10 04:55:31  5-MIN KMKG 260955Z 26014G28KT 10SM BKN025 OVC031 M03/M09 A2976 780 63 -1100 260/14G28 RMK AO2 PK WND 26028/0953 SLP085 T10281089
14840KMKG MKG20101126050013011/26/10 05:00:31  5-MIN KMKG 261000Z 26019G30KT 10SM BKN025 OVC031 M03/M09 A2976 780 63 -1100 260/19G30 RMK AO2 PK WND 25030/1000
14840KMKG MKG20101126050513711/26/10 05:05:31  5-MIN KMKG 261005Z 26011G30KT 10SM BKN024 BKN029 OVC035 M03/M09 A2976 780 65 -1200 260/11G30 RMK AO2 PK WND 25030/1000
14840KMKG MKG20101126051013711/26/10 05:10:31  5-MIN KMKG 261010Z 26018G27KT 10SM BKN024 BKN029 OVC035 M03/M08 A2976 780 66 -1100 270/18G27 RMK AO2 PK WND 25030/1000
14840KMKG MKG20101126051513711/26/10 05:15:31  5-MIN KMKG 261015Z 26014G27KT 10SM BKN024 BKN029 OVC035 M03/M08 A2976 780 68 -1200 270/14G27 RMK AO2 PK WND 25030/1000
14840KMKG MKG20101126052013711/26/10 05:20:31  5-MIN KMKG 261020Z 25017G26KT 10SM BKN024 BKN029 OVC035 M03/M08 A2976 780 66 -1100 260/17G26 RMK AO2 PK WND 25030/1000
14840KMKG MKG20101126052513011/26/10 05:25:31  5-MIN KMKG 261025Z 25014G26KT 10SM BKN024 OVC032 M03/M08 A2976 780 68 -1200 260/14G26 RMK AO2 PK WND 25030/1000
14840KMKG MKG20101126053013711/26/10 05:30:31  5-MIN KMKG 261030Z 26017G27KT 10SM BKN024 BKN030 OVC034 M03/M08 A2976 780 68 -1200 260/17G27 RMK AO2 PK WND 25030/1000
14840KMKG MKG20101126053513011/26/10 05:35:31  5-MIN KMKG 261035Z 26019G28KT 10SM BKN024 OVC034 M03/M08 A2976 780 68 -1200 260/19G28 RMK AO2 PK WND 25030/1000
14840KMKG MKG20101126054013011/26/10 05:40:31  5-MIN KMKG 261040Z 26019G28KT 10SM BKN024 OVC032 M03/M08 A2976 780 68 -1200 260/19G28 RMK AO2 PK WND 25030/1000
14840KMKG MKG20101126054513011/26/10 05:45:31  5-MIN KMKG 261045Z 26016G30KT 10SM BKN024 OVC032 M03/M08 A2976 780 68 -1200 260/16G30 RMK AO2 PK WND 26030/1045
14840KMKG MKG20101126055014711/26/10 05:50:31  5-MIN KMKG 261050Z 26017G30KT 10SM BKN024 OVC032 M03/M08 A2976 780 68 -1200 260/17G30 RMK AO2 PK WND 26030/1045 SLP084 T10331083
14840KMKG MKG20101126055514711/26/10 05:55:31  5-MIN KMKG 261055Z 26014G29KT 10SM BKN022 OVC030 M03/M08 A2976 780 68 -1200 270/14G29 RMK AO2 PK WND 26030/1045 SLP085 T10331083
14840KMKG MKG20101126060011211/26/10 06:00:31  5-MIN KMKG 261100Z 25017G24KT 10SM BKN024 OVC032 M03/M08 A2976 780 68 -1200 250/17G24 RMK AO2
14840KMKG MKG20101126060513011/26/10 06:05:31  5-MIN KMKG 261105Z 26017G26KT 10SM BKN024 OVC032 M03/M08 A2976 780 68 -1200 270/17G26 RMK AO2 PK WND 28026/1105
14840KMKG MKG20101126061013011/26/10 06:10:31  5-MIN KMKG 261110Z 26017G26KT 10SM BKN024 OVC032 M03/M09 A2976 780 65 -1200 270/17G26 RMK AO2 PK WND 28026/1105
14840KMKG MKG20101126061513011/26/10 06:15:31  5-MIN KMKG 261115Z 26014G26KT 10SM BKN022 OVC030 M03/M09 A2976 780 65 -1200 260/14G26 RMK AO2 PK WND 25026/1113
14840KMKG MKG20101126062013011/26/10 06:20:31  5-MIN KMKG 261120Z 27018G26KT 10SM BKN024 OVC030 M03/M08 A2977 770 68 -1200 270/18G26 RMK AO2 PK WND 27026/1120
14840KMKG MKG20101126062513011/26/10 06:25:31  5-MIN KMKG 261125Z 26013G26KT 10SM BKN024 OVC032 M03/M08 A2977 770 68 -1200 260/13G26 RMK AO2 PK WND 27026/1120
14840KMKG MKG20101126063013011/26/10 06:30:31  5-MIN KMKG 261130Z 25019G25KT 10SM BKN024 OVC032 M03/M08 A2977 770 68 -1200 260/19G25 RMK AO2 PK WND 27026/1120
14840KMKG MKG20101126063513011/26/10 06:35:31  5-MIN KMKG 261135Z 25014G24KT 10SM BKN022 OVC030 M03/M08 A2976 770 68 -1200 260/14G24 RMK AO2 PK WND 27026/1120
14840KMKG MKG20101126064013011/26/10 06:40:31  5-MIN KMKG 261140Z 25013G21KT 10SM BKN022 OVC028 M03/M08 A2976 780 68 -1200 260/13G21 RMK AO2 PK WND 27026/1120
14840KMKG MKG20101126064513011/26/10 06:45:31  5-MIN KMKG 261145Z 27018G23KT 10SM BKN024 OVC028 M03/M08 A2976 780 68 -1200 280/18G23 RMK AO2 PK WND 27026/1120
14840KMKG MKG20101126065017111/26/10 06:50:31  5-MIN KMKG 261150Z 27018G26KT 10SM BKN024 OVC030 M03/M08 A2976 780 68 -1200 270/18G26 RMK AO2 PK WND 27026/1149 SLP085 70001 T10331083 11028 21033 50005
14840KMKG MKG20101126065517111/26/10 06:55:31  5-MIN KMKG 261155Z 25016G26KT 10SM BKN024 OVC030 M03/M08 A2976 780 68 -1200 260/16G26 RMK AO2 PK WND 27026/1149 SLP085 70001 T10331083 11028 21033 58000
14840KMKG MKG20101126070011211/26/10 07:00:31  5-MIN KMKG 261200Z 26013G24KT 10SM BKN024 OVC030 M03/M08 A2976 780 68 -1200 270/13G24 RMK AO2
14840KMKG MKG20101126070511211/26/10 07:05:31  5-MIN KMKG 261205Z 25014G24KT 10SM BKN024 OVC030 M03/M08 A2976 780 68 -1200 250/14G24 RMK AO2
14840KMKG MKG20101126071011211/26/10 07:10:31  5-MIN KMKG 261210Z 26012G25KT 10SM BKN024 OVC030 M03/M08 A2976 780 66 -1100 260/12G25 RMK AO2
14840KMKG MKG20101126071511211/26/10 07:15:31  5-MIN KMKG 261215Z 25017G25KT 10SM BKN024 OVC030 M03/M08 A2977 770 66 -1100 260/17G25 RMK AO2
14840KMKG MKG20101126072011211/26/10 07:20:31  5-MIN KMKG 261220Z 27015G24KT 10SM BKN024 OVC033 M03/M08 A2977 770 66 -1100 280/15G24 RMK AO2
14840KMKG MKG20101126072511211/26/10 07:25:31  5-MIN KMKG 261225Z 27017G24KT 10SM BKN024 OVC032 M03/M08 A2976 780 66 -1100 270/17G24 RMK AO2
14840KMKG MKG20101126073011211/26/10 07:30:31  5-MIN KMKG 261230Z 26014G24KT 10SM BKN024 OVC032 M03/M08 A2976 780 66 -1100 260/14G24 RMK AO2
14840KMKG MKG20101126073511211/26/10 07:35:31  5-MIN KMKG 261235Z 28017G23KT 10SM BKN024 OVC032 M03/M08 A2976 780 66 -1100 280/17G23 RMK AO2
14840KMKG MKG20101126074011211/26/10 07:40:31  5-MIN KMKG 261240Z 27013G23KT 10SM BKN024 OVC030 M03/M08 A2976 780 66 -1100 270/13G23 RMK AO2
14840KMKG MKG20101126074511211/26/10 07:45:31  5-MIN KMKG 261245Z 25014G21KT 10SM BKN024 OVC030 M03/M08 A2976 780 66 -1100 250/14G21 RMK AO2
14840KMKG MKG20101126075014711/26/10 07:50:31  5-MIN KMKG 261250Z 26016G27KT 10SM BKN024 OVC033 M03/M09 A2976 770 63 -1100 260/16G27 RMK AO2 PK WND 25027/1248 SLP087 T10281089
14840KMKG MKG20101126075514711/26/10 07:55:31  5-MIN KMKG 261255Z 26012G27KT 10SM BKN024 OVC029 M03/M08 A2976 780 66 -1100 260/12G27 RMK AO2 PK WND 25027/1248 SLP087 T10281083
14840KMKG MKG20101126080011211/26/10 08:00:31  5-MIN KMKG 261300Z 27017G24KT 10SM BKN024 OVC029 M03/M08 A2976 770 66 -1100 270/17G24 RMK AO2
14840KMKG MKG20101126080511211/26/10 08:05:31  5-MIN KMKG 261305Z 25014G24KT 10SM BKN024 OVC028 M03/M08 A2977 770 66 -1100 260/14G24 RMK AO2
14840KMKG MKG20101126081011211/26/10 08:10:31  5-MIN KMKG 261310Z 26015G22KT 10SM BKN024 OVC034 M03/M08 A2976 780 66 -1100 270/15G22 RMK AO2
14840KMKG MKG20101126081511211/26/10 08:15:31  5-MIN KMKG 261315Z 27013G21KT 10SM BKN024 OVC034 M03/M08 A2976 780 66 -1100 270/13G21 RMK AO2
14840KMKG MKG20101126082011211/26/10 08:20:31  5-MIN KMKG 261320Z 26014G21KT 10SM BKN024 OVC032 M03/M08 A2976 780 66 -1100 270/14G21 RMK AO2
14840KMKG MKG20101126082511211/26/10 08:25:31  5-MIN KMKG 261325Z 25014G25KT 10SM BKN024 OVC032 M03/M08 A2976 780 66 -1100 260/14G25 RMK AO2
14840KMKG MKG20101126083011211/26/10 08:30:31  5-MIN KMKG 261330Z 26011G25KT 10SM BKN024 OVC032 M03/M08 A2976 780 66 -1100 270/11G25 RMK AO2
14840KMKG MKG20101126083511211/26/10 08:35:31  5-MIN KMKG 261335Z 26016G21KT 10SM BKN024 OVC030 M03/M08 A2976 780 66 -1100 260/16G21 RMK AO2
14840KMKG MKG20101126084010511/26/10 08:40:31  5-MIN KMKG 261340Z 25013G21KT 10SM OVC024 M03/M08 A2977 770 66 -1100 250/13G21 RMK AO2
14840KMKG MKG20101126084511211/26/10 08:45:31  5-MIN KMKG 261345Z 26014G20KT 10SM BKN024 OVC030 M03/M08 A2977 770 66 -1100 260/14G20 RMK AO2
14840KMKG MKG20101126085012911/26/10 08:50:31  5-MIN KMKG 261350Z 26015G24KT 10SM BKN024 OVC030 M03/M08 A2977 770 66 -1100 260/15G24 RMK AO2 SLP088 T10281083
14840KMKG MKG20101126085512911/26/10 08:55:31  5-MIN KMKG 261355Z 25014G24KT 10SM BKN024 OVC030 M03/M08 A2976 780 66 -1100 250/14G24 RMK AO2 SLP086 T10281083
14840KMKG MKG20101126090011211/26/10 09:00:31  5-MIN KMKG 261400Z 25018G24KT 10SM BKN024 OVC030 M03/M08 A2976 780 68 -1100 250/18G24 RMK AO2
14840KMKG MKG20101126090511211/26/10 09:05:31  5-MIN KMKG 261405Z 24017G25KT 10SM BKN022 OVC029 M03/M08 A2976 780 66 -1100 250/17G25 RMK AO2
14840KMKG MKG20101126091011211/26/10 09:10:31  5-MIN KMKG 261410Z 27016G25KT 10SM BKN022 OVC029 M03/M08 A2977 770 66 -1100 270/16G25 RMK AO2
14840KMKG MKG20101126091511211/26/10 09:15:31  5-MIN KMKG 261415Z 25016G23KT 10SM BKN022 OVC031 M03/M08 A2977 770 68 -1100 250/16G23 RMK AO2
14840KMKG MKG20101126092011211/26/10 09:20:31  5-MIN KMKG 261420Z 25016G22KT 10SM BKN022 OVC030 M03/M08 A2977 770 66 -1100 260/16G22 RMK AO2
14840KMKG MKG20101126092511911/26/10 09:25:31  5-MIN KMKG 261425Z 26016G23KT 10SM BKN022 BKN028 OVC033 M03/M08 A2977 770 66 -1100 270/16G23 RMK AO2
14840KMKG MKG20101126093011211/26/10 09:30:31  5-MIN KMKG 261430Z 25015G23KT 10SM BKN024 OVC030 M03/M08 A2977 770 68 -1100 250/15G23 RMK AO2
14840KMKG MKG20101126093511211/26/10 09:35:31  5-MIN KMKG 261435Z 25015G23KT 10SM BKN024 OVC028 M03/M08 A2977 770 68 -1100 260/15G23 RMK AO2
14840KMKG MKG20101126094011911/26/10 09:40:31  5-MIN KMKG 261440Z 27016G23KT 10SM BKN024 BKN028 OVC033 M02/M08 A2977 770 66 -1100 270/16G23 RMK AO2
14840KMKG MKG20101126094511911/26/10 09:45:31  5-MIN KMKG 261445Z 25014G23KT 10SM BKN022 BKN028 OVC033 M02/M08 A2977 770 66 -1100 250/14G23 RMK AO2
14840KMKG MKG20101126095015311/26/10 09:50:31  5-MIN KMKG 261450Z 26018G27KT 10SM BKN024 OVC030 M02/M08 A2977 770 66 -1100 260/18G27 RMK AO2 PK WND 24027/1448 SLP088 T10221078 58000
14840KMKG MKG20101126095515311/26/10 09:55:31  5-MIN KMKG 261455Z 26013G27KT 10SM BKN024 OVC031 M02/M08 A2976 770 66 -1100 260/13G27 RMK AO2 PK WND 24027/1448 SLP087 T10221078 51002
14840KMKG MKG20101126100010611/26/10 10:00:31  5-MIN KMKG 261500Z 26015KT 10SM BKN021 OVC028 M02/M08 A2977 770 66 -1100 260/15 RMK AO2
14840KMKG MKG20101126100511211/26/10 10:05:31  5-MIN KMKG 261505Z 26014G25KT 10SM BKN023 OVC028 M02/M08 A2977 770 66 -1100 270/14G25 RMK AO2
14840KMKG MKG20101126101011211/26/10 10:10:31  5-MIN KMKG 261510Z 25015G25KT 10SM BKN023 OVC030 M02/M08 A2977 770 66 -1100 250/15G25 RMK AO2
14840KMKG MKG20101126101511211/26/10 10:15:31  5-MIN KMKG 261515Z 26017G25KT 10SM BKN023 OVC031 M02/M08 A2977 770 66 -1100 260/17G25 RMK AO2
14840KMKG MKG20101126102011211/26/10 10:20:31  5-MIN KMKG 261520Z 26016G25KT 10SM BKN023 OVC031 M02/M08 A2977 770 66 -1100 260/16G25 RMK AO2
14840KMKG MKG20101126102511211/26/10 10:25:31  5-MIN KMKG 261525Z 27014G23KT 10SM BKN023 OVC028 M02/M08 A2977 770 66 -1100 270/14G23 RMK AO2
14840KMKG MKG20101126103013011/26/10 10:30:31  5-MIN KMKG 261530Z 26014G27KT 10SM BKN023 OVC028 M02/M08 A2977 770 66 -1100 260/14G27 RMK AO2 PK WND 26027/1526
14840KMKG MKG20101126103513011/26/10 10:35:31  5-MIN KMKG 261535Z 25018G27KT 10SM BKN021 OVC028 M02/M08 A2976 780 66 -1100 260/18G27 RMK AO2 PK WND 26027/1526
14840KMKG MKG20101126104013011/26/10 10:40:31  5-MIN KMKG 261540Z 26012G25KT 10SM BKN021 OVC028 M02/M08 A2976 780 66 -1100 260/12G25 RMK AO2 PK WND 26027/1526
14840KMKG MKG20101126104513011/26/10 10:45:31  5-MIN KMKG 261545Z 24012G23KT 10SM BKN021 OVC028 M02/M07 A2977 770 69 -1100 250/12G23 RMK AO2 PK WND 26027/1526
14840KMKG MKG20101126105014711/26/10 10:50:31  5-MIN KMKG 261550Z 25017G24KT 10SM BKN021 OVC029 M02/M07 A2977 770 69 -1100 260/17G24 RMK AO2 PK WND 26027/1526 SLP088 T10221072
14840KMKG MKG20101126105514711/26/10 10:55:31  5-MIN KMKG 261555Z 25017G24KT 10SM BKN021 OVC029 M02/M07 A2976 780 69 -1100 260/17G24 RMK AO2 PK WND 26027/1526 SLP087 T10221072
14840KMKG MKG20101126110011211/26/10 11:00:31  5-MIN KMKG 261600Z 25014G24KT 10SM BKN021 OVC029 M02/M08 A2976 770 66 -1100 260/14G24 RMK AO2
14840KMKG MKG20101126110511211/26/10 11:05:31  5-MIN KMKG 261605Z 26012G23KT 10SM BKN021 OVC029 M02/M07 A2977 770 69 -1100 260/12G23 RMK AO2
14840KMKG MKG20101126111010511/26/10 11:10:31  5-MIN KMKG 261610Z 25013G23KT 10SM OVC021 M02/M07 A2976 780 69 -1100 260/13G23 RMK AO2
14840KMKG MKG20101126111510511/26/10 11:15:31  5-MIN KMKG 261615Z 25013G21KT 10SM OVC021 M02/M07 A2976 780 69 -1100 260/13G21 RMK AO2
14840KMKG MKG20101126112011211/26/10 11:20:31  5-MIN KMKG 261620Z 25016G23KT 10SM BKN021 OVC028 M02/M07 A2976 780 69 -1100 260/16G23 RMK AO2
14840KMKG MKG20101126112511211/26/10 11:25:31  5-MIN KMKG 261625Z 25014G23KT 10SM BKN021 OVC027 M02/M07 A2976 780 66 -1000 260/14G23 RMK AO2
14840KMKG MKG20101126113010511/26/10 11:30:31  5-MIN KMKG 261630Z 26015G23KT 10SM OVC021 M02/M07 A2976 780 66 -1000 260/15G23 RMK AO2
14840KMKG MKG20101126113511211/26/10 11:35:31  5-MIN KMKG 261635Z 25018G24KT 10SM BKN021 OVC029 M02/M07 A2975 790 69 -1000 260/18G24 RMK AO2
14840KMKG MKG20101126114011211/26/10 11:40:31  5-MIN KMKG 261640Z 25014G24KT 10SM BKN021 OVC027 M02/M07 A2975 790 69 -1000 260/14G24 RMK AO2
14840KMKG MKG20101126114511111/26/10 11:45:31  5-MIN KMKG 261645Z 25014G22KT 10SM BKN021 OVC027 M01/M07 A2975 790 66 -900 250/14G22 RMK AO2
14840KMKG MKG20101126115012911/26/10 11:50:31  5-MIN KMKG 261650Z 25016G23KT 10SM BKN021 OVC027 M02/M07 A2975 790 69 -1000 260/16G23 RMK AO2 SLP083 T10171067
14840KMKG MKG20101126115512811/26/10 11:55:31  5-MIN KMKG 261655Z 24017G25KT 10SM BKN021 OVC027 M01/M07 A2975 790 66 -900 250/17G25 RMK AO2 SLP081 T10111067
14840KMKG MKG20101126120011211/26/10 12:00:31  5-MIN KMKG 261700Z 24018G25KT 10SM BKN021 OVC027 M02/M07 A2975 790 69 -1000 250/18G25 RMK AO2
14840KMKG MKG20101126120510511/26/10 12:05:31  5-MIN KMKG 261705Z 26012G22KT 10SM OVC023 M02/M07 A2975 790 69 -1000 260/12G22 RMK AO2
14840KMKG MKG20101126121010511/26/10 12:10:31  5-MIN KMKG 261710Z 25016G21KT 10SM OVC023 M02/M07 A2974 790 69 -1000 250/16G21 RMK AO2
14840KMKG MKG20101126121511111/26/10 12:15:31  5-MIN KMKG 261715Z 25013G24KT 10SM BKN021 OVC026 M01/M07 A2974 800 66 -900 250/13G24 RMK AO2
14840KMKG MKG20101126122010411/26/10 12:20:31  5-MIN KMKG 261720Z 24014G24KT 10SM OVC021 M01/M07 A2974 800 66 -900 250/14G24 RMK AO2
14840KMKG MKG20101126122510411/26/10 12:25:31  5-MIN KMKG 261725Z 25018G24KT 10SM OVC021 M01/M07 A2974 800 66 -900 260/18G24 RMK AO2
14840KMKG MKG20101126123011111/26/10 12:30:31  5-MIN KMKG 261730Z 25013G24KT 10SM BKN023 OVC029 M01/M07 A2974 800 66 -900 260/13G24 RMK AO2
14840KMKG MKG20101126123512911/26/10 12:35:31  5-MIN KMKG 261735Z 25018G26KT 10SM BKN023 OVC029 M01/M07 A2973 800 66 -900 250/18G26 RMK AO2 PK WND 24026/1732
14840KMKG MKG20101126124012911/26/10 12:40:31  5-MIN KMKG 261740Z 24016G26KT 10SM BKN021 OVC027 M01/M07 A2973 800 66 -900 240/16G26 RMK AO2 PK WND 24026/1732
14840KMKG MKG20101126124512911/26/10 12:45:31  5-MIN KMKG 261745Z 25014G24KT 10SM BKN021 OVC030 M01/M06 A2973 810 69 -900 250/14G24 RMK AO2 PK WND 24026/1732
14840KMKG MKG20101126125017111/26/10 12:50:31  5-MIN KMKG 261750Z 25012G22KT 10SM BKN021 BKN027 OVC032 M01/M06 A2973 800 69 -900 260/12G22 RMK AO2 PK WND 24026/1732 SLP077 T10111061 11011 21033 51002
14840KMKG MKG20101126125516411/26/10 12:55:31  5-MIN KMKG 261755Z 24015G28KT 10SM BKN021 OVC029 M01/M07 A2973 810 66 -900 250/15G28 RMK AO2 PK WND 24028/1752 SLP075 T10111067 11011 21033 58012
14840KMKG MKG20101126130011111/26/10 13:00:31  5-MIN KMKG 261800Z 25016G28KT 10SM BKN021 OVC028 M01/M07 A2973 800 66 -900 250/16G28 RMK AO2
14840KMKG MKG20101126130511111/26/10 13:05:31  5-MIN KMKG 261805Z 26016G24KT 10SM BKN022 OVC029 M01/M07 A2973 810 66 -900 260/16G24 RMK AO2
14840KMKG MKG20101126131011111/26/10 13:10:31  5-MIN KMKG 261810Z 24014G23KT 10SM BKN022 OVC029 M01/M07 A2973 810 66 -900 240/14G23 RMK AO2
14840KMKG MKG20101126131511111/26/10 13:15:31  5-MIN KMKG 261815Z 24014G23KT 10SM BKN022 OVC029 M01/M06 A2973 810 69 -900 240/14G23 RMK AO2
14840KMKG MKG20101126132011111/26/10 13:20:31  5-MIN KMKG 261820Z 25014G24KT 10SM BKN022 OVC029 M01/M06 A2973 810 69 -900 250/14G24 RMK AO2
14840KMKG MKG20101126132511111/26/10 13:25:31  5-MIN KMKG 261825Z 24011G24KT 10SM BKN022 OVC029 M01/M06 A2973 810 66 -800 250/11G24 RMK AO2
14840KMKG MKG20101126133012911/26/10 13:30:31  5-MIN KMKG 261830Z 24019G27KT 10SM BKN024 OVC028 M01/M06 A2973 810 69 -900 240/19G27 RMK AO2 PK WND 23027/1829
14840KMKG MKG20101126133512911/26/10 13:35:31  5-MIN KMKG 261835Z 25015G27KT 10SM BKN022 OVC028 M01/M06 A2973 810 66 -800 250/15G27 RMK AO2 PK WND 23027/1829
14840KMKG MKG20101126134012211/26/10 13:40:31  5-MIN KMKG 261840Z 24015G24KT 10SM OVC024 M01/M07 A2973 810 63 -800 240/15G24 RMK AO2 PK WND 23027/1829
14840KMKG MKG20101126134512211/26/10 13:45:31  5-MIN KMKG 261845Z 25016G26KT 10SM OVC024 M01/M07 A2972 810 63 -800 250/16G26 RMK AO2 PK WND 23027/1829
14840KMKG MKG20101126135014611/26/10 13:50:31  5-MIN KMKG 261850Z 25015G26KT 10SM BKN024 OVC030 M01/M07 A2973 810 63 -800 250/15G26 RMK AO2 PK WND 23027/1829 SLP074 T10061067
14840KMKG MKG20101126135514611/26/10 13:55:31  5-MIN KMKG 261855Z 25014G24KT 10SM BKN024 OVC030 M01/M07 A2973 810 63 -800 250/14G24 RMK AO2 PK WND 23027/1829 SLP074 T10061067
14840KMKG MKG20101126140011111/26/10 14:00:31  5-MIN KMKG 261900Z 25011G24KT 10SM BKN024 OVC030 M01/M07 A2972 810 63 -800 260/11G24 RMK AO2
14840KMKG MKG20101126140512911/26/10 14:05:31  5-MIN KMKG 261905Z 25018G26KT 10SM BKN024 OVC030 M01/M06 A2972 810 66 -800 260/18G26 RMK AO2 PK WND 24026/1901
14840KMKG MKG20101126141012911/26/10 14:10:31  5-MIN KMKG 261910Z 24015G26KT 10SM BKN024 OVC030 M01/M06 A2972 810 66 -800 240/15G26 RMK AO2 PK WND 24026/1901
14840KMKG MKG20101126141512911/26/10 14:15:31  5-MIN KMKG 261915Z 26019G25KT 10SM BKN024 OVC030 M01/M07 A2972 810 63 -800 270/19G25 RMK AO2 PK WND 24026/1901
14840KMKG MKG20101126142012911/26/10 14:20:31  5-MIN KMKG 261920Z 24015G26KT 10SM SCT024 OVC030 M01/M07 A2972 810 63 -800 250/15G26 RMK AO2 PK WND 23026/1920
14840KMKG MKG20101126142512811/26/10 14:25:31  5-MIN KMKG 261925Z 24019G28KT 10SM BKN024 OVC030 00/M07 A2971 820 61 -700 250/19G28 RMK AO2 PK WND 24028/1924
14840KMKG MKG20101126143014411/26/10 14:30:31  5-MIN KMKG 261930Z 25018G28KT 210V270 10SM BKN024 OVC030 00/M06 A2971 820 63 -700 250/18G28 210V270 RMK AO2 PK WND 24028/1924
14840KMKG MKG20101126143512811/26/10 14:35:31  5-MIN KMKG 261935Z 24015G26KT 10SM BKN024 OVC030 00/M06 A2971 830 63 -700 250/15G26 RMK AO2 PK WND 24028/1924
14840KMKG MKG20101126144012811/26/10 14:40:31  5-MIN KMKG 261940Z 25015G26KT 10SM BKN024 OVC030 00/M06 A2971 820 63 -700 250/15G26 RMK AO2 PK WND 24028/1924
14840KMKG MKG20101126144512811/26/10 14:45:31  5-MIN KMKG 261945Z 24018G24KT 10SM BKN024 OVC030 00/M07 A2971 830 61 -700 250/18G24 RMK AO2 PK WND 24028/1924
14840KMKG MKG20101126145014611/26/10 14:50:31  5-MIN KMKG 261950Z 25019G27KT 10SM BKN025 OVC030 M01/M07 A2971 830 63 -800 250/19G27 RMK AO2 PK WND 24028/1924 SLP068 T10061067
14840KMKG MKG20101126145514511/26/10 14:55:31  5-MIN KMKG 261955Z 24016G27KT 10SM BKN025 OVC030 00/M07 A2971 830 61 -700 240/16G27 RMK AO2 PK WND 24028/1924 SLP068 T00001067
14840KMKG MKG20101126150011011/26/10 15:00:31  5-MIN KMKG 262000Z 25015G25KT 10SM BKN025 OVC030 00/M06 A2970 830 63 -700 250/15G25 RMK AO2
14840KMKG MKG20101126150510311/26/10 15:05:31  5-MIN KMKG 262005Z 25018G25KT 10SM BKN025 00/M06 A2970 830 63 -700 250/18G25 RMK AO2
14840KMKG MKG20101126151012111/26/10 15:10:31  5-MIN KMKG 262010Z 25020G28KT 10SM BKN025 00/M07 A2970 830 61 -700 250/20G28 RMK AO2 PK WND 24028/2010
14840KMKG MKG20101126151512211/26/10 15:15:31  5-MIN KMKG 262015Z 25015G28KT 10SM BKN025 M01/M07 A2970 840 63 -800 260/15G28 RMK AO2 PK WND 24028/2010
14840KMKG MKG20101126152012811/26/10 15:20:31  5-MIN KMKG 262020Z 24016G26KT 10SM BKN025 BKN031 00/M07 A2970 830 61 -700 250/16G26 RMK AO2 PK WND 24028/2010
14840KMKG MKG20101126152512911/26/10 15:25:31  5-MIN KMKG 262025Z 25017G25KT 10SM BKN025 BKN031 M01/M07 A2970 830 63 -800 250/17G25 RMK AO2 PK WND 24028/2010
14840KMKG MKG20101126153012911/26/10 15:30:31  5-MIN KMKG 262030Z 25015G24KT 10SM BKN025 BKN031 M01/M07 A2970 840 63 -800 260/15G24 RMK AO2 PK WND 24028/2010
14840KMKG MKG20101126153512911/26/10 15:35:31  5-MIN KMKG 262035Z 26017G24KT 10SM BKN027 BKN033 M01/M07 A2970 840 63 -800 270/17G24 RMK AO2 PK WND 24028/2010
14840KMKG MKG20101126154012911/26/10 15:40:31  5-MIN KMKG 262040Z 25015G24KT 10SM BKN027 BKN033 M01/M07 A2969 840 63 -800 260/15G24 RMK AO2 PK WND 24028/2010
14840KMKG MKG20101126154512911/26/10 15:45:31  5-MIN KMKG 262045Z 25018G24KT 10SM BKN027 OVC033 M01/M07 A2969 840 63 -800 250/18G24 RMK AO2 PK WND 24028/2010
14840KMKG MKG20101126155012111/26/10 15:50:31  5-MIN KMKG 262050Z 26018G24KT 10SM OVC030 00/M07 A2969 840 61 -700 260/18G24 RMK AO2 PK WND 24028/2010
14840KMKG MKG20101126155515111/26/10 15:55:31  5-MIN KMKG 262055Z 25016G22KT 10SM BKN030 OVC034 00/M07 A2969 840 61 -700 250/16G22 RMK AO2 PK WND 24028/2010 SLP062 T00001067 58013
14840KMKG MKG20101126160010311/26/10 16:00:31  5-MIN KMKG 262100Z 25018G23KT 10SM BKN030 00/M07 A2968 850 61 -700 250/18G23 RMK AO2
14840KMKG MKG20101126160512111/26/10 16:05:31  5-MIN KMKG 262105Z 25020G26KT 10SM OVC030 00/M07 A2968 850 61 -700 250/20G26 RMK AO2 PK WND 24026/2104
14840KMKG MKG20101126174012111/26/10 17:40:31  5-MIN KMKG 262240Z 27014G26KT 10SM OVC037 01/M08 A2968 850 54 -600 280/14G26 RMK AO2 PK WND 26029/2221
14840KMKG MKG20101126174512111/26/10 17:45:31  5-MIN KMKG 262245Z 28020G26KT 10SM OVC037 00/M08 A2969 850 56 -700 280/20G26 RMK AO2 PK WND 26029/2221
14840KMKG MKG20101126175013811/26/10 17:50:31  5-MIN KMKG 262250Z 27016G25KT 10SM OVC037 00/M08 A2968 850 56 -700 270/16G25 RMK AO2 PK WND 26029/2221 SLP060 T00001078
14840KMKG MKG20101126175514511/26/10 17:55:31  5-MIN KMKG 262255Z 26018G26KT 10SM BKN037 OVC045 01/M08 A2969 850 54 -600 270/18G26 RMK AO2 PK WND 26029/2221 SLP060 T00061078
14840KMKG MKG20101126180010311/26/10 18:00:31  5-MIN KMKG 262300Z 27018G26KT 10SM OVC039 01/M08 A2969 850 54 -600 270/18G26 RMK AO2
14840KMKG MKG20101126180512111/26/10 18:05:31  5-MIN KMKG 262305Z 27020G27KT 10SM OVC039 01/M08 A2969 850 54 -600 280/20G27 RMK AO2 PK WND 27027/2305
14840KMKG MKG20101126181012111/26/10 18:10:31  5-MIN KMKG 262310Z 26018G27KT 10SM OVC039 01/M08 A2969 850 51 -600 270/18G27 RMK AO2 PK WND 27027/2305
14840KMKG MKG20101126181512111/26/10 18:15:31  5-MIN KMKG 262315Z 27016G26KT 10SM OVC039 01/M08 A2969 850 51 -600 270/16G26 RMK AO2 PK WND 27027/2305
14840KMKG MKG20101126182012111/26/10 18:20:31  5-MIN KMKG 262320Z 28019G28KT 10SM OVC039 01/M08 A2969 850 54 -600 280/19G28 RMK AO2 PK WND 26028/2317
14840KMKG MKG20101126182512111/26/10 18:25:31  5-MIN KMKG 262325Z 27020G33KT 10SM OVC039 01/M08 A2969 850 54 -600 270/20G33 RMK AO2 PK WND 26033/2325
14840KMKG MKG20101126183012111/26/10 18:30:31  5-MIN KMKG 262330Z 27015G33KT 10SM OVC039 01/M08 A2969 850 51 -600 280/15G33 RMK AO2 PK WND 26033/2325
14840KMKG MKG20101126183512811/26/10 18:35:31  5-MIN KMKG 262335Z 28019G26KT 10SM BKN039 OVC047 01/M08 A2969 840 54 -600 280/19G26 RMK AO2 PK WND 26033/2325
14840KMKG MKG20101126184012811/26/10 18:40:31  5-MIN KMKG 262340Z 26017G26KT 10SM BKN039 OVC047 01/M08 A2969 840 54 -600 260/17G26 RMK AO2 PK WND 26033/2325
14840KMKG MKG20101126184512111/26/10 18:45:31  5-MIN KMKG 262345Z 28022G34KT 10SM OVC039 01/M08 A2969 840 51 -600 280/22G34 RMK AO2 PK WND 27034/2345
14840KMKG MKG20101126185015611/26/10 18:50:31  5-MIN KMKG 262350Z 27018G34KT 10SM OVC041 01/M08 A2969 840 51 -600 270/18G34 RMK AO2 PK WND 27034/2345 SLP063 T00061083 10006 21011 58013
14840KMKG MKG20101126185515611/26/10 18:55:31  5-MIN KMKG 262355Z 27020G33KT 10SM OVC041 01/M08 A2969 840 51 -600 270/20G33 RMK AO2 PK WND 27034/2345 SLP062 T00061083 10006 21011 53001
14840KMKG MKG20101126190012111/26/10 19:00:31  5-MIN KMKG 270000Z 27020G29KT 10SM OVC041 01/M08 A2969 840 54 -600 270/20G29 RMK AO2 PK WND 25029/0000
14840KMKG MKG20101126190512111/26/10 19:05:31  5-MIN KMKG 270005Z 28019G29KT 10SM OVC041 01/M08 A2969 840 51 -600 280/19G29 RMK AO2 PK WND 25029/0000
14840KMKG MKG20101126191012111/26/10 19:10:31  5-MIN KMKG 270010Z 28021G30KT 10SM OVC041 01/M08 A2969 840 54 -600 280/21G30 RMK AO2 PK WND 29030/0006
14840KMKG MKG20101126191512111/26/10 19:15:31  5-MIN KMKG 270015Z 27018G30KT 10SM OVC041 01/M08 A2969 840 51 -600 280/18G30 RMK AO2 PK WND 29030/0006
14840KMKG MKG20101126192012111/26/10 19:20:31  5-MIN KMKG 270020Z 28021G31KT 10SM OVC041 01/M09 A2970 840 49 -600 280/21G31 RMK AO2 PK WND 29031/0018
14840KMKG MKG20101126192512111/26/10 19:25:31  5-MIN KMKG 270025Z 28017G31KT 10SM OVC041 01/M08 A2969 840 51 -600 280/17G31 RMK AO2 PK WND 29031/0018
14840KMKG MKG20101126193012111/26/10 19:30:31  5-MIN KMKG 270030Z 28019G29KT 10SM OVC041 01/M08 A2969 840 51 -600 280/19G29 RMK AO2 PK WND 29031/0018
14840KMKG MKG20101126193512111/26/10 19:35:31  5-MIN KMKG 270035Z 29021G29KT 10SM OVC041 01/M08 A2969 840 51 -600 290/21G29 RMK AO2 PK WND 29031/0018
14840KMKG MKG20101126194012111/26/10 19:40:31  5-MIN KMKG 270040Z 27020G29KT 10SM OVC041 01/M08 A2969 840 51 -600 270/20G29 RMK AO2 PK WND 29031/0018
14840KMKG MKG20101126194512111/26/10 19:45:31  5-MIN KMKG 270045Z 28020G29KT 10SM BKN041 01/M08 A2969 840 51 -600 280/20G29 RMK AO2 PK WND 29031/0018
14840KMKG MKG20101126195013811/26/10 19:50:31  5-MIN KMKG 270050Z 28014G29KT 10SM OVC041 01/M08 A2969 840 51 -600 280/14G29 RMK AO2 PK WND 29031/0018 SLP062 T00061083
14840KMKG MKG20101126195513811/26/10 19:55:31  5-MIN KMKG 270055Z 27022G33KT 10SM OVC041 01/M08 A2969 840 51 -600 280/22G33 RMK AO2 PK WND 28033/0053 SLP063 T00061083
14840KMKG MKG20101126200010311/26/10 20:00:31  5-MIN KMKG 270100Z 27020G33KT 10SM OVC041 01/M08 A2970 840 51 -600 280/20G33 RMK AO2
14840KMKG MKG20101126200510311/26/10 20:05:31  5-MIN KMKG 270105Z 28017G25KT 10SM OVC041 01/M08 A2970 840 51 -600 280/17G25 RMK AO2
14840KMKG MKG20101126201012111/26/10 20:10:31  5-MIN KMKG 270110Z 28018G32KT 10SM OVC041 01/M08 A2970 840 51 -600 280/18G32 RMK AO2 PK WND 28032/0107
14840KMKG MKG20101126201512111/26/10 20:15:31  5-MIN KMKG 270115Z 28016G32KT 10SM OVC041 01/M08 A2970 830 51 -600 280/16G32 RMK AO2 PK WND 28032/0107
14840KMKG MKG20101126202012111/26/10 20:20:31  5-MIN KMKG 270120Z 27025G31KT 10SM OVC041 01/M08 A2970 840 51 -600 280/25G31 RMK AO2 PK WND 28032/0107
14840KMKG MKG20101126202512111/26/10 20:25:31  5-MIN KMKG 270125Z 28021G31KT 10SM OVC041 01/M08 A2970 830 51 -600 290/21G31 RMK AO2 PK WND 28032/0107
14840KMKG MKG20101126203012111/26/10 20:30:31  5-MIN KMKG 270130Z 28022G31KT 10SM OVC041 00/M08 A2970 830 53 -700 290/22G31 RMK AO2 PK WND 28032/0107
14840KMKG MKG20101126203512111/26/10 20:35:31  5-MIN KMKG 270135Z 29018G30KT 10SM OVC041 00/M09 A2970 840 51 -700 290/18G30 RMK AO2 PK WND 28032/0107
14840KMKG MKG20101126204012111/26/10 20:40:31  5-MIN KMKG 270140Z 28024G33KT 10SM OVC041 00/M09 A2970 830 51 -700 290/24G33 RMK AO2 PK WND 28033/0139
14840KMKG MKG20101126204512111/26/10 20:45:31  5-MIN KMKG 270145Z 29017G33KT 10SM OVC041 00/M09 A2970 830 51 -700 290/17G33 RMK AO2 PK WND 28033/0139
14840KMKG MKG20101126205013811/26/10 20:50:31  5-MIN KMKG 270150Z 29024G30KT 10SM OVC041 00/M09 A2970 830 51 -700 290/24G30 RMK AO2 PK WND 28033/0139 SLP067 T00001089
14840KMKG MKG20101126205513811/26/10 20:55:31  5-MIN KMKG 270155Z 29022G34KT 10SM OVC041 00/M09 A2970 840 51 -700 290/22G34 RMK AO2 PK WND 29034/0154 SLP065 T00001089
14840KMKG MKG20101126210012111/26/10 21:00:31  5-MIN KMKG 270200Z 29021G34KT 10SM OVC041 00/M09 A2970 830 51 -700 300/21G34 RMK AO2 PK WND 29034/0158
14840KMKG MKG20101126210512111/26/10 21:05:31  5-MIN KMKG 270205Z 28021G34KT 10SM OVC039 00/M08 A2970 830 53 -700 280/21G34 RMK AO2 PK WND 29034/0158
14840KMKG MKG20101126211012811/26/10 21:10:31  5-MIN KMKG 270210Z 29018G32KT 10SM BKN037 OVC045 00/M08 A2971 830 53 -700 290/18G32 RMK AO2 PK WND 29034/0158
14840KMKG MKG20101126211512111/26/10 21:15:31  5-MIN KMKG 270215Z 28017G32KT 10SM OVC037 00/M08 A2970 830 53 -700 290/17G32 RMK AO2 PK WND 29034/0158
14840KMKG MKG20101126212012211/26/10 21:20:31  5-MIN KMKG 270220Z 29019G30KT 10SM OVC037 M01/M08 A2971 830 56 -800 290/19G30 RMK AO2 PK WND 29034/0158
14840KMKG MKG20101126212512211/26/10 21:25:31  5-MIN KMKG 270225Z 29020G30KT 10SM OVC037 M01/M08 A2971 830 56 -800 300/20G30 RMK AO2 PK WND 29034/0158
14840KMKG MKG20101126213012211/26/10 21:30:31  5-MIN KMKG 270230Z 29016G31KT 10SM OVC037 M01/M08 A2971 830 56 -800 290/16G31 RMK AO2 PK WND 29034/0158
14840KMKG MKG20101126213512211/26/10 21:35:31  5-MIN KMKG 270235Z 29021G31KT 10SM OVC037 M01/M08 A2971 830 56 -800 290/21G31 RMK AO2 PK WND 29034/0158
14840KMKG MKG20101126214012211/26/10 21:40:31  5-MIN KMKG 270240Z 30017G28KT 10SM OVC037 M01/M08 A2971 820 56 -800 300/17G28 RMK AO2 PK WND 29034/0158
14840KMKG MKG20101126214512211/26/10 21:45:31  5-MIN KMKG 270245Z 29017G26KT 10SM OVC035 M01/M09 A2971 820 53 -800 300/17G26 RMK AO2 PK WND 29034/0158
14840KMKG MKG20101126215014511/26/10 21:50:31  5-MIN KMKG 270250Z 29020G30KT 10SM OVC035 M01/M09 A2971 820 53 -800 290/20G30 RMK AO2 PK WND 29034/0158 SLP069 T10061089 53001
14840KMKG MKG20101126215514511/26/10 21:55:31  5-MIN KMKG 270255Z 29016G30KT 10SM OVC035 M01/M08 A2971 820 56 -800 300/16G30 RMK AO2 PK WND 29034/0158 SLP070 T10061083 53007
14840KMKG MKG20101126220012211/26/10 22:00:31  5-MIN KMKG 270300Z 30020G30KT 10SM OVC035 M01/M08 A2971 820 56 -800 300/20G30 RMK AO2 PK WND 30030/0256
14840KMKG MKG20101126220512211/26/10 22:05:31  5-MIN KMKG 270305Z 28020G30KT 10SM OVC035 M01/M08 A2971 830 56 -800 280/20G30 RMK AO2 PK WND 30030/0256
14840KMKG MKG20101126221012211/26/10 22:10:31  5-MIN KMKG 270310Z 30020G29KT 10SM OVC035 M01/M08 A2971 820 56 -800 300/20G29 RMK AO2 PK WND 30030/0256
14840KMKG MKG20101126221512211/26/10 22:15:31  5-MIN KMKG 270315Z 29016G28KT 10SM OVC035 M01/M08 A2972 820 56 -800 290/16G28 RMK AO2 PK WND 30030/0256
14840KMKG MKG20101126222012211/26/10 22:20:31  5-MIN KMKG 270320Z 30019G26KT 10SM OVC035 M01/M08 A2972 820 56 -800 300/19G26 RMK AO2 PK WND 30030/0256
14840KMKG MKG20101126222512211/26/10 22:25:31  5-MIN KMKG 270325Z 28016G26KT 10SM OVC035 M01/M08 A2972 810 56 -800 290/16G26 RMK AO2 PK WND 30030/0256
14840KMKG MKG20101126223012211/26/10 22:30:31  5-MIN KMKG 270330Z 29020G29KT 10SM OVC035 M01/M08 A2972 820 56 -800 290/20G29 RMK AO2 PK WND 30030/0256
14840KMKG MKG20101126223512211/26/10 22:35:31  5-MIN KMKG 270335Z 29016G30KT 10SM OVC035 M01/M08 A2972 820 56 -800 300/16G30 RMK AO2 PK WND 28030/0331
14840KMKG MKG20101126224012211/26/10 22:40:31  5-MIN KMKG 270340Z 29019G30KT 10SM OVC033 M01/M08 A2971 820 58 -800 300/19G30 RMK AO2 PK WND 28030/0331
14840KMKG MKG20101126224512211/26/10 22:45:31  5-MIN KMKG 270345Z 30017G26KT 10SM OVC033 M01/M08 A2972 820 58 -800 310/17G26 RMK AO2 PK WND 28030/0331
14840KMKG MKG20101126225013911/26/10 22:50:31  5-MIN KMKG 270350Z 29014G25KT 10SM OVC035 M01/M08 A2971 820 56 -800 300/14G25 RMK AO2 PK WND 28030/0331 SLP070 T10061083
14840KMKG MKG20101126225513911/26/10 22:55:31  5-MIN KMKG 270355Z 29016G24KT 10SM OVC035 M01/M08 A2971 820 58 -800 300/16G24 RMK AO2 PK WND 28030/0331 SLP070 T10061078
14840KMKG MKG20101126230012211/26/10 23:00:31  5-MIN KMKG 270400Z 29015G29KT 10SM OVC033 M01/M08 A2971 820 58 -800 290/15G29 RMK AO2 PK WND 28029/0356
14840KMKG MKG20101126230512211/26/10 23:05:31  5-MIN KMKG 270405Z 29012G29KT 10SM OVC033 M01/M08 A2972 820 58 -800 300/12G29 RMK AO2 PK WND 28029/0356
14840KMKG MKG20101126231012211/26/10 23:10:31  5-MIN KMKG 270410Z 29019G28KT 10SM OVC033 M01/M08 A2972 820 58 -800 290/19G28 RMK AO2 PK WND 28029/0356
14840KMKG MKG20101126231512211/26/10 23:15:31  5-MIN KMKG 270415Z 29016G31KT 10SM OVC033 M01/M08 A2972 810 58 -800 290/16G31 RMK AO2 PK WND 28031/0411
14840KMKG MKG20101126232012211/26/10 23:20:31  5-MIN KMKG 270420Z 30012G31KT 10SM OVC031 M01/M08 A2972 810 58 -800 300/12G31 RMK AO2 PK WND 28031/0411
14840KMKG MKG20101126232512211/26/10 23:25:31  5-MIN KMKG 270425Z 30015G24KT 10SM OVC031 M01/M07 A2972 810 61 -800 310/15G24 RMK AO2 PK WND 28031/0411
14840KMKG MKG20101126233012211/26/10 23:30:31  5-MIN KMKG 270430Z 30016G22KT 10SM OVC031 M01/M07 A2972 810 61 -800 300/16G22 RMK AO2 PK WND 28031/0411
14840KMKG MKG20101126233512211/26/10 23:35:31  5-MIN KMKG 270435Z 30014G22KT 10SM OVC031 M01/M07 A2972 810 61 -800 300/14G22 RMK AO2 PK WND 28031/0411
14840KMKG MKG20101126234012211/26/10 23:40:31  5-MIN KMKG 270440Z 29016G27KT 10SM OVC029 M01/M07 A2973 810 61 -800 300/16G27 RMK AO2 PK WND 28031/0411
14840KMKG MKG20101126234512211/26/10 23:45:31  5-MIN KMKG 270445Z 30010G27KT 10SM OVC029 M01/M07 A2973 810 61 -800 300/10G27 RMK AO2 PK WND 28031/0411
14840KMKG MKG20101126235014911/26/10 23:50:31  5-MIN KMKG 270450Z 31010G18KT 10SM OVC029 M01/M07 A2973 810 61 -800 310/10G18 RMK AO2 PK WND 28031/0411 SLP076 T10061072 400061033
14840KMKG MKG20101126235514911/26/10 23:55:31  5-MIN KMKG 270455Z 31015G21KT 10SM OVC029 M01/M07 A2973 810 61 -800 310/15G21 RMK AO2 PK WND 28031/0411 SLP075 T10061072 400061033
14840KMKG MKG20101127000010411/27/10 00:00:32  5-MIN KMKG 270500Z 30012G21KT 10SM OVC029 M01/M07 A2974 800 61 -800 310/12G21 RMK AO2
14840KMKG MKG20101127000510411/27/10 00:05:31  5-MIN KMKG 270505Z 31012G21KT 10SM OVC029 M01/M07 A2974 800 61 -800 310/12G21 RMK AO2
14840KMKG MKG20101127001010411/27/10 00:10:31  5-MIN KMKG 270510Z 31013G21KT 10SM OVC029 M01/M07 A2974 800 61 -800 310/13G21 RMK AO2
14840KMKG MKG20101127001510411/27/10 00:15:31  5-MIN KMKG 270515Z 30017G22KT 10SM OVC029 M01/M07 A2974 800 61 -800 300/17G22 RMK AO2
14840KMKG MKG20101127002010411/27/10 00:20:31  5-MIN KMKG 270520Z 30011G22KT 10SM OVC029 M01/M07 A2975 790 61 -800 310/11G22 RMK AO2
14840KMKG MKG20101127002510411/27/10 00:25:31  5-MIN KMKG 270525Z 31017G23KT 10SM OVC029 M01/M07 A2975 790 63 -900 320/17G23 RMK AO2
14840KMKG MKG20101127003010411/27/10 00:30:31  5-MIN KMKG 270530Z 31014G23KT 10SM OVC029 M01/M08 A2975 790 60 -900 310/14G23 RMK AO2
14840KMKG MKG20101127003510411/27/10 00:35:31  5-MIN KMKG 270535Z 29011G20KT 10SM OVC031 M01/M08 A2975 780 60 -900 300/11G20 RMK AO2
14840KMKG MKG20101127004010411/27/10 00:40:31  5-MIN KMKG 270540Z 30013G19KT 10SM OVC029 M01/M08 A2975 790 60 -900 300/13G19 RMK AO2
14840KMKG MKG20101127004510411/27/10 00:45:31  5-MIN KMKG 270545Z 31012G22KT 10SM OVC029 M01/M08 A2976 780 60 -900 310/12G22 RMK AO2
14840KMKG MKG20101127005013911/27/10 00:50:31  5-MIN KMKG 270550Z 30010G22KT 10SM OVC029 M01/M08 A2976 780 60 -900 310/10G22 RMK AO2 SLP084 T10111078 10006 21011 53007
14840KMKG MKG20101127005513911/27/10 00:55:31  5-MIN KMKG 270555Z 31010G22KT 10SM OVC029 M01/M08 A2976 780 60 -900 310/10G22 RMK AO2 SLP084 T10111078 10006 21011 53015
14840KMKG MKG20101127010010411/27/10 01:00:31  5-MIN KMKG 270600Z 30014G19KT 10SM OVC029 M01/M08 A2976 780 60 -900 300/14G19 RMK AO2
14840KMKG MKG20101127010510411/27/10 01:05:31  5-MIN KMKG 270605Z 32017G24KT 10SM OVC029 M01/M08 A2976 780 60 -900 320/17G24 RMK AO2
14840KMKG MKG20101127011010411/27/10 01:10:31  5-MIN KMKG 270610Z 31012G24KT 10SM OVC029 M01/M08 A2976 780 60 -900 310/12G24 RMK AO2
14840KMKG MKG20101127011510411/27/10 01:15:31  5-MIN KMKG 270615Z 30010G21KT 10SM OVC029 M01/M08 A2976 780 60 -900 310/10G21 RMK AO2
14840KMKG MKG20101127012010411/27/10 01:20:31  5-MIN KMKG 270620Z 30010G19KT 10SM OVC029 M01/M08 A2977 770 60 -900 300/10G19 RMK AO2
14840KMKG MKG20101127012510411/27/10 01:25:31  5-MIN KMKG 270625Z 31015G24KT 10SM OVC029 M01/M08 A2976 780 60 -900 310/15G24 RMK AO2
14840KMKG MKG20101127013010411/27/10 01:30:31  5-MIN KMKG 270630Z 30010G24KT 10SM OVC031 M01/M08 A2976 780 60 -900 310/10G24 RMK AO2
14840KMKG MKG20101127013510411/27/10 01:35:31  5-MIN KMKG 270635Z 31011G19KT 10SM OVC031 M01/M08 A2976 780 60 -900 320/11G19 RMK AO2
14840KMKG MKG20101127014010411/27/10 01:40:31  5-MIN KMKG 270640Z 30013G20KT 10SM OVC031 M01/M08 A2976 780 60 -900 300/13G20 RMK AO2
14840KMKG MKG20101127014510411/27/10 01:45:31  5-MIN KMKG 270645Z 30010G20KT 10SM OVC029 M01/M08 A2976 780 60 -900 300/10G20 RMK AO2
14840KMKG MKG20101127015010411/27/10 01:50:31  5-MIN KMKG 270650Z 30013G20KT 10SM OVC029 M01/M07 A2977 770 63 -900 310/13G20 RMK AO2
14840KMKG MKG20101127015512111/27/10 01:55:31  5-MIN KMKG 270655Z 30012G20KT 10SM OVC029 M01/M07 A2977 770 61 -900 310/12G20 RMK AO2 SLP087 T10061072
14840KMKG MKG20101127020011111/27/10 02:00:31  5-MIN KMKG 270700Z 29013G19KT 10SM BKN029 OVC034 M01/M07 A2976 780 61 -800 290/13G19 RMK AO2
14840KMKG MKG20101127020510411/27/10 02:05:31  5-MIN KMKG 270705Z 27015G21KT 10SM OVC029 M01/M07 A2976 780 63 -900 270/15G21 RMK AO2
14840KMKG MKG20101127021009811/27/10 02:10:31  5-MIN KMKG 270710Z 29014KT 10SM OVC029 M01/M07 A2977 770 63 -900 300/14 RMK AO2
14840KMKG MKG20101127021510411/27/10 02:15:31  5-MIN KMKG 270715Z 29011G20KT 10SM OVC029 M01/M08 A2977 770 60 -900 290/11G20 RMK AO2
14840KMKG MKG20101127022010411/27/10 02:20:31  5-MIN KMKG 270720Z 29011G20KT 10SM OVC029 M01/M07 A2977 770 63 -900 290/11G20 RMK AO2
14840KMKG MKG20101127022511111/27/10 02:25:31  5-MIN KMKG 270725Z 29011G18KT 10SM BKN029 OVC035 M01/M07 A2977 770 63 -900 290/11G18 RMK AO2
14840KMKG MKG20101127023010411/27/10 02:30:31  5-MIN KMKG 270730Z 30016G22KT 10SM OVC029 M01/M07 A2978 760 63 -900 300/16G22 RMK AO2
14840KMKG MKG20101127023510411/27/10 02:35:31  5-MIN KMKG 270735Z 29013G22KT 10SM OVC029 M01/M07 A2977 770 63 -900 290/13G22 RMK AO2
14840KMKG MKG20101127024010411/27/10 02:40:31  5-MIN KMKG 270740Z 28016G22KT 10SM OVC029 M01/M07 A2978 760 63 -900 280/16G22 RMK AO2
14840KMKG MKG20101127024510411/27/10 02:45:31  5-MIN KMKG 270745Z 29014G22KT 10SM OVC029 M01/M07 A2977 770 63 -900 290/14G22 RMK AO2
14840KMKG MKG20101127025011511/27/10 02:50:31  5-MIN KMKG 270750Z 29013KT 10SM OVC029 M01/M07 A2977 770 63 -900 300/13 RMK AO2 SLP090 T10111072
14840KMKG MKG20101127025512111/27/10 02:55:31  5-MIN KMKG 270755Z 29015G21KT 10SM OVC029 M01/M07 A2977 770 63 -900 290/15G21 RMK AO2 SLP089 T10111072
14840KMKG MKG20101127030010411/27/10 03:00:31  5-MIN KMKG 270800Z 29016G21KT 10SM OVC029 M01/M07 A2978 760 63 -900 290/16G21 RMK AO2
14840KMKG MKG20101127030510411/27/10 03:05:31  5-MIN KMKG 270805Z 28015G20KT 10SM OVC029 M01/M07 A2978 760 63 -900 290/15G20 RMK AO2
14840KMKG MKG20101127031010411/27/10 03:10:31  5-MIN KMKG 270810Z 29010G20KT 10SM OVC029 M01/M07 A2978 760 63 -900 300/10G20 RMK AO2
14840KMKG MKG20101127031510411/27/10 03:15:31  5-MIN KMKG 270815Z 30016G22KT 10SM OVC029 M01/M07 A2978 760 63 -900 310/16G22 RMK AO2
14840KMKG MKG20101127032010411/27/10 03:20:31  5-MIN KMKG 270820Z 30011G22KT 10SM OVC029 M01/M07 A2979 750 63 -900 300/11G22 RMK AO2
14840KMKG MKG20101127032510411/27/10 03:25:31  5-MIN KMKG 270825Z 29015G22KT 10SM OVC029 M01/M07 A2979 750 63 -900 300/15G22 RMK AO2
14840KMKG MKG20101127033010411/27/10 03:30:31  5-MIN KMKG 270830Z 30013G20KT 10SM OVC027 M01/M07 A2979 750 63 -900 300/13G20 RMK AO2
14840KMKG MKG20101127033510411/27/10 03:35:31  5-MIN KMKG 270835Z 31012G23KT 10SM OVC027 M01/M07 A2979 750 63 -900 310/12G23 RMK AO2
14840KMKG MKG20101127034010511/27/10 03:40:31  5-MIN KMKG 270840Z 31015G23KT 10SM OVC027 M01/M07 A2979 750 63 -1000 320/15G23 RMK AO2
14840KMKG MKG20101127034510511/27/10 03:45:31  5-MIN KMKG 270845Z 31014G20KT 10SM OVC027 M01/M07 A2979 750 63 -1000 310/14G20 RMK AO2
14840KMKG MKG20101127035012811/27/10 03:50:31  5-MIN KMKG 270850Z 31009G18KT 10SM OVC027 M01/M07 A2979 750 63 -1000 310/09G18 RMK AO2 SLP096 T10111072 53015
14840KMKG MKG20101127035512811/27/10 03:55:31  5-MIN KMKG 270855Z 31012G19KT 10SM OVC027 M01/M07 A2980 750 63 -1000 310/12G19 RMK AO2 SLP097 T10111072 53013
14840KMKG MKG20101127040010511/27/10 04:00:31  5-MIN KMKG 270900Z 31010G19KT 10SM OVC027 M01/M07 A2980 740 63 -1000 310/10G19 RMK AO2
14840KMKG MKG20101127040510511/27/10 04:05:31  5-MIN KMKG 270905Z 31014G19KT 10SM OVC027 M01/M07 A2980 740 63 -1000 320/14G19 RMK AO2
14840KMKG MKG20101127041010511/27/10 04:10:31  5-MIN KMKG 270910Z 31012G19KT 10SM OVC027 M01/M07 A2980 740 63 -1000 320/12G19 RMK AO2
14840KMKG MKG20101127041510511/27/10 04:15:31  5-MIN KMKG 270915Z 31013G21KT 10SM OVC025 M01/M07 A2980 740 66 -1000 310/13G21 RMK AO2
14840KMKG MKG20101127042010511/27/10 04:20:31  5-MIN KMKG 270920Z 31009G21KT 10SM OVC025 M01/M07 A2981 730 66 -1000 310/09G21 RMK AO2
14840KMKG MKG20101127042510511/27/10 04:25:31  5-MIN KMKG 270925Z 31010G18KT 10SM OVC025 M01/M07 A2981 730 66 -1000 310/10G18 RMK AO2
14840KMKG MKG20101127043010511/27/10 04:30:31  5-MIN KMKG 270930Z 30010G18KT 10SM OVC025 M01/M07 A2981 730 66 -1000 310/10G18 RMK AO2
14840KMKG MKG20101127043510511/27/10 04:35:31  5-MIN KMKG 270935Z 30013G20KT 10SM OVC025 M01/M07 A2981 730 66 -1000 300/13G20 RMK AO2
14840KMKG MKG20101127044010511/27/10 04:40:31  5-MIN KMKG 270940Z 31013G20KT 10SM OVC025 M01/M07 A2982 730 66 -1000 320/13G20 RMK AO2
14840KMKG MKG20101127044510511/27/10 04:45:31  5-MIN KMKG 270945Z 31014G23KT 10SM OVC025 M01/M07 A2982 730 66 -1000 320/14G23 RMK AO2
14840KMKG MKG20101127045012211/27/10 04:50:31  5-MIN KMKG 270950Z 30009G23KT 10SM OVC025 M01/M07 A2982 720 63 -1000 310/09G23 RMK AO2 SLP105 T10111072
14840KMKG MKG20101127045512211/27/10 04:55:31  5-MIN KMKG 270955Z 31009G20KT 10SM OVC025 M01/M07 A2982 720 66 -1000 310/09G20 RMK AO2 SLP106 T10111067
14840KMKG MKG20101127050010511/27/10 05:00:31  5-MIN KMKG 271000Z 30009G15KT 10SM OVC025 M01/M07 A2982 720 66 -1000 310/09G15 RMK AO2
14840KMKG MKG20101127050510511/27/10 05:05:31  5-MIN KMKG 271005Z 29008G15KT 10SM OVC025 M01/M07 A2983 720 66 -1000 300/08G15 RMK AO2
14840KMKG MKG20101127051010511/27/10 05:10:31  5-MIN KMKG 271010Z 31009G15KT 10SM OVC025 M01/M07 A2983 720 66 -1000 320/09G15 RMK AO2
14840KMKG MKG20101127051510511/27/10 05:15:31  5-MIN KMKG 271015Z 29012G20KT 10SM OVC025 M01/M07 A2983 710 66 -1000 300/12G20 RMK AO2
14840KMKG MKG20101127052010511/27/10 05:20:31  5-MIN KMKG 271020Z 31012G20KT 10SM OVC025 M01/M07 A2983 720 66 -1000 310/12G20 RMK AO2
14840KMKG MKG20101127052510511/27/10 05:25:31  5-MIN KMKG 271025Z 29011G18KT 10SM OVC025 M01/M07 A2983 710 66 -1000 300/11G18 RMK AO2
14840KMKG MKG20101127053010511/27/10 05:30:31  5-MIN KMKG 271030Z 30007G17KT 10SM OVC023 M01/M07 A2983 710 66 -1000 300/07G17 RMK AO2
14840KMKG MKG20101127053510511/27/10 05:35:31  5-MIN KMKG 271035Z 29009G15KT 10SM OVC023 M01/M06 A2984 710 69 -1000 300/09G15 RMK AO2
14840KMKG MKG20101127054009911/27/10 05:40:31  5-MIN KMKG 271040Z 29009KT 10SM OVC023 M01/M06 A2984 710 69 -1000 290/09 RMK AO2
14840KMKG MKG20101127054509911/27/10 05:45:31  5-MIN KMKG 271045Z 29010KT 10SM OVC025 M01/M06 A2984 700 69 -1000 300/10 RMK AO2
14840KMKG MKG20101127055011611/27/10 05:50:31  5-MIN KMKG 271050Z 31010KT 10SM OVC023 M01/M06 A2984 700 69 -1000 310/10 RMK AO2 SLP113 T10111061
14840KMKG MKG20101127055512211/27/10 05:55:31  5-MIN KMKG 271055Z 30010G17KT 10SM OVC025 M01/M06 A2984 700 69 -1000 300/10G17 RMK AO2 SLP113 T10111061
14840KMKG MKG20101127060010511/27/10 06:00:31  5-MIN KMKG 271100Z 31008G17KT 10SM OVC025 M01/M06 A2984 700 69 -1000 310/08G17 RMK AO2
14840KMKG MKG20101127060510511/27/10 06:05:31  5-MIN KMKG 271105Z 30011G17KT 10SM OVC025 M01/M06 A2985 700 69 -1000 300/11G17 RMK AO2
14840KMKG MKG20101127061010511/27/10 06:10:31  5-MIN KMKG 271110Z 31008G18KT 10SM OVC025 M01/M06 A2985 700 69 -1000 310/08G18 RMK AO2
14840KMKG MKG20101127061510511/27/10 06:15:31  5-MIN KMKG 271115Z 30011G18KT 10SM OVC025 M01/M06 A2985 690 69 -1000 300/11G18 RMK AO2
14840KMKG MKG20101127062010511/27/10 06:20:31  5-MIN KMKG 271120Z 31011G17KT 10SM OVC025 M01/M06 A2986 690 69 -1000 310/11G17 RMK AO2
14840KMKG MKG20101127062510511/27/10 06:25:31  5-MIN KMKG 271125Z 30009G17KT 10SM OVC025 M01/M06 A2986 680 69 -1000 310/09G17 RMK AO2
14840KMKG MKG20101127063009911/27/10 06:30:31  5-MIN KMKG 271130Z 31012KT 10SM OVC025 M01/M06 A2986 690 69 -1000 310/12 RMK AO2
14840KMKG MKG20101127063510511/27/10 06:35:31  5-MIN KMKG 271135Z 30012G17KT 10SM OVC025 M01/M06 A2987 680 69 -1000 310/12G17 RMK AO2
14840KMKG MKG20101127064010511/27/10 06:40:31  5-MIN KMKG 271140Z 30010G17KT 10SM OVC025 M01/M06 A2987 680 69 -1000 300/10G17 RMK AO2
14840KMKG MKG20101127064510511/27/10 06:45:31  5-MIN KMKG 271145Z 29012G17KT 10SM OVC025 M01/M06 A2988 670 69 -1000 290/12G17 RMK AO2
14840KMKG MKG20101127065014011/27/10 06:50:31  5-MIN KMKG 271150Z 30010G17KT 10SM OVC025 M01/M06 A2988 670 69 -1100 300/10G17 RMK AO2 SLP125 T10111061 11006 21011 53013
14840KMKG MKG20101127065513411/27/10 06:55:31  5-MIN KMKG 271155Z 30009KT 10SM OVC023 M01/M06 A2988 670 69 -1100 300/09 RMK AO2 SLP125 T10111061 11006 21011 53028
14840KMKG MKG20101127070009911/27/10 07:00:31  5-MIN KMKG 271200Z 29009KT 10SM OVC023 M01/M06 A2988 660 69 -1100 290/09 RMK AO2
14840KMKG MKG20101127070510511/27/10 07:05:31  5-MIN KMKG 271205Z 30009G17KT 10SM OVC023 M01/M06 A2989 660 69 -1100 300/09G17 RMK AO2
14840KMKG MKG20101127071010511/27/10 07:10:31  5-MIN KMKG 271210Z 30009G17KT 10SM OVC021 M01/M06 A2989 660 69 -1100 300/09G17 RMK AO2
14840KMKG MKG20101127071509911/27/10 07:15:31  5-MIN KMKG 271215Z 30008KT 10SM OVC021 M01/M06 A2989 660 66 -1000 300/08 RMK AO2
14840KMKG MKG20101127072009911/27/10 07:20:31  5-MIN KMKG 271220Z 30009KT 10SM OVC021 M01/M06 A2990 650 69 -1000 300/09 RMK AO2
14840KMKG MKG20101127072509911/27/10 07:25:31  5-MIN KMKG 271225Z 31009KT 10SM OVC021 M01/M06 A2990 650 69 -1000 310/09 RMK AO2
14840KMKG MKG20101127073010511/27/10 07:30:31  5-MIN KMKG 271230Z 31011G17KT 10SM OVC021 M01/M06 A2990 650 69 -1000 310/11G17 RMK AO2
14840KMKG MKG20101127073510511/27/10 07:35:31  5-MIN KMKG 271235Z 31010G17KT 10SM OVC021 M01/M06 A2990 650 69 -1000 320/10G17 RMK AO2
14840KMKG MKG20101127074009911/27/10 07:40:31  5-MIN KMKG 271240Z 29011KT 10SM OVC021 M01/M06 A2990 650 69 -1000 290/11 RMK AO2
14840KMKG MKG20101127074509911/27/10 07:45:31  5-MIN KMKG 271245Z 31012KT 10SM OVC021 M01/M06 A2991 640 72 -1100 310/12 RMK AO2
14840KMKG MKG20101127075012211/27/10 07:50:31  5-MIN KMKG 271250Z 30010G18KT 10SM OVC021 M01/M06 A2991 640 69 -1100 310/10G18 RMK AO2 SLP135 T10111061
14840KMKG MKG20101127075512211/27/10 07:55:31  5-MIN KMKG 271255Z 30010G18KT 10SM OVC021 M01/M06 A2991 640 69 -1100 310/10G18 RMK AO2 SLP137 T10111061
14840KMKG MKG20101127080010511/27/10 08:00:31  5-MIN KMKG 271300Z 29010G15KT 10SM OVC021 M01/M06 A2991 640 72 -1100 290/10G15 RMK AO2
14840KMKG MKG20101127080509911/27/10 08:05:31  5-MIN KMKG 271305Z 30007KT 10SM OVC021 M01/M06 A2992 630 72 -1100 310/07 RMK AO2
14840KMKG MKG20101127081009911/27/10 08:10:31  5-MIN KMKG 271310Z 30010KT 10SM OVC021 M01/M06 A2992 630 72 -1100 300/10 RMK AO2
14840KMKG MKG20101127081510511/27/10 08:15:31  5-MIN KMKG 271315Z 30011G16KT 10SM OVC021 M01/M06 A2992 630 72 -1100 300/11G16 RMK AO2
14840KMKG MKG20101127082010511/27/10 08:20:31  5-MIN KMKG 271320Z 31009G16KT 10SM OVC021 M01/M06 A2993 620 72 -1100 320/09G16 RMK AO2
14840KMKG MKG20101127082509911/27/10 08:25:31  5-MIN KMKG 271325Z 30007KT 10SM OVC021 M01/M06 A2993 620 72 -1100 300/07 RMK AO2
14840KMKG MKG20101127083009911/27/10 08:30:31  5-MIN KMKG 271330Z 29009KT 10SM OVC021 M01/M06 A2994 620 72 -1100 300/09 RMK AO2
14840KMKG MKG20101127083509911/27/10 08:35:31  5-MIN KMKG 271335Z 29011KT 10SM OVC021 M01/M06 A2994 610 72 -1100 300/11 RMK AO2
14840KMKG MKG20101127084009911/27/10 08:40:31  5-MIN KMKG 271340Z 32009KT 10SM OVC021 M01/M06 A2995 610 69 -1100 320/09 RMK AO2
14840KMKG MKG20101127084509911/27/10 08:45:31  5-MIN KMKG 271345Z 30008KT 10SM OVC021 M01/M06 A2995 600 69 -1100 310/08 RMK AO2
14840KMKG MKG20101127085011611/27/10 08:50:31  5-MIN KMKG 271350Z 30007KT 10SM OVC021 M01/M06 A2995 600 69 -1100 300/07 RMK AO2 SLP149 T10061056
14840KMKG MKG20101127085511611/27/10 08:55:31  5-MIN KMKG 271355Z 31009KT 10SM OVC021 M01/M06 A2995 600 72 -1100 310/09 RMK AO2 SLP150 T10111056
14840KMKG MKG20101127090009911/27/10 09:00:31  5-MIN KMKG 271400Z 31005KT 10SM OVC021 M01/M06 A2995 600 69 -1100 310/05 RMK AO2
14840KMKG MKG20101127090509911/27/10 09:05:31  5-MIN KMKG 271405Z 31007KT 10SM OVC021 M01/M06 A2996 600 69 -1100 310/07 RMK AO2
14840KMKG MKG20101127091009911/27/10 09:10:31  5-MIN KMKG 271410Z 29007KT 10SM OVC021 M01/M06 A2996 600 69 -1100 290/07 RMK AO2
14840KMKG MKG20101127091509911/27/10 09:15:31  5-MIN KMKG 271415Z 29009KT 10SM OVC021 M01/M06 A2996 590 69 -1100 300/09 RMK AO2
14840KMKG MKG20101127092009911/27/10 09:20:31  5-MIN KMKG 271420Z 32007KT 10SM OVC021 M01/M06 A2996 590 69 -1100 320/07 RMK AO2
14840KMKG MKG20101127092509911/27/10 09:25:31  5-MIN KMKG 271425Z 30009KT 10SM OVC021 M01/M06 A2996 590 69 -1100 300/09 RMK AO2
14840KMKG MKG20101127093009911/27/10 09:30:31  5-MIN KMKG 271430Z 31007KT 10SM OVC021 M01/M05 A2997 590 72 -1100 310/07 RMK AO2
14840KMKG MKG20101127093509911/27/10 09:35:31  5-MIN KMKG 271435Z 30006KT 10SM OVC021 M01/M05 A2997 590 72 -1100 310/06 RMK AO2
14840KMKG MKG20101127094009911/27/10 09:40:31  5-MIN KMKG 271440Z 30006KT 10SM OVC019 M01/M05 A2997 590 72 -1100 310/06 RMK AO2
14840KMKG MKG20101127094509911/27/10 09:45:31  5-MIN KMKG 271445Z 31006KT 10SM OVC019 M01/M05 A2997 580 72 -1100 310/06 RMK AO2
14840KMKG MKG20101127095012211/27/10 09:50:31  5-MIN KMKG 271450Z 31007KT 10SM OVC019 M01/M05 A2997 580 72 -1100 320/07 RMK AO2 SLP157 T10061050 53028
14840KMKG MKG20101127095512211/27/10 09:55:31  5-MIN KMKG 271455Z 29007KT 10SM OVC019 M01/M05 A2998 580 72 -1100 290/07 RMK AO2 SLP159 T10061050 51033
14840KMKG MKG20101127100009911/27/10 10:00:31  5-MIN KMKG 271500Z 31008KT 10SM OVC019 M01/M05 A2998 580 72 -1100 310/08 RMK AO2
14840KMKG MKG20101127100509911/27/10 10:05:31  5-MIN KMKG 271505Z 32007KT 10SM OVC019 M01/M05 A2998 570 72 -1100 320/07 RMK AO2
14840KMKG MKG20101127101009911/27/10 10:10:31  5-MIN KMKG 271510Z 31007KT 10SM OVC019 M01/M05 A2998 570 72 -1100 320/07 RMK AO2
14840KMKG MKG20101127101509911/27/10 10:15:31  5-MIN KMKG 271515Z 32010KT 10SM OVC019 M01/M05 A2999 570 72 -1100 320/10 RMK AO2
14840KMKG MKG20101127102009911/27/10 10:20:31  5-MIN KMKG 271520Z 31007KT 10SM OVC019 M01/M05 A2999 570 72 -1100 310/07 RMK AO2
14840KMKG MKG20101127102509911/27/10 10:25:31  5-MIN KMKG 271525Z 31006KT 10SM OVC019 M01/M05 A2999 570 72 -1100 310/06 RMK AO2
14840KMKG MKG20101127103009911/27/10 10:30:31  5-MIN KMKG 271530Z 29006KT 10SM OVC019 M01/M05 A2999 560 72 -1100 300/06 RMK AO2
14840KMKG MKG20101127103509911/27/10 10:35:31  5-MIN KMKG 271535Z 30006KT 10SM OVC019 M01/M05 A2999 560 72 -1100 310/06 RMK AO2
14840KMKG MKG20101127104009911/27/10 10:40:31  5-MIN KMKG 271540Z 31006KT 10SM OVC019 M01/M05 A3000 560 72 -1100 320/06 RMK AO2
14840KMKG MKG20101127104509911/27/10 10:45:31  5-MIN KMKG 271545Z 32006KT 10SM OVC019 M01/M05 A3000 560 72 -1100 320/06 RMK AO2
14840KMKG MKG20101127105011611/27/10 10:50:31  5-MIN KMKG 271550Z 33008KT 10SM OVC019 M01/M05 A3000 560 72 -1100 330/08 RMK AO2 SLP166 T10061050
14840KMKG MKG20101127105511611/27/10 10:55:31  5-MIN KMKG 271555Z 33007KT 10SM OVC019 M01/M05 A3000 550 72 -1100 330/07 RMK AO2 SLP167 T10061050
14840KMKG MKG20101127110009911/27/10 11:00:31  5-MIN KMKG 271600Z 33007KT 10SM OVC019 M01/M05 A3001 550 72 -1100 330/07 RMK AO2
14840KMKG MKG20101127110509911/27/10 11:05:31  5-MIN KMKG 271605Z 31008KT 10SM OVC019 M01/M05 A3001 550 72 -1100 320/08 RMK AO2
14840KMKG MKG20101127111009911/27/10 11:10:31  5-MIN KMKG 271610Z 30007KT 10SM OVC019 M01/M05 A3001 550 72 -1100 300/07 RMK AO2
14840KMKG MKG20101127111509911/27/10 11:15:31  5-MIN KMKG 271615Z 29007KT 10SM OVC019 M01/M05 A3001 550 72 -1100 290/07 RMK AO2
14840KMKG MKG20101127112009911/27/10 11:20:31  5-MIN KMKG 271620Z 32007KT 10SM OVC019 M01/M05 A3001 550 72 -1100 330/07 RMK AO2
14840KMKG MKG20101127112509911/27/10 11:25:31  5-MIN KMKG 271625Z 31006KT 10SM OVC019 M01/M05 A3001 550 72 -1100 310/06 RMK AO2
14840KMKG MKG20101127113009811/27/10 11:30:31  5-MIN KMKG 271630Z 31006KT 10SM OVC019 00/M05 A3001 550 69 -1100 310/06 RMK AO2
14840KMKG MKG20101127113509811/27/10 11:35:31  5-MIN KMKG 271635Z 32008KT 10SM OVC019 00/M05 A3001 550 69 -1100 330/08 RMK AO2
14840KMKG MKG20101127114009811/27/10 11:40:31  5-MIN KMKG 271640Z 32006KT 10SM OVC019 00/M05 A3001 550 69 -1100 320/06 RMK AO2
14840KMKG MKG20101127114509811/27/10 11:45:31  5-MIN KMKG 271645Z 33007KT 10SM OVC019 00/M05 A3001 550 69 -1100 330/07 RMK AO2
14840KMKG MKG20101127115011511/27/10 11:50:31  5-MIN KMKG 271650Z 31007KT 10SM OVC019 00/M05 A3001 550 69 -1100 310/07 RMK AO2 SLP169 T00001050
14840KMKG MKG20101127115511511/27/10 11:55:31  5-MIN KMKG 271655Z 32007KT 10SM OVC019 00/M05 A3001 550 69 -1100 320/07 RMK AO2 SLP169 T00001050
14840KMKG MKG20101127120009811/27/10 12:00:31  5-MIN KMKG 271700Z 30005KT 10SM OVC019 00/M04 A3001 550 72 -1100 310/05 RMK AO2
14840KMKG MKG20101127120509811/27/10 12:05:31  5-MIN KMKG 271705Z 30005KT 10SM OVC019 00/M05 A3002 540 69 -1100 300/05 RMK AO2
14840KMKG MKG20101127121009811/27/10 12:10:31  5-MIN KMKG 271710Z 31007KT 10SM OVC019 00/M05 A3002 540 69 -1100 320/07 RMK AO2
14840KMKG MKG20101127121509811/27/10 12:15:31  5-MIN KMKG 271715Z 30008KT 10SM OVC019 00/M05 A3002 540 69 -1100 310/08 RMK AO2
14840KMKG MKG20101127122009811/27/10 12:20:31  5-MIN KMKG 271720Z 31006KT 10SM OVC019 00/M05 A3002 540 69 -1100 310/06 RMK AO2
14840KMKG MKG20101127122509811/27/10 12:25:31  5-MIN KMKG 271725Z 31005KT 10SM OVC019 00/M05 A3002 540 69 -1100 310/05 RMK AO2
14840KMKG MKG20101127123009811/27/10 12:30:31  5-MIN KMKG 271730Z 00000KT 10SM OVC019 00/M05 A3002 540 69 -1100 000/00 RMK AO2
14840KMKG MKG20101127123509811/27/10 12:35:31  5-MIN KMKG 271735Z 31005KT 10SM OVC019 00/M05 A3003 530 69 -1100 310/05 RMK AO2
14840KMKG MKG20101127124009811/27/10 12:40:31  5-MIN KMKG 271740Z 29004KT 10SM OVC019 00/M05 A3003 530 69 -1100 300/04 RMK AO2
14840KMKG MKG20101127124509811/27/10 12:45:31  5-MIN KMKG 271745Z 29006KT 10SM OVC019 00/M05 A3003 530 69 -1100 290/06 RMK AO2
14840KMKG MKG20101127125013311/27/10 12:50:31  5-MIN KMKG 271750Z 30007KT 10SM OVC019 00/M05 A3003 530 69 -1100 300/07 RMK AO2 SLP177 T00001050 10000 21011 51033
14840KMKG MKG20101127125513311/27/10 12:55:31  5-MIN KMKG 271755Z 28005KT 10SM OVC019 00/M05 A3003 530 69 -1100 280/05 RMK AO2 SLP177 T00001050 10000 21011 51018
14840KMKG MKG20101127130009811/27/10 13:00:31  5-MIN KMKG 271800Z 29006KT 10SM OVC019 00/M04 A3003 530 72 -1100 300/06 RMK AO2
14840KMKG MKG20101127130509811/27/10 13:05:31  5-MIN KMKG 271805Z 27005KT 10SM OVC019 00/M04 A3003 530 72 -1100 280/05 RMK AO2
14840KMKG MKG20101127131009811/27/10 13:10:31  5-MIN KMKG 271810Z 28008KT 10SM OVC019 00/M04 A3003 530 72 -1100 280/08 RMK AO2
14840KMKG MKG20101127131509811/27/10 13:15:31  5-MIN KMKG 271815Z 27007KT 10SM OVC019 00/M04 A3003 530 72 -1100 270/07 RMK AO2
14840KMKG MKG20101127132009811/27/10 13:20:31  5-MIN KMKG 271820Z 27006KT 10SM OVC019 00/M04 A3003 520 72 -1100 280/06 RMK AO2
14840KMKG MKG20101127132509811/27/10 13:25:31  5-MIN KMKG 271825Z 25006KT 10SM OVC019 00/M04 A3003 520 72 -1100 260/06 RMK AO2
14840KMKG MKG20101127133009811/27/10 13:30:31  5-MIN KMKG 271830Z 25006KT 10SM OVC019 00/M04 A3003 520 72 -1100 250/06 RMK AO2
14840KMKG MKG20101127133509811/27/10 13:35:31  5-MIN KMKG 271835Z 26006KT 10SM OVC017 00/M04 A3003 530 72 -1100 270/06 RMK AO2
14840KMKG MKG20101127134009811/27/10 13:40:31  5-MIN KMKG 271840Z 29006KT 10SM OVC017 00/M04 A3003 520 72 -1100 290/06 RMK AO2
14840KMKG MKG20101127134509811/27/10 13:45:31  5-MIN KMKG 271845Z 29006KT 10SM OVC017 00/M04 A3004 520 72 -1100 300/06 RMK AO2
14840KMKG MKG20101127135011511/27/10 13:50:31  5-MIN KMKG 271850Z 28008KT 10SM OVC017 00/M04 A3004 520 72 -1100 290/08 RMK AO2 SLP179 T00001044
14840KMKG MKG20101127135511511/27/10 13:55:31  5-MIN KMKG 271855Z 29008KT 10SM OVC017 00/M04 A3004 520 72 -1100 290/08 RMK AO2 SLP180 T00001044
14840KMKG MKG20101127140009811/27/10 14:00:31  5-MIN KMKG 271900Z 29006KT 10SM OVC017 00/M04 A3004 520 72 -1100 290/06 RMK AO2
14840KMKG MKG20101127140509811/27/10 14:05:31  5-MIN KMKG 271905Z 29007KT 10SM OVC017 00/M04 A3004 520 72 -1100 290/07 RMK AO2
14840KMKG MKG20101127141009811/27/10 14:10:31  5-MIN KMKG 271910Z 29007KT 10SM OVC017 00/M04 A3004 520 72 -1100 290/07 RMK AO2
14840KMKG MKG20101127141509811/27/10 14:15:31  5-MIN KMKG 271915Z 27006KT 10SM OVC017 00/M04 A3004 520 72 -1100 270/06 RMK AO2
14840KMKG MKG20101127142009811/27/10 14:20:31  5-MIN KMKG 271920Z 29006KT 10SM OVC017 00/M04 A3005 510 72 -1100 290/06 RMK AO2
14840KMKG MKG20101127142509811/27/10 14:25:31  5-MIN KMKG 271925Z 27006KT 10SM OVC017 00/M04 A3005 510 72 -1100 270/06 RMK AO2
14840KMKG MKG20101127143009811/27/10 14:30:31  5-MIN KMKG 271930Z 29007KT 10SM OVC017 00/M04 A3005 510 75 -1100 290/07 RMK AO2
14840KMKG MKG20101127143509811/27/10 14:35:31  5-MIN KMKG 271935Z 28008KT 10SM OVC017 00/M04 A3005 510 75 -1100 290/08 RMK AO2
14840KMKG MKG20101127144009811/27/10 14:40:31  5-MIN KMKG 271940Z 29007KT 10SM OVC017 00/M04 A3005 510 72 -1100 290/07 RMK AO2
14840KMKG MKG20101127144509811/27/10 14:45:31  5-MIN KMKG 271945Z 27008KT 10SM OVC017 00/M04 A3005 510 72 -1100 270/08 RMK AO2
14840KMKG MKG20101127145011511/27/10 14:50:31  5-MIN KMKG 271950Z 25007KT 10SM OVC017 00/M04 A3005 510 72 -1100 260/07 RMK AO2 SLP184 T00001044
14840KMKG MKG20101127145511511/27/10 14:55:31  5-MIN KMKG 271955Z 27007KT 10SM OVC017 00/M04 A3005 510 72 -1100 270/07 RMK AO2 SLP184 T00001044
14840KMKG MKG20101127150009811/27/10 15:00:31  5-MIN KMKG 272000Z 26007KT 10SM OVC017 00/M04 A3005 510 75 -1100 260/07 RMK AO2
14840KMKG MKG20101127150509811/27/10 15:05:31  5-MIN KMKG 272005Z 28006KT 10SM OVC017 00/M04 A3005 510 72 -1100 280/06 RMK AO2
14840KMKG MKG20101127151009811/27/10 15:10:31  5-MIN KMKG 272010Z 27006KT 10SM OVC017 00/M04 A3006 500 72 -1100 270/06 RMK AO2
14840KMKG MKG20101127151509811/27/10 15:15:31  5-MIN KMKG 272015Z 27008KT 10SM OVC017 00/M04 A3006 500 75 -1100 270/08 RMK AO2
14840KMKG MKG20101127152009811/27/10 15:20:31  5-MIN KMKG 272020Z 26008KT 10SM OVC017 00/M04 A3006 500 75 -1100 270/08 RMK AO2
14840KMKG MKG20101127152509811/27/10 15:25:31  5-MIN KMKG 272025Z 26007KT 10SM OVC017 00/M04 A3006 500 75 -1100 270/07 RMK AO2
14840KMKG MKG20101127153009811/27/10 15:30:31  5-MIN KMKG 272030Z 28003KT 10SM OVC017 00/M04 A3006 500 75 -1100 280/03 RMK AO2
14840KMKG MKG20101127153509811/27/10 15:35:31  5-MIN KMKG 272035Z 29003KT 10SM OVC017 00/M04 A3006 500 75 -1100 290/03 RMK AO2
14840KMKG MKG20101127154009811/27/10 15:40:31  5-MIN KMKG 272040Z 29006KT 10SM OVC015 00/M04 A3006 500 75 -1100 290/06 RMK AO2
14840KMKG MKG20101127154509811/27/10 15:45:31  5-MIN KMKG 272045Z 29007KT 10SM OVC015 00/M04 A3007 500 75 -1100 290/07 RMK AO2
14840KMKG MKG20101127155012111/27/10 15:50:31  5-MIN KMKG 272050Z 29007KT 10SM OVC015 00/M04 A3007 500 75 -1100 290/07 RMK AO2 SLP189 T00001039 51018
14840KMKG MKG20101127155512111/27/10 15:55:31  5-MIN KMKG 272055Z 28006KT 10SM OVC015 00/M04 A3007 490 75 -1100 280/06 RMK AO2 SLP190 T00001039 53013
14840KMKG MKG20101127160009811/27/10 16:00:31  5-MIN KMKG 272100Z 26006KT 10SM OVC015 00/M04 A3007 490 75 -1100 270/06 RMK AO2
14840KMKG MKG20101127160509811/27/10 16:05:31  5-MIN KMKG 272105Z 26005KT 10SM OVC015 00/M04 A3007 490 75 -1100 260/05 RMK AO2
14840KMKG MKG20101127161009811/27/10 16:10:31  5-MIN KMKG 272110Z 26006KT 10SM OVC015 00/M04 A3008 490 75 -1100 260/06 RMK AO2
14840KMKG MKG20101127161509811/27/10 16:15:31  5-MIN KMKG 272115Z 27005KT 10SM OVC015 00/M04 A3008 480 75 -1100 280/05 RMK AO2
14840KMKG MKG20101127162009811/27/10 16:20:31  5-MIN KMKG 272120Z 27006KT 10SM OVC015 00/M04 A3008 480 75 -1100 270/06 RMK AO2
14840KMKG MKG20101127162509811/27/10 16:25:31  5-MIN KMKG 272125Z 27005KT 10SM OVC015 00/M04 A3008 480 75 -1100 270/05 RMK AO2
14840KMKG MKG20101127163009811/27/10 16:30:31  5-MIN KMKG 272130Z 30006KT 10SM OVC015 00/M04 A3009 480 75 -1100 300/06 RMK AO2
14840KMKG MKG20101127163509811/27/10 16:35:31  5-MIN KMKG 272135Z 27005KT 10SM OVC015 00/M04 A3009 480 75 -1200 270/05 RMK AO2
14840KMKG MKG20101127164009811/27/10 16:40:31  5-MIN KMKG 272140Z 27007KT 10SM OVC015 00/M04 A3009 480 75 -1100 270/07 RMK AO2
14840KMKG MKG20101127164509811/27/10 16:45:31  5-MIN KMKG 272145Z 27006KT 10SM OVC015 00/M04 A3009 480 75 -1200 280/06 RMK AO2
14840KMKG MKG20101127165011511/27/10 16:50:31  5-MIN KMKG 272150Z 25005KT 10SM OVC015 00/M04 A3009 470 75 -1200 260/05 RMK AO2 SLP197 T00001039
14840KMKG MKG20101127165511511/27/10 16:55:31  5-MIN KMKG 272155Z 25005KT 10SM OVC015 00/M04 A3009 470 75 -1200 260/05 RMK AO2 SLP197 T00001039
14840KMKG MKG20101127170009811/27/10 17:00:31  5-MIN KMKG 272200Z 27004KT 10SM OVC015 00/M04 A3009 470 75 -1200 270/04 RMK AO2
14840KMKG MKG20101127170509811/27/10 17:05:31  5-MIN KMKG 272205Z 28006KT 10SM OVC015 00/M04 A3009 470 75 -1200 290/06 RMK AO2
14840KMKG MKG20101127171009811/27/10 17:10:31  5-MIN KMKG 272210Z 27007KT 10SM OVC015 00/M04 A3010 470 75 -1200 280/07 RMK AO2
14840KMKG MKG20101127171509811/27/10 17:15:31  5-MIN KMKG 272215Z 27006KT 10SM OVC015 00/M04 A3010 470 75 -1200 270/06 RMK AO2
14840KMKG MKG20101127172009811/27/10 17:20:31  5-MIN KMKG 272220Z 29004KT 10SM OVC015 00/M04 A3010 460 75 -1200 290/04 RMK AO2
14840KMKG MKG20101127172509811/27/10 17:25:31  5-MIN KMKG 272225Z 27005KT 10SM OVC015 00/M04 A3010 460 75 -1200 270/05 RMK AO2
14840KMKG MKG20101127173009811/27/10 17:30:31  5-MIN KMKG 272230Z 27005KT 10SM OVC015 00/M04 A3010 460 75 -1200 280/05 RMK AO2
14840KMKG MKG20101127173509811/27/10 17:35:31  5-MIN KMKG 272235Z 27004KT 10SM OVC015 00/M04 A3010 460 75 -1200 280/04 RMK AO2
14840KMKG MKG20101127174009811/27/10 17:40:31  5-MIN KMKG 272240Z 28005KT 10SM OVC015 00/M04 A3010 460 75 -1200 290/05 RMK AO2
14840KMKG MKG20101127174509811/27/10 17:45:31  5-MIN KMKG 272245Z 25006KT 10SM OVC015 00/M04 A3010 460 75 -1200 260/06 RMK AO2
14840KMKG MKG20101127175011511/27/10 17:50:31  5-MIN KMKG 272250Z 24005KT 10SM OVC015 00/M04 A3010 460 75 -1200 250/05 RMK AO2 SLP202 T00001039
14840KMKG MKG20101127175511511/27/10 17:55:31  5-MIN KMKG 272255Z 24008KT 10SM OVC015 00/M04 A3011 460 75 -1200 240/08 RMK AO2 SLP203 T00001039
14840KMKG MKG20101127180009811/27/10 18:00:31  5-MIN KMKG 272300Z 26006KT 10SM OVC015 00/M04 A3011 450 75 -1200 270/06 RMK AO2
14840KMKG MKG20101127180509811/27/10 18:05:31  5-MIN KMKG 272305Z 27008KT 10SM OVC015 00/M04 A3011 460 72 -1200 280/08 RMK AO2
14840KMKG MKG20101127181009811/27/10 18:10:31  5-MIN KMKG 272310Z 27007KT 10SM OVC015 00/M04 A3011 450 75 -1200 270/07 RMK AO2
14840KMKG MKG20101127181509811/27/10 18:15:31  5-MIN KMKG 272315Z 26007KT 10SM OVC015 00/M04 A3011 450 75 -1200 260/07 RMK AO2
14840KMKG MKG20101127182009811/27/10 18:20:31  5-MIN KMKG 272320Z 27007KT 10SM OVC015 00/M04 A3011 450 72 -1200 270/07 RMK AO2
14840KMKG MKG20101127182509811/27/10 18:25:31  5-MIN KMKG 272325Z 26005KT 10SM OVC017 00/M04 A3011 450 72 -1200 270/05 RMK AO2
14840KMKG MKG20101127183009811/27/10 18:30:31  5-MIN KMKG 272330Z 27007KT 10SM OVC017 00/M04 A3011 450 72 -1200 270/07 RMK AO2
14840KMKG MKG20101127183509811/27/10 18:35:31  5-MIN KMKG 272335Z 25004KT 10SM OVC017 00/M04 A3011 450 75 -1200 250/04 RMK AO2
14840KMKG MKG20101127184009811/27/10 18:40:31  5-MIN KMKG 272340Z 23003KT 10SM OVC017 00/M04 A3011 450 75 -1200 240/03 RMK AO2
14840KMKG MKG20101127184509811/27/10 18:45:31  5-MIN KMKG 272345Z 23005KT 10SM OVC017 00/M04 A3011 450 75 -1200 240/05 RMK AO2
14840KMKG MKG20101127185013311/27/10 18:50:31  5-MIN KMKG 272350Z 24005KT 10SM OVC017 00/M04 A3011 450 75 -1200 250/05 RMK AO2 SLP205 T00001039 10000 20000 53013
14840KMKG MKG20101127185513311/27/10 18:55:31  5-MIN KMKG 272355Z 24004KT 10SM OVC017 00/M04 A3011 450 75 -1200 250/04 RMK AO2 SLP205 T00001039 10000 20000 51015
14840KMKG MKG20101127190009811/27/10 19:00:31  5-MIN KMKG 280000Z 26005KT 10SM OVC017 00/M04 A3012 450 75 -1200 260/05 RMK AO2
14840KMKG MKG20101127190509811/27/10 19:05:31  5-MIN KMKG 280005Z 26004KT 10SM OVC019 00/M04 A3012 450 75 -1200 270/04 RMK AO2
14840KMKG MKG20101127191009811/27/10 19:10:31  5-MIN KMKG 280010Z 26003KT 10SM OVC019 01/M04 A3012 450 72 -1100 260/03 RMK AO2
14840KMKG MKG20101127191509811/27/10 19:15:31  5-MIN KMKG 280015Z 24004KT 10SM OVC019 01/M04 A3012 450 72 -1100 240/04 RMK AO2
14840KMKG MKG20101127192009811/27/10 19:20:31  5-MIN KMKG 280020Z 25004KT 10SM OVC019 01/M04 A3012 440 72 -1100 260/04 RMK AO2
14840KMKG MKG20101127192509811/27/10 19:25:31  5-MIN KMKG 280025Z 24004KT 10SM OVC019 01/M04 A3012 440 72 -1100 240/04 RMK AO2
14840KMKG MKG20101127193009811/27/10 19:30:31  5-MIN KMKG 280030Z 24003KT 10SM OVC019 01/M04 A3012 440 72 -1100 240/03 RMK AO2
14840KMKG MKG20101127193509811/27/10 19:35:31  5-MIN KMKG 280035Z 24005KT 10SM OVC019 01/M04 A3012 440 72 -1100 250/05 RMK AO2
14840KMKG MKG20101127194009811/27/10 19:40:31  5-MIN KMKG 280040Z 23006KT 10SM OVC019 01/M04 A3012 440 72 -1100 240/06 RMK AO2
14840KMKG MKG20101127194509811/27/10 19:45:31  5-MIN KMKG 280045Z 23005KT 10SM OVC019 01/M04 A3012 440 72 -1100 230/05 RMK AO2
14840KMKG MKG20101127195011511/27/10 19:50:31  5-MIN KMKG 280050Z 22005KT 10SM OVC021 01/M04 A3012 450 72 -1100 230/05 RMK AO2 SLP207 T00061039
14840KMKG MKG20101127195511511/27/10 19:55:31  5-MIN KMKG 280055Z 22006KT 10SM OVC021 01/M04 A3012 440 72 -1100 220/06 RMK AO2 SLP208 T00061039
14840KMKG MKG20101127200009811/27/10 20:00:31  5-MIN KMKG 280100Z 22006KT 10SM OVC021 01/M04 A3012 450 72 -1100 220/06 RMK AO2
14840KMKG MKG20101127200509811/27/10 20:05:31  5-MIN KMKG 280105Z 22006KT 10SM OVC021 01/M04 A3012 450 72 -1100 230/06 RMK AO2
14840KMKG MKG20101127201009811/27/10 20:10:31  5-MIN KMKG 280110Z 22003KT 10SM OVC021 01/M04 A3012 450 72 -1100 230/03 RMK AO2
14840KMKG MKG20101127201509811/27/10 20:15:31  5-MIN KMKG 280115Z 23004KT 10SM OVC021 01/M04 A3012 450 72 -1100 230/04 RMK AO2
14840KMKG MKG20101127202009811/27/10 20:20:31  5-MIN KMKG 280120Z 23006KT 10SM OVC021 01/M04 A3012 450 69 -1000 230/06 RMK AO2
14840KMKG MKG20101127202509811/27/10 20:25:31  5-MIN KMKG 280125Z 24005KT 10SM OVC023 01/M04 A3012 440 69 -1100 240/05 RMK AO2
14840KMKG MKG20101127203009811/27/10 20:30:31  5-MIN KMKG 280130Z 24004KT 10SM OVC023 01/M04 A3013 440 69 -1100 250/04 RMK AO2
14840KMKG MKG20101127203509811/27/10 20:35:31  5-MIN KMKG 280135Z 23005KT 10SM OVC023 01/M04 A3013 440 69 -1100 240/05 RMK AO2
14840KMKG MKG20101127204009811/27/10 20:40:31  5-MIN KMKG 280140Z 25005KT 10SM OVC023 01/M04 A3013 440 69 -1100 250/05 RMK AO2
14840KMKG MKG20101127204509811/27/10 20:45:31  5-MIN KMKG 280145Z 24005KT 10SM OVC023 01/M04 A3012 440 69 -1100 240/05 RMK AO2
14840KMKG MKG20101127205011511/27/10 20:50:31  5-MIN KMKG 280150Z 23004KT 10SM OVC023 01/M03 A3012 440 72 -1100 240/04 RMK AO2 SLP208 T00111033
14840KMKG MKG20101127205511511/27/10 20:55:31  5-MIN KMKG 280155Z 23004KT 10SM OVC025 01/M04 A3012 440 69 -1100 240/04 RMK AO2 SLP208 T00111039
14840KMKG MKG20101127210009811/27/10 21:00:31  5-MIN KMKG 280200Z 24005KT 10SM OVC025 01/M04 A3012 450 69 -1100 240/05 RMK AO2
14840KMKG MKG20101127210509811/27/10 21:05:31  5-MIN KMKG 280205Z 23003KT 10SM OVC023 02/M04 A3012 440 66 -1000 240/03 RMK AO2
14840KMKG MKG20101127211009811/27/10 21:10:31  5-MIN KMKG 280210Z 21003KT 10SM OVC023 01/M03 A3012 450 72 -1000 220/03 RMK AO2
14840KMKG MKG20101127211509811/27/10 21:15:31  5-MIN KMKG 280215Z 00000KT 10SM OVC025 01/M03 A3012 440 72 -1100 000/00 RMK AO2
14840KMKG MKG20101127212009811/27/10 21:20:31  5-MIN KMKG 280220Z 20003KT 10SM OVC025 01/M03 A3012 440 72 -1100 200/03 RMK AO2
14840KMKG MKG20101127212509811/27/10 21:25:31  5-MIN KMKG 280225Z 22003KT 10SM OVC025 01/M03 A3012 440 72 -1100 220/03 RMK AO2
14840KMKG MKG20101127213009811/27/10 21:30:31  5-MIN KMKG 280230Z 22004KT 10SM OVC025 01/M03 A3012 450 72 -1100 220/04 RMK AO2
14840KMKG MKG20101127213509811/27/10 21:35:31  5-MIN KMKG 280235Z 24003KT 10SM OVC025 01/M03 A3012 440 72 -1100 240/03 RMK AO2
14840KMKG MKG20101127214009811/27/10 21:40:31  5-MIN KMKG 280240Z 23004KT 10SM OVC025 02/M03 A3012 440 69 -1000 240/04 RMK AO2
14840KMKG MKG20101127214509811/27/10 21:45:31  5-MIN KMKG 280245Z 23003KT 10SM OVC025 02/M03 A3012 440 69 -1000 230/03 RMK AO2
14840KMKG MKG20101127215012111/27/10 21:50:31  5-MIN KMKG 280250Z 21003KT 10SM OVC025 02/M04 A3012 440 66 -1000 220/03 RMK AO2 SLP208 T00171039 51015
14840KMKG MKG20101127215512111/27/10 21:55:31  5-MIN KMKG 280255Z 22003KT 10SM OVC025 02/M03 A3012 440 69 -1000 220/03 RMK AO2 SLP208 T00171033 51003
14840KMKG MKG20101127220009811/27/10 22:00:31  5-MIN KMKG 280300Z 00000KT 10SM OVC027 01/M03 A3012 440 72 -1100 000/00 RMK AO2
14840KMKG MKG20101127220509811/27/10 22:05:31  5-MIN KMKG 280305Z 00000KT 10SM OVC027 02/M03 A3012 440 69 -1000 000/00 RMK AO2
14840KMKG MKG20101127221009811/27/10 22:10:31  5-MIN KMKG 280310Z 24005KT 10SM OVC027 02/M04 A3012 440 66 -1000 240/05 RMK AO2
14840KMKG MKG20101127221509711/27/10 22:15:31  5-MIN KMKG 280315Z 24005KT 10SM OVC027 02/M04 A3012 450 64 -900 240/05 RMK AO2
14840KMKG MKG20101127222009711/27/10 22:20:31  5-MIN KMKG 280320Z 24008KT 10SM OVC027 02/M04 A3012 450 64 -900 240/08 RMK AO2
14840KMKG MKG20101127222509811/27/10 22:25:31  5-MIN KMKG 280325Z 25004KT 10SM OVC027 02/M04 A3012 450 66 -1000 250/04 RMK AO2
14840KMKG MKG20101127223009711/27/10 22:30:31  5-MIN KMKG 280330Z 24004KT 10SM OVC027 02/M04 A3012 440 64 -900 240/04 RMK AO2
14840KMKG MKG20101127223509711/27/10 22:35:31  5-MIN KMKG 280335Z 24005KT 10SM OVC027 02/M04 A3012 440 64 -900 240/05 RMK AO2
14840KMKG MKG20101127224009811/27/10 22:40:31  5-MIN KMKG 280340Z 24005KT 10SM OVC027 02/M04 A3013 440 66 -1000 240/05 RMK AO2
14840KMKG MKG20101127224509711/27/10 22:45:31  5-MIN KMKG 280345Z 24006KT 10SM OVC027 02/M04 A3013 440 64 -900 250/06 RMK AO2
14840KMKG MKG20101127225011511/27/10 22:50:31  5-MIN KMKG 280350Z 23004KT 10SM OVC027 02/M04 A3012 440 66 -1000 230/04 RMK AO2 SLP209 T00171039
14840KMKG MKG20101127225511511/27/10 22:55:31  5-MIN KMKG 280355Z 23003KT 10SM OVC027 02/M04 A3013 440 66 -1000 230/03 RMK AO2 SLP209 T00171039
14840KMKG MKG20101127230009711/27/10 23:00:31  5-MIN KMKG 280400Z 25005KT 10SM OVC027 02/M04 A3013 440 64 -900 250/05 RMK AO2
14840KMKG MKG20101127230509711/27/10 23:05:31  5-MIN KMKG 280405Z 25005KT 10SM OVC027 02/M04 A3013 440 64 -900 250/05 RMK AO2
14840KMKG MKG20101127231009711/27/10 23:10:31  5-MIN KMKG 280410Z 25006KT 10SM OVC027 02/M04 A3013 440 64 -900 260/06 RMK AO2
14840KMKG MKG20101127231509711/27/10 23:15:31  5-MIN KMKG 280415Z 23005KT 10SM OVC027 02/M04 A3013 440 64 -900 240/05 RMK AO2
14840KMKG MKG20101127232009811/27/10 23:20:31  5-MIN KMKG 280420Z 23005KT 10SM OVC027 02/M04 A3013 440 66 -1000 230/05 RMK AO2
14840KMKG MKG20101127232509711/27/10 23:25:31  5-MIN KMKG 280425Z 23004KT 10SM OVC027 02/M04 A3013 440 64 -900 230/04 RMK AO2
14840KMKG MKG20101127233009711/27/10 23:30:31  5-MIN KMKG 280430Z 24004KT 10SM OVC027 02/M04 A3012 440 64 -900 240/04 RMK AO2
14840KMKG MKG20101127233509811/27/10 23:35:31  5-MIN KMKG 280435Z 25005KT 10SM OVC027 02/M04 A3013 440 66 -1000 250/05 RMK AO2
14840KMKG MKG20101127234009811/27/10 23:40:31  5-MIN KMKG 280440Z 24004KT 10SM OVC027 02/M04 A3013 440 66 -1000 250/04 RMK AO2
14840KMKG MKG20101127234509811/27/10 23:45:31  5-MIN KMKG 280445Z 24005KT 10SM OVC027 02/M04 A3013 440 66 -1000 240/05 RMK AO2
14840KMKG MKG20101127235012511/27/10 23:50:31  5-MIN KMKG 280450Z 25005KT 10SM OVC027 02/M04 A3013 440 66 -1000 250/05 RMK AO2 SLP210 T00171039 400221011
14840KMKG MKG20101127235512511/27/10 23:55:31  5-MIN KMKG 280455Z 24005KT 10SM OVC027 02/M04 A3013 440 66 -1000 250/05 RMK AO2 SLP210 T00171039 400221011
14840KMKG MKG20101128000009811/28/10 00:00:32  5-MIN KMKG 280500Z 25004KT 10SM OVC027 02/M04 A3013 440 66 -1000 250/04 RMK AO2
14840KMKG MKG20101128000509811/28/10 00:05:31  5-MIN KMKG 280505Z 25004KT 10SM OVC027 02/M04 A3013 430 66 -1000 250/04 RMK AO2
14840KMKG MKG20101128001009811/28/10 00:10:31  5-MIN KMKG 280510Z 24005KT 10SM OVC027 02/M04 A3013 430 66 -1000 250/05 RMK AO2
14840KMKG MKG20101128001509811/28/10 00:15:31  5-MIN KMKG 280515Z 24003KT 10SM OVC027 01/M04 A3014 430 69 -1100 250/03 RMK AO2
14840KMKG MKG20101128002009811/28/10 00:20:31  5-MIN KMKG 280520Z 24003KT 10SM OVC027 02/M04 A3014 430 66 -1000 250/03 RMK AO2
14840KMKG MKG20101128002509811/28/10 00:25:31  5-MIN KMKG 280525Z 24004KT 10SM OVC027 01/M04 A3014 430 69 -1100 250/04 RMK AO2
14840KMKG MKG20101128003009811/28/10 00:30:31  5-MIN KMKG 280530Z 24005KT 10SM OVC027 01/M04 A3013 430 66 -1100 240/05 RMK AO2
14840KMKG MKG20101128003509811/28/10 00:35:31  5-MIN KMKG 280535Z 24005KT 10SM BKN027 01/M04 A3014 430 66 -1100 240/05 RMK AO2
14840KMKG MKG20101128004009811/28/10 00:40:31  5-MIN KMKG 280540Z 24005KT 10SM BKN027 01/M04 A3013 430 69 -1100 240/05 RMK AO2
14840KMKG MKG20101128004509811/28/10 00:45:31  5-MIN KMKG 280545Z 25004KT 10SM BKN027 01/M04 A3014 430 69 -1100 250/04 RMK AO2
14840KMKG MKG20101128005013311/28/10 00:50:31  5-MIN KMKG 280550Z 23003KT 10SM BKN027 00/M04 A3014 430 72 -1200 230/03 RMK AO2 SLP212 T00001044 10022 20000 51003
14840KMKG MKG20101128005513311/28/10 00:55:31  5-MIN KMKG 280555Z 23003KT 10SM BKN027 00/M04 A3013 430 72 -1200 240/03 RMK AO2 SLP212 T00001044 10022 20000 51004
14840KMKG MKG20101128010009811/28/10 01:00:31  5-MIN KMKG 280600Z 24003KT 10SM SCT027 00/M04 A3013 430 72 -1200 250/03 RMK AO2
14840KMKG MKG20101128010509811/28/10 01:05:31  5-MIN KMKG 280605Z 24003KT 10SM SCT027 01/M04 A3013 430 69 -1100 250/03 RMK AO2
14840KMKG MKG20101128011009811/28/10 01:10:31  5-MIN KMKG 280610Z 00000KT 10SM FEW027 01/M04 A3013 430 69 -1100 000/00 RMK AO2
14840KMKG MKG20101128014509611/28/10 01:45:31  5-MIN KMKG 280645Z 13006KT 10SM CLR M02/M05 A3014 430 81 -1500 130/06 RMK AO2
14840KMKG MKG20101128015011311/28/10 01:50:31  5-MIN KMKG 280650Z 13006KT 10SM CLR M02/M04 A3014 430 85 -1500 130/06 RMK AO2 SLP214 T10221044
14840KMKG MKG20101128015511311/28/10 01:55:31  5-MIN KMKG 280655Z 13006KT 10SM CLR M02/M04 A3014 430 85 -1500 130/06 RMK AO2 SLP214 T10221044
14840KMKG MKG20101128020009611/28/10 02:00:31  5-MIN KMKG 280700Z 12006KT 10SM CLR M02/M04 A3014 430 85 -1500 130/06 RMK AO2
14840KMKG MKG20101128020509611/28/10 02:05:31  5-MIN KMKG 280705Z 13006KT 10SM CLR M03/M05 A3014 430 85 -1600 130/06 RMK AO2
14840KMKG MKG20101128021009611/28/10 02:10:31  5-MIN KMKG 280710Z 12006KT 10SM CLR M03/M05 A3014 430 85 -1600 130/06 RMK AO2
14840KMKG MKG20101128021509611/28/10 02:15:31  5-MIN KMKG 280715Z 13006KT 10SM CLR M03/M05 A3014 430 85 -1600 130/06 RMK AO2
14840KMKG MKG20101128022009611/28/10 02:20:31  5-MIN KMKG 280720Z 13005KT 10SM CLR M03/M05 A3015 420 85 -1600 130/05 RMK AO2
14840KMKG MKG20101128022509611/28/10 02:25:31  5-MIN KMKG 280725Z 13005KT 10SM CLR M03/M05 A3015 420 88 -1600 140/05 RMK AO2
14840KMKG MKG20101128023009611/28/10 02:30:31  5-MIN KMKG 280730Z 14004KT 10SM CLR M03/M05 A3015 420 85 -1600 150/04 RMK AO2
14840KMKG MKG20101128023509611/28/10 02:35:31  5-MIN KMKG 280735Z 14003KT 10SM CLR M02/M05 A3015 420 81 -1500 150/03 RMK AO2
14840KMKG MKG20101128024009611/28/10 02:40:31  5-MIN KMKG 280740Z 00000KT 10SM CLR M02/M05 A3016 410 81 -1500 000/00 RMK AO2
14840KMKG MKG20101128024509611/28/10 02:45:31  5-MIN KMKG 280745Z 00000KT 10SM CLR M02/M05 A3016 410 81 -1500 000/00 RMK AO2
14840KMKG MKG20101128025011311/28/10 02:50:31  5-MIN KMKG 280750Z 13004KT 10SM CLR M03/M06 A3016 410 81 -1600 140/04 RMK AO2 SLP222 T10281056
14840KMKG MKG20101128025511311/28/10 02:55:31  5-MIN KMKG 280755Z 13003KT 10SM CLR M03/M06 A3016 410 81 -1600 130/03 RMK AO2 SLP222 T10281056
14840KMKG MKG20101128030009611/28/10 03:00:31  5-MIN KMKG 280800Z 13004KT 10SM CLR M03/M06 A3016 410 81 -1600 130/04 RMK AO2
14840KMKG MKG20101128030509611/28/10 03:05:31  5-MIN KMKG 280805Z 13004KT 10SM CLR M03/M06 A3016 410 81 -1600 130/04 RMK AO2
14840KMKG MKG20101128031009611/28/10 03:10:31  5-MIN KMKG 280810Z 13004KT 10SM CLR M03/M06 A3017 400 81 -1600 130/04 RMK AO2
14840KMKG MKG20101128031509611/28/10 03:15:31  5-MIN KMKG 280815Z 13004KT 10SM CLR M03/M06 A3017 400 81 -1600 130/04 RMK AO2
14840KMKG MKG20101128032009611/28/10 03:20:31  5-MIN KMKG 280820Z 12004KT 10SM CLR M03/M06 A3017 400 85 -1700 130/04 RMK AO2
14840KMKG MKG20101128032509611/28/10 03:25:31  5-MIN KMKG 280825Z 12003KT 10SM CLR M03/M06 A3017 400 81 -1700 130/03 RMK AO2
14840KMKG MKG20101128033009611/28/10 03:30:31  5-MIN KMKG 280830Z 12005KT 10SM CLR M03/M06 A3017 400 85 -1700 130/05 RMK AO2
14840KMKG MKG20101128033509511/28/10 03:35:31  5-MIN KMKG 280835Z 13004KT 9SM CLR M03/M06 A3017 400 81 -1700 130/04 RMK AO2
14840KMKG MKG20101128034009511/28/10 03:40:31  5-MIN KMKG 280840Z 13005KT 9SM CLR M04/M06 A3017 400 85 -1700 130/05 RMK AO2
14840KMKG MKG20101128034509511/28/10 03:45:31  5-MIN KMKG 280845Z 13005KT 9SM CLR M04/M06 A3017 400 85 -1700 130/05 RMK AO2
14840KMKG MKG20101128035011811/28/10 03:50:31  5-MIN KMKG 280850Z 14004KT 9SM CLR M04/M06 A3017 400 85 -1700 140/04 RMK AO2 SLP224 T10391061 51004
14840KMKG MKG20101128035511811/28/10 03:55:31  5-MIN KMKG 280855Z 12004KT 9SM CLR M04/M06 A3017 400 85 -1700 130/04 RMK AO2 SLP224 T10391061 53010
14840KMKG MKG20101128040009811/28/10 04:00:31  5-MIN KMKG 280900Z 12004KT 9SM FEW027 M04/M06 A3017 400 85 -1700 130/04 RMK AO2
14840KMKG MKG20101128040509811/28/10 04:05:31  5-MIN KMKG 280905Z 12005KT 9SM FEW027 M04/M06 A3017 400 85 -1700 120/05 RMK AO2
14840KMKG MKG20101128041009811/28/10 04:10:31  5-MIN KMKG 280910Z 13005KT 9SM FEW027 M04/M07 A3017 400 84 -1800 130/05 RMK AO2
14840KMKG MKG20101128041509811/28/10 04:15:31  5-MIN KMKG 280915Z 12006KT 9SM FEW027 M04/M07 A3017 400 84 -1800 130/06 RMK AO2
14840KMKG MKG20101128042009511/28/10 04:20:31  5-MIN KMKG 280920Z 13004KT 8SM CLR M04/M07 A3017 400 84 -1800 130/04 RMK AO2
14840KMKG MKG20101128042509811/28/10 04:25:31  5-MIN KMKG 280925Z 14003KT 8SM FEW028 M04/M06 A3017 400 85 -1700 140/03 RMK AO2
14840KMKG MKG20101128043009511/28/10 04:30:31  5-MIN KMKG 280930Z 13004KT 9SM CLR M04/M06 A3017 400 85 -1700 130/04 RMK AO2
14840KMKG MKG20101128043509811/28/10 04:35:31  5-MIN KMKG 280935Z 13004KT 9SM FEW028 M04/M06 A3017 400 85 -1700 140/04 RMK AO2
14840KMKG MKG20101128044009811/28/10 04:40:31  5-MIN KMKG 280940Z 13004KT 9SM FEW028 M04/M06 A3017 400 85 -1700 130/04 RMK AO2
14840KMKG MKG20101128044509811/28/10 04:45:31  5-MIN KMKG 280945Z 12005KT 9SM FEW028 M04/M07 A3017 400 84 -1800 130/05 RMK AO2
14840KMKG MKG20101128045011511/28/10 04:50:31  5-MIN KMKG 280950Z 12004KT 8SM FEW028 M04/M07 A3017 400 84 -1800 120/04 RMK AO2 SLP224 T10441067
14840KMKG MKG20101128045511511/28/10 04:55:31  5-MIN KMKG 280955Z 13004KT 8SM FEW028 M04/M07 A3017 400 84 -1800 130/04 RMK AO2 SLP226 T10441067
14840KMKG MKG20101128050009811/28/10 05:00:31  5-MIN KMKG 281000Z 13005KT 8SM FEW028 M04/M07 A3017 400 84 -1800 130/05 RMK AO2
14840KMKG MKG20101128050509511/28/10 05:05:31  5-MIN KMKG 281005Z 12003KT 8SM CLR M04/M07 A3017 400 84 -1800 130/03 RMK AO2
14840KMKG MKG20101128051009511/28/10 05:10:31  5-MIN KMKG 281010Z 13004KT 8SM CLR M04/M07 A3018 390 84 -1800 130/04 RMK AO2
14840KMKG MKG20101128051509511/28/10 05:15:31  5-MIN KMKG 281015Z 14003KT 8SM CLR M04/M07 A3018 390 84 -1800 150/03 RMK AO2
14840KMKG MKG20101128052009811/28/10 05:20:31  5-MIN KMKG 281020Z 14003KT 9SM FEW029 M04/M07 A3018 390 84 -1800 140/03 RMK AO2
14840KMKG MKG20101128052509811/28/10 05:25:31  5-MIN KMKG 281025Z 13004KT 9SM SCT029 M04/M06 A3018 390 85 -1700 130/04 RMK AO2
14840KMKG MKG20101128053009811/28/10 05:30:31  5-MIN KMKG 281030Z 13005KT 9SM SCT029 M04/M06 A3017 400 88 -1800 140/05 RMK AO2
14840KMKG MKG20101128053509811/28/10 05:35:31  5-MIN KMKG 281035Z 14004KT 8SM SCT029 M04/M06 A3017 400 88 -1800 140/04 RMK AO2
14840KMKG MKG20101128054009811/28/10 05:40:31  5-MIN KMKG 281040Z 14004KT 8SM SCT029 M04/M06 A3017 400 85 -1700 140/04 RMK AO2
14840KMKG MKG20101128054509811/28/10 05:45:31  5-MIN KMKG 281045Z 14004KT 8SM BKN029 M04/M06 A3017 400 85 -1700 140/04 RMK AO2
14840KMKG MKG20101128055011511/28/10 05:50:31  5-MIN KMKG 281050Z 13004KT 8SM SCT027 M04/M06 A3018 400 85 -1700 140/04 RMK AO2 SLP227 T10391061
14840KMKG MKG20101128055511511/28/10 05:55:31  5-MIN KMKG 281055Z 13005KT 9SM SCT027 M04/M06 A3018 390 85 -1800 140/05 RMK AO2 SLP228 T10391061
14840KMKG MKG20101128060009811/28/10 06:00:31  5-MIN KMKG 281100Z 14004KT 8SM SCT027 M04/M06 A3018 390 85 -1800 140/04 RMK AO2
14840KMKG MKG20101128060509811/28/10 06:05:31  5-MIN KMKG 281105Z 13004KT 8SM SCT027 M04/M06 A3018 390 85 -1800 130/04 RMK AO2
14840KMKG MKG20101128061009811/28/10 06:10:31  5-MIN KMKG 281110Z 13003KT 8SM SCT027 M04/M06 A3018 390 85 -1800 130/03 RMK AO2
14840KMKG MKG20101128061509811/28/10 06:15:31  5-MIN KMKG 281115Z 13005KT 8SM SCT027 M04/M06 A3018 390 85 -1800 130/05 RMK AO2
14840KMKG MKG20101128062009811/28/10 06:20:31  5-MIN KMKG 281120Z 13004KT 8SM SCT027 M04/M06 A3018 390 85 -1800 130/04 RMK AO2
14840KMKG MKG20101128062509811/28/10 06:25:31  5-MIN KMKG 281125Z 13003KT 8SM BKN027 M04/M06 A3019 390 88 -1800 130/03 RMK AO2
14840KMKG MKG20101128063009811/28/10 06:30:31  5-MIN KMKG 281130Z 13005KT 8SM BKN027 M04/M06 A3019 390 88 -1800 130/05 RMK AO2
14840KMKG MKG20101128063509811/28/10 06:35:31  5-MIN KMKG 281135Z 13005KT 8SM BKN027 M03/M06 A3018 390 85 -1700 130/05 RMK AO2
14840KMKG MKG20101128064009811/28/10 06:40:31  5-MIN KMKG 281140Z 12004KT 8SM BKN027 M03/M06 A3019 390 85 -1700 130/04 RMK AO2
14840KMKG MKG20101128064509811/28/10 06:45:31  5-MIN KMKG 281145Z 12004KT 8SM BKN027 M03/M06 A3019 380 85 -1700 120/04 RMK AO2
14840KMKG MKG20101128065013311/28/10 06:50:31  5-MIN KMKG 281150Z 12003KT 8SM OVC027 M03/M05 A3019 380 88 -1700 120/03 RMK AO2 SLP232 T10331050 10006 21044 53010
14840KMKG MKG20101128065513311/28/10 06:55:31  5-MIN KMKG 281155Z 13005KT 8SM OVC027 M03/M05 A3019 380 85 -1600 130/05 RMK AO2 SLP232 T10281050 10006 21044 53008
14840KMKG MKG20101128070009811/28/10 07:00:31  5-MIN KMKG 281200Z 12005KT 8SM BKN027 M03/M05 A3019 380 85 -1600 130/05 RMK AO2
14840KMKG MKG20101128070509811/28/10 07:05:31  5-MIN KMKG 281205Z 12004KT 8SM BKN027 M03/M05 A3019 380 85 -1600 120/04 RMK AO2
14840KMKG MKG20101128071009811/28/10 07:10:31  5-MIN KMKG 281210Z 12004KT 8SM BKN027 M03/M05 A3019 380 85 -1600 120/04 RMK AO2
14840KMKG MKG20101128071509811/28/10 07:15:31  5-MIN KMKG 281215Z 12004KT 8SM BKN027 M03/M05 A3019 380 85 -1600 130/04 RMK AO2
14840KMKG MKG20101128072009811/28/10 07:20:31  5-MIN KMKG 281220Z 12003KT 8SM BKN027 M03/M05 A3020 380 85 -1600 130/03 RMK AO2
14840KMKG MKG20101128072509811/28/10 07:25:31  5-MIN KMKG 281225Z 12004KT 8SM BKN027 M03/M05 A3020 370 85 -1600 130/04 RMK AO2
14840KMKG MKG20101128073009811/28/10 07:30:31  5-MIN KMKG 281230Z 12003KT 8SM BKN027 M03/M05 A3020 370 85 -1600 130/03 RMK AO2
14840KMKG MKG20101128073509811/28/10 07:35:31  5-MIN KMKG 281235Z 13004KT 8SM BKN027 M03/M05 A3020 370 85 -1600 130/04 RMK AO2
14840KMKG MKG20101128074009811/28/10 07:40:31  5-MIN KMKG 281240Z 12004KT 9SM BKN027 M03/M05 A3020 370 88 -1700 120/04 RMK AO2
14840KMKG MKG20101128074509811/28/10 07:45:31  5-MIN KMKG 281245Z 11003KT 8SM BKN027 M03/M05 A3020 370 88 -1700 110/03 RMK AO2
14840KMKG MKG20101128075011511/28/10 07:50:31  5-MIN KMKG 281250Z 11004KT 7SM BKN027 M03/M05 A3020 370 85 -1600 120/04 RMK AO2 SLP236 T10281050
14840KMKG MKG20101128075511511/28/10 07:55:31  5-MIN KMKG 281255Z 12005KT 7SM SCT027 M03/M05 A3020 370 85 -1600 120/05 RMK AO2 SLP236 T10281050
14840KMKG MKG20101128080009811/28/10 08:00:31  5-MIN KMKG 281300Z 12005KT 7SM SCT027 M03/M06 A3021 370 85 -1700 130/05 RMK AO2
14840KMKG MKG20101128080509811/28/10 08:05:31  5-MIN KMKG 281305Z 12004KT 7SM SCT027 M03/M06 A3021 370 85 -1700 130/04 RMK AO2
14840KMKG MKG20101128081009811/28/10 08:10:31  5-MIN KMKG 281310Z 12005KT 7SM FEW027 M03/M06 A3021 360 85 -1700 130/05 RMK AO2
14840KMKG MKG20101128081510111/28/10 08:15:31  5-MIN KMKG 281315Z 12004KT 6SM BR SCT027 M03/M06 A3021 370 85 -1700 130/04 RMK AO2
14840KMKG MKG20101128082010111/28/10 08:20:31  5-MIN KMKG 281320Z 12004KT 6SM BR FEW027 M03/M05 A3021 370 88 -1700 120/04 RMK AO2
14840KMKG MKG20101128082510111/28/10 08:25:31  5-MIN KMKG 281325Z 12006KT 6SM BR FEW027 M03/M05 A3021 360 88 -1700 130/06 RMK AO2
14840KMKG MKG20101128083010111/28/10 08:30:31  5-MIN KMKG 281330Z 13006KT 6SM BR FEW027 M03/M05 A3021 360 85 -1600 130/06 RMK AO2
14840KMKG MKG20101128083510111/28/10 08:35:31  5-MIN KMKG 281335Z 13007KT 6SM BR FEW027 M03/M05 A3021 360 85 -1600 130/07 RMK AO2
14840KMKG MKG20101128084010111/28/10 08:40:31  5-MIN KMKG 281340Z 13007KT 6SM BR FEW027 M03/M04 A3021 360 88 -1600 140/07 RMK AO2
14840KMKG MKG20101128084510111/28/10 08:45:31  5-MIN KMKG 281345Z 13006KT 6SM BR FEW025 M02/M04 A3021 360 85 -1600 140/06 RMK AO2
14840KMKG MKG20101128085011811/28/10 08:50:31  5-MIN KMKG 281350Z 14004KT 6SM BR FEW025 M02/M04 A3022 360 88 -1600 140/04 RMK AO2 SLP240 T10221039
14840KMKG MKG20101128085511511/28/10 08:55:31  5-MIN KMKG 281355Z 14005KT 7SM FEW025 M02/M04 A3022 360 85 -1500 140/05 RMK AO2 SLP240 T10171039
14840KMKG MKG20101128090009811/28/10 09:00:31  5-MIN KMKG 281400Z 14004KT 7SM FEW025 M02/M04 A3022 360 85 -1500 150/04 RMK AO2
14840KMKG MKG20101128090509811/28/10 09:05:31  5-MIN KMKG 281405Z 14006KT 7SM FEW025 M01/M04 A3022 360 81 -1400 150/06 RMK AO2
14840KMKG MKG20101128091009811/28/10 09:10:31  5-MIN KMKG 281410Z 15006KT 7SM FEW025 M01/M04 A3022 360 81 -1400 150/06 RMK AO2
14840KMKG MKG20101128091509511/28/10 09:15:31  5-MIN KMKG 281415Z 15007KT 7SM CLR M01/M03 A3022 350 85 -1400 150/07 RMK AO2
14840KMKG MKG20101128092009511/28/10 09:20:31  5-MIN KMKG 281420Z 15007KT 8SM CLR M01/M03 A3022 350 81 -1400 160/07 RMK AO2
14840KMKG MKG20101128092509511/28/10 09:25:31  5-MIN KMKG 281425Z 15007KT 8SM CLR M01/M03 A3022 350 81 -1400 160/07 RMK AO2
14840KMKG MKG20101128093009511/28/10 09:30:31  5-MIN KMKG 281430Z 15007KT 9SM CLR M01/M03 A3023 350 81 -1400 160/07 RMK AO2
14840KMKG MKG20101128093509711/28/10 09:35:31  5-MIN KMKG 281435Z 16007KT 9SM FEW027 00/M03 A3023 350 78 -1300 160/07 RMK AO2
14840KMKG MKG20101128094009711/28/10 09:40:31  5-MIN KMKG 281440Z 15007KT 9SM FEW027 00/M03 A3023 350 78 -1300 160/07 RMK AO2
14840KMKG MKG20101128094509811/28/10 09:45:31  5-MIN KMKG 281445Z 16006KT 10SM FEW027 01/M03 A3023 350 78 -1200 160/06 RMK AO2
14840KMKG MKG20101128095012111/28/10 09:50:31  5-MIN KMKG 281450Z 15007KT 10SM FEW027 01/M03 A3023 340 78 -1200 160/07 RMK AO2 SLP244 T00061028 53008
14840KMKG MKG20101128095512111/28/10 09:55:31  5-MIN KMKG 281455Z 15006KT 10SM FEW027 01/M03 A3023 340 75 -1200 150/06 RMK AO2 SLP245 T00111028 53014
14840KMKG MKG20101128100009811/28/10 10:00:31  5-MIN KMKG 281500Z 15006KT 10SM FEW027 01/M03 A3023 340 75 -1200 150/06 RMK AO2
14840KMKG MKG20101128100509511/28/10 10:05:31  5-MIN KMKG 281505Z 15006KT 10SM CLR 02/M02 A3024 340 75 -1100 160/06 RMK AO2
14840KMKG MKG20101128101009811/28/10 10:10:31  5-MIN KMKG 281510Z 15008KT 10SM FEW027 02/M02 A3024 340 75 -1100 160/08 RMK AO2
14840KMKG MKG20101128101509811/28/10 10:15:31  5-MIN KMKG 281515Z 15008KT 10SM FEW027 02/M02 A3024 340 75 -1100 150/08 RMK AO2
14840KMKG MKG20101128102009811/28/10 10:20:31  5-MIN KMKG 281520Z 15006KT 10SM FEW027 02/M02 A3024 340 72 -1000 160/06 RMK AO2
14840KMKG MKG20101128102509811/28/10 10:25:31  5-MIN KMKG 281525Z 16006KT 10SM SCT027 02/M02 A3024 340 72 -1000 160/06 RMK AO2
14840KMKG MKG20101128103009811/28/10 10:30:31  5-MIN KMKG 281530Z 15006KT 10SM SCT027 03/M02 A3024 340 72 -1000 160/06 RMK AO2
14840KMKG MKG20101128103509811/28/10 10:35:31  5-MIN KMKG 281535Z 16006KT 10SM SCT027 03/M02 A3024 340 72 -1000 160/06 RMK AO2
14840KMKG MKG20101128104009711/28/10 10:40:31  5-MIN KMKG 281540Z 17006KT 10SM BKN027 03/M02 A3024 340 70 -900 180/06 RMK AO2
14840KMKG MKG20101128104509711/28/10 10:45:31  5-MIN KMKG 281545Z 16007KT 10SM SCT027 03/M01 A3024 340 72 -900 170/07 RMK AO2
14840KMKG MKG20101128105011411/28/10 10:50:31  5-MIN KMKG 281550Z 15007KT 10SM SCT027 04/M01 A3024 330 70 -800 160/07 RMK AO2 SLP247 T00391011
14840KMKG MKG20101128105511411/28/10 10:55:31  5-MIN KMKG 281555Z 16007KT 10SM SCT027 04/M01 A3024 330 70 -800 170/07 RMK AO2 SLP247 T00391011
14840KMKG MKG20101128110009711/28/10 11:00:31  5-MIN KMKG 281600Z 16007KT 10SM BKN027 04/M01 A3024 330 70 -800 170/07 RMK AO2
14840KMKG MKG20101128110509711/28/10 11:05:31  5-MIN KMKG 281605Z 15007KT 10SM BKN027 04/M01 A3024 330 70 -800 160/07 RMK AO2
14840KMKG MKG20101128111009711/28/10 11:10:31  5-MIN KMKG 281610Z 14006KT 10SM OVC027 04/M01 A3024 330 67 -800 150/06 RMK AO2
14840KMKG MKG20101128111509711/28/10 11:15:31  5-MIN KMKG 281615Z 17005KT 10SM BKN027 04/M01 A3024 330 70 -800 180/05 RMK AO2
14840KMKG MKG20101128112009711/28/10 11:20:31  5-MIN KMKG 281620Z 20008KT 10SM OVC027 05/M01 A3024 340 64 -700 200/08 RMK AO2
14840KMKG MKG20101128112510311/28/10 11:25:31  5-MIN KMKG 281625Z 21013G16KT 10SM OVC025 06/M01 A3024 340 62 -600 210/13G16 RMK AO2
14840KMKG MKG20101128113009711/28/10 11:30:31  5-MIN KMKG 281630Z 20009KT 10SM OVC025 06/M01 A3024 340 62 -600 200/09 RMK AO2
14840KMKG MKG20101128113510311/28/10 11:35:31  5-MIN KMKG 281635Z 21012G17KT 10SM OVC025 05/M01 A3023 340 64 -700 220/12G17 RMK AO2
14840KMKG MKG20101128114009711/28/10 11:40:31  5-MIN KMKG 281640Z 20010KT 10SM BKN025 06/M02 A3023 350 59 -600 210/10 RMK AO2
14840KMKG MKG20101128114509711/28/10 11:45:31  5-MIN KMKG 281645Z 22009KT 10SM BKN025 06/M01 A3023 350 60 -600 220/09 RMK AO2
14840KMKG MKG20101128115011411/28/10 11:50:31  5-MIN KMKG 281650Z 21011KT 10SM BKN025 06/M02 A3023 350 57 -600 220/11 RMK AO2 SLP242 T00611017
14840KMKG MKG20101128115511411/28/10 11:55:31  5-MIN KMKG 281655Z 21012KT 10SM BKN025 06/M02 A3023 350 59 -600 210/12 RMK AO2 SLP241 T00561017
14840KMKG MKG20101128120009711/28/10 12:00:31  5-MIN KMKG 281700Z 20008KT 10SM SCT027 06/M02 A3022 350 59 -600 200/08 RMK AO2
14840KMKG MKG20101128120509711/28/10 12:05:31  5-MIN KMKG 281705Z 19007KT 10SM SCT027 06/M02 A3022 350 59 -600 200/07 RMK AO2
14840KMKG MKG20101128121010311/28/10 12:10:31  5-MIN KMKG 281710Z 17009G16KT 10SM SCT027 06/M01 A3022 350 60 -500 180/09G16 RMK AO2
14840KMKG MKG20101128121509711/28/10 12:15:31  5-MIN KMKG 281715Z 16009KT 10SM SCT027 05/M01 A3022 360 64 -700 170/09 RMK AO2
14840KMKG MKG20101128122009711/28/10 12:20:31  5-MIN KMKG 281720Z 21011KT 10SM SCT027 05/M01 A3022 360 64 -700 210/11 RMK AO2
14840KMKG MKG20101128122509711/28/10 12:25:31  5-MIN KMKG 281725Z 21013KT 10SM SCT027 06/M01 A3022 360 62 -600 210/13 RMK AO2
14840KMKG MKG20101128123009711/28/10 12:30:31  5-MIN KMKG 281730Z 20011KT 10SM SCT027 06/M02 A3022 360 59 -600 210/11 RMK AO2
14840KMKG MKG20101128123509711/28/10 12:35:31  5-MIN KMKG 281735Z 19008KT 10SM SCT027 06/M01 A3021 360 60 -500 190/08 RMK AO2
14840KMKG MKG20101128124010311/28/10 12:40:31  5-MIN KMKG 281740Z 21013G18KT 10SM SCT027 06/M01 A3021 360 60 -500 210/13G18 RMK AO2
14840KMKG MKG20101128124510311/28/10 12:45:31  5-MIN KMKG 281745Z 19010G18KT 10SM FEW027 06/M01 A3021 360 62 -600 200/10G18 RMK AO2
14840KMKG MKG20101128125013211/28/10 12:50:31  5-MIN KMKG 281750Z 18011KT 10SM SCT027 06/M01 A3021 360 62 -600 190/11 RMK AO2 SLP236 T00561011 10061 21033 53014
14840KMKG MKG20101128125513211/28/10 12:55:31  5-MIN KMKG 281755Z 20010KT 10SM SCT027 06/M01 A3021 370 62 -600 200/10 RMK AO2 SLP235 T00561011 10061 21033 58008
14840KMKG MKG20101128130009711/28/10 13:00:31  5-MIN KMKG 281800Z 17012KT 10SM SCT025 06/M01 A3021 370 65 -600 180/12 RMK AO2
14840KMKG MKG20101128130509611/28/10 13:05:31  5-MIN KMKG 281805Z 17011KT 10SM SCT025 06/00 A3021 370 67 -600 170/11 RMK AO2
14840KMKG MKG20101128131009611/28/10 13:10:31  5-MIN KMKG 281810Z 16010KT 10SM SCT025 06/00 A3020 370 67 -600 160/10 RMK AO2
14840KMKG MKG20101128131509611/28/10 13:15:31  5-MIN KMKG 281815Z 18010KT 10SM BKN023 06/00 A3020 370 67 -600 190/10 RMK AO2
14840KMKG MKG20101128132009611/28/10 13:20:31  5-MIN KMKG 281820Z 18010KT 10SM BKN023 06/01 A3020 370 70 -600 180/10 RMK AO2
14840KMKG MKG20101128132509611/28/10 13:25:31  5-MIN KMKG 281825Z 18011KT 10SM BKN023 06/00 A3020 380 67 -600 180/11 RMK AO2
14840KMKG MKG20101128133009611/28/10 13:30:31  5-MIN KMKG 281830Z 18012KT 10SM BKN023 06/00 A3019 380 67 -600 180/12 RMK AO2
14840KMKG MKG20101128133509611/28/10 13:35:31  5-MIN KMKG 281835Z 18011KT 10SM BKN023 06/00 A3019 380 67 -600 190/11 RMK AO2
14840KMKG MKG20101128134009611/28/10 13:40:31  5-MIN KMKG 281840Z 17011KT 10SM BKN023 06/00 A3019 380 67 -600 180/11 RMK AO2
14840KMKG MKG20101128134509611/28/10 13:45:31  5-MIN KMKG 281845Z 17012KT 10SM BKN023 06/00 A3019 380 67 -600 170/12 RMK AO2
14840KMKG MKG20101128135011911/28/10 13:50:31  5-MIN KMKG 281850Z 17012G19KT 10SM BKN023 06/00 A3019 380 67 -600 180/12G19 RMK AO2 SLP231 T00560000
14840KMKG MKG20101128135511911/28/10 13:55:31  5-MIN KMKG 281855Z 19011G19KT 10SM BKN023 06/00 A3019 380 67 -600 190/11G19 RMK AO2 SLP231 T00560000
14840KMKG MKG20101128140009611/28/10 14:00:31  5-MIN KMKG 281900Z 17011KT 10SM BKN023 06/00 A3019 380 67 -600 170/11 RMK AO2
14840KMKG MKG20101128140509611/28/10 14:05:31  5-MIN KMKG 281905Z 18008KT 10SM OVC023 06/00 A3019 380 67 -600 180/08 RMK AO2
14840KMKG MKG20101128141009611/28/10 14:10:31  5-MIN KMKG 281910Z 19010KT 10SM OVC023 06/00 A3019 380 67 -600 190/10 RMK AO2
14840KMKG MKG20101128141509611/28/10 14:15:31  5-MIN KMKG 281915Z 17011KT 10SM OVC021 05/01 A3019 380 73 -600 180/11 RMK AO2
14840KMKG MKG20101128142009611/28/10 14:20:31  5-MIN KMKG 281920Z 17010KT 10SM OVC021 06/01 A3019 390 70 -600 170/10 RMK AO2
14840KMKG MKG20101128142509611/28/10 14:25:31  5-MIN KMKG 281925Z 17010KT 10SM OVC021 05/01 A3018 390 73 -600 170/10 RMK AO2
14840KMKG MKG20101128143009611/28/10 14:30:31  5-MIN KMKG 281930Z 18009KT 10SM OVC021 05/01 A3019 390 73 -600 180/09 RMK AO2
14840KMKG MKG20101128143509611/28/10 14:35:31  5-MIN KMKG 281935Z 17009KT 10SM OVC019 05/00 A3019 390 70 -600 170/09 RMK AO2
14840KMKG MKG20101128144009611/28/10 14:40:31  5-MIN KMKG 281940Z 17011KT 10SM OVC019 05/00 A3018 390 70 -600 170/11 RMK AO2
14840KMKG MKG20101128144509611/28/10 14:45:31  5-MIN KMKG 281945Z 18010KT 10SM OVC019 05/00 A3018 390 70 -600 180/10 RMK AO2
14840KMKG MKG20101128145011311/28/10 14:50:31  5-MIN KMKG 281950Z 18010KT 10SM OVC019 05/00 A3018 390 70 -600 180/10 RMK AO2 SLP227 T00500000
14840KMKG MKG20101128145511911/28/10 14:55:31  5-MIN KMKG 281955Z 18011G16KT 10SM OVC019 05/00 A3018 390 70 -600 180/11G16 RMK AO2 SLP227 T00500000
14840KMKG MKG20101128150009611/28/10 15:00:31  5-MIN KMKG 282000Z 18011KT 10SM OVC019 05/00 A3018 390 70 -600 180/11 RMK AO2
14840KMKG MKG20101128150509711/28/10 15:05:31  5-MIN KMKG 282005Z 17009KT 10SM BKN019 05/M01 A3018 390 67 -600 170/09 RMK AO2
14840KMKG MKG20101128151009711/28/10 15:10:31  5-MIN KMKG 282010Z 18009KT 10SM BKN019 05/M01 A3018 390 67 -600 190/09 RMK AO2
14840KMKG MKG20101128151509711/28/10 15:15:31  5-MIN KMKG 282015Z 18010KT 10SM SCT019 05/M01 A3018 390 64 -600 190/10 RMK AO2
14840KMKG MKG20101128152009711/28/10 15:20:31  5-MIN KMKG 282020Z 19009KT 10SM SCT019 05/M01 A3018 390 64 -600 190/09 RMK AO2
14840KMKG MKG20101128152509711/28/10 15:25:31  5-MIN KMKG 282025Z 19007KT 10SM FEW019 05/M01 A3018 390 64 -600 200/07 RMK AO2
14840KMKG MKG20101128153009411/28/10 15:30:31  5-MIN KMKG 282030Z 19009KT 10SM CLR 05/M02 A3018 390 62 -600 200/09 RMK AO2
14840KMKG MKG20101128153509411/28/10 15:35:31  5-MIN KMKG 282035Z 20008KT 10SM CLR 05/M02 A3018 390 62 -600 200/08 RMK AO2
14840KMKG MKG20101128154009411/28/10 15:40:31  5-MIN KMKG 282040Z 20007KT 10SM CLR 05/M02 A3017 400 62 -600 200/07 RMK AO2
14840KMKG MKG20101128154509411/28/10 15:45:31  5-MIN KMKG 282045Z 19006KT 10SM CLR 05/M02 A3017 400 62 -600 190/06 RMK AO2
14840KMKG MKG20101128155012011/28/10 15:50:31  5-MIN KMKG 282050Z 18004KT 10SM FEW019 05/M02 A3017 400 62 -600 190/04 RMK AO2 SLP225 T00501017 58008
14840KMKG MKG20101128155512011/28/10 15:55:31  5-MIN KMKG 282055Z 17005KT 10SM FEW019 05/M02 A3018 400 62 -600 180/05 RMK AO2 SLP226 T00501017 56010
14840KMKG MKG20101128160009411/28/10 16:00:31  5-MIN KMKG 282100Z 17005KT 10SM CLR 05/M02 A3018 400 62 -600 180/05 RMK AO2
14840KMKG MKG20101128160509411/28/10 16:05:31  5-MIN KMKG 282105Z 18003KT 10SM CLR 05/M02 A3017 400 62 -600 180/03 RMK AO2
14840KMKG MKG20101128161009411/28/10 16:10:31  5-MIN KMKG 282110Z 15004KT 10SM CLR 05/M02 A3017 400 62 -600 150/04 RMK AO2
14840KMKG MKG20101128161509411/28/10 16:15:31  5-MIN KMKG 282115Z 15006KT 10SM CLR 05/M02 A3017 400 59 -600 150/06 RMK AO2
14840KMKG MKG20101128162009411/28/10 16:20:31  5-MIN KMKG 282120Z 13008KT 10SM CLR 05/M03 A3017 400 57 -600 140/08 RMK AO2
14840KMKG MKG20101128162509411/28/10 16:25:31  5-MIN KMKG 282125Z 13007KT 10SM CLR 05/M03 A3017 400 57 -600 140/07 RMK AO2
14840KMKG MKG20101128163009411/28/10 16:30:31  5-MIN KMKG 282130Z 13007KT 10SM CLR 05/M03 A3017 400 55 -600 140/07 RMK AO2
14840KMKG MKG20101128163509411/28/10 16:35:31  5-MIN KMKG 282135Z 13009KT 10SM CLR 04/M03 A3017 400 57 -700 140/09 RMK AO2
14840KMKG MKG20101128164009411/28/10 16:40:31  5-MIN KMKG 282140Z 14008KT 10SM CLR 05/M04 A3017 400 52 -600 140/08 RMK AO2
14840KMKG MKG20101128164509411/28/10 16:45:31  5-MIN KMKG 282145Z 13007KT 10SM CLR 04/M04 A3017 400 55 -700 140/07 RMK AO2
14840KMKG MKG20101128165011111/28/10 16:50:31  5-MIN KMKG 282150Z 13006KT 10SM CLR 04/M03 A3017 400 59 -800 130/06 RMK AO2 SLP225 T00391033
14840KMKG MKG20101128165511111/28/10 16:55:31  5-MIN KMKG 282155Z 13007KT 10SM CLR 04/M03 A3017 400 59 -800 130/07 RMK AO2 SLP223 T00391033
14840KMKG MKG20101128170009411/28/10 17:00:31  5-MIN KMKG 282200Z 13006KT 10SM CLR 03/M04 A3017 400 59 -800 130/06 RMK AO2
14840KMKG MKG20101128170509411/28/10 17:05:31  5-MIN KMKG 282205Z 13006KT 10SM CLR 03/M04 A3017 400 61 -900 140/06 RMK AO2
14840KMKG MKG20101128171009411/28/10 17:10:31  5-MIN KMKG 282210Z 13006KT 10SM CLR 03/M04 A3017 400 61 -900 140/06 RMK AO2
14840KMKG MKG20101128171509511/28/10 17:15:31  5-MIN KMKG 282215Z 13006KT 10SM CLR 02/M04 A3017 400 61 -1000 140/06 RMK AO2
14840KMKG MKG20101128172009511/28/10 17:20:31  5-MIN KMKG 282220Z 13006KT 10SM CLR 02/M04 A3017 400 61 -1000 140/06 RMK AO2
14840KMKG MKG20101128172509511/28/10 17:25:31  5-MIN KMKG 282225Z 13006KT 10SM CLR 02/M04 A3017 400 61 -1000 140/06 RMK AO2
14840KMKG MKG20101128173009511/28/10 17:30:31  5-MIN KMKG 282230Z 13007KT 10SM CLR 02/M04 A3017 400 64 -1000 130/07 RMK AO2
14840KMKG MKG20101128173509511/28/10 17:35:31  5-MIN KMKG 282235Z 13007KT 10SM CLR 02/M04 A3017 400 64 -1000 130/07 RMK AO2
14840KMKG MKG20101128174009511/28/10 17:40:31  5-MIN KMKG 282240Z 13007KT 10SM CLR 02/M05 A3016 400 61 -1000 140/07 RMK AO2
14840KMKG MKG20101128174509511/28/10 17:45:31  5-MIN KMKG 282245Z 13008KT 10SM CLR 02/M05 A3016 410 61 -1000 130/08 RMK AO2
14840KMKG MKG20101128175011211/28/10 17:50:31  5-MIN KMKG 282250Z 13008KT 10SM CLR 01/M05 A3016 410 64 -1100 130/08 RMK AO2 SLP222 T00111050
14840KMKG MKG20101128175511211/28/10 17:55:31  5-MIN KMKG 282255Z 12008KT 10SM CLR 01/M05 A3016 410 64 -1100 130/08 RMK AO2 SLP221 T00111050
14840KMKG MKG20101128180009511/28/10 18:00:31  5-MIN KMKG 282300Z 12008KT 10SM CLR 01/M04 A3016 410 66 -1100 130/08 RMK AO2
14840KMKG MKG20101128180509511/28/10 18:05:31  5-MIN KMKG 282305Z 13008KT 10SM CLR 01/M04 A3015 420 66 -1100 130/08 RMK AO2
14840KMKG MKG20101128181009511/28/10 18:10:31  5-MIN KMKG 282310Z 12007KT 10SM CLR 01/M04 A3015 410 66 -1100 120/07 RMK AO2
14840KMKG MKG20101128181509511/28/10 18:15:31  5-MIN KMKG 282315Z 12005KT 10SM CLR 01/M05 A3016 410 64 -1100 120/05 RMK AO2
14840KMKG MKG20101128182009511/28/10 18:20:31  5-MIN KMKG 282320Z 12006KT 10SM CLR 01/M05 A3016 410 64 -1100 130/06 RMK AO2
14840KMKG MKG20101128182509511/28/10 18:25:31  5-MIN KMKG 282325Z 13006KT 10SM CLR 01/M05 A3016 410 64 -1100 130/06 RMK AO2
14840KMKG MKG20101128183009511/28/10 18:30:31  5-MIN KMKG 282330Z 12007KT 10SM CLR 01/M05 A3016 410 64 -1100 130/07 RMK AO2
14840KMKG MKG20101128183509511/28/10 18:35:31  5-MIN KMKG 282335Z 12006KT 10SM CLR 01/M05 A3016 410 66 -1200 130/06 RMK AO2
14840KMKG MKG20101128184009511/28/10 18:40:31  5-MIN KMKG 282340Z 12007KT 10SM CLR 01/M05 A3016 410 66 -1200 130/07 RMK AO2
14840KMKG MKG20101128184509511/28/10 18:45:31  5-MIN KMKG 282345Z 13008KT 10SM CLR 01/M05 A3016 410 66 -1200 130/08 RMK AO2
14840KMKG MKG20101128185013011/28/10 18:50:31  5-MIN KMKG 282350Z 13009KT 10SM CLR 01/M05 A3016 410 64 -1100 140/09 RMK AO2 SLP221 T00111050 10061 20006 56010
14840KMKG MKG20101128185513011/28/10 18:55:31  5-MIN KMKG 282355Z 13009KT 10SM CLR 01/M04 A3016 410 66 -1100 130/09 RMK AO2 SLP220 T00111044 10061 20006 55006
14840KMKG MKG20101128190009511/28/10 19:00:31  5-MIN KMKG 290000Z 13009KT 10SM CLR 01/M04 A3016 410 66 -1100 130/09 RMK AO2
14840KMKG MKG20101128190509511/28/10 19:05:31  5-MIN KMKG 290005Z 13010KT 10SM CLR 01/M04 A3016 410 66 -1100 140/10 RMK AO2
14840KMKG MKG20101128191009511/28/10 19:10:31  5-MIN KMKG 290010Z 13009KT 10SM CLR 02/M04 A3016 410 64 -1000 140/09 RMK AO2
14840KMKG MKG20101128191509511/28/10 19:15:31  5-MIN KMKG 290015Z 13009KT 10SM CLR 02/M04 A3016 410 64 -1000 140/09 RMK AO2
14840KMKG MKG20101128192009511/28/10 19:20:31  5-MIN KMKG 290020Z 14008KT 10SM CLR 02/M04 A3016 410 64 -1000 140/08 RMK AO2
14840KMKG MKG20101128192509511/28/10 19:25:31  5-MIN KMKG 290025Z 14008KT 10SM CLR 02/M04 A3016 410 64 -1000 140/08 RMK AO2
14840KMKG MKG20101128193009511/28/10 19:30:31  5-MIN KMKG 290030Z 13009KT 10SM CLR 02/M04 A3015 420 66 -1000 140/09 RMK AO2
14840KMKG MKG20101128193509511/28/10 19:35:31  5-MIN KMKG 290035Z 14009KT 10SM CLR 02/M04 A3015 420 66 -1000 140/09 RMK AO2
14840KMKG MKG20101128194009511/28/10 19:40:31  5-MIN KMKG 290040Z 14009KT 10SM CLR 02/M04 A3015 420 66 -1000 140/09 RMK AO2
14840KMKG MKG20101128194509411/28/10 19:45:31  5-MIN KMKG 290045Z 14011KT 10SM CLR 02/M04 A3015 420 64 -900 140/11 RMK AO2
14840KMKG MKG20101128195011111/28/10 19:50:31  5-MIN KMKG 290050Z 14009KT 10SM CLR 02/M04 A3015 420 64 -900 140/09 RMK AO2 SLP218 T00221039
14840KMKG MKG20101128195511111/28/10 19:55:31  5-MIN KMKG 290055Z 14011KT 10SM CLR 02/M04 A3015 420 64 -900 140/11 RMK AO2 SLP217 T00221039
14840KMKG MKG20101128200009411/28/10 20:00:31  5-MIN KMKG 290100Z 14010KT 10SM CLR 02/M04 A3014 420 64 -900 140/10 RMK AO2
14840KMKG MKG20101128200509411/28/10 20:05:31  5-MIN KMKG 290105Z 13011KT 10SM CLR 02/M04 A3014 430 64 -900 140/11 RMK AO2
14840KMKG MKG20101128201009511/28/10 20:10:31  5-MIN KMKG 290110Z 13011KT 10SM CLR 02/M04 A3013 440 66 -1000 140/11 RMK AO2
14840KMKG MKG20101128201509511/28/10 20:15:31  5-MIN KMKG 290115Z 13012KT 10SM CLR 02/M04 A3013 440 66 -1000 140/12 RMK AO2
14840KMKG MKG20101128202009411/28/10 20:20:31  5-MIN KMKG 290120Z 13011KT 10SM CLR 02/M04 A3013 440 64 -900 140/11 RMK AO2
14840KMKG MKG20101128202509411/28/10 20:25:31  5-MIN KMKG 290125Z 13012KT 10SM CLR 02/M04 A3013 440 64 -900 130/12 RMK AO2
14840KMKG MKG20101128203009411/28/10 20:30:31  5-MIN KMKG 290130Z 13012KT 10SM CLR 02/M04 A3012 440 64 -900 140/12 RMK AO2
14840KMKG MKG20101128203509411/28/10 20:35:31  5-MIN KMKG 290135Z 14012KT 10SM CLR 02/M04 A3012 440 64 -900 140/12 RMK AO2
14840KMKG MKG20101128204009411/28/10 20:40:31  5-MIN KMKG 290140Z 14011KT 10SM CLR 02/M04 A3013 440 64 -900 150/11 RMK AO2
14840KMKG MKG20101128204509411/28/10 20:45:31  5-MIN KMKG 290145Z 14010KT 10SM CLR 02/M04 A3013 440 64 -900 150/10 RMK AO2
14840KMKG MKG20101128205011111/28/10 20:50:31  5-MIN KMKG 290150Z 14008KT 10SM CLR 02/M04 A3013 430 64 -900 150/08 RMK AO2 SLP212 T00221039
14840KMKG MKG20101128205511111/28/10 20:55:31  5-MIN KMKG 290155Z 14010KT 10SM CLR 02/M04 A3013 440 64 -900 140/10 RMK AO2 SLP211 T00221039
14840KMKG MKG20101128210009411/28/10 21:00:31  5-MIN KMKG 290200Z 14010KT 10SM CLR 02/M04 A3013 440 64 -900 140/10 RMK AO2
14840KMKG MKG20101128210509411/28/10 21:05:31  5-MIN KMKG 290205Z 14011KT 10SM CLR 02/M04 A3013 440 64 -900 140/11 RMK AO2
14840KMKG MKG20101128211009411/28/10 21:10:31  5-MIN KMKG 290210Z 14010KT 10SM CLR 02/M04 A3013 440 64 -900 140/10 RMK AO2
14840KMKG MKG20101128211509511/28/10 21:15:31  5-MIN KMKG 290215Z 14010KT 10SM CLR 02/M04 A3013 440 66 -1000 140/10 RMK AO2
14840KMKG MKG20101128212009511/28/10 21:20:31  5-MIN KMKG 290220Z 13010KT 10SM CLR 02/M04 A3013 440 66 -1000 140/10 RMK AO2
14840KMKG MKG20101128212509511/28/10 21:25:31  5-MIN KMKG 290225Z 14012KT 10SM CLR 02/M04 A3013 440 66 -1000 140/12 RMK AO2
14840KMKG MKG20101128213009511/28/10 21:30:31  5-MIN KMKG 290230Z 14011KT 10SM CLR 02/M04 A3013 440 66 -1000 140/11 RMK AO2
14840KMKG MKG20101128213509511/28/10 21:35:31  5-MIN KMKG 290235Z 14011KT 10SM CLR 02/M04 A3013 440 66 -1000 140/11 RMK AO2
14840KMKG MKG20101128214009511/28/10 21:40:31  5-MIN KMKG 290240Z 14011KT 10SM CLR 02/M04 A3013 440 66 -1000 150/11 RMK AO2
14840KMKG MKG20101128214509511/28/10 21:45:31  5-MIN KMKG 290245Z 14010KT 10SM CLR 02/M04 A3013 440 66 -1000 150/10 RMK AO2
14840KMKG MKG20101128215011811/28/10 21:50:31  5-MIN KMKG 290250Z 14010KT 10SM CLR 02/M04 A3013 440 66 -1000 140/10 RMK AO2 SLP209 T00171039 55006
14840KMKG MKG20101128215511811/28/10 21:55:31  5-MIN KMKG 290255Z 14011KT 10SM CLR 02/M04 A3013 440 66 -1000 140/11 RMK AO2 SLP208 T00171039 56011
14840KMKG MKG20101128220009511/28/10 22:00:31  5-MIN KMKG 290300Z 14011KT 10SM CLR 02/M04 A3013 440 66 -1000 140/11 RMK AO2
14840KMKG MKG20101128220509511/28/10 22:05:31  5-MIN KMKG 290305Z 13011KT 10SM CLR 02/M04 A3013 440 66 -1000 140/11 RMK AO2
14840KMKG MKG20101128221009511/28/10 22:10:31  5-MIN KMKG 290310Z 14008KT 10SM CLR 02/M04 A3013 440 66 -1000 140/08 RMK AO2
14840KMKG MKG20101128221509511/28/10 22:15:31  5-MIN KMKG 290315Z 14010KT 10SM CLR 02/M04 A3013 440 66 -1000 140/10 RMK AO2
14840KMKG MKG20101128222009511/28/10 22:20:31  5-MIN KMKG 290320Z 14012KT 10SM CLR 02/M04 A3012 440 66 -1000 140/12 RMK AO2
14840KMKG MKG20101128222509511/28/10 22:25:31  5-MIN KMKG 290325Z 13011KT 10SM CLR 02/M04 A3012 440 66 -1000 140/11 RMK AO2
14840KMKG MKG20101128223009511/28/10 22:30:31  5-MIN KMKG 290330Z 14009KT 10SM CLR 01/M04 A3013 440 69 -1100 140/09 RMK AO2
14840KMKG MKG20101128223509511/28/10 22:35:31  5-MIN KMKG 290335Z 14008KT 10SM CLR 01/M04 A3013 440 69 -1100 140/08 RMK AO2
14840KMKG MKG20101128224009511/28/10 22:40:31  5-MIN KMKG 290340Z 14009KT 10SM CLR 02/M04 A3013 440 66 -1000 140/09 RMK AO2
14840KMKG MKG20101128224509511/28/10 22:45:31  5-MIN KMKG 290345Z 14009KT 10SM CLR 02/M04 A3013 430 66 -1000 140/09 RMK AO2
14840KMKG MKG20101128225011211/28/10 22:50:31  5-MIN KMKG 290350Z 14007KT 10SM CLR 01/M04 A3014 430 69 -1100 150/07 RMK AO2 SLP210 T00111039
14840KMKG MKG20101128225511211/28/10 22:55:31  5-MIN KMKG 290355Z 15007KT 10SM CLR 01/M04 A3014 430 69 -1100 150/07 RMK AO2 SLP211 T00111039
14840KMKG MKG20101128230009511/28/10 23:00:31  5-MIN KMKG 290400Z 14007KT 10SM CLR 02/M04 A3014 430 66 -1000 150/07 RMK AO2
14840KMKG MKG20101128230509511/28/10 23:05:31  5-MIN KMKG 290405Z 15007KT 10SM CLR 01/M04 A3014 430 69 -1100 150/07 RMK AO2
14840KMKG MKG20101128231009511/28/10 23:10:31  5-MIN KMKG 290410Z 14008KT 10SM CLR 01/M04 A3014 430 69 -1100 140/08 RMK AO2
14840KMKG MKG20101128231509511/28/10 23:15:31  5-MIN KMKG 290415Z 13007KT 10SM CLR 01/M04 A3014 430 69 -1100 140/07 RMK AO2
14840KMKG MKG20101128232009511/28/10 23:20:31  5-MIN KMKG 290420Z 14008KT 10SM CLR 01/M04 A3014 430 72 -1100 140/08 RMK AO2
14840KMKG MKG20101128232509511/28/10 23:25:31  5-MIN KMKG 290425Z 14007KT 10SM CLR 01/M04 A3014 430 69 -1100 140/07 RMK AO2
14840KMKG MKG20101128233009511/28/10 23:30:31  5-MIN KMKG 290430Z 14005KT 10SM CLR 02/M04 A3015 420 66 -1000 150/05 RMK AO2
14840KMKG MKG20101128233509511/28/10 23:35:31  5-MIN KMKG 290435Z 15006KT 10SM CLR 01/M04 A3015 420 69 -1100 150/06 RMK AO2
14840KMKG MKG20101128234009511/28/10 23:40:31  5-MIN KMKG 290440Z 14007KT 10SM CLR 01/M04 A3014 420 69 -1100 150/07 RMK AO2
14840KMKG MKG20101128234509511/28/10 23:45:31  5-MIN KMKG 290445Z 14007KT 10SM CLR 02/M04 A3015 420 66 -1000 150/07 RMK AO2
14840KMKG MKG20101128235012211/28/10 23:50:31  5-MIN KMKG 290450Z 14008KT 10SM CLR 01/M04 A3014 430 69 -1100 140/08 RMK AO2 SLP213 T00111039 400611044
14840KMKG MKG20101128235512211/28/10 23:55:31  5-MIN KMKG 290455Z 13008KT 10SM CLR 01/M04 A3014 430 69 -1100 140/08 RMK AO2 SLP212 T00111039 400611044
14840KMKG MKG20101129000009511/29/10 00:00:32  5-MIN KMKG 290500Z 13009KT 10SM CLR 01/M04 A3014 430 72 -1100 130/09 RMK AO2
14840KMKG MKG20101129000509511/29/10 00:05:31  5-MIN KMKG 290505Z 13009KT 10SM CLR 01/M04 A3014 430 72 -1100 130/09 RMK AO2
14840KMKG MKG20101129001009511/29/10 00:10:31  5-MIN KMKG 290510Z 13009KT 10SM CLR 01/M04 A3013 430 72 -1100 130/09 RMK AO2
14840KMKG MKG20101129001509511/29/10 00:15:31  5-MIN KMKG 290515Z 13008KT 10SM CLR 01/M04 A3014 430 72 -1100 140/08 RMK AO2
14840KMKG MKG20101129002009511/29/10 00:20:31  5-MIN KMKG 290520Z 13009KT 10SM CLR 01/M04 A3013 430 72 -1100 130/09 RMK AO2
14840KMKG MKG20101129002509511/29/10 00:25:31  5-MIN KMKG 290525Z 13008KT 10SM CLR 01/M04 A3013 430 72 -1100 140/08 RMK AO2
14840KMKG MKG20101129003009511/29/10 00:30:31  5-MIN KMKG 290530Z 13009KT 10SM CLR 01/M04 A3013 430 72 -1100 130/09 RMK AO2
14840KMKG MKG20101129003509511/29/10 00:35:31  5-MIN KMKG 290535Z 13009KT 10SM CLR 01/M04 A3014 430 72 -1100 140/09 RMK AO2
14840KMKG MKG20101129004009511/29/10 00:40:31  5-MIN KMKG 290540Z 13008KT 10SM CLR 01/M03 A3014 430 75 -1100 140/08 RMK AO2
14840KMKG MKG20101129004509511/29/10 00:45:31  5-MIN KMKG 290545Z 13009KT 10SM CLR 01/M03 A3013 430 75 -1100 140/09 RMK AO2
14840KMKG MKG20101129005013011/29/10 00:50:31  5-MIN KMKG 290550Z 14008KT 10SM CLR 01/M03 A3013 430 75 -1100 140/08 RMK AO2 SLP210 T00061033 10022 20006 56011
14840KMKG MKG20101129005513011/29/10 00:55:31  5-MIN KMKG 290555Z 14009KT 10SM CLR 01/M03 A3013 430 75 -1100 140/09 RMK AO2 SLP210 T00061033 10022 20006 50002
14840KMKG MKG20101129010509511/29/10 01:05:31  5-MIN KMKG 290605Z 14009KT 10SM CLR 01/M03 A3013 430 75 -1100 140/09 RMK AO2
14840KMKG MKG20101129011009511/29/10 01:10:31  5-MIN KMKG 290610Z 13009KT 10SM CLR 01/M03 A3013 440 72 -1100 140/09 RMK AO2
14840KMKG MKG20101129011509511/29/10 01:15:31  5-MIN KMKG 290615Z 13009KT 10SM CLR 01/M03 A3013 430 75 -1100 130/09 RMK AO2
14840KMKG MKG20101129012009511/29/10 01:20:31  5-MIN KMKG 290620Z 13010KT 10SM CLR 01/M03 A3013 440 75 -1100 140/10 RMK AO2
14840KMKG MKG20101129012509511/29/10 01:25:31  5-MIN KMKG 290625Z 13009KT 10SM CLR 01/M03 A3013 440 75 -1100 140/09 RMK AO2
14840KMKG MKG20101129013009511/29/10 01:30:31  5-MIN KMKG 290630Z 14009KT 10SM CLR 01/M03 A3013 440 72 -1100 140/09 RMK AO2
14840KMKG MKG20101129013509511/29/10 01:35:31  5-MIN KMKG 290635Z 14008KT 10SM CLR 01/M03 A3013 430 72 -1100 140/08 RMK AO2
14840KMKG MKG20101129014009511/29/10 01:40:31  5-MIN KMKG 290640Z 13009KT 10SM CLR 01/M03 A3013 440 72 -1100 130/09 RMK AO2
14840KMKG MKG20101129014509511/29/10 01:45:31  5-MIN KMKG 290645Z 14008KT 10SM CLR 01/M03 A3014 430 72 -1100 140/08 RMK AO2
14840KMKG MKG20101129015011211/29/10 01:50:31  5-MIN KMKG 290650Z 14008KT 10SM CLR 01/M03 A3014 430 72 -1100 150/08 RMK AO2 SLP211 T00111033
14840KMKG MKG20101129015511211/29/10 01:55:31  5-MIN KMKG 290655Z 14008KT 10SM CLR 01/M03 A3014 430 72 -1100 150/08 RMK AO2 SLP211 T00111033
14840KMKG MKG20101129020009511/29/10 02:00:31  5-MIN KMKG 290700Z 14008KT 10SM CLR 01/M03 A3014 430 72 -1100 140/08 RMK AO2
14840KMKG MKG20101129020509511/29/10 02:05:31  5-MIN KMKG 290705Z 14008KT 10SM CLR 01/M03 A3014 430 72 -1100 140/08 RMK AO2
14840KMKG MKG20101129021009511/29/10 02:10:31  5-MIN KMKG 290710Z 14009KT 10SM CLR 01/M03 A3014 430 72 -1100 150/09 RMK AO2
14840KMKG MKG20101129021509511/29/10 02:15:31  5-MIN KMKG 290715Z 14009KT 10SM CLR 01/M03 A3014 430 72 -1100 140/09 RMK AO2
14840KMKG MKG20101129022009511/29/10 02:20:31  5-MIN KMKG 290720Z 14009KT 10SM CLR 01/M03 A3014 430 72 -1100 140/09 RMK AO2
14840KMKG MKG20101129022509511/29/10 02:25:31  5-MIN KMKG 290725Z 14008KT 10SM CLR 01/M03 A3014 430 72 -1100 140/08 RMK AO2
14840KMKG MKG20101129023009511/29/10 02:30:31  5-MIN KMKG 290730Z 14008KT 10SM CLR 01/M03 A3014 430 72 -1100 140/08 RMK AO2
14840KMKG MKG20101129023509511/29/10 02:35:31  5-MIN KMKG 290735Z 13008KT 10SM CLR 01/M03 A3013 430 72 -1100 140/08 RMK AO2
14840KMKG MKG20101129024009511/29/10 02:40:31  5-MIN KMKG 290740Z 13008KT 10SM CLR 01/M03 A3013 430 72 -1100 130/08 RMK AO2
14840KMKG MKG20101129024509511/29/10 02:45:31  5-MIN KMKG 290745Z 13008KT 10SM CLR 01/M03 A3014 430 72 -1100 130/08 RMK AO2
14840KMKG MKG20101129025011211/29/10 02:50:31  5-MIN KMKG 290750Z 13007KT 10SM CLR 01/M03 A3014 430 75 -1100 140/07 RMK AO2 SLP213 T00061033
14840KMKG MKG20101129025511211/29/10 02:55:31  5-MIN KMKG 290755Z 13008KT 10SM CLR 01/M03 A3014 420 72 -1100 140/08 RMK AO2 SLP214 T00111033
14840KMKG MKG20101129030009511/29/10 03:00:31  5-MIN KMKG 290800Z 14006KT 10SM CLR 01/M03 A3015 420 72 -1100 140/06 RMK AO2
14840KMKG MKG20101129030509511/29/10 03:05:31  5-MIN KMKG 290805Z 14007KT 10SM CLR 01/M03 A3015 420 72 -1100 140/07 RMK AO2
14840KMKG MKG20101129031009511/29/10 03:10:31  5-MIN KMKG 290810Z 13008KT 10SM CLR 01/M03 A3015 420 72 -1100 130/08 RMK AO2
14840KMKG MKG20101129031509511/29/10 03:15:31  5-MIN KMKG 290815Z 13007KT 10SM CLR 01/M03 A3015 420 75 -1200 140/07 RMK AO2
14840KMKG MKG20101129032009411/29/10 03:20:31  5-MIN KMKG 290820Z 13007KT 9SM CLR 01/M03 A3015 420 75 -1200 130/07 RMK AO2
14840KMKG MKG20101129032509411/29/10 03:25:31  5-MIN KMKG 290825Z 13006KT 9SM CLR 00/M03 A3015 420 78 -1200 130/06 RMK AO2
14840KMKG MKG20101129033009411/29/10 03:30:31  5-MIN KMKG 290830Z 13007KT 9SM CLR 00/M03 A3015 420 78 -1200 130/07 RMK AO2
14840KMKG MKG20101129033509411/29/10 03:35:31  5-MIN KMKG 290835Z 13007KT 9SM CLR 01/M03 A3015 420 75 -1100 140/07 RMK AO2
14840KMKG MKG20101129034009411/29/10 03:40:31  5-MIN KMKG 290840Z 13008KT 9SM CLR 00/M03 A3014 430 78 -1200 130/08 RMK AO2
14840KMKG MKG20101129034509411/29/10 03:45:31  5-MIN KMKG 290845Z 12007KT 9SM CLR 00/M03 A3014 430 78 -1200 120/07 RMK AO2
14840KMKG MKG20101129035011711/29/10 03:50:31  5-MIN KMKG 290850Z 12008KT 9SM CLR 00/M03 A3013 430 78 -1200 120/08 RMK AO2 SLP210 T00001033 50002
14840KMKG MKG20101129035511711/29/10 03:55:31  5-MIN KMKG 290855Z 12008KT 9SM CLR 01/M03 A3013 440 75 -1100 120/08 RMK AO2 SLP207 T00061033 58002
14840KMKG MKG20101129040009411/29/10 04:00:31  5-MIN KMKG 290900Z 12008KT 9SM CLR 00/M03 A3013 440 78 -1200 130/08 RMK AO2
14840KMKG MKG20101129040509411/29/10 04:05:31  5-MIN KMKG 290905Z 12008KT 9SM CLR 00/M03 A3012 440 78 -1200 120/08 RMK AO2
14840KMKG MKG20101129041009411/29/10 04:10:31  5-MIN KMKG 290910Z 12007KT 9SM CLR 00/M03 A3012 440 78 -1200 120/07 RMK AO2
14840KMKG MKG20101129041509411/29/10 04:15:31  5-MIN KMKG 290915Z 12008KT 9SM CLR 00/M03 A3012 450 78 -1200 120/08 RMK AO2
14840KMKG MKG20101129042009411/29/10 04:20:31  5-MIN KMKG 290920Z 12008KT 9SM CLR 00/M03 A3012 450 78 -1200 120/08 RMK AO2
14840KMKG MKG20101129042509411/29/10 04:25:31  5-MIN KMKG 290925Z 12007KT 9SM CLR 00/M03 A3012 450 78 -1200 130/07 RMK AO2
14840KMKG MKG20101129043009411/29/10 04:30:31  5-MIN KMKG 290930Z 12008KT 9SM CLR 00/M03 A3012 450 78 -1200 130/08 RMK AO2
14840KMKG MKG20101129043509411/29/10 04:35:31  5-MIN KMKG 290935Z 13007KT 8SM CLR 00/M03 A3012 450 78 -1200 130/07 RMK AO2
14840KMKG MKG20101129044009511/29/10 04:40:31  5-MIN KMKG 290940Z 13007KT 8SM CLR M01/M03 A3012 450 81 -1300 130/07 RMK AO2
14840KMKG MKG20101129044509511/29/10 04:45:31  5-MIN KMKG 290945Z 13007KT 8SM CLR M01/M03 A3012 450 81 -1300 130/07 RMK AO2
14840KMKG MKG20101129045011211/29/10 04:50:31  5-MIN KMKG 290950Z 13008KT 9SM CLR M01/M04 A3012 450 78 -1300 140/08 RMK AO2 SLP206 T10061039
14840KMKG MKG20101129045511211/29/10 04:55:31  5-MIN KMKG 290955Z 13008KT 9SM CLR M01/M04 A3011 450 78 -1300 130/08 RMK AO2 SLP204 T10061039
14840KMKG MKG20101129050009511/29/10 05:00:31  5-MIN KMKG 291000Z 13007KT 9SM CLR M01/M04 A3011 450 78 -1200 130/07 RMK AO2
14840KMKG MKG20101129050509511/29/10 05:05:31  5-MIN KMKG 291005Z 13007KT 8SM CLR M01/M04 A3011 450 78 -1300 140/07 RMK AO2
14840KMKG MKG20101129051009511/29/10 05:10:31  5-MIN KMKG 291010Z 14007KT 9SM CLR M01/M03 A3012 450 81 -1300 140/07 RMK AO2
14840KMKG MKG20101129051509511/29/10 05:15:31  5-MIN KMKG 291015Z 14006KT 9SM CLR M01/M03 A3012 450 81 -1300 140/06 RMK AO2
14840KMKG MKG20101129052009411/29/10 05:20:31  5-MIN KMKG 291020Z 13007KT 9SM CLR 00/M03 A3011 450 78 -1200 130/07 RMK AO2
14840KMKG MKG20101129052509511/29/10 05:25:31  5-MIN KMKG 291025Z 13007KT 9SM CLR M01/M04 A3011 450 78 -1200 130/07 RMK AO2
14840KMKG MKG20101129053009511/29/10 05:30:31  5-MIN KMKG 291030Z 13007KT 8SM CLR M01/M04 A3011 460 81 -1300 130/07 RMK AO2
14840KMKG MKG20101129053509511/29/10 05:35:31  5-MIN KMKG 291035Z 13007KT 8SM CLR M01/M04 A3011 450 81 -1300 140/07 RMK AO2
14840KMKG MKG20101129054009511/29/10 05:40:31  5-MIN KMKG 291040Z 13007KT 8SM CLR M01/M04 A3011 450 81 -1300 140/07 RMK AO2
14840KMKG MKG20101129054509511/29/10 05:45:31  5-MIN KMKG 291045Z 13008KT 9SM CLR M01/M04 A3011 460 81 -1300 140/08 RMK AO2
14840KMKG MKG20101129055011211/29/10 05:50:31  5-MIN KMKG 291050Z 13007KT 9SM CLR M01/M04 A3010 460 81 -1300 140/07 RMK AO2 SLP202 T10111039
14840KMKG MKG20101129055511211/29/10 05:55:31  5-MIN KMKG 291055Z 13007KT 9SM CLR M01/M04 A3011 460 81 -1300 140/07 RMK AO2 SLP203 T10111039
14840KMKG MKG20101129060009511/29/10 06:00:31  5-MIN KMKG 291100Z 13007KT 9SM CLR M01/M04 A3011 460 81 -1300 140/07 RMK AO2
14840KMKG MKG20101129060509511/29/10 06:05:31  5-MIN KMKG 291105Z 13007KT 9SM CLR M01/M04 A3010 460 78 -1200 130/07 RMK AO2
14840KMKG MKG20101129061009511/29/10 06:10:31  5-MIN KMKG 291110Z 13007KT 9SM CLR M01/M04 A3011 460 78 -1200 140/07 RMK AO2
14840KMKG MKG20101129061509511/29/10 06:15:31  5-MIN KMKG 291115Z 13008KT 9SM CLR M01/M04 A3010 460 78 -1200 130/08 RMK AO2
14840KMKG MKG20101129062009511/29/10 06:20:31  5-MIN KMKG 291120Z 12008KT 9SM CLR M01/M04 A3010 470 78 -1200 130/08 RMK AO2
14840KMKG MKG20101129062509511/29/10 06:25:31  5-MIN KMKG 291125Z 13007KT 9SM CLR M01/M04 A3009 470 78 -1200 130/07 RMK AO2
14840KMKG MKG20101129063009511/29/10 06:30:31  5-MIN KMKG 291130Z 12008KT 9SM CLR M01/M04 A3009 470 78 -1200 130/08 RMK AO2
14840KMKG MKG20101129063509511/29/10 06:35:31  5-MIN KMKG 291135Z 13007KT 9SM CLR M01/M03 A3009 470 81 -1200 130/07 RMK AO2
14840KMKG MKG20101129064009411/29/10 06:40:31  5-MIN KMKG 291140Z 12007KT 9SM CLR 00/M03 A3009 470 78 -1200 130/07 RMK AO2
14840KMKG MKG20101129064509411/29/10 06:45:31  5-MIN KMKG 291145Z 12008KT 9SM CLR 00/M03 A3008 480 78 -1100 120/08 RMK AO2
14840KMKG MKG20101129065012911/29/10 06:50:31  5-MIN KMKG 291150Z 13008KT 9SM CLR 00/M03 A3009 480 78 -1100 140/08 RMK AO2 SLP196 T00001033 10011 21011 58002
14840KMKG MKG20101129065512911/29/10 06:55:31  5-MIN KMKG 291155Z 13008KT 9SM CLR 00/M03 A3009 480 78 -1100 130/08 RMK AO2 SLP196 T00001033 10011 21011 58014
14840KMKG MKG20101129070009411/29/10 07:00:31  5-MIN KMKG 291200Z 12009KT 9SM CLR 01/M03 A3008 480 75 -1100 130/09 RMK AO2
14840KMKG MKG20101129070509411/29/10 07:05:31  5-MIN KMKG 291205Z 13010KT 9SM CLR 01/M03 A3008 480 75 -1100 130/10 RMK AO2
14840KMKG MKG20101129071009511/29/10 07:10:31  5-MIN KMKG 291210Z 14010KT 10SM CLR 01/M03 A3008 480 75 -1100 140/10 RMK AO2
14840KMKG MKG20101129071509511/29/10 07:15:31  5-MIN KMKG 291215Z 13010KT 10SM CLR 01/M03 A3008 480 72 -1000 140/10 RMK AO2
14840KMKG MKG20101129072009511/29/10 07:20:31  5-MIN KMKG 291220Z 14008KT 10SM CLR 01/M03 A3008 480 72 -1000 150/08 RMK AO2
14840KMKG MKG20101129072509511/29/10 07:25:31  5-MIN KMKG 291225Z 13010KT 10SM CLR 01/M03 A3007 490 72 -1000 130/10 RMK AO2
14840KMKG MKG20101129073009511/29/10 07:30:31  5-MIN KMKG 291230Z 13012KT 10SM CLR 01/M03 A3007 490 72 -1000 140/12 RMK AO2
14840KMKG MKG20101129073509411/29/10 07:35:31  5-MIN KMKG 291235Z 13010KT 10SM CLR 02/M03 A3008 490 69 -900 140/10 RMK AO2
14840KMKG MKG20101129074009411/29/10 07:40:31  5-MIN KMKG 291240Z 14009KT 10SM CLR 02/M03 A3008 490 69 -900 140/09 RMK AO2
14840KMKG MKG20101129074509411/29/10 07:45:31  5-MIN KMKG 291245Z 15008KT 10SM CLR 02/M03 A3008 480 69 -900 150/08 RMK AO2
14840KMKG MKG20101129075011111/29/10 07:50:31  5-MIN KMKG 291250Z 14010KT 10SM CLR 02/M03 A3008 490 69 -900 150/10 RMK AO2 SLP191 T00171033
14840KMKG MKG20101129075511111/29/10 07:55:31  5-MIN KMKG 291255Z 14011KT 10SM CLR 02/M03 A3008 490 67 -900 140/11 RMK AO2 SLP191 T00221033
14840KMKG MKG20101129080009411/29/10 08:00:31  5-MIN KMKG 291300Z 15010KT 10SM CLR 02/M03 A3008 490 67 -900 150/10 RMK AO2
14840KMKG MKG20101129080509411/29/10 08:05:31  5-MIN KMKG 291305Z 14009KT 10SM CLR 02/M03 A3008 480 67 -900 150/09 RMK AO2
14840KMKG MKG20101129081009411/29/10 08:10:31  5-MIN KMKG 291310Z 15010KT 10SM CLR 02/M03 A3008 480 67 -900 150/10 RMK AO2
14840KMKG MKG20101129081509411/29/10 08:15:31  5-MIN KMKG 291315Z 15011KT 10SM CLR 02/M03 A3008 480 67 -900 150/11 RMK AO2
14840KMKG MKG20101129082009411/29/10 08:20:31  5-MIN KMKG 291320Z 14010KT 10SM CLR 02/M03 A3008 480 67 -900 150/10 RMK AO2
14840KMKG MKG20101129082509411/29/10 08:25:31  5-MIN KMKG 291325Z 14012KT 10SM CLR 02/M03 A3008 480 67 -900 150/12 RMK AO2
14840KMKG MKG20101129083009411/29/10 08:30:31  5-MIN KMKG 291330Z 14011KT 10SM CLR 02/M03 A3008 480 67 -900 140/11 RMK AO2
14840KMKG MKG20101129083509411/29/10 08:35:31  5-MIN KMKG 291335Z 14011KT 10SM CLR 02/M03 A3008 490 67 -900 140/11 RMK AO2
14840KMKG MKG20101129084009411/29/10 08:40:31  5-MIN KMKG 291340Z 14012KT 10SM CLR 02/M03 A3007 490 67 -900 150/12 RMK AO2
14840KMKG MKG20101129084509411/29/10 08:45:31  5-MIN KMKG 291345Z 14013KT 10SM CLR 02/M03 A3007 490 67 -900 140/13 RMK AO2
14840KMKG MKG20101129085011111/29/10 08:50:31  5-MIN KMKG 291350Z 14012KT 10SM CLR 02/M03 A3007 490 67 -900 150/12 RMK AO2 SLP189 T00221033
14840KMKG MKG20101129085511111/29/10 08:55:31  5-MIN KMKG 291355Z 13012KT 10SM CLR 02/M03 A3007 490 67 -800 140/12 RMK AO2 SLP188 T00221033
14840KMKG MKG20101129090009411/29/10 09:00:31  5-MIN KMKG 291400Z 13011KT 10SM CLR 02/M03 A3006 500 67 -800 140/11 RMK AO2
14840KMKG MKG20101129090509411/29/10 09:05:31  5-MIN KMKG 291405Z 13012KT 10SM CLR 02/M03 A3006 500 67 -800 140/12 RMK AO2
14840KMKG MKG20101129091009411/29/10 09:10:31  5-MIN KMKG 291410Z 13013KT 10SM CLR 03/M03 A3006 500 67 -800 130/13 RMK AO2
14840KMKG MKG20101129091509411/29/10 09:15:31  5-MIN KMKG 291415Z 13014KT 10SM CLR 03/M03 A3005 510 67 -800 130/14 RMK AO2
14840KMKG MKG20101129092009411/29/10 09:20:31  5-MIN KMKG 291420Z 13013KT 10SM CLR 03/M03 A3005 510 67 -800 130/13 RMK AO2
14840KMKG MKG20101129092509411/29/10 09:25:31  5-MIN KMKG 291425Z 13012KT 10SM CLR 03/M03 A3006 510 67 -800 140/12 RMK AO2
14840KMKG MKG20101129093009411/29/10 09:30:31  5-MIN KMKG 291430Z 14011KT 10SM CLR 03/M03 A3006 500 64 -700 140/11 RMK AO2
14840KMKG MKG20101129093509411/29/10 09:35:31  5-MIN KMKG 291435Z 15010KT 10SM CLR 03/M03 A3007 500 64 -700 150/10 RMK AO2
14840KMKG MKG20101129094009411/29/10 09:40:31  5-MIN KMKG 291440Z 14010KT 10SM CLR 03/M03 A3007 490 64 -700 150/10 RMK AO2
14840KMKG MKG20101129094509411/29/10 09:45:31  5-MIN KMKG 291445Z 15010KT 10SM CLR 03/M03 A3007 490 64 -700 150/10 RMK AO2
14840KMKG MKG20101129095011711/29/10 09:50:31  5-MIN KMKG 291450Z 14009KT 10SM CLR 04/M03 A3007 490 62 -600 140/09 RMK AO2 SLP188 T00391028 58014
14840KMKG MKG20101129095511711/29/10 09:55:31  5-MIN KMKG 291455Z 15008KT 10SM CLR 04/M03 A3007 490 62 -600 150/08 RMK AO2 SLP188 T00391028 55005
14840KMKG MKG20101129100009411/29/10 10:00:31  5-MIN KMKG 291500Z 14010KT 10SM CLR 04/M03 A3007 490 59 -600 150/10 RMK AO2
14840KMKG MKG20101129100509411/29/10 10:05:31  5-MIN KMKG 291505Z 15010KT 10SM CLR 04/M03 A3007 490 59 -600 150/10 RMK AO2
14840KMKG MKG20101129101009411/29/10 10:10:31  5-MIN KMKG 291510Z 14010KT 10SM CLR 04/M02 A3007 490 62 -600 150/10 RMK AO2
14840KMKG MKG20101129101510011/29/10 10:15:31  5-MIN KMKG 291515Z 14014G19KT 10SM CLR 04/M03 A3006 500 59 -600 150/14G19 RMK AO2
14840KMKG MKG20101129102010011/29/10 10:20:31  5-MIN KMKG 291520Z 14010G19KT 10SM CLR 04/M02 A3007 500 62 -600 150/10G19 RMK AO2
14840KMKG MKG20101129102509411/29/10 10:25:31  5-MIN KMKG 291525Z 15010KT 10SM CLR 05/M02 A3007 490 59 -500 160/10 RMK AO2
14840KMKG MKG20101129103009411/29/10 10:30:31  5-MIN KMKG 291530Z 14012KT 10SM CLR 06/M02 A3007 490 57 -400 150/12 RMK AO2
14840KMKG MKG20101129103509411/29/10 10:35:31  5-MIN KMKG 291535Z 16011KT 10SM CLR 05/M02 A3007 490 59 -500 170/11 RMK AO2
14840KMKG MKG20101129104009411/29/10 10:40:31  5-MIN KMKG 291540Z 16011KT 10SM CLR 05/M02 A3007 490 59 -500 160/11 RMK AO2
14840KMKG MKG20101129104509411/29/10 10:45:31  5-MIN KMKG 291545Z 15010KT 10SM CLR 05/M02 A3008 490 59 -500 150/10 RMK AO2
14840KMKG MKG20101129105011111/29/10 10:50:31  5-MIN KMKG 291550Z 15009KT 10SM CLR 05/M02 A3008 490 59 -500 160/09 RMK AO2 SLP190 T00501022
14840KMKG MKG20101129105511111/29/10 10:55:31  5-MIN KMKG 291555Z 16010KT 10SM CLR 06/M02 A3008 490 57 -400 160/10 RMK AO2 SLP191 T00561022
14840KMKG MKG20101129110009411/29/10 11:00:31  5-MIN KMKG 291600Z 15010KT 10SM CLR 06/M02 A3008 490 57 -400 150/10 RMK AO2
14840KMKG MKG20101129110509411/29/10 11:05:31  5-MIN KMKG 291605Z 14008KT 10SM CLR 06/M02 A3007 490 57 -400 150/08 RMK AO2
14840KMKG MKG20101129111009411/29/10 11:10:31  5-MIN KMKG 291610Z 15008KT 10SM CLR 06/M02 A3007 490 57 -400 150/08 RMK AO2
14840KMKG MKG20101129111509411/29/10 11:15:31  5-MIN KMKG 291615Z 15010KT 10SM CLR 06/M02 A3007 490 59 -400 160/10 RMK AO2
14840KMKG MKG20101129112009411/29/10 11:20:31  5-MIN KMKG 291620Z 14011KT 10SM CLR 06/M02 A3007 500 57 -400 150/11 RMK AO2
14840KMKG MKG20101129112509411/29/10 11:25:31  5-MIN KMKG 291625Z 15010KT 10SM CLR 06/M02 A3006 500 57 -400 150/10 RMK AO2
14840KMKG MKG20101129113009411/29/10 11:30:31  5-MIN KMKG 291630Z 15011KT 10SM CLR 06/M02 A3006 500 57 -400 160/11 RMK AO2
14840KMKG MKG20101129113509411/29/10 11:35:31  5-MIN KMKG 291635Z 15010KT 10SM CLR 07/M02 A3006 500 55 -300 160/10 RMK AO2
14840KMKG MKG20101129114009411/29/10 11:40:31  5-MIN KMKG 291640Z 15009KT 10SM CLR 07/M01 A3006 510 57 -300 160/09 RMK AO2
14840KMKG MKG20101129114509411/29/10 11:45:31  5-MIN KMKG 291645Z 15007KT 10SM CLR 07/M01 A3005 510 55 -200 150/07 RMK AO2
14840KMKG MKG20101129115011111/29/10 11:50:31  5-MIN KMKG 291650Z 16007KT 10SM CLR 07/M01 A3005 510 55 -200 160/07 RMK AO2 SLP182 T00721011
14840KMKG MKG20101129115511111/29/10 11:55:31  5-MIN KMKG 291655Z 15007KT 10SM CLR 07/M01 A3005 510 55 -200 160/07 RMK AO2 SLP181 T00721011
14840KMKG MKG20101129120009411/29/10 12:00:31  5-MIN KMKG 291700Z 15007KT 10SM CLR 08/M01 A3005 510 53 -100 160/07 RMK AO2
14840KMKG MKG20101129120509411/29/10 12:05:31  5-MIN KMKG 291705Z 15007KT 10SM CLR 08/M01 A3004 520 53 -100 160/07 RMK AO2
14840KMKG MKG20101129121009411/29/10 12:10:31  5-MIN KMKG 291710Z 15010KT 10SM CLR 08/M01 A3004 520 53 -100 150/10 RMK AO2
14840KMKG MKG20101129121509411/29/10 12:15:31  5-MIN KMKG 291715Z 14008KT 10SM CLR 08/M01 A3003 530 53 -100 150/08 RMK AO2
14840KMKG MKG20101129122009811/29/10 12:20:31  5-MIN KMKG 291720Z 15010KT 10SM CLR 09/M01 A3002 530 51 0 150/10 RMK AO2 PRESFR
14840KMKG MKG20101129122509811/29/10 12:25:31  5-MIN KMKG 291725Z 14010KT 10SM CLR 09/M01 A3002 540 51 0 140/10 RMK AO2 PRESFR
14840KMKG MKG20101129123009111/29/10 12:30:31  5-MIN KMKG 291730Z 14011KT 10SM CLR 08/M01 A3001 540 53 0 140/11 RMK AO2
14840KMKG MKG20101129123509811/29/10 12:35:31  5-MIN KMKG 291735Z 13012KT 10SM CLR 09/M01 A3001 550 51 0 140/12 RMK AO2 PRESFR
14840KMKG MKG20101129124009111/29/10 12:40:31  5-MIN KMKG 291740Z 14010KT 10SM CLR 09/M01 A3001 550 51 0 150/10 RMK AO2
14840KMKG MKG20101129124509111/29/10 12:45:31  5-MIN KMKG 291745Z 13013KT 10SM CLR 08/M01 A3000 560 51 0 140/13 RMK AO2
14840KMKG MKG20101129125012611/29/10 12:50:31  5-MIN KMKG 291750Z 13012KT 10SM CLR 09/M01 A2999 560 51 0 140/12 RMK AO2 SLP161 T00891006 10089 20006 55005
14840KMKG MKG20101129125512811/29/10 12:55:31  5-MIN KMKG 291755Z 14012KT 10SM CLR 09/M01 A2999 570 49 100 140/12 RMK AO2 SLP160 T00941006 10094 20006 58026
14840KMKG MKG20101129130009311/29/10 13:00:31  5-MIN KMKG 291800Z 14011KT 10SM CLR 09/M01 A2999 570 49 100 150/11 RMK AO2
14840KMKG MKG20101129130509911/29/10 13:05:31  5-MIN KMKG 291805Z 15013G16KT 10SM CLR 09/M01 A2999 570 49 100 150/13G16 RMK AO2
14840KMKG MKG20101129131009911/29/10 13:10:31  5-MIN KMKG 291810Z 13013G17KT 10SM CLR 09/M01 A2998 570 49 100 140/13G17 RMK AO2
14840KMKG MKG20101129131509311/29/10 13:15:31  5-MIN KMKG 291815Z 13014KT 10SM CLR 09/M01 A2997 580 49 100 140/14 RMK AO2
14840KMKG MKG20101129132009311/29/10 13:20:31  5-MIN KMKG 291820Z 14014KT 10SM CLR 09/M01 A2997 580 49 100 150/14 RMK AO2
14840KMKG MKG20101129132509311/29/10 13:25:31  5-MIN KMKG 291825Z 14013KT 10SM CLR 09/M01 A2997 580 49 100 140/13 RMK AO2
14840KMKG MKG20101129133009911/29/10 13:30:31  5-MIN KMKG 291830Z 13012G18KT 10SM CLR 10/M01 A2996 590 47 200 140/12G18 RMK AO2
14840KMKG MKG20101129133509911/29/10 13:35:31  5-MIN KMKG 291835Z 14015G18KT 10SM CLR 10/M01 A2996 590 47 200 140/15G18 RMK AO2
14840KMKG MKG20101129134009911/29/10 13:40:31  5-MIN KMKG 291840Z 15015G19KT 10SM CLR 10/M01 A2997 590 47 200 150/15G19 RMK AO2
14840KMKG MKG20101129134509811/29/10 13:45:31  5-MIN KMKG 291845Z 14010G19KT 10SM CLR 10/00 A2997 590 49 200 150/10G19 RMK AO2
14840KMKG MKG20101129135011511/29/10 13:50:31  5-MIN KMKG 291850Z 14011G15KT 10SM CLR 11/00 A2997 590 48 200 150/11G15 RMK AO2 SLP153 T01060000
14840KMKG MKG20101129135510911/29/10 13:55:31  5-MIN KMKG 291855Z 17010KT 10SM CLR 10/00 A2997 590 49 200 170/10 RMK AO2 SLP152 T01000000
14840KMKG MKG20101129140009811/29/10 14:00:31  5-MIN KMKG 291900Z 13013G16KT 10SM CLR 10/00 A2996 590 49 200 130/13G16 RMK AO2
14840KMKG MKG20101129140509211/29/10 14:05:31  5-MIN KMKG 291905Z 13013KT 10SM CLR 10/00 A2996 600 49 200 140/13 RMK AO2
14840KMKG MKG20101129141009211/29/10 14:10:31  5-MIN KMKG 291910Z 14013KT 10SM CLR 10/00 A2995 600 49 200 140/13 RMK AO2
14840KMKG MKG20101129141509211/29/10 14:15:31  5-MIN KMKG 291915Z 13013KT 10SM CLR 10/00 A2995 600 49 200 140/13 RMK AO2
14840KMKG MKG20101129142009211/29/10 14:20:31  5-MIN KMKG 291920Z 14014KT 10SM CLR 11/00 A2995 600 48 300 140/14 RMK AO2
14840KMKG MKG20101129142509611/29/10 14:25:31  5-MIN KMKG 291925Z 14010KT 10SM FEW080 10/M01 A2995 600 47 200 140/10 RMK AO2
14840KMKG MKG20101129143009511/29/10 14:30:31  5-MIN KMKG 291930Z 14013KT 10SM SCT080 10/00 A2995 600 49 200 140/13 RMK AO2
14840KMKG MKG20101129143510111/29/10 14:35:31  5-MIN KMKG 291935Z 13015G19KT 10SM BKN080 10/00 A2994 610 49 200 140/15G19 RMK AO2
14840KMKG MKG20101129144010111/29/10 14:40:31  5-MIN KMKG 291940Z 13012G19KT 10SM BKN080 10/00 A2994 610 49 200 130/12G19 RMK AO2
14840KMKG MKG20101129144510111/29/10 14:45:31  5-MIN KMKG 291945Z 13013G17KT 10SM OVC080 10/00 A2994 610 49 200 130/13G17 RMK AO2
14840KMKG MKG20101129145011211/29/10 14:50:31  5-MIN KMKG 291950Z 13012KT 10SM OVC080 10/00 A2994 620 49 200 140/12 RMK AO2 SLP142 T01000000
14840KMKG MKG20101129145511211/29/10 14:55:31  5-MIN KMKG 291955Z 14013KT 10SM OVC080 10/00 A2993 620 49 200 140/13 RMK AO2 SLP140 T01000000
14840KMKG MKG20101129150009511/29/10 15:00:31  5-MIN KMKG 292000Z 12012KT 10SM OVC080 10/00 A2992 630 49 200 130/12 RMK AO2
14840KMKG MKG20101129150509511/29/10 15:05:31  5-MIN KMKG 292005Z 13012KT 10SM OVC080 10/00 A2992 630 49 200 130/12 RMK AO2
14840KMKG MKG20101129151009511/29/10 15:10:31  5-MIN KMKG 292010Z 14012KT 10SM OVC080 10/00 A2992 630 49 200 140/12 RMK AO2
14840KMKG MKG20101129151509511/29/10 15:15:31  5-MIN KMKG 292015Z 13011KT 10SM OVC080 10/00 A2993 620 49 200 140/11 RMK AO2
14840KMKG MKG20101129152010111/29/10 15:20:31  5-MIN KMKG 292020Z 13015G20KT 10SM OVC080 10/00 A2992 630 49 200 140/15G20 RMK AO2
14840KMKG MKG20101129152510111/29/10 15:25:31  5-MIN KMKG 292025Z 13012G20KT 10SM OVC080 09/00 A2992 630 51 200 140/12G20 RMK AO2
14840KMKG MKG20101129153009511/29/10 15:30:31  5-MIN KMKG 292030Z 13012KT 10SM OVC080 09/00 A2992 630 51 200 130/12 RMK AO2
14840KMKG MKG20101129153510111/29/10 15:35:31  5-MIN KMKG 292035Z 14015G18KT 10SM OVC080 09/00 A2991 640 51 200 140/15G18 RMK AO2
14840KMKG MKG20101129154009511/29/10 15:40:31  5-MIN KMKG 292040Z 13012KT 10SM OVC075 09/00 A2992 640 51 200 130/12 RMK AO2
14840KMKG MKG20101129154509511/29/10 15:45:31  5-MIN KMKG 292045Z 12011KT 10SM OVC075 09/01 A2991 640 53 200 130/11 RMK AO2
14840KMKG MKG20101129155011811/29/10 15:50:31  5-MIN KMKG 292050Z 12011KT 10SM OVC075 09/01 A2991 640 53 200 130/11 RMK AO2 SLP132 T00940006 58026
14840KMKG MKG20101129155511811/29/10 15:55:31  5-MIN KMKG 292055Z 14011KT 10SM OVC080 09/01 A2992 630 53 200 140/11 RMK AO2 SLP137 T00940006 56023
14840KMKG MKG20101129160009511/29/10 16:00:31  5-MIN KMKG 292100Z 13011KT 10SM OVC080 10/00 A2992 630 49 200 130/11 RMK AO2
14840KMKG MKG20101129160509511/29/10 16:05:31  5-MIN KMKG 292105Z 13011KT 10SM OVC080 10/00 A2992 630 49 200 140/11 RMK AO2
14840KMKG MKG20101129161009511/29/10 16:10:31  5-MIN KMKG 292110Z 14010KT 10SM OVC080 10/00 A2993 620 49 200 150/10 RMK AO2
14840KMKG MKG20101129161509511/29/10 16:15:31  5-MIN KMKG 292115Z 13008KT 10SM OVC080 10/01 A2993 620 52 200 140/08 RMK AO2
14840KMKG MKG20101129162009511/29/10 16:20:31  5-MIN KMKG 292120Z 13007KT 10SM OVC080 09/01 A2993 620 53 100 130/07 RMK AO2
14840KMKG MKG20101129162509511/29/10 16:25:31  5-MIN KMKG 292125Z 12008KT 10SM OVC080 09/01 A2993 620 53 100 130/08 RMK AO2
14840KMKG MKG20101129163009511/29/10 16:30:31  5-MIN KMKG 292130Z 13008KT 10SM OVC080 09/01 A2993 620 53 100 130/08 RMK AO2
14840KMKG MKG20101129163509511/29/10 16:35:31  5-MIN KMKG 292135Z 13010KT 10SM OVC080 09/01 A2993 620 53 100 130/10 RMK AO2
14840KMKG MKG20101129164009511/29/10 16:40:31  5-MIN KMKG 292140Z 13011KT 10SM OVC085 10/01 A2993 620 52 200 140/11 RMK AO2
14840KMKG MKG20101129164509511/29/10 16:45:31  5-MIN KMKG 292145Z 13012KT 10SM OVC085 10/01 A2993 620 52 200 140/12 RMK AO2
14840KMKG MKG20101129165011211/29/10 16:50:31  5-MIN KMKG 292150Z 13010KT 10SM OVC085 09/01 A2993 620 53 100 130/10 RMK AO2 SLP142 T00940006
14840KMKG MKG20101129165511911/29/10 16:55:31  5-MIN KMKG 292155Z 13011KT 10SM FEW070 OVC090 09/01 A2993 620 53 100 130/11 RMK AO2 SLP141 T00940006
14840KMKG MKG20101129170010211/29/10 17:00:31  5-MIN KMKG 292200Z 13012KT 10SM SCT075 OVC090 09/01 A2993 620 53 100 130/12 RMK AO2
14840KMKG MKG20101129170509511/29/10 17:05:31  5-MIN KMKG 292205Z 13013KT 10SM OVC080 10/01 A2993 620 52 200 130/13 RMK AO2
14840KMKG MKG20101129171010211/29/10 17:10:31  5-MIN KMKG 292210Z 13012KT 10SM BKN075 OVC090 09/01 A2992 630 53 200 130/12 RMK AO2
14840KMKG MKG20101129171510211/29/10 17:15:31  5-MIN KMKG 292215Z 13011KT 10SM BKN075 OVC090 09/01 A2992 630 53 200 130/11 RMK AO2
14840KMKG MKG20101129172009511/29/10 17:20:31  5-MIN KMKG 292220Z 13013KT 10SM OVC080 09/01 A2992 630 56 200 130/13 RMK AO2
14840KMKG MKG20101129172509511/29/10 17:25:31  5-MIN KMKG 292225Z 13012KT 10SM OVC080 10/01 A2992 630 52 200 130/12 RMK AO2
14840KMKG MKG20101129173009511/29/10 17:30:31  5-MIN KMKG 292230Z 12012KT 10SM OVC080 10/01 A2991 640 52 200 130/12 RMK AO2
14840KMKG MKG20101129173509511/29/10 17:35:31  5-MIN KMKG 292235Z 12012KT 10SM OVC085 10/01 A2991 640 52 200 130/12 RMK AO2
14840KMKG MKG20101129174009511/29/10 17:40:31  5-MIN KMKG 292240Z 12011KT 10SM OVC085 09/01 A2991 640 56 200 130/11 RMK AO2
14840KMKG MKG20101129174509511/29/10 17:45:31  5-MIN KMKG 292245Z 12011KT 10SM OVC085 09/01 A2990 650 56 200 120/11 RMK AO2
14840KMKG MKG20101129175011911/29/10 17:50:31  5-MIN KMKG 292250Z 12012KT 10SM FEW065 OVC090 09/01 A2990 640 56 200 130/12 RMK AO2 SLP132 T00940011
14840KMKG MKG20101129175511911/29/10 17:55:31  5-MIN KMKG 292255Z 12010KT 10SM SCT065 OVC090 09/01 A2991 640 56 200 130/10 RMK AO2 SLP132 T00940011
14840KMKG MKG20101129180011711/29/10 18:00:31  5-MIN KMKG 292300Z 12010KT 10SM SCT065 OVC090 09/01 A2991 640 58 100 130/10 RMK AO2 CIG 065 RWY 14
14840KMKG MKG20101129180511711/29/10 18:05:31  5-MIN KMKG 292305Z 12011KT 10SM SCT065 OVC090 09/01 A2990 650 56 200 120/11 RMK AO2 CIG 065 RWY 14
14840KMKG MKG20101129181011711/29/10 18:10:31  5-MIN KMKG 292310Z 12012KT 10SM SCT065 OVC095 09/01 A2990 650 56 200 120/12 RMK AO2 CIG 065 RWY 14
14840KMKG MKG20101129181510211/29/10 18:15:31  5-MIN KMKG 292315Z 12012KT 10SM BKN065 OVC095 09/01 A2990 650 56 200 120/12 RMK AO2
14840KMKG MKG20101129182010811/29/10 18:20:31  5-MIN KMKG 292320Z 12010G17KT 10SM BKN065 OVC095 09/01 A2989 650 56 200 120/10G17 RMK AO2
14840KMKG MKG20101129182510211/29/10 18:25:31  5-MIN KMKG 292325Z 12010KT 10SM BKN065 OVC095 09/01 A2990 650 56 200 130/10 RMK AO2
14840KMKG MKG20101129183010211/29/10 18:30:31  5-MIN KMKG 292330Z 12012KT 10SM BKN065 OVC095 09/01 A2989 660 56 200 120/12 RMK AO2
14840KMKG MKG20101129183510211/29/10 18:35:31  5-MIN KMKG 292335Z 12010KT 10SM BKN065 OVC090 09/01 A2989 660 56 200 120/10 RMK AO2
14840KMKG MKG20101129184010211/29/10 18:40:31  5-MIN KMKG 292340Z 12012KT 10SM BKN065 OVC090 09/01 A2989 660 56 200 120/12 RMK AO2
14840KMKG MKG20101129184510211/29/10 18:45:31  5-MIN KMKG 292345Z 12015KT 10SM BKN065 OVC090 10/01 A2989 660 54 300 130/15 RMK AO2
14840KMKG MKG20101129185013711/29/10 18:50:31  5-MIN KMKG 292350Z 13014KT 10SM SCT065 OVC085 10/01 A2990 650 54 200 130/14 RMK AO2 SLP128 T01000011 10106 20089 56023
14840KMKG MKG20101129185513711/29/10 18:55:31  5-MIN KMKG 292355Z 14015KT 10SM SCT065 OVC085 10/02 A2990 650 56 200 140/15 RMK AO2 SLP128 T01000017 10106 20089 58008
14840KMKG MKG20101129190010811/29/10 19:00:31  5-MIN KMKG 300000Z 13017G21KT 10SM FEW065 OVC085 10/02 A2990 650 56 200 140/17G21 RMK AO2
14840KMKG MKG20101129190510811/29/10 19:05:31  5-MIN KMKG 300005Z 13015G22KT 10SM FEW065 OVC080 10/02 A2989 660 56 300 140/15G22 RMK AO2
14840KMKG MKG20101129191010811/29/10 19:10:31  5-MIN KMKG 300010Z 12015G22KT 10SM FEW065 OVC080 10/02 A2989 660 56 300 130/15G22 RMK AO2
14840KMKG MKG20101129191510811/29/10 19:15:31  5-MIN KMKG 300015Z 13016G22KT 10SM FEW065 OVC080 10/02 A2989 660 56 300 140/16G22 RMK AO2
14840KMKG MKG20101129192010811/29/10 19:20:31  5-MIN KMKG 300020Z 13015G22KT 10SM FEW065 OVC080 10/02 A2988 670 56 300 130/15G22 RMK AO2
14840KMKG MKG20101129192510111/29/10 19:25:31  5-MIN KMKG 300025Z 13015G24KT 10SM OVC080 10/02 A2988 670 56 300 140/15G24 RMK AO2
14840KMKG MKG20101129193010111/29/10 19:30:31  5-MIN KMKG 300030Z 13015G24KT 10SM OVC080 10/02 A2987 680 56 300 130/15G24 RMK AO2
14840KMKG MKG20101129193510111/29/10 19:35:31  5-MIN KMKG 300035Z 13015G23KT 10SM OVC080 09/02 A2987 680 58 200 130/15G23 RMK AO2
14840KMKG MKG20101129194010111/29/10 19:40:31  5-MIN KMKG 300040Z 13016G22KT 10SM OVC080 10/02 A2987 680 56 300 140/16G22 RMK AO2
14840KMKG MKG20101129194510111/29/10 19:45:31  5-MIN KMKG 300045Z 13018G25KT 10SM OVC080 10/02 A2987 670 58 300 140/18G25 RMK AO2
14840KMKG MKG20101129195011811/29/10 19:50:31  5-MIN KMKG 300050Z 13016G25KT 10SM OVC080 10/02 A2987 680 58 300 130/16G25 RMK AO2 SLP118 T01000022
14840KMKG MKG20101129195511811/29/10 19:55:31  5-MIN KMKG 300055Z 13016G22KT 10SM OVC080 10/02 A2986 690 58 300 140/16G22 RMK AO2 SLP115 T01000022
14840KMKG MKG20101129200010111/29/10 20:00:31  5-MIN KMKG 300100Z 13017G25KT 10SM OVC075 10/02 A2986 690 58 300 130/17G25 RMK AO2
14840KMKG MKG20101129200510111/29/10 20:05:31  5-MIN KMKG 300105Z 13018G25KT 10SM OVC075 10/02 A2985 690 58 300 140/18G25 RMK AO2
14840KMKG MKG20101129201010111/29/10 20:10:31  5-MIN KMKG 300110Z 14015G23KT 10SM OVC075 10/02 A2985 690 58 300 140/15G23 RMK AO2
14840KMKG MKG20101129201510811/29/10 20:15:31  5-MIN KMKG 300115Z 13017G21KT 10SM BKN075 OVC085 10/02 A2985 700 58 300 140/17G21 RMK AO2
14840KMKG MKG20101129202010811/29/10 20:20:31  5-MIN KMKG 300120Z 13017G22KT 10SM BKN075 OVC090 10/02 A2985 700 58 300 140/17G22 RMK AO2
14840KMKG MKG20101129202510811/29/10 20:25:31  5-MIN KMKG 300125Z 14015G22KT 10SM BKN070 OVC090 10/03 A2986 690 60 300 140/15G22 RMK AO2
14840KMKG MKG20101129203010211/29/10 20:30:31  5-MIN KMKG 300130Z 13015KT 10SM BKN070 OVC090 10/03 A2986 690 60 300 140/15 RMK AO2
14840KMKG MKG20101129203512411/29/10 20:35:31  5-MIN KMKG 300135Z 14016G21KT 10SM -RA BKN075 OVC090 10/03 A2986 690 60 300 140/16G21 RMK AO2 RAB34 P0000
14840KMKG MKG20101129204011711/29/10 20:40:31  5-MIN KMKG 300140Z 13015G22KT 10SM -RA OVC080 10/03 A2985 690 60 300 140/15G22 RMK AO2 RAB34 P0000
14840KMKG MKG20101129204512411/29/10 20:45:31  5-MIN KMKG 300145Z 13016G22KT 10SM -RA BKN080 OVC095 10/03 A2985 690 60 300 140/16G22 RMK AO2 RAB34 P0000
14840KMKG MKG20101129205014111/29/10 20:50:31  5-MIN KMKG 300150Z 14015G22KT 10SM -RA BKN075 OVC095 10/03 A2985 700 63 300 140/15G22 RMK AO2 RAB34 SLP112 P0000 T01000033
14840KMKG MKG20101129205514111/29/10 20:55:31  5-MIN KMKG 300155Z 14012G22KT 10SM -RA BKN075 OVC095 09/03 A2985 700 65 200 140/12G22 RMK AO2 RAB34 SLP111 P0000 T00940033
14840KMKG MKG20101129210011811/29/10 21:00:31  5-MIN KMKG 300200Z 14013G22KT 10SM -RA BKN075 OVC095 09/03 A2984 700 65 200 140/13G22 RMK AO2 P0000
14840KMKG MKG20101129210511811/29/10 21:05:31  5-MIN KMKG 300205Z 14015G22KT 10SM -RA BKN075 OVC095 09/03 A2984 700 65 200 140/15G22 RMK AO2 P0000
14840KMKG MKG20101129211011811/29/10 21:10:31  5-MIN KMKG 300210Z 13013G22KT 10SM -RA BKN070 OVC095 09/04 A2984 710 68 300 140/13G22 RMK AO2 P0000
14840KMKG MKG20101129211511111/29/10 21:15:31  5-MIN KMKG 300215Z 13013G21KT 10SM -RA OVC070 09/04 A2983 710 68 300 140/13G21 RMK AO2 P0000
14840KMKG MKG20101129212011111/29/10 21:20:31  5-MIN KMKG 300220Z 13015G21KT 10SM -RA OVC070 09/04 A2983 720 68 300 130/15G21 RMK AO2 P0000
14840KMKG MKG20101129212510511/29/10 21:25:31  5-MIN KMKG 300225Z 13014KT 10SM -RA OVC065 09/04 A2982 720 68 300 140/14 RMK AO2 P0000
14840KMKG MKG20101129213010511/29/10 21:30:31  5-MIN KMKG 300230Z 13014KT 10SM -RA OVC060 09/04 A2982 720 68 300 130/14 RMK AO2 P0000
14840KMKG MKG20101129213510711/29/10 21:35:31  5-MIN KMKG 300235Z 13012KT 10SM OVC060 09/03 A2981 730 65 300 130/12 RMK AO2 RAE34 P0000
14840KMKG MKG20101129214011311/29/10 21:40:31  5-MIN KMKG 300240Z 13016G21KT 10SM OVC060 09/03 A2981 730 65 300 130/16G21 RMK AO2 RAE34 P0000
14840KMKG MKG20101129214511111/29/10 21:45:31  5-MIN KMKG 300245Z 13015G22KT 10SM -RA OVC060 09/03 A2981 730 65 300 140/15G22 RMK AO2 P0000
14840KMKG MKG20101129215014011/29/10 21:50:31  5-MIN KMKG 300250Z 14018G24KT 10SM -RA OVC055 09/03 A2981 730 65 300 140/18G24 RMK AO2 SLP099 P0000 60000 T00940033 58008
14840KMKG MKG20101129215514011/29/10 21:55:31  5-MIN KMKG 300255Z 13016G24KT 10SM -RA OVC055 09/04 A2981 730 68 300 140/16G24 RMK AO2 SLP099 P0000 60000 T00940039 56027
14840KMKG MKG20101129220010511/29/10 22:00:31  5-MIN KMKG 300300Z 14013KT 10SM -RA OVC050 09/04 A2982 730 68 300 140/13 RMK AO2 P0000
14840KMKG MKG20101129220510511/29/10 22:05:31  5-MIN KMKG 300305Z 14012KT 10SM -RA OVC050 09/04 A2982 720 68 300 150/12 RMK AO2 P0000
14840KMKG MKG20101129221011711/29/10 22:10:31  5-MIN KMKG 300310Z 14013G20KT 9SM -RA FEW036 OVC050 09/04 A2982 720 68 300 140/13G20 RMK AO2 P0000
14840KMKG MKG20101129221511611/29/10 22:15:31  5-MIN KMKG 300315Z 14012G20KT 7SM RA FEW036 OVC050 09/04 A2982 720 73 200 140/12G20 RMK AO2 P0000
14840KMKG MKG20101129222011611/29/10 22:20:31  5-MIN KMKG 300320Z 14014G19KT 7SM RA FEW036 OVC050 09/04 A2982 730 73 200 150/14G19 RMK AO2 P0002
14840KMKG MKG20101129222511611/29/10 22:25:31  5-MIN KMKG 300325Z 14012G19KT 7SM RA FEW036 OVC050 09/04 A2982 720 73 200 150/12G19 RMK AO2 P0002
14840KMKG MKG20101129223011011/29/10 22:30:31  5-MIN KMKG 300330Z 14012KT 6SM RA FEW036 OVC055 08/05 A2982 720 79 100 140/12 RMK AO2 P0003
14840KMKG MKG20101129223511711/29/10 22:35:31  5-MIN KMKG 300335Z 13014KT 6SM RA FEW036 BKN050 OVC060 08/05 A2981 730 79 100 140/14 RMK AO2 P0004
14840KMKG MKG20101129224011011/29/10 22:40:31  5-MIN KMKG 300340Z 13013KT 5SM RA FEW036 OVC050 08/05 A2981 730 79 100 140/13 RMK AO2 P0005
14840KMKG MKG20101129224511011/29/10 22:45:31  5-MIN KMKG 300345Z 13012KT 5SM RA FEW039 OVC050 08/05 A2981 730 79 100 140/12 RMK AO2 P0006
14840KMKG MKG20101129225012711/29/10 22:50:31  5-MIN KMKG 300350Z 13012KT 5SM RA FEW037 OVC050 08/05 A2980 740 82 100 130/12 RMK AO2 SLP096 P0008 T00780050
14840KMKG MKG20101129225514911/29/10 22:55:31  5-MIN KMKG 300355Z 12013KT 4SM RA FEW037 SCT045 OVC055 08/05 A2980 740 82 100 130/13 RMK AO2 CIG 047 RWY 14 SLP094 P0009 T00780050
14840KMKG MKG20101129230011011/29/10 23:00:31  5-MIN KMKG 300400Z 13012KT 4SM RA BKN043 OVC050 08/05 A2980 750 82 100 130/12 RMK AO2 P0001
14840KMKG MKG20101129233511311/29/10 23:35:31  5-MIN KMKG 300435Z 11009KT 5SM RA BR BKN039 OVC050 07/06 A2977 770 89 100 110/09 RMK AO2 P0008
14840KMKG MKG20101129234011411/29/10 23:40:31  5-MIN KMKG 300440Z 11009KT 4SM -RA BR BKN038 OVC050 07/06 A2977 770 89 100 120/09 RMK AO2 P0009
14840KMKG MKG20101129234511311/29/10 23:45:31  5-MIN KMKG 300445Z 11010KT 4SM RA BR BKN038 OVC050 07/06 A2976 780 89 100 110/10 RMK AO2 P0010
14840KMKG MKG20101129235014011/29/10 23:50:31  5-MIN KMKG 300450Z 12011KT 4SM RA BR BKN036 OVC047 07/06 A2976 780 89 100 120/11 RMK AO2 SLP082 P0011 T00720056 401061011
14840KMKG MKG20101129235514011/29/10 23:55:31  5-MIN KMKG 300455Z 11009KT 4SM RA BR BKN034 OVC041 07/06 A2976 780 89 100 120/09 RMK AO2 SLP079 P0012 T00720056 401061011
14840KMKG MKG20101130000012011/30/10 00:00:32  5-MIN KMKG 300500Z 11010KT 4SM RA BR BKN031 OVC039 07/06 A2975 790 89 100 110/10 RMK AO2 PRESFR P0001
14840KMKG MKG20101130000512011/30/10 00:05:31  5-MIN KMKG 300505Z 11010KT 4SM RA BR BKN029 OVC036 07/06 A2974 800 89 100 110/10 RMK AO2 PRESFR P0002
14840KMKG MKG20101130001011311/30/10 00:10:31  5-MIN KMKG 300510Z 11011KT 5SM RA BR OVC029 07/06 A2973 810 89 100 110/11 RMK AO2 PRESFR P0003
14840KMKG MKG20101130001511411/30/10 00:15:31  5-MIN KMKG 300515Z 11011KT 5SM -RA BR BKN029 OVC060 07/06 A2973 810 89 100 110/11 RMK AO2 P0004
14840KMKG MKG20101130002012111/30/10 00:20:31  5-MIN KMKG 300520Z 11011KT 6SM -RA BR BKN029 BKN060 OVC075 07/06 A2973 810 89 100 120/11 RMK AO2 P0004
14840KMKG MKG20101130002513611/30/10 00:25:31  5-MIN KMKG 300525Z 12013KT 6SM -RA BR SCT029 BKN039 OVC075 07/06 A2973 810 89 100 120/13 RMK AO2 CIG 030 RWY 14 P0005
14840KMKG MKG20101130003012011/30/10 00:30:31  5-MIN KMKG 300530Z 12011KT 6SM RA BR BKN029 BKN040 OVC060 07/06 A2973 810 89 100 120/11 RMK AO2 P0006
14840KMKG MKG20101130003512111/30/10 00:35:31  5-MIN KMKG 300535Z 11013KT 6SM -RA BR SCT027 BKN032 OVC060 07/06 A2972 810 89 100 120/13 RMK AO2 P0007
14840KMKG MKG20101130004012111/30/10 00:40:31  5-MIN KMKG 300540Z 11013KT 6SM -RA BR BKN029 BKN042 OVC060 07/06 A2972 810 89 100 120/13 RMK AO2 P0007
14840KMKG MKG20101130004512111/30/10 00:45:31  5-MIN KMKG 300545Z 11013KT 6SM -RA BR FEW024 BKN029 OVC060 07/06 A2972 820 89 100 110/13 RMK AO2 P0008
14840KMKG MKG20101130005016211/30/10 00:50:31  5-MIN KMKG 300550Z 11012KT 6SM -RA BR SCT024 BKN029 OVC042 07/06 A2971 820 89 100 120/12 RMK AO2 SLP064 P0008 60029 T00720056 10100 20072 56027
14840KMKG MKG20101130005516211/30/10 00:55:31  5-MIN KMKG 300555Z 12013KT 6SM -RA BR BKN026 BKN036 OVC044 07/06 A2971 830 89 100 120/13 RMK AO2 SLP062 P0009 60030 T00720056 10100 20072 58036
14840KMKG MKG20101130010012111/30/10 01:00:31  5-MIN KMKG 300600Z 11012KT 6SM -RA BR BKN026 BKN044 OVC070 07/06 A2971 830 89 100 120/12 RMK AO2 P0000
14840KMKG MKG20101130010512111/30/10 01:05:31  5-MIN KMKG 300605Z 13010KT 6SM -RA BR FEW017 BKN024 OVC070 07/06 A2970 830 89 100 130/10 RMK AO2 P0001
14840KMKG MKG20101130011012011/30/10 01:10:31  5-MIN KMKG 300610Z 12011KT 6SM RA BR FEW017 BKN024 OVC070 07/06 A2969 840 89 100 120/11 RMK AO2 P0001
14840KMKG MKG20101130011512011/30/10 01:15:31  5-MIN KMKG 300615Z 12012KT 5SM RA BR BKN024 BKN037 OVC070 07/06 A2969 840 89 100 120/12 RMK AO2 P0003
14840KMKG MKG20101130012012011/30/10 01:20:31  5-MIN KMKG 300620Z 12012KT 5SM RA BR FEW017 BKN024 OVC070 07/06 A2968 850 89 200 120/12 RMK AO2 P0003
14840KMKG MKG20101130012512011/30/10 01:25:31  5-MIN KMKG 300625Z 12011KT 4SM RA BR FEW017 BKN021 OVC070 07/06 A2968 850 89 200 130/11 RMK AO2 P0005
14840KMKG MKG20101130013012711/30/10 01:30:31  5-MIN KMKG 300630Z 12014KT 4SM RA BR SCT016 BKN021 OVC047 07/06 A2967 860 89 200 120/14 RMK AO2 PRESFR P0006
14840KMKG MKG20101130013512811/30/10 01:35:31  5-MIN KMKG 300635Z 11014KT 4SM +RA BR SCT016 BKN021 OVC047 07/06 A2965 880 89 200 110/14 RMK AO2 PRESFR P0009
14840KMKG MKG20101130014012711/30/10 01:40:31  5-MIN KMKG 300640Z 11015KT 4SM RA BR SCT014 BKN021 OVC070 07/06 A2964 890 89 200 110/15 RMK AO2 PRESFR P0010
14840KMKG MKG20101130014512011/30/10 01:45:31  5-MIN KMKG 300645Z 11015KT 4SM RA BR FEW010 BKN035 OVC049 07/06 A2964 890 89 200 120/15 RMK AO2 P0011
14840KMKG MKG20101130015014411/30/10 01:50:31  5-MIN KMKG 300650Z 12015G22KT 5SM -RA BR SCT011 BKN018 OVC049 07/06 A2965 880 89 200 120/15G22 RMK AO2 SLP042 P0011 T00720056
14840KMKG MKG20101130015513711/30/10 01:55:31  5-MIN KMKG 300655Z 12016KT 5SM RA BR SCT009 BKN018 OVC043 07/06 A2965 880 89 200 130/16 RMK AO2 SLP042 P0011 T00720056
14840KMKG MKG20101130020012111/30/10 02:00:31  5-MIN KMKG 300700Z 12017KT 5SM -RA BR SCT009 BKN016 OVC080 07/06 A2965 880 89 200 130/17 RMK AO2 P0001
14840KMKG MKG20101130020514211/30/10 02:05:31  5-MIN KMKG 300705Z 13018G25KT 5SM -RA BR SCT009 BKN016 OVC047 07/06 A2966 880 89 200 130/18G25 RMK AO2 CIG 010 RWY 14 P0001
14840KMKG MKG20101130021012611/30/10 02:10:31  5-MIN KMKG 300710Z 13017G25KT 5SM RA BR FEW009 BKN013 OVC048 07/06 A2966 880 89 200 130/17G25 RMK AO2 P0003
14840KMKG MKG20101130021511311/30/10 02:15:31  5-MIN KMKG 300715Z 13016KT 5SM RA BR BKN008 OVC016 07/06 A2964 890 93 200 130/16 RMK AO2 P0003
14840KMKG MKG20101130022013411/30/10 02:20:31  5-MIN KMKG 300720Z 11016G23KT 4SM +RA BR BKN008 BKN011 OVC030 07/06 A2962 910 93 200 120/16G23 RMK AO2 PRESFR P0005
14840KMKG MKG20101130022515111/30/10 02:25:31  5-MIN KMKG 300725Z 11020G26KT 3SM RA BR BKN008 BKN015 OVC034 07/06 A2960 930 93 300 120/20G26 RMK AO2 PK WND 12026/0724 PRESFR P0006
14840KMKG MKG20101130023014411/30/10 02:30:31  5-MIN KMKG 300730Z 11018G26KT 4SM RA BR BKN008 BKN012 OVC044 07/06 A2960 930 93 300 120/18G26 RMK AO2 PK WND 12026/0724 P0007
14840KMKG MKG20101130023515111/30/10 02:35:31  5-MIN KMKG 300735Z 11020G24KT 5SM RA BR BKN008 BKN037 OVC075 07/06 A2958 950 93 300 110/20G24 RMK AO2 PK WND 12026/0724 PRESFR P0009
14840KMKG MKG20101130024014411/30/10 02:40:31  5-MIN KMKG 300740Z 11018G28KT 5SM RA BR BKN008 BKN046 OVC075 07/06 A2958 950 93 300 110/18G28 RMK AO2 PK WND 10028/0737 P0009
14840KMKG MKG20101130024515211/30/10 02:45:31  5-MIN KMKG 300745Z 15014G28KT 5SM -RA BR BKN008 BKN044 OVC075 08/06 A2962 910 89 300 160/14G28 RMK AO2 PK WND 10028/0737 PRESRR P0010
14840KMKG MKG20101130025015911/30/10 02:50:31  5-MIN KMKG 300750Z 14016G22KT 7SM -RA BKN008 BKN041 OVC075 08/06 A2961 920 89 300 150/16G22 RMK AO2 PK WND 10028/0737 SLP029 P0010 T00780061
14840KMKG MKG20101130025515911/30/10 02:55:31  5-MIN KMKG 300755Z 15013G20KT 9SM -RA BKN008 BKN012 OVC045 08/06 A2962 910 89 300 150/13G20 RMK AO2 PK WND 10028/0737 SLP031 P0010 T00780061
14840KMKG MKG20101130030011811/30/10 03:00:31  5-MIN KMKG 300800Z 13015G20KT 10SM -RA BKN008 OVC043 08/06 A2961 920 89 300 130/15G20 RMK AO2 P0001
14840KMKG MKG20101130030511911/30/10 03:05:31  5-MIN KMKG 300805Z 13014KT 10SM -RA BKN008 BKN013 OVC050 08/06 A2960 930 89 300 140/14 RMK AO2 P0001
14840KMKG MKG20101130031011311/30/10 03:10:31  5-MIN KMKG 300810Z 14016G21KT 10SM OVC008 08/06 A2961 920 89 300 140/16G21 RMK AO2 RAE08 P0001
14840KMKG MKG20101130031513211/30/10 03:15:31  5-MIN KMKG 300815Z 14015G24KT 10SM BKN008 OVC013 08/06 A2962 910 89 300 140/15G24 RMK AO2 RAE08 CIG 007V011 P0001
14840KMKG MKG20101130032013211/30/10 03:20:31  5-MIN KMKG 300820Z 13016G24KT 10SM BKN008 OVC013 08/06 A2961 920 89 300 140/16G24 RMK AO2 RAE08 CIG 007V011 P0001
14840KMKG MKG20101130032513211/30/10 03:25:31  5-MIN KMKG 300825Z 13018G23KT 10SM BKN010 OVC017 08/06 A2960 930 86 400 140/18G23 RMK AO2 RAE08 CIG 007V013 P0001
14840KMKG MKG20101130033015711/30/10 03:30:31  5-MIN KMKG 300830Z 14017G26KT 10SM -RA BKN010 OVC017 08/07 A2960 920 89 400 140/17G26 RMK AO2 PK WND 14026/0826 RAE08B29 CIG 007V013 P0001
14840KMKG MKG20101130033515711/30/10 03:35:31  5-MIN KMKG 300835Z 13017G26KT 10SM -RA BKN010 OVC015 08/07 A2960 930 89 400 140/17G26 RMK AO2 PK WND 14026/0826 RAE08B29 CIG 007V013 P0001
14840KMKG MKG20101130034015111/30/10 03:40:31  5-MIN KMKG 300840Z 13015KT 10SM -RA BKN010 OVC015 08/07 A2960 930 89 400 140/15 RMK AO2 PK WND 14026/0826 RAE08B29 CIG 007V014 P0001
14840KMKG MKG20101130034515711/30/10 03:45:31  5-MIN KMKG 300845Z 14013G20KT 10SM -RA BKN010 OVC017 08/07 A2959 930 89 400 140/13G20 RMK AO2 PK WND 14026/0826 RAE08B29 CIG 008V014 P0001
14840KMKG MKG20101130035018611/30/10 03:50:31  5-MIN KMKG 300850Z 13015G22KT 10SM -RA BKN010 OVC017 08/07 A2958 950 89 400 130/15G22 RMK AO2 PK WND 14026/0826 RAE08B29 CIG 008V014 SLP017 P0001 60022 T00830067 58036
14840KMKG MKG20101130035517911/30/10 03:55:31  5-MIN KMKG 300855Z 13014G22KT 10SM -RA OVC010 08/07 A2956 960 89 400 130/14G22 RMK AO2 PK WND 14026/0826 RAE08B29 CIG 008V014 SLP013 P0001 60022 T00830067 56047
14840KMKG MKG20101130040012311/30/10 04:00:31  5-MIN KMKG 300900Z 14012KT 9SM -RA BKN008 OVC012 08/07 A2959 940 89 400 150/12 RMK AO2 CIG 007V011 P0000
14840KMKG MKG20101130040511911/30/10 04:05:31  5-MIN KMKG 300905Z 15011KT 6SM -RA BR OVC008 08/07 A2959 940 89 400 150/11 RMK AO2 CIG 007V011 P0000
14840KMKG MKG20101130041010611/30/10 04:10:31  5-MIN KMKG 300910Z 15009KT 3SM RA BR OVC008 08/07 A2959 940 89 400 150/09 RMK AO2 P0001
14840KMKG MKG20101130041511811/30/10 04:15:31  5-MIN KMKG 300915Z 14012KT 2SM RA BR OVC008 08/07 A2959 940 89 400 140/12 RMK AO2 CIG 006V011 P0002
14840KMKG MKG20101130042012311/30/10 04:20:31  5-MIN KMKG 300920Z 14012KT 2 1/2SM -RA BR OVC008 08/07 A2958 950 89 400 140/12 RMK AO2 CIG 006V011 P0002
14840KMKG MKG20101130042511911/30/10 04:25:31  5-MIN KMKG 300925Z 15010KT 3SM -RA BR OVC008 08/07 A2958 950 93 400 150/10 RMK AO2 CIG 006V012 P0003
14840KMKG MKG20101130043011911/30/10 04:30:31  5-MIN KMKG 300930Z 14012KT 3SM -RA BR OVC008 08/07 A2958 950 93 400 150/12 RMK AO2 CIG 006V012 P0004
14840KMKG MKG20101130043511911/30/10 04:35:31  5-MIN KMKG 300935Z 15009KT 3SM -RA BR OVC008 08/07 A2958 940 93 400 150/09 RMK AO2 CIG 006V012 P0004
14840KMKG MKG20101130044011811/30/10 04:40:31  5-MIN KMKG 300940Z 15010KT 3SM RA BR OVC008 08/07 A2958 940 93 400 150/10 RMK AO2 CIG 006V012 P0005
14840KMKG MKG20101130044512211/30/10 04:45:31  5-MIN KMKG 300945Z 15009KT 2 1/2SM RA BR OVC008 08/07 A2959 940 93 400 150/09 RMK AO2 CIG 006V012 P0006
14840KMKG MKG20101130045014611/30/10 04:50:31  5-MIN KMKG 300950Z 15009KT 2 1/2SM RA BR BKN006 OVC010 08/07 A2958 940 93 400 160/09 RMK AO2 CIG 005V009 SLP020 P0007 T00830072
14840KMKG MKG20101130045514711/30/10 04:55:31  5-MIN KMKG 300955Z 16008KT 2 1/2SM -RA BR BKN006 OVC010 09/07 A2959 940 89 500 170/08 RMK AO2 CIG 005V008 SLP020 P0008 T00890072
14840KMKG MKG20101130050012911/30/10 05:00:31  5-MIN KMKG 301000Z 14010KT 2 1/2SM RA BR BKN006 OVC010 09/08 A2958 950 93 500 140/10 RMK AO2 CIG 004V008 P0001
14840KMKG MKG20101130050512911/30/10 05:05:31  5-MIN KMKG 301005Z 15009KT 2 1/2SM RA BR BKN006 OVC013 09/08 A2957 950 93 500 160/09 RMK AO2 CIG 004V010 P0002
14840KMKG MKG20101130051013611/30/10 05:10:31  5-MIN KMKG 301010Z 14011G22KT 2 1/2SM -RA BR BKN008 OVC013 09/08 A2958 950 93 500 150/11G22 RMK AO2 CIG 004V009 P0003
14840KMKG MKG20101130051513211/30/10 05:15:31  5-MIN KMKG 301015Z 16009G22KT 3SM -RA BR BKN008 OVC013 09/08 A2958 950 93 500 170/09G22 RMK AO2 CIG 004V010 P0004
14840KMKG MKG20101130052012611/30/10 05:20:31  5-MIN KMKG 301020Z 16007KT 4SM -RA BR BKN008 OVC013 09/08 A2958 950 89 600 160/07 RMK AO2 CIG 004V011 P0004
14840KMKG MKG20101130052512611/30/10 05:25:31  5-MIN KMKG 301025Z 18008KT 4SM -RA BR BKN008 OVC013 09/08 A2958 950 93 600 180/08 RMK AO2 CIG 004V011 P0005
14840KMKG MKG20101130053013211/30/10 05:30:31  5-MIN KMKG 301030Z 17011G17KT 4SM -RA BR BKN008 OVC015 09/08 A2957 960 93 600 180/11G17 RMK AO2 CIG 005V012 P0005
14840KMKG MKG20101130053512011/30/10 05:35:31  5-MIN KMKG 301035Z 18014G17KT 5SM -RA BR BKN008 OVC012 10/09 A2957 960 93 600 180/14G17 RMK AO2 P0005
14840KMKG MKG20101130054012911/30/10 05:40:31  5-MIN KMKG 301040Z 18013G20KT 7SM -RA BKN008 OVC014 11/09 A2957 960 93 700 190/13G20 RMK AO2 CIG 005V010 P0005
14840KMKG MKG20101130054512911/30/10 05:45:31  5-MIN KMKG 301045Z 19016G21KT 7SM -RA BKN008 OVC015 11/09 A2957 960 93 700 190/16G21 RMK AO2 CIG 005V010 P0005
14840KMKG MKG20101130055014911/30/10 05:50:31  5-MIN KMKG 301050Z 18014G21KT 6SM -RA BR BKN008 OVC015 11/09 A2957 960 93 700 190/14G21 RMK AO2 CIG 005V012 SLP014 P0005 T01060094
14840KMKG MKG20101130055514311/30/10 05:55:31  5-MIN KMKG 301055Z 19013KT 5SM -RA BR BKN008 OVC015 11/09 A2956 960 93 700 190/13 RMK AO2 CIG 006V012 SLP013 P0005 T01060094
14840KMKG MKG20101130060012511/30/10 06:00:31  5-MIN KMKG 301100Z 19013G20KT 6SM -RA BR OVC008 11/09 A2957 960 93 700 190/13G20 RMK AO2 CIG 005V012 P0000
14840KMKG MKG20101130060512211/30/10 06:05:31  5-MIN KMKG 301105Z 19012G19KT 8SM -RA OVC008 11/09 A2956 970 93 700 200/12G19 RMK AO2 CIG 004V010 P0001
14840KMKG MKG20101130061013011/30/10 06:10:31  5-MIN KMKG 301110Z 18009G16KT 9SM -RA OVC006 11/09 A2953 1000 93 700 180/09G16 RMK AO2 CIG 004V010 PRESFR P0001
14840KMKG MKG20101130061511411/30/10 06:15:31  5-MIN KMKG 301115Z 19011KT 10SM BKN006 OVC009 11/09 A2955 980 93 700 190/11 RMK AO2 RAE14 P0001
14840KMKG MKG20101130062010711/30/10 06:20:31  5-MIN KMKG 301120Z 18011KT 10SM OVC006 11/09 A2955 980 93 700 190/11 RMK AO2 RAE14 P0001
14840KMKG MKG20101130062510611/30/10 06:25:31  5-MIN KMKG 301125Z 18010KT 9SM OVC004 11/09 A2954 980 93 700 180/10 RMK AO2 RAE14 P0001
14840KMKG MKG20101130063011211/30/10 06:30:31  5-MIN KMKG 301130Z 18010G16KT 8SM OVC004 11/09 A2955 970 93 700 190/10G16 RMK AO2 RAE14 P0001
14840KMKG MKG20101130063511211/30/10 06:35:31  5-MIN KMKG 301135Z 18011G18KT 7SM OVC004 11/09 A2955 970 93 700 180/11G18 RMK AO2 RAE14 P0001
14840KMKG MKG20101130064011211/30/10 06:40:31  5-MIN KMKG 301140Z 18011G18KT 7SM OVC004 11/09 A2956 970 93 700 190/11G18 RMK AO2 RAE14 P0001
14840KMKG MKG20101130064510611/30/10 06:45:31  5-MIN KMKG 301145Z 18011KT 7SM OVC004 11/09 A2956 970 93 700 180/11 RMK AO2 RAE14 P0001
14840KMKG MKG20101130065015311/30/10 06:50:31  5-MIN KMKG 301150Z 19010KT 7SM OVC004 11/09 A2955 980 93 700 190/10 RMK AO2 RAE14 SLP007 P0001 60036 70066 T01060094 10106 20072 56047
14840KMKG MKG20101130065516111/30/10 06:55:31  5-MIN KMKG 301155Z 19008KT 8SM OVC004 11/09 A2951 1020 93 800 190/08 RMK AO2 RAE14 PRESFR SLP993 P0001 60036 70066 T01060094 10106 20072 58019
14840KMKG MKG20101130070009511/30/10 07:00:31  5-MIN KMKG 301200Z 20012KT 10SM OVC004 11/09 A2953 990 93 700 200/12 RMK AO2
14840KMKG MKG20101130070509511/30/10 07:05:31  5-MIN KMKG 301205Z 20012KT 10SM OVC004 11/09 A2953 990 93 700 200/12 RMK AO2
14840KMKG MKG20101130071009511/30/10 07:10:31  5-MIN KMKG 301210Z 20010KT 10SM OVC004 11/09 A2953 990 93 700 200/10 RMK AO2
14840KMKG MKG20101130071510111/30/10 07:15:31  5-MIN KMKG 301215Z 21014G18KT 10SM OVC004 11/09 A2954 990 93 700 210/14G18 RMK AO2
14840KMKG MKG20101130072010111/30/10 07:20:31  5-MIN KMKG 301220Z 21013G18KT 10SM OVC004 11/09 A2953 990 93 700 210/13G18 RMK AO2
14840KMKG MKG20101130072511311/30/10 07:25:31  5-MIN KMKG 301225Z 20013G18KT 10SM OVC004 11/09 A2954 990 93 700 200/13G18 RMK AO2 CIG 004V007
14840KMKG MKG20101130073011311/30/10 07:30:31  5-MIN KMKG 301230Z 21011G19KT 10SM OVC004 11/09 A2954 990 93 700 210/11G19 RMK AO2 CIG 004V010
14840KMKG MKG20101130073510711/30/10 07:35:31  5-MIN KMKG 301235Z 20012KT 10SM OVC006 11/09 A2953 990 89 700 210/12 RMK AO2 CIG 004V010
14840KMKG MKG20101130074010711/30/10 07:40:31  5-MIN KMKG 301240Z 20012KT 10SM OVC006 11/09 A2954 980 89 700 210/12 RMK AO2 CIG 004V010
14840KMKG MKG20101130074511311/30/10 07:45:31  5-MIN KMKG 301245Z 20012G19KT 10SM OVC006 11/09 A2954 980 89 700 210/12G19 RMK AO2 CIG 004V009
14840KMKG MKG20101130075013011/30/10 07:50:31  5-MIN KMKG 301250Z 21013G19KT 10SM OVC006 11/09 A2953 990 89 700 210/13G19 RMK AO2 CIG 005V009 SLP003 T01060089
14840KMKG MKG20101130075511211/30/10 07:55:31  5-MIN KMKG 301255Z 21011KT 10SM OVC006 10/09 A2954 990 93 700 210/11 RMK AO2 SLP004 T01000089
14840KMKG MKG20101130080010811/30/10 08:00:31  5-MIN KMKG 301300Z 21011G19KT 10SM BKN006 OVC012 10/09 A2954 980 93 700 210/11G19 RMK AO2
14840KMKG MKG20101130080510811/30/10 08:05:31  5-MIN KMKG 301305Z 21012G19KT 10SM BKN006 OVC012 10/09 A2955 970 93 600 210/12G19 RMK AO2
14840KMKG MKG20101130081012011/30/10 08:10:31  5-MIN KMKG 301310Z 21014G20KT 10SM OVC006 10/09 A2956 970 93 600 210/14G20 RMK AO2 CIG 005V010 PRESRR
14840KMKG MKG20101130081512011/30/10 08:15:31  5-MIN KMKG 301315Z 22017G22KT 10SM OVC008 10/08 A2957 960 89 600 220/17G22 RMK AO2 CIG 006V012 PRESRR
14840KMKG MKG20101130082011211/30/10 08:20:31  5-MIN KMKG 301320Z 21015G23KT 9SM OVC008 10/08 A2957 960 89 600 210/15G23 RMK AO2 CIG 006V012
14840KMKG MKG20101130082511911/30/10 08:25:31  5-MIN KMKG 301325Z 22015G23KT 7SM BKN008 OVC021 10/08 A2957 950 89 600 220/15G23 RMK AO2 CIG 006V012
14840KMKG MKG20101130083011911/30/10 08:30:31  5-MIN KMKG 301330Z 21015G23KT 8SM BKN008 OVC021 10/08 A2958 950 89 600 220/15G23 RMK AO2 CIG 006V012
14840KMKG MKG20101130083513011/30/10 08:35:31  5-MIN KMKG 301335Z 21012G22KT 10SM SCT008 SCT011 OVC021 10/08 A2958 940 89 600 220/12G22 RMK AO2 CIG 013 RWY 14
14840KMKG MKG20101130084011511/30/10 08:40:31  5-MIN KMKG 301340Z 22016G19KT 10SM SCT008 BKN021 OVC032 10/08 A2958 950 89 600 220/16G19 RMK AO2
14840KMKG MKG20101130084511511/30/10 08:45:31  5-MIN KMKG 301345Z 20014G19KT 10SM FEW008 BKN021 OVC034 10/08 A2958 950 86 600 200/14G19 RMK AO2
14840KMKG MKG20101130085010811/30/10 08:50:31  5-MIN KMKG 301350Z 20014G19KT 10SM SCT021 OVC036 10/08 A2958 950 86 600 210/14G19 RMK AO2
14840KMKG MKG20101130085512511/30/10 08:55:31  5-MIN KMKG 301355Z 19011G19KT 10SM FEW021 OVC038 10/08 A2958 950 86 600 200/11G19 RMK AO2 SLP017 T01000078
14840KMKG MKG20101130090010211/30/10 09:00:31  5-MIN KMKG 301400Z 20013KT 10SM FEW021 OVC038 10/08 A2957 960 86 600 200/13 RMK AO2
14840KMKG MKG20101130090511111/30/10 09:05:31  5-MIN KMKG 301405Z 20015KT 10SM -RA OVC038 10/08 A2957 950 86 600 210/15 RMK AO2 RAB03 P0000
14840KMKG MKG20101130091011111/30/10 09:10:31  5-MIN KMKG 301410Z 20014KT 10SM -RA OVC038 10/08 A2956 960 86 600 210/14 RMK AO2 RAB03 P0000
14840KMKG MKG20101130091512511/30/10 09:15:31  5-MIN KMKG 301415Z 21013KT 10SM -RA BKN040 BKN050 OVC070 10/08 A2956 970 86 600 210/13 RMK AO2 RAB03 P0000
14840KMKG MKG20101130092012511/30/10 09:20:31  5-MIN KMKG 301420Z 20012KT 10SM -RA SCT040 BKN050 OVC070 10/08 A2956 960 86 600 200/12 RMK AO2 RAB03 P0000
14840KMKG MKG20101130092513011/30/10 09:25:31  5-MIN KMKG 301425Z 20016G23KT 10SM FEW015 BKN040 OVC070 10/08 A2956 960 86 600 200/16G23 RMK AO2 RAB03E24 P0000
14840KMKG MKG20101130093013011/30/10 09:30:31  5-MIN KMKG 301430Z 19012G23KT 10SM SCT015 BKN040 OVC048 10/08 A2956 960 86 600 200/12G23 RMK AO2 RAB03E24 P0000
14840KMKG MKG20101130093513011/30/10 09:35:31  5-MIN KMKG 301435Z 19012G18KT 10SM SCT013 SCT040 OVC048 10/08 A2956 960 86 600 190/12G18 RMK AO2 RAB03E24 P0000
14840KMKG MKG20101130094013011/30/10 09:40:31  5-MIN KMKG 301440Z 19014G20KT 10SM SCT013 SCT040 OVC048 10/08 A2957 960 86 600 190/14G20 RMK AO2 RAB03E24 P0000
14840KMKG MKG20101130094513011/30/10 09:45:31  5-MIN KMKG 301445Z 20016G21KT 10SM SCT013 BKN040 OVC048 10/08 A2958 940 86 600 200/16G21 RMK AO2 RAB03E24 P0000
14840KMKG MKG20101130095013011/30/10 09:50:31  5-MIN KMKG 301450Z 20015G23KT 10SM SCT013 BKN025 OVC048 10/08 A2958 940 86 600 200/15G23 RMK AO2 RAB03E24 P0000
14840KMKG MKG20101130095515911/30/10 09:55:31  5-MIN KMKG 301455Z 20015G23KT 10SM SCT011 BKN023 OVC048 10/08 A2959 940 86 600 200/15G23 RMK AO2 RAB03E24 SLP020 P0000 60000 T01000078 53002
14840KMKG MKG20101130100014511/30/10 10:00:31  5-MIN KMKG 301500Z 21022G30KT 10SM BKN011 BKN018 OVC041 10/08 A2959 940 86 600 210/22G30 RMK AO2 PK WND 21030/1459 CIG 008V013
14840KMKG MKG20101130100514411/30/10 10:05:31  5-MIN KMKG 301505Z 23018G30KT 7SM BKN011 BKN021 OVC032 08/06 A2960 930 86 400 240/18G30 RMK AO2 PK WND 21030/1459 CIG 008V013
14840KMKG MKG20101130101014711/30/10 10:10:31  5-MIN KMKG 301510Z 23019G29KT 6SM BR BKN009 OVC024 07/05 A2961 920 86 200 240/19G29 RMK AO2 PK WND 21030/1459 CIG 008V013 PRESRR
14840KMKG MKG20101130101513511/30/10 10:15:31  5-MIN KMKG 301515Z 23015G28KT 5SM BR BKN009 BKN012 OVC024 07/05 A2960 930 86 300 240/15G28 RMK AO2 PK WND 21030/1459
14840KMKG MKG20101130102012811/30/10 10:20:31  5-MIN KMKG 301520Z 24017G28KT 4SM BR BKN009 OVC013 07/05 A2959 930 86 300 240/17G28 RMK AO2 PK WND 21030/1459
14840KMKG MKG20101130102511511/30/10 10:25:31  5-MIN KMKG 301525Z 23019KT 4SM BR OVC009 07/05 A2959 940 89 200 240/19 RMK AO2 PK WND 21030/1459
14840KMKG MKG20101130103012111/30/10 10:30:31  5-MIN KMKG 301530Z 23017G24KT 5SM BR OVC009 07/04 A2959 940 86 200 240/17G24 RMK AO2 PK WND 21030/1459
14840KMKG MKG20101130103512811/30/10 10:35:31  5-MIN KMKG 301535Z 22020G24KT 5SM BR BKN009 OVC012 07/04 A2960 930 86 200 230/20G24 RMK AO2 PK WND 21030/1459
14840KMKG MKG20101130104012811/30/10 10:40:31  5-MIN KMKG 301540Z 23016G25KT 6SM BR BKN009 OVC012 07/04 A2960 930 86 200 230/16G25 RMK AO2 PK WND 21030/1459
14840KMKG MKG20101130104512111/30/10 10:45:31  5-MIN KMKG 301545Z 23021G27KT 6SM BR OVC012 07/04 A2961 920 86 200 230/21G27 RMK AO2 PK WND 21030/1459
14840KMKG MKG20101130105012111/30/10 10:50:31  5-MIN KMKG 301550Z 22020G28KT 6SM HZ OVC012 07/04 A2960 930 82 200 230/20G28 RMK AO2 PK WND 21030/1459
14840KMKG MKG20101130105513811/30/10 10:55:31  5-MIN KMKG 301555Z 23016G28KT 5SM HZ OVC012 07/04 A2960 930 82 200 230/16G28 RMK AO2 PK WND 21030/1459 SLP025 T00670039
14840KMKG MKG20101130110010311/30/10 11:00:31  5-MIN KMKG 301600Z 23018G25KT 5SM BR OVC012 06/04 A2959 930 86 100 230/18G25 RMK AO2
14840KMKG MKG20101130110511011/30/10 11:05:31  5-MIN KMKG 301605Z 21016G25KT 5SM BR BKN012 OVC019 06/04 A2959 930 86 100 210/16G25 RMK AO2
14840KMKG MKG20101130111011011/30/10 11:10:31  5-MIN KMKG 301610Z 23016G23KT 6SM BR BKN012 OVC017 06/04 A2960 930 86 100 230/16G23 RMK AO2
14840KMKG MKG20101130111511011/30/10 11:15:31  5-MIN KMKG 301615Z 23017G22KT 6SM HZ BKN012 OVC017 06/03 A2961 920 82 100 230/17G22 RMK AO2
14840KMKG MKG20101130112011011/30/10 11:20:31  5-MIN KMKG 301620Z 22016G23KT 5SM HZ BKN012 OVC017 06/03 A2960 930 82 100 220/16G23 RMK AO2
14840KMKG MKG20101130112510311/30/10 11:25:31  5-MIN KMKG 301625Z 21019G23KT 6SM HZ OVC012 06/03 A2960 930 82 100 220/19G23 RMK AO2
14840KMKG MKG20101130113011911/30/10 11:30:31  5-MIN KMKG 301630Z 21016G26KT 6SM HZ OVC012 06/03 A2960 930 82 0 220/16G26 RMK AO2 PK WND 21026/1627
14840KMKG MKG20101130113511611/30/10 11:35:31  5-MIN KMKG 301635Z 21017G26KT 7SM OVC012 06/03 A2961 920 82 0 220/17G26 RMK AO2 PK WND 21026/1627
14840KMKG MKG20101130114011611/30/10 11:40:31  5-MIN KMKG 301640Z 21018G26KT 7SM OVC012 06/03 A2961 910 82 0 210/18G26 RMK AO2 PK WND 21026/1639
14840KMKG MKG20101130114511611/30/10 11:45:31  5-MIN KMKG 301645Z 21016G26KT 7SM OVC012 06/03 A2961 920 82 0 220/16G26 RMK AO2 PK WND 21026/1639
14840KMKG MKG20101130115013311/30/10 11:50:31  5-MIN KMKG 301650Z 22019G24KT 7SM OVC012 05/03 A2960 930 85 0 220/19G24 RMK AO2 PK WND 21026/1639 SLP028 T00500028
14840KMKG MKG20101130115513311/30/10 11:55:31  5-MIN KMKG 301655Z 21018G24KT 7SM OVC012 05/03 A2960 930 85 0 210/18G24 RMK AO2 PK WND 21026/1639 SLP026 T00500028
14840KMKG MKG20101130120011611/30/10 12:00:31  5-MIN KMKG 301700Z 22019G29KT 7SM OVC012 05/02 A2960 930 82 0 220/19G29 RMK AO2 PK WND 21029/1658
14840KMKG MKG20101130120511611/30/10 12:05:31  5-MIN KMKG 301705Z 21020G29KT 8SM OVC012 05/02 A2960 920 82 0 220/20G29 RMK AO2 PK WND 22029/1705
14840KMKG MKG20101130121011611/30/10 12:10:31  5-MIN KMKG 301710Z 22023G31KT 8SM OVC012 05/02 A2960 930 82 0 220/23G31 RMK AO2 PK WND 22031/1710
14840KMKG MKG20101130121511611/30/10 12:15:31  5-MIN KMKG 301715Z 22022G31KT 8SM OVC012 05/02 A2961 920 79 0 220/22G31 RMK AO2 PK WND 22031/1710
14840KMKG MKG20101130122011611/30/10 12:20:31  5-MIN KMKG 301720Z 21024G31KT 9SM OVC014 05/02 A2961 920 79 0 220/24G31 RMK AO2 PK WND 22031/1717
14840KMKG MKG20101130122511711/30/10 12:25:31  5-MIN KMKG 301725Z 21019G31KT 10SM OVC016 05/01 A2962 910 76 0 220/19G31 RMK AO2 PK WND 22031/1717
14840KMKG MKG20101130123011711/30/10 12:30:31  5-MIN KMKG 301730Z 22021G29KT 10SM OVC016 05/01 A2962 910 76 0 220/21G29 RMK AO2 PK WND 22031/1717
14840KMKG MKG20101130123511711/30/10 12:35:31  5-MIN KMKG 301735Z 23019G29KT 10SM OVC016 05/01 A2962 910 76 0 230/19G29 RMK AO2 PK WND 22031/1717
14840KMKG MKG20101130124012011/30/10 12:40:31  5-MIN KMKG 301740Z 22024G32KT 10SM OVC018 04/01 A2962 910 76 -100 230/24G32 RMK AO2 PK WND 22032/1739
14840KMKG MKG20101130124512011/30/10 12:45:31  5-MIN KMKG 301745Z 23022G32KT 10SM OVC018 04/00 A2962 910 73 -100 230/22G32 RMK AO2 PK WND 22032/1739
14840KMKG MKG20101130125016111/30/10 12:50:31  5-MIN KMKG 301750Z 22019G29KT 10SM OVC020 04/01 A2962 910 76 -100 220/19G29 RMK AO2 PK WND 22032/1739 SLP035 60000 T00440006 10100 20044 53002
14840KMKG MKG20101130125516111/30/10 12:55:31  5-MIN KMKG 301755Z 20020G29KT 10SM OVC020 04/01 A2962 910 76 -100 210/20G29 RMK AO2 PK WND 22032/1739 SLP034 60000 T00440006 10100 20044 53012
14840KMKG MKG20101130130012011/30/10 13:00:31  5-MIN KMKG 301800Z 22020G27KT 10SM OVC020 04/01 A2962 910 76 -100 220/20G27 RMK AO2 PK WND 23026/1800
14840KMKG MKG20101130130512011/30/10 13:05:31  5-MIN KMKG 301805Z 22020G30KT 10SM OVC020 04/00 A2962 910 73 -100 230/20G30 RMK AO2 PK WND 23030/1803
14840KMKG MKG20101130131012011/30/10 13:10:31  5-MIN KMKG 301810Z 22018G30KT 10SM OVC020 04/00 A2960 920 76 -100 230/18G30 RMK AO2 PK WND 23030/1803
14840KMKG MKG20101130131512011/30/10 13:15:31  5-MIN KMKG 301815Z 22016G26KT 10SM OVC020 04/00 A2961 920 76 -100 230/16G26 RMK AO2 PK WND 23030/1803
14840KMKG MKG20101130132012011/30/10 13:20:31  5-MIN KMKG 301820Z 22017G26KT 10SM OVC018 04/00 A2962 910 76 -100 220/17G26 RMK AO2 PK WND 23030/1803
14840KMKG MKG20101130132512011/30/10 13:25:31  5-MIN KMKG 301825Z 22015G24KT 10SM OVC018 04/01 A2962 910 79 -100 220/15G24 RMK AO2 PK WND 23030/1803
14840KMKG MKG20101130133012011/30/10 13:30:31  5-MIN KMKG 301830Z 21021G26KT 10SM OVC018 04/01 A2963 900 79 -100 210/21G26 RMK AO2 PK WND 23030/1803
14840KMKG MKG20101130133512011/30/10 13:35:31  5-MIN KMKG 301835Z 22021G29KT 10SM OVC016 04/01 A2963 900 79 -100 220/21G29 RMK AO2 PK WND 23030/1803
14840KMKG MKG20101130134012011/30/10 13:40:31  5-MIN KMKG 301840Z 21015G29KT 10SM OVC016 04/01 A2962 910 79 -100 220/15G29 RMK AO2 PK WND 23030/1803
14840KMKG MKG20101130134512011/30/10 13:45:31  5-MIN KMKG 301845Z 22020G25KT 10SM OVC016 04/01 A2963 900 79 -100 220/20G25 RMK AO2 PK WND 23030/1803
14840KMKG MKG20101130135012011/30/10 13:50:31  5-MIN KMKG 301850Z 22022G27KT 10SM OVC014 04/01 A2964 890 79 -100 230/22G27 RMK AO2 PK WND 23030/1803
14840KMKG MKG20101130135513711/30/10 13:55:31  5-MIN KMKG 301855Z 22017G27KT 10SM OVC014 03/01 A2963 900 82 -200 230/17G27 RMK AO2 PK WND 23030/1803 SLP038 T00330006
14840KMKG MKG20101130140009611/30/10 14:00:31  5-MIN KMKG 301900Z 21019KT 10SM OVC014 03/01 A2963 900 82 -200 220/19 RMK AO2
14840KMKG MKG20101130140510211/30/10 14:05:31  5-MIN KMKG 301905Z 22018G24KT 10SM OVC014 03/01 A2964 890 82 -200 220/18G24 RMK AO2
14840KMKG MKG20101130141012011/30/10 14:10:31  5-MIN KMKG 301910Z 22023G29KT 10SM OVC014 03/00 A2963 900 79 -200 220/23G29 RMK AO2 PK WND 21029/1910
14840KMKG MKG20101130141512011/30/10 14:15:31  5-MIN KMKG 301915Z 22016G29KT 10SM OVC014 03/00 A2963 900 79 -200 220/16G29 RMK AO2 PK WND 21029/1910
14840KMKG MKG20101130142012011/30/10 14:20:31  5-MIN KMKG 301920Z 22018G26KT 10SM OVC014 03/01 A2963 900 82 -200 230/18G26 RMK AO2 PK WND 21029/1910
14840KMKG MKG20101130142512011/30/10 14:25:31  5-MIN KMKG 301925Z 22017G26KT 10SM OVC014 03/01 A2963 900 82 -200 230/17G26 RMK AO2 PK WND 21029/1910
14840KMKG MKG20101130143012011/30/10 14:30:31  5-MIN KMKG 301930Z 22019G26KT 10SM OVC014 03/00 A2963 900 79 -200 230/19G26 RMK AO2 PK WND 21029/1910
14840KMKG MKG20101130143512011/30/10 14:35:31  5-MIN KMKG 301935Z 23017G26KT 10SM OVC014 03/00 A2963 900 79 -200 230/17G26 RMK AO2 PK WND 21029/1910
14840KMKG MKG20101130144012011/30/10 14:40:31  5-MIN KMKG 301940Z 23017G26KT 10SM OVC014 03/00 A2963 900 79 -200 230/17G26 RMK AO2 PK WND 21029/1910
14840KMKG MKG20101130144511411/30/10 14:45:31  5-MIN KMKG 301945Z 21018KT 10SM OVC014 03/00 A2963 900 79 -200 210/18 RMK AO2 PK WND 21029/1910
14840KMKG MKG20101130145013711/30/10 14:50:31  5-MIN KMKG 301950Z 23016G25KT 10SM OVC014 03/01 A2964 890 82 -200 230/16G25 RMK AO2 PK WND 21029/1910 SLP041 T00330006
14840KMKG MKG20101130145513711/30/10 14:55:31  5-MIN KMKG 301955Z 22019G27KT 10SM OVC012 03/00 A2964 890 79 -200 220/19G27 RMK AO2 PK WND 21029/1910 SLP043 T00330000
14840KMKG MKG20101130150010211/30/10 15:00:31  5-MIN KMKG 302000Z 22017G27KT 10SM OVC012 03/01 A2964 890 85 -300 220/17G27 RMK AO2
14840KMKG MKG20101130150510211/30/10 15:05:31  5-MIN KMKG 302005Z 21015G23KT 10SM OVC012 03/00 A2964 890 82 -300 220/15G23 RMK AO2
14840KMKG MKG20101130151010211/30/10 15:10:31  5-MIN KMKG 302010Z 22017G22KT 10SM OVC012 03/00 A2965 890 79 -200 230/17G22 RMK AO2
14840KMKG MKG20101130151512011/30/10 15:15:31  5-MIN KMKG 302015Z 22018G26KT 10SM OVC012 03/00 A2965 880 79 -200 230/18G26 RMK AO2 PK WND 21026/2012
14840KMKG MKG20101130152012011/30/10 15:20:31  5-MIN KMKG 302020Z 21016G26KT 10SM OVC012 03/00 A2965 880 82 -300 210/16G26 RMK AO2 PK WND 21026/2012
14840KMKG MKG20101130152512011/30/10 15:25:31  5-MIN KMKG 302025Z 22016G25KT 10SM OVC012 03/00 A2964 890 79 -200 220/16G25 RMK AO2 PK WND 21026/2012
14840KMKG MKG20101130153012011/30/10 15:30:31  5-MIN KMKG 302030Z 22015G24KT 10SM OVC014 03/00 A2965 880 82 -300 220/15G24 RMK AO2 PK WND 21026/2012
14840KMKG MKG20101130153512011/30/10 15:35:31  5-MIN KMKG 302035Z 22019G24KT 10SM OVC014 03/00 A2965 880 82 -300 230/19G24 RMK AO2 PK WND 21026/2012
14840KMKG MKG20101130154012011/30/10 15:40:31  5-MIN KMKG 302040Z 22017G24KT 10SM OVC014 03/00 A2965 880 82 -300 220/17G24 RMK AO2 PK WND 21026/2012
14840KMKG MKG20101130154511411/30/10 15:45:31  5-MIN KMKG 302045Z 22018KT 10SM OVC014 03/00 A2966 880 82 -300 220/18 RMK AO2 PK WND 21026/2012
14840KMKG MKG20101130155014311/30/10 15:50:31  5-MIN KMKG 302050Z 23014G22KT 10SM OVC014 03/00 A2966 880 82 -300 230/14G22 RMK AO2 PK WND 21026/2012 SLP046 T00280000 53012
14840KMKG MKG20101130155514411/30/10 15:55:31  5-MIN KMKG 302055Z 22019G27KT 10SM OVC014 03/M01 A2966 880 79 -300 220/19G27 RMK AO2 PK WND 21027/2053 SLP047 T00281006 53007
14840KMKG MKG20101130160010311/30/10 16:00:31  5-MIN KMKG 302100Z 22019G27KT 10SM OVC014 03/M01 A2966 870 79 -300 220/19G27 RMK AO2
14840KMKG MKG20101130160510311/30/10 16:05:31  5-MIN KMKG 302105Z 23018G25KT 10SM OVC014 03/M01 A2966 870 79 -300 230/18G25 RMK AO2
14840KMKG MKG20101130161012111/30/10 16:10:31  5-MIN KMKG 302110Z 23017G26KT 10SM OVC014 03/M01 A2966 870 79 -300 240/17G26 RMK AO2 PK WND 22026/2108
14840KMKG MKG20101130161512111/30/10 16:15:31  5-MIN KMKG 302115Z 22018G26KT 10SM OVC014 03/M01 A2967 870 79 -300 220/18G26 RMK AO2 PK WND 22026/2108
14840KMKG MKG20101130162012111/30/10 16:20:31  5-MIN KMKG 302120Z 23016G24KT 10SM OVC014 03/M01 A2967 870 79 -300 230/16G24 RMK AO2 PK WND 22026/2108
14840KMKG MKG20101130162512111/30/10 16:25:31  5-MIN KMKG 302125Z 23017G24KT 10SM OVC014 03/M01 A2967 860 79 -300 240/17G24 RMK AO2 PK WND 22026/2108
14840KMKG MKG20101130163011511/30/10 16:30:31  5-MIN KMKG 302130Z 23017KT 10SM OVC014 03/M01 A2967 870 79 -300 230/17 RMK AO2 PK WND 22026/2108
14840KMKG MKG20101130163512111/30/10 16:35:31  5-MIN KMKG 302135Z 23016G24KT 10SM OVC014 03/M01 A2967 860 79 -300 230/16G24 RMK AO2 PK WND 22026/2108
14840KMKG MKG20101130164012111/30/10 16:40:31  5-MIN KMKG 302140Z 23015G24KT 10SM OVC014 03/M01 A2967 860 79 -300 240/15G24 RMK AO2 PK WND 22026/2108
14840KMKG MKG20101130164512111/30/10 16:45:31  5-MIN KMKG 302145Z 23014G22KT 10SM OVC014 03/M01 A2967 860 79 -300 230/14G22 RMK AO2 PK WND 22026/2108
14840KMKG MKG20101130165013811/30/10 16:50:31  5-MIN KMKG 302150Z 23018G23KT 10SM OVC014 03/M01 A2967 860 79 -300 230/18G23 RMK AO2 PK WND 22026/2108 SLP051 T00281006
14840KMKG MKG20101130165513811/30/10 16:55:31  5-MIN KMKG 302155Z 23016G24KT 10SM OVC014 03/M01 A2966 870 79 -300 230/16G24 RMK AO2 PK WND 22026/2108 SLP049 T00281006
14840KMKG MKG20101130170010311/30/10 17:00:31  5-MIN KMKG 302200Z 23017G25KT 10SM OVC014 03/M01 A2967 860 79 -300 240/17G25 RMK AO2
14840KMKG MKG20101130170510311/30/10 17:05:31  5-MIN KMKG 302205Z 23019G25KT 10SM OVC014 03/M01 A2967 860 75 -300 230/19G25 RMK AO2
14840KMKG MKG20101130171010311/30/10 17:10:31  5-MIN KMKG 302210Z 22018G25KT 10SM OVC014 03/M01 A2967 860 79 -300 220/18G25 RMK AO2
14840KMKG MKG20101130171510311/30/10 17:15:31  5-MIN KMKG 302215Z 23018G24KT 10SM OVC014 03/M01 A2967 860 75 -300 230/18G24 RMK AO2
14840KMKG MKG20101130172010311/30/10 17:20:31  5-MIN KMKG 302220Z 21017G24KT 10SM OVC014 02/M01 A2967 860 82 -400 220/17G24 RMK AO2
14840KMKG MKG20101130172511911/30/10 17:25:31  5-MIN KMKG 302225Z 23016G25KT 10SM -RA OVC014 02/M01 A2967 870 78 -400 240/16G25 RMK AO2 RAB23 P0000
14840KMKG MKG20101130173011911/30/10 17:30:31  5-MIN KMKG 302230Z 22015G25KT 10SM -RA OVC014 02/M01 A2967 870 78 -400 230/15G25 RMK AO2 RAB23 P0000
14840KMKG MKG20101130173513711/30/10 17:35:31  5-MIN KMKG 302235Z 22019G27KT 10SM -RA OVC014 02/M01 A2967 860 78 -400 230/19G27 RMK AO2 PK WND 23027/2233 RAB23 P0000
14840KMKG MKG20101130174013611/30/10 17:40:31  5-MIN KMKG 302240Z 22018G27KT 9SM -RA OVC014 02/M01 A2967 860 78 -400 220/18G27 RMK AO2 PK WND 23027/2233 RAB23 P0000
14840KMKG MKG20101130174513711/30/10 17:45:31  5-MIN KMKG 302245Z 23018G22KT 10SM -RA OVC014 02/M01 A2967 860 78 -400 230/18G22 RMK AO2 PK WND 23027/2233 RAB23 P0000
14840KMKG MKG20101130175015411/30/10 17:50:31  5-MIN KMKG 302250Z 22017G24KT 10SM -RA OVC014 02/M01 A2967 860 78 -400 220/17G24 RMK AO2 PK WND 23027/2233 RAB23 SLP050 P0000 T00221011
14840KMKG MKG20101130175515411/30/10 17:55:31  5-MIN KMKG 302255Z 23021G26KT 10SM -RA OVC014 02/M01 A2967 860 78 -400 240/21G26 RMK AO2 PK WND 23027/2233 RAB23 SLP050 P0000 T00221011
14840KMKG MKG20101130180011311/30/10 18:00:31  5-MIN KMKG 302300Z 24015G26KT 10SM -RA OVC014 02/M02 A2967 860 75 -400 240/15G26 RMK AO2 P0000
14840KMKG MKG20101130180511311/30/10 18:05:31  5-MIN KMKG 302305Z 23019G24KT 10SM -RA OVC014 02/M02 A2967 860 75 -400 230/19G24 RMK AO2 P0000
14840KMKG MKG20101130181011311/30/10 18:10:31  5-MIN KMKG 302310Z 23012G24KT 10SM -RA OVC014 02/M02 A2967 860 75 -400 230/12G24 RMK AO2 P0000
14840KMKG MKG20101130181511311/30/10 18:15:31  5-MIN KMKG 302315Z 24017G24KT 10SM -RA OVC014 02/M01 A2967 860 78 -400 250/17G24 RMK AO2 P0000
14840KMKG MKG20101130182011311/30/10 18:20:31  5-MIN KMKG 302320Z 23018G25KT 10SM -RA OVC016 02/M02 A2967 860 75 -400 230/18G25 RMK AO2 P0000
14840KMKG MKG20101130182511311/30/10 18:25:31  5-MIN KMKG 302325Z 23018G25KT 10SM -RA OVC016 02/M02 A2967 860 75 -400 240/18G25 RMK AO2 P0000
14840KMKG MKG20101130183011311/30/10 18:30:31  5-MIN KMKG 302330Z 24019G24KT 10SM -RA OVC016 02/M02 A2967 860 75 -400 240/19G24 RMK AO2 P0000
14840KMKG MKG20101130183511311/30/10 18:35:31  5-MIN KMKG 302335Z 23015G23KT 10SM -RA OVC016 02/M01 A2967 860 78 -400 240/15G23 RMK AO2 P0000
14840KMKG MKG20101130184011511/30/10 18:40:31  5-MIN KMKG 302340Z 23014G23KT 10SM OVC014 02/M01 A2967 860 78 -400 230/14G23 RMK AO2 RAE36 P0000
14840KMKG MKG20101130184510911/30/10 18:45:31  5-MIN KMKG 302345Z 22014KT 10SM OVC014 02/M01 A2967 860 78 -400 220/14 RMK AO2 RAE36 P0000
14840KMKG MKG20101130185015511/30/10 18:50:31  5-MIN KMKG 302350Z 25017G22KT 9SM OVC014 02/M01 A2967 860 82 -500 250/17G22 RMK AO2 RAE36 SLP052 P0000 60000 T00171011 10044 20017 53007
14840KMKG MKG20101130185515611/30/10 18:55:31  5-MIN KMKG 302355Z 23016G22KT 10SM OVC014 02/M01 A2967 860 78 -400 230/16G22 RMK AO2 RAE36 SLP051 P0000 60000 T00221011 10044 20017 51005
14840KMKG MKG20101130190010311/30/10 19:00:31  5-MIN KMKG 010000Z 24016G22KT 10SM OVC014 02/M01 A2967 860 82 -500 240/16G22 RMK AO2
14840KMKG MKG20101130190510311/30/10 19:05:31  5-MIN KMKG 010005Z 22012G22KT 10SM OVC014 02/M01 A2967 860 82 -500 230/12G22 RMK AO2
14840KMKG MKG20101130191010311/30/10 19:10:31  5-MIN KMKG 010010Z 24017G24KT 10SM OVC014 02/M01 A2967 860 82 -500 250/17G24 RMK AO2
14840KMKG MKG20101130191510311/30/10 19:15:31  5-MIN KMKG 010015Z 24014G24KT 10SM OVC014 02/M02 A2968 860 78 -500 240/14G24 RMK AO2
14840KMKG MKG20101130192010311/30/10 19:20:31  5-MIN KMKG 010020Z 24016G23KT 10SM OVC014 02/M02 A2967 860 78 -500 240/16G23 RMK AO2
14840KMKG MKG20101130192510311/30/10 19:25:31  5-MIN KMKG 010025Z 23016G23KT 10SM OVC014 02/M02 A2967 860 78 -500 240/16G23 RMK AO2
14840KMKG MKG20101130193010311/30/10 19:30:31  5-MIN KMKG 010030Z 24013G23KT 10SM OVC014 02/M02 A2967 860 78 -500 250/13G23 RMK AO2
14840KMKG MKG20101130193510311/30/10 19:35:31  5-MIN KMKG 010035Z 24013G23KT 10SM OVC014 02/M02 A2967 860 78 -500 240/13G23 RMK AO2
14840KMKG MKG20101130194010311/30/10 19:40:31  5-MIN KMKG 010040Z 24009G19KT 10SM OVC014 02/M02 A2968 860 78 -500 250/09G19 RMK AO2
14840KMKG MKG20101130194510311/30/10 19:45:31  5-MIN KMKG 010045Z 24012G24KT 10SM OVC014 02/M02 A2968 860 78 -500 250/12G24 RMK AO2
14840KMKG MKG20101130195012011/30/10 19:50:31  5-MIN KMKG 010050Z 23016G24KT 10SM OVC014 02/M02 A2968 850 78 -500 230/16G24 RMK AO2 SLP054 T00171017
14840KMKG MKG20101130195512011/30/10 19:55:31  5-MIN KMKG 010055Z 23017G24KT 10SM OVC014 02/M02 A2967 860 78 -500 240/17G24 RMK AO2 SLP053 T00171017
14840KMKG MKG20101130200010311/30/10 20:00:31  5-MIN KMKG 010100Z 24015G24KT 10SM OVC014 02/M02 A2968 850 78 -500 240/15G24 RMK AO2
14840KMKG MKG20101130200510311/30/10 20:05:31  5-MIN KMKG 010105Z 24015G22KT 10SM OVC014 02/M02 A2968 850 78 -500 240/15G22 RMK AO2
14840KMKG MKG20101130201010311/30/10 20:10:31  5-MIN KMKG 010110Z 24012G22KT 10SM OVC014 02/M02 A2968 850 78 -500 240/12G22 RMK AO2
14840KMKG MKG20101130201510311/30/10 20:15:31  5-MIN KMKG 010115Z 23018G24KT 10SM OVC014 02/M02 A2968 850 78 -500 240/18G24 RMK AO2
14840KMKG MKG20101130202010311/30/10 20:20:31  5-MIN KMKG 010120Z 24013G24KT 10SM OVC014 02/M02 A2968 850 78 -500 240/13G24 RMK AO2
14840KMKG MKG20101130202510911/30/10 20:25:31  5-MIN KMKG 010125Z 23015G22KT 10SM OVC014 02/M02 A2968 850 78 -500 230/15G22 RMK AO2 P0000
14840KMKG MKG20101130203011311/30/10 20:30:31  5-MIN KMKG 010130Z 24011G21KT 10SM -SN OVC014 02/M02 A2968 850 78 -500 250/11G21 RMK AO2 P0000
14840KMKG MKG20101130203511211/30/10 20:35:31  5-MIN KMKG 010135Z 25014G20KT 9SM -SN OVC014 02/M02 A2969 850 75 -500 260/14G20 RMK AO2 P0000
14840KMKG MKG20101130204011211/30/10 20:40:31  5-MIN KMKG 010140Z 24015G21KT 9SM -SN OVC014 02/M02 A2968 850 75 -500 240/15G21 RMK AO2 P0000
14840KMKG MKG20101130204511211/30/10 20:45:31  5-MIN KMKG 010145Z 25014G21KT 9SM -SN OVC014 02/M02 A2968 850 75 -500 250/14G21 RMK AO2 P0000
14840KMKG MKG20101130205012311/30/10 20:50:31  5-MIN KMKG 010150Z 25012KT 9SM -SN OVC014 02/M02 A2968 850 75 -500 250/12 RMK AO2 SLP055 P0000 T00171022
14840KMKG MKG20101130205512911/30/10 20:55:31  5-MIN KMKG 010155Z 25012G18KT 9SM -SN OVC014 02/M02 A2968 850 75 -500 260/12G18 RMK AO2 SLP056 P0000 T00171022
14840KMKG MKG20101130211510611/30/10 21:15:31  5-MIN KMKG 010215Z 24014KT 9SM -SN OVC014 02/M02 A2969 850 78 -500 250/14 RMK AO2 P0000
14840KMKG MKG20101130212011211/30/10 21:20:31  5-MIN KMKG 010220Z 24010G19KT 9SM -SN OVC014 02/M02 A2969 850 78 -500 250/10G19 RMK AO2 P0000
14840KMKG MKG20101130212511211/30/10 21:25:31  5-MIN KMKG 010225Z 24010G18KT 9SM -SN OVC014 02/M02 A2969 840 78 -500 250/10G18 RMK AO2 P0000
14840KMKG MKG20101130213011211/30/10 21:30:31  5-MIN KMKG 010230Z 23013G20KT 9SM -SN OVC014 02/M02 A2969 840 78 -500 240/13G20 RMK AO2 P0000
14840KMKG MKG20101130213511211/30/10 21:35:31  5-MIN KMKG 010235Z 24011G21KT 9SM -SN OVC014 01/M02 A2969 850 82 -600 240/11G21 RMK AO2 P0000
14840KMKG MKG20101130214011211/30/10 21:40:31  5-MIN KMKG 010240Z 25014G21KT 9SM -SN OVC014 01/M02 A2969 840 78 -600 250/14G21 RMK AO2 P0000
14840KMKG MKG20101130214510611/30/10 21:45:31  5-MIN KMKG 010245Z 24013KT 9SM -SN OVC014 01/M02 A2969 840 78 -600 240/13 RMK AO2 P0000
14840KMKG MKG20101130215014111/30/10 21:50:31  5-MIN KMKG 010250Z 24011G18KT 9SM -SN OVC014 01/M02 A2969 840 78 -600 240/11G18 RMK AO2 SLP059 P0000 60000 T00111022 51005
14840KMKG MKG20101130215514111/30/10 21:55:31  5-MIN KMKG 010255Z 24014G20KT 9SM -SN OVC014 01/M02 A2970 840 78 -600 250/14G20 RMK AO2 SLP060 P0000 60000 T00111022 53008
14840KMKG MKG20101130220011211/30/10 22:00:31  5-MIN KMKG 010300Z 24010G20KT 9SM -SN OVC014 01/M02 A2970 840 78 -600 240/10G20 RMK AO2 P0000
14840KMKG MKG20101130220510611/30/10 22:05:31  5-MIN KMKG 010305Z 25013KT 9SM -SN OVC014 01/M02 A2970 840 78 -600 260/13 RMK AO2 P0000
14840KMKG MKG20101130221010611/30/10 22:10:31  5-MIN KMKG 010310Z 25011KT 9SM -SN OVC014 01/M02 A2970 840 78 -600 250/11 RMK AO2 P0000
14840KMKG MKG20101130221510611/30/10 22:15:31  5-MIN KMKG 010315Z 25011KT 9SM -SN OVC014 01/M02 A2970 840 78 -600 250/11 RMK AO2 P0000
14840KMKG MKG20101130222011211/30/10 22:20:31  5-MIN KMKG 010320Z 24013G18KT 9SM -SN OVC014 01/M02 A2970 840 78 -600 250/13G18 RMK AO2 P0000
14840KMKG MKG20101130222510611/30/10 22:25:31  5-MIN KMKG 010325Z 23013KT 9SM -SN OVC016 01/M02 A2970 840 78 -600 240/13 RMK AO2 P0000
14840KMKG MKG20101130223011211/30/10 22:30:31  5-MIN KMKG 010330Z 25011G18KT 9SM -SN OVC016 01/M02 A2970 840 78 -600 250/11G18 RMK AO2 P0000
14840KMKG MKG20101130223511211/30/10 22:35:31  5-MIN KMKG 010335Z 25011G17KT 9SM -SN OVC016 01/M02 A2970 840 78 -600 250/11G17 RMK AO2 P0000
14840KMKG MKG20101130224011211/30/10 22:40:31  5-MIN KMKG 010340Z 24010G19KT 9SM -SN OVC016 01/M02 A2969 840 78 -600 240/10G19 RMK AO2 P0000
14840KMKG MKG20101130224511211/30/10 22:45:31  5-MIN KMKG 010345Z 26013G19KT 9SM -SN OVC016 01/M02 A2969 840 78 -600 260/13G19 RMK AO2 P0000
14840KMKG MKG20101130225012911/30/10 22:50:31  5-MIN KMKG 010350Z 24012G19KT 9SM -SN OVC016 01/M02 A2969 840 78 -600 240/12G19 RMK AO2 SLP060 P0000 T00111022
14840KMKG MKG20101130225512911/30/10 22:55:31  5-MIN KMKG 010355Z 25014G20KT 9SM -SN OVC014 01/M02 A2970 840 78 -600 250/14G20 RMK AO2 SLP061 P0000 T00111022
14840KMKG MKG20101130230011211/30/10 23:00:31  5-MIN KMKG 010400Z 23011G19KT 9SM -SN OVC014 01/M02 A2969 840 82 -600 240/11G19 RMK AO2 P0000
14840KMKG MKG20101130230511211/30/10 23:05:31  5-MIN KMKG 010405Z 26011G17KT 9SM -SN OVC014 01/M02 A2969 840 82 -600 260/11G17 RMK AO2 P0000
14840KMKG MKG20101130231010611/30/10 23:10:31  5-MIN KMKG 010410Z 23013KT 9SM -SN OVC014 01/M03 A2969 840 78 -600 240/13 RMK AO2 P0000
14840KMKG MKG20101130231510611/30/10 23:15:31  5-MIN KMKG 010415Z 24009KT 9SM -SN OVC014 01/M03 A2969 840 78 -600 240/09 RMK AO2 P0000
14840KMKG MKG20101130232010611/30/10 23:20:31  5-MIN KMKG 010420Z 24011KT 8SM -SN OVC014 01/M02 A2969 840 82 -600 240/11 RMK AO2 P0000
14840KMKG MKG20101130232510611/30/10 23:25:31  5-MIN KMKG 010425Z 24012KT 8SM -SN OVC014 01/M03 A2969 840 78 -600 240/12 RMK AO2 P0000
14840KMKG MKG20101130233010611/30/10 23:30:31  5-MIN KMKG 010430Z 24011KT 8SM -SN OVC014 01/M03 A2969 840 78 -600 240/11 RMK AO2 P0000
14840KMKG MKG20101130233510611/30/10 23:35:31  5-MIN KMKG 010435Z 23011KT 8SM -SN OVC016 01/M03 A2969 840 78 -600 240/11 RMK AO2 P0000
14840KMKG MKG20101130234010611/30/10 23:40:31  5-MIN KMKG 010440Z 26008KT 7SM -SN OVC016 01/M02 A2969 840 82 -600 260/08 RMK AO2 P0000
14840KMKG MKG20101130234510611/30/10 23:45:31  5-MIN KMKG 010445Z 25009KT 8SM -SN OVC016 01/M03 A2969 840 78 -600 250/09 RMK AO2 P0000
14840KMKG MKG20101130235013311/30/10 23:50:31  5-MIN KMKG 010450Z 24009KT 8SM -SN OVC016 01/M03 A2970 840 78 -600 240/09 RMK AO2 SLP061 P0001 T00061028 401060006
14840KMKG MKG20101130235513911/30/10 23:55:31  5-MIN KMKG 010455Z 26012G17KT 8SM -SN OVC016 01/M03 A2970 840 78 -600 260/12G17 RMK AO2 SLP061 P0001 T00061028 401060006
