14840KMKG MKG20071101000009711/01/07 00:00:35  5-MIN KMKG 010500Z 29017G28KT 10SM CLR 09/M04 A3004 520 40 0 300/17G28 RMK AO2
14840KMKG MKG20071101000509711/01/07 00:05:31  5-MIN KMKG 010505Z 29015G24KT 10SM CLR 09/M03 A3004 520 42 0 300/15G24 RMK AO2
14840KMKG MKG20071101001009711/01/07 00:10:31  5-MIN KMKG 010510Z 29015G23KT 10SM CLR 09/M03 A3005 510 42 0 300/15G23 RMK AO2
14840KMKG MKG20071101001509711/01/07 00:15:31  5-MIN KMKG 010515Z 30014G23KT 10SM CLR 09/M03 A3005 510 43 0 300/14G23 RMK AO2
14840KMKG MKG20071101002011511/01/07 00:20:31  5-MIN KMKG 010520Z 30016G26KT 10SM CLR 09/M03 A3005 510 42 0 300/16G26 RMK AO2 PK WND 30026/0518
14840KMKG MKG20071101002511511/01/07 00:25:31  5-MIN KMKG 010525Z 30011G26KT 10SM CLR 09/M03 A3005 510 42 0 310/11G26 RMK AO2 PK WND 30026/0518
14840KMKG MKG20071101003011511/01/07 00:30:31  5-MIN KMKG 010530Z 30013G27KT 10SM CLR 09/M04 A3005 510 40 0 310/13G27 RMK AO2 PK WND 29027/0527
14840KMKG MKG20071101003511511/01/07 00:35:31  5-MIN KMKG 010535Z 30015G27KT 10SM CLR 09/M04 A3005 510 38 0 310/15G27 RMK AO2 PK WND 29027/0527
14840KMKG MKG20071101004011511/01/07 00:40:31  5-MIN KMKG 010540Z 30016G25KT 10SM CLR 09/M05 A3006 510 37 0 300/16G25 RMK AO2 PK WND 29027/0527
14840KMKG MKG20071101004511811/01/07 00:45:31  5-MIN KMKG 010545Z 30012G24KT 10SM CLR 08/M04 A3006 500 40 -100 300/12G24 RMK AO2 PK WND 29027/0527
14840KMKG MKG20071101005015011/01/07 00:50:31  5-MIN KMKG 010550Z 29013G24KT 10SM CLR 09/M04 A3006 500 38 0 300/13G24 RMK AO2 PK WND 29027/0527 SLP180 T00891044 10122 20083 51022
14840KMKG MKG20071101005515311/01/07 00:55:31  5-MIN KMKG 010555Z 29015G23KT 10SM CLR 08/M04 A3006 500 42 -100 300/15G23 RMK AO2 PK WND 29027/0527 SLP181 T00831039 10122 20083 53013
14840KMKG MKG20071101010009711/01/07 01:00:31  5-MIN KMKG 010600Z 31013G24KT 10SM CLR 09/M04 A3006 500 38 0 310/13G24 RMK AO2
14840KMKG MKG20071101010510011/01/07 01:05:31  5-MIN KMKG 010605Z 31013G24KT 10SM CLR 08/M04 A3006 500 40 -100 310/13G24 RMK AO2
14840KMKG MKG20071101011011511/01/07 01:10:31  5-MIN KMKG 010610Z 29019G26KT 10SM CLR 09/M04 A3006 510 38 0 290/19G26 RMK AO2 PK WND 29026/0609
14840KMKG MKG20071101011511811/01/07 01:15:31  5-MIN KMKG 010615Z 29019G26KT 10SM CLR 08/M04 A3006 500 42 -100 290/19G26 RMK AO2 PK WND 29026/0609
14840KMKG MKG20071101012011811/01/07 01:20:31  5-MIN KMKG 010620Z 30013G23KT 10SM CLR 08/M04 A3006 500 40 -100 300/13G23 RMK AO2 PK WND 29026/0609
14840KMKG MKG20071101012511811/01/07 01:25:31  5-MIN KMKG 010625Z 29019G25KT 10SM CLR 08/M04 A3006 500 40 -100 290/19G25 RMK AO2 PK WND 29026/0609
14840KMKG MKG20071101013011811/01/07 01:30:31  5-MIN KMKG 010630Z 30018G26KT 10SM CLR 08/M05 A3006 500 38 -100 300/18G26 RMK AO2 PK WND 30026/0626
14840KMKG MKG20071101013511811/01/07 01:35:31  5-MIN KMKG 010635Z 29015G26KT 10SM CLR 08/M04 A3006 500 40 -100 300/15G26 RMK AO2 PK WND 30026/0626
14840KMKG MKG20071101014011811/01/07 01:40:31  5-MIN KMKG 010640Z 29019G26KT 10SM CLR 08/M04 A3007 500 40 -100 300/19G26 RMK AO2 PK WND 29026/0640
14840KMKG MKG20071101014511811/01/07 01:45:31  5-MIN KMKG 010645Z 30017G26KT 10SM CLR 08/M05 A3007 500 38 -100 300/17G26 RMK AO2 PK WND 29026/0643
14840KMKG MKG20071101015013511/01/07 01:50:31  5-MIN KMKG 010650Z 30016G26KT 10SM CLR 08/M04 A3007 490 40 -100 310/16G26 RMK AO2 PK WND 29026/0643 SLP183 T00831044
14840KMKG MKG20071101015513511/01/07 01:55:31  5-MIN KMKG 010655Z 30014G24KT 10SM CLR 08/M04 A3007 490 42 -100 300/14G24 RMK AO2 PK WND 29026/0643 SLP184 T00831039
14840KMKG MKG20071101020010011/01/07 02:00:31  5-MIN KMKG 010700Z 30015G24KT 10SM CLR 08/M04 A3007 490 42 -100 300/15G24 RMK AO2
14840KMKG MKG20071101020510011/01/07 02:05:31  5-MIN KMKG 010705Z 30015G24KT 10SM CLR 08/M04 A3007 490 42 -100 300/15G24 RMK AO2
14840KMKG MKG20071101021010011/01/07 02:10:31  5-MIN KMKG 010710Z 30014G24KT 10SM CLR 08/M04 A3007 490 42 -100 310/14G24 RMK AO2
14840KMKG MKG20071101021510011/01/07 02:15:31  5-MIN KMKG 010715Z 30018G25KT 10SM CLR 08/M04 A3007 490 42 -100 310/18G25 RMK AO2
14840KMKG MKG20071101022010011/01/07 02:20:31  5-MIN KMKG 010720Z 29020G25KT 10SM CLR 08/M04 A3008 490 42 -100 290/20G25 RMK AO2
14840KMKG MKG20071101022510011/01/07 02:25:31  5-MIN KMKG 010725Z 29017G25KT 10SM CLR 08/M04 A3008 490 42 -100 290/17G25 RMK AO2
14840KMKG MKG20071101023010011/01/07 02:30:31  5-MIN KMKG 010730Z 30013G24KT 10SM CLR 08/M04 A3008 490 43 -200 300/13G24 RMK AO2
14840KMKG MKG20071101023510011/01/07 02:35:31  5-MIN KMKG 010735Z 30014G23KT 10SM CLR 08/M03 A3008 490 45 -200 310/14G23 RMK AO2
14840KMKG MKG20071101024011811/01/07 02:40:31  5-MIN KMKG 010740Z 29017G26KT 10SM CLR 08/M03 A3008 490 45 -200 300/17G26 RMK AO2 PK WND 29026/0738
14840KMKG MKG20071101024511811/01/07 02:45:31  5-MIN KMKG 010745Z 30012G26KT 10SM CLR 08/M04 A3008 490 43 -200 310/12G26 RMK AO2 PK WND 29026/0738
14840KMKG MKG20071101025013511/01/07 02:50:31  5-MIN KMKG 010750Z 29016G21KT 10SM CLR 08/M03 A3008 490 45 -200 300/16G21 RMK AO2 PK WND 29026/0738 SLP187 T00781033
14840KMKG MKG20071101025513511/01/07 02:55:31  5-MIN KMKG 010755Z 30016G26KT 10SM CLR 08/M04 A3008 490 43 -200 300/16G26 RMK AO2 PK WND 29026/0751 SLP187 T00781039
14840KMKG MKG20071101030010311/01/07 03:00:31  5-MIN KMKG 010800Z 30014G26KT 10SM FEW048 08/M04 A3008 490 43 -200 300/14G26 RMK AO2
14840KMKG MKG20071101030510311/01/07 03:05:31  5-MIN KMKG 010805Z 30014G22KT 10SM FEW048 08/M03 A3008 480 45 -200 310/14G22 RMK AO2
14840KMKG MKG20071101031010311/01/07 03:10:31  5-MIN KMKG 010810Z 29017G22KT 10SM FEW048 08/M03 A3008 480 45 -200 300/17G22 RMK AO2
14840KMKG MKG20071101031510311/01/07 03:15:31  5-MIN KMKG 010815Z 28011G22KT 10SM SCT048 08/M03 A3008 480 47 -200 290/11G22 RMK AO2
14840KMKG MKG20071101032010311/01/07 03:20:31  5-MIN KMKG 010820Z 29016G23KT 10SM SCT046 08/M03 A3008 480 47 -200 300/16G23 RMK AO2
14840KMKG MKG20071101032510311/01/07 03:25:31  5-MIN KMKG 010825Z 30013G25KT 10SM BKN046 08/M03 A3008 480 47 -200 300/13G25 RMK AO2
14840KMKG MKG20071101033010311/01/07 03:30:31  5-MIN KMKG 010830Z 30016G25KT 10SM BKN046 07/M03 A3008 480 49 -200 300/16G25 RMK AO2
14840KMKG MKG20071102005013111/02/07 00:50:31  5-MIN KMKG 020550Z 13004KT 10SM CLR M01/M03 A3027 310 88 -1500 130/04 RMK AO2 SLP255 T10111028 10033 21011 54000
14840KMKG MKG20071102005513111/02/07 00:55:31  5-MIN KMKG 020555Z 13005KT 10SM CLR M01/M03 A3026 310 88 -1500 130/05 RMK AO2 SLP254 T10111028 10033 21011 52000
14840KMKG MKG20071102010009511/02/07 01:00:31  5-MIN KMKG 020600Z 13005KT 9SM CLR M01/M03 A3026 310 85 -1500 130/05 RMK AO2
14840KMKG MKG20071102010509511/02/07 01:05:31  5-MIN KMKG 020605Z 13005KT 9SM CLR M01/M03 A3026 310 88 -1500 140/05 RMK AO2
14840KMKG MKG20071102011009511/02/07 01:10:31  5-MIN KMKG 020610Z 13005KT 9SM CLR M01/M03 A3026 310 88 -1500 130/05 RMK AO2
14840KMKG MKG20071102011509511/02/07 01:15:31  5-MIN KMKG 020615Z 13005KT 9SM CLR M01/M03 A3027 310 85 -1400 130/05 RMK AO2
14840KMKG MKG20071102012009511/02/07 01:20:31  5-MIN KMKG 020620Z 13005KT 9SM CLR M01/M02 A3027 310 88 -1400 130/05 RMK AO2
14840KMKG MKG20071102012509511/02/07 01:25:31  5-MIN KMKG 020625Z 13005KT 9SM CLR M01/M03 A3026 310 88 -1500 130/05 RMK AO2
14840KMKG MKG20071102013009511/02/07 01:30:31  5-MIN KMKG 020630Z 14005KT 9SM CLR M01/M03 A3027 310 88 -1500 140/05 RMK AO2
14840KMKG MKG20071102013509511/02/07 01:35:31  5-MIN KMKG 020635Z 14004KT 9SM CLR M01/M03 A3026 310 88 -1500 140/04 RMK AO2
14840KMKG MKG20071102014009611/02/07 01:40:31  5-MIN KMKG 020640Z 14003KT 10SM CLR M01/M03 A3027 310 88 -1500 140/03 RMK AO2
14840KMKG MKG20071102014509511/02/07 01:45:31  5-MIN KMKG 020645Z 00000KT 9SM CLR M01/M03 A3027 310 85 -1400 000/00 RMK AO2
14840KMKG MKG20071102015011211/02/07 01:50:31  5-MIN KMKG 020650Z 00000KT 9SM CLR M01/M03 A3027 310 85 -1400 000/00 RMK AO2 SLP256 T10061028
14840KMKG MKG20071102015511211/02/07 01:55:31  5-MIN KMKG 020655Z 12003KT 9SM CLR M01/M03 A3027 310 85 -1400 130/03 RMK AO2 SLP257 T10061028
14840KMKG MKG20071102020009511/02/07 02:00:31  5-MIN KMKG 020700Z 13003KT 9SM CLR M01/M03 A3027 310 88 -1500 130/03 RMK AO2
14840KMKG MKG20071102020509511/02/07 02:05:31  5-MIN KMKG 020705Z 13004KT 9SM CLR M01/M03 A3027 310 88 -1500 130/04 RMK AO2
14840KMKG MKG20071102021009511/02/07 02:10:31  5-MIN KMKG 020710Z 13004KT 9SM CLR M01/M03 A3027 310 88 -1500 130/04 RMK AO2
14840KMKG MKG20071102021509511/02/07 02:15:31  5-MIN KMKG 020715Z 12005KT 9SM CLR M01/M03 A3027 310 88 -1500 130/05 RMK AO2
14840KMKG MKG20071102022009511/02/07 02:20:31  5-MIN KMKG 020720Z 12005KT 9SM CLR M01/M03 A3027 310 88 -1500 130/05 RMK AO2
14840KMKG MKG20071102022509511/02/07 02:25:31  5-MIN KMKG 020725Z 12005KT 9SM CLR M01/M03 A3027 310 88 -1500 130/05 RMK AO2
14840KMKG MKG20071102023009511/02/07 02:30:31  5-MIN KMKG 020730Z 12005KT 9SM CLR M01/M03 A3027 310 88 -1500 120/05 RMK AO2
14840KMKG MKG20071102023509511/02/07 02:35:31  5-MIN KMKG 020735Z 12005KT 9SM CLR M01/M03 A3027 310 88 -1500 130/05 RMK AO2
14840KMKG MKG20071102024009611/02/07 02:40:31  5-MIN KMKG 020740Z 12005KT 10SM CLR M01/M03 A3027 310 88 -1500 130/05 RMK AO2
14840KMKG MKG20071102024509611/02/07 02:45:31  5-MIN KMKG 020745Z 13005KT 10SM CLR M01/M03 A3027 310 88 -1500 130/05 RMK AO2
14840KMKG MKG20071102025011311/02/07 02:50:31  5-MIN KMKG 020750Z 12005KT 10SM CLR M01/M02 A3027 310 88 -1400 130/05 RMK AO2 SLP256 T10061022
14840KMKG MKG20071102025511311/02/07 02:55:31  5-MIN KMKG 020755Z 12005KT 10SM CLR M01/M02 A3027 310 88 -1400 130/05 RMK AO2 SLP255 T10061022
14840KMKG MKG20071102030009511/02/07 03:00:31  5-MIN KMKG 020800Z 13006KT 9SM CLR M01/M02 A3027 310 88 -1400 130/06 RMK AO2
14840KMKG MKG20071102030509611/02/07 03:05:31  5-MIN KMKG 020805Z 13006KT 10SM CLR M01/M02 A3027 310 88 -1400 130/06 RMK AO2
14840KMKG MKG20071102031009611/02/07 03:10:31  5-MIN KMKG 020810Z 13005KT 10SM CLR M01/M02 A3027 310 88 -1400 130/05 RMK AO2
14840KMKG MKG20071102031509611/02/07 03:15:31  5-MIN KMKG 020815Z 13004KT 10SM CLR M01/M02 A3027 310 88 -1400 130/04 RMK AO2
14840KMKG MKG20071102032009611/02/07 03:20:31  5-MIN KMKG 020820Z 13004KT 10SM CLR M01/M02 A3027 310 88 -1400 130/04 RMK AO2
14840KMKG MKG20071102032509611/02/07 03:25:31  5-MIN KMKG 020825Z 12004KT 10SM CLR M01/M02 A3027 300 88 -1400 120/04 RMK AO2
14840KMKG MKG20071102033009511/02/07 03:30:31  5-MIN KMKG 020830Z 12004KT 9SM CLR M01/M03 A3027 310 85 -1400 120/04 RMK AO2
14840KMKG MKG20071102033509511/02/07 03:35:31  5-MIN KMKG 020835Z 12005KT 9SM CLR M01/M03 A3027 310 88 -1500 130/05 RMK AO2
14840KMKG MKG20071102034009511/02/07 03:40:31  5-MIN KMKG 020840Z 12005KT 9SM CLR M01/M03 A3027 310 88 -1500 130/05 RMK AO2
14840KMKG MKG20071102034509511/02/07 03:45:31  5-MIN KMKG 020845Z 13005KT 9SM CLR M01/M03 A3027 310 88 -1500 130/05 RMK AO2
14840KMKG MKG20071102035011811/02/07 03:50:31  5-MIN KMKG 020850Z 13005KT 9SM CLR M01/M03 A3027 310 88 -1500 130/05 RMK AO2 SLP256 T10111028 52000
14840KMKG MKG20071102035511811/02/07 03:55:31  5-MIN KMKG 020855Z 12005KT 9SM CLR M01/M03 A3027 310 88 -1500 130/05 RMK AO2 SLP256 T10111028 51002
14840KMKG MKG20071102040009511/02/07 04:00:31  5-MIN KMKG 020900Z 12005KT 9SM CLR M01/M03 A3027 310 85 -1400 130/05 RMK AO2
14840KMKG MKG20071102040509511/02/07 04:05:31  5-MIN KMKG 020905Z 12006KT 9SM CLR M01/M03 A3027 310 88 -1500 130/06 RMK AO2
14840KMKG MKG20071102041009511/02/07 04:10:31  5-MIN KMKG 020910Z 12005KT 9SM CLR M01/M03 A3027 310 88 -1500 130/05 RMK AO2
14840KMKG MKG20071102041509511/02/07 04:15:31  5-MIN KMKG 020915Z 12005KT 9SM CLR M01/M03 A3027 310 88 -1500 130/05 RMK AO2
14840KMKG MKG20071102042009511/02/07 04:20:31  5-MIN KMKG 020920Z 12005KT 9SM CLR M01/M03 A3027 310 88 -1500 130/05 RMK AO2
14840KMKG MKG20071102042509511/02/07 04:25:31  5-MIN KMKG 020925Z 13006KT 9SM CLR M01/M03 A3027 310 88 -1500 130/06 RMK AO2
14840KMKG MKG20071102043009511/02/07 04:30:31  5-MIN KMKG 020930Z 13006KT 9SM CLR M01/M03 A3027 310 88 -1500 130/06 RMK AO2
14840KMKG MKG20071102043509511/02/07 04:35:31  5-MIN KMKG 020935Z 12006KT 9SM CLR M01/M03 A3027 310 88 -1500 130/06 RMK AO2
14840KMKG MKG20071102044009511/02/07 04:40:31  5-MIN KMKG 020940Z 12006KT 8SM CLR M01/M03 A3027 310 88 -1500 130/06 RMK AO2
14840KMKG MKG20071102044509511/02/07 04:45:31  5-MIN KMKG 020945Z 12006KT 8SM CLR M01/M03 A3027 310 88 -1500 130/06 RMK AO2
14840KMKG MKG20071102045011211/02/07 04:50:31  5-MIN KMKG 020950Z 12005KT 9SM CLR M01/M03 A3027 310 88 -1500 120/05 RMK AO2 SLP256 T10111028
14840KMKG MKG20071102045511211/02/07 04:55:31  5-MIN KMKG 020955Z 12005KT 9SM CLR M01/M03 A3027 310 88 -1500 120/05 RMK AO2 SLP257 T10111028
14840KMKG MKG20071102050009511/02/07 05:00:31  5-MIN KMKG 021000Z 13005KT 9SM CLR M01/M03 A3027 310 88 -1500 130/05 RMK AO2
14840KMKG MKG20071102050509511/02/07 05:05:31  5-MIN KMKG 021005Z 13005KT 9SM CLR M01/M02 A3027 310 88 -1400 130/05 RMK AO2
14840KMKG MKG20071102051009511/02/07 05:10:31  5-MIN KMKG 021010Z 12005KT 9SM CLR M01/M03 A3027 310 88 -1500 130/05 RMK AO2
14840KMKG MKG20071102051509511/02/07 05:15:31  5-MIN KMKG 021015Z 12005KT 9SM CLR M01/M03 A3027 310 88 -1500 130/05 RMK AO2
14840KMKG MKG20071102052009511/02/07 05:20:31  5-MIN KMKG 021020Z 12005KT 9SM CLR M01/M03 A3027 310 88 -1500 130/05 RMK AO2
14840KMKG MKG20071102052509511/02/07 05:25:31  5-MIN KMKG 021025Z 12006KT 8SM CLR M01/M03 A3027 310 88 -1500 130/06 RMK AO2
14840KMKG MKG20071102053009511/02/07 05:30:31  5-MIN KMKG 021030Z 13007KT 8SM CLR M01/M03 A3027 310 88 -1500 130/07 RMK AO2
14840KMKG MKG20071102053509511/02/07 05:35:31  5-MIN KMKG 021035Z 13007KT 8SM CLR M01/M03 A3026 320 88 -1500 130/07 RMK AO2
14840KMKG MKG20071102054009511/02/07 05:40:31  5-MIN KMKG 021040Z 13007KT 8SM CLR M01/M03 A3026 320 88 -1500 130/07 RMK AO2
14840KMKG MKG20071102054509511/02/07 05:45:31  5-MIN KMKG 021045Z 13007KT 8SM CLR M01/M03 A3026 310 88 -1500 130/07 RMK AO2
14840KMKG MKG20071102055011211/02/07 05:50:31  5-MIN KMKG 021050Z 13007KT 8SM CLR M01/M02 A3026 320 92 -1500 130/07 RMK AO2 SLP254 T10111022
14840KMKG MKG20071102055511211/02/07 05:55:31  5-MIN KMKG 021055Z 13007KT 8SM CLR M01/M03 A3026 310 88 -1500 130/07 RMK AO2 SLP255 T10111028
14840KMKG MKG20071102060009511/02/07 06:00:31  5-MIN KMKG 021100Z 13007KT 8SM CLR M01/M03 A3026 310 88 -1500 130/07 RMK AO2
14840KMKG MKG20071102060509511/02/07 06:05:31  5-MIN KMKG 021105Z 13007KT 8SM CLR M01/M02 A3026 310 92 -1500 130/07 RMK AO2
14840KMKG MKG20071102061009511/02/07 06:10:31  5-MIN KMKG 021110Z 13007KT 7SM CLR M01/M03 A3026 320 88 -1500 130/07 RMK AO2
14840KMKG MKG20071102061509511/02/07 06:15:31  5-MIN KMKG 021115Z 13006KT 7SM CLR M01/M03 A3026 320 88 -1500 140/06 RMK AO2
14840KMKG MKG20071102062009511/02/07 06:20:31  5-MIN KMKG 021120Z 14006KT 7SM CLR M01/M02 A3026 310 92 -1500 140/06 RMK AO2
14840KMKG MKG20071102062509511/02/07 06:25:31  5-MIN KMKG 021125Z 14006KT 7SM CLR M01/M03 A3027 310 88 -1500 140/06 RMK AO2
14840KMKG MKG20071102063009511/02/07 06:30:31  5-MIN KMKG 021130Z 13006KT 7SM CLR M01/M03 A3027 310 88 -1500 140/06 RMK AO2
14840KMKG MKG20071102063509811/02/07 06:35:31  5-MIN KMKG 021135Z 14005KT 6SM BR CLR M01/M03 A3027 310 88 -1500 140/05 RMK AO2
14840KMKG MKG20071102064009811/02/07 06:40:31  5-MIN KMKG 021140Z 14005KT 6SM BR CLR M01/M03 A3027 310 88 -1500 140/05 RMK AO2
14840KMKG MKG20071102064509811/02/07 06:45:31  5-MIN KMKG 021145Z 14003KT 6SM BR CLR M01/M03 A3027 300 88 -1500 140/03 RMK AO2
14840KMKG MKG20071102065013011/02/07 06:50:31  5-MIN KMKG 021150Z 13004KT 7SM CLR M02/M03 A3027 300 88 -1600 140/04 RMK AO2 SLP260 T10171033 11006 21017 51002
14840KMKG MKG20071102065513011/02/07 06:55:31  5-MIN KMKG 021155Z 13005KT 7SM CLR M02/M03 A3027 300 88 -1600 130/05 RMK AO2 SLP259 T10171033 11006 21017 53001
14840KMKG MKG20071102070009511/02/07 07:00:31  5-MIN KMKG 021200Z 13005KT 7SM CLR M01/M03 A3028 300 85 -1500 140/05 RMK AO2
14840KMKG MKG20071102070509511/02/07 07:05:31  5-MIN KMKG 021205Z 14004KT 7SM CLR M01/M03 A3028 300 85 -1500 140/04 RMK AO2
14840KMKG MKG20071102071009511/02/07 07:10:31  5-MIN KMKG 021210Z 13004KT 8SM CLR M01/M03 A3028 300 88 -1500 130/04 RMK AO2
14840KMKG MKG20071102071509511/02/07 07:15:31  5-MIN KMKG 021215Z 13004KT 7SM CLR M01/M03 A3028 300 88 -1500 140/04 RMK AO2
14840KMKG MKG20071102072009511/02/07 07:20:31  5-MIN KMKG 021220Z 13004KT 7SM CLR M02/M03 A3028 300 92 -1600 130/04 RMK AO2
14840KMKG MKG20071102072509811/02/07 07:25:31  5-MIN KMKG 021225Z 13005KT 6SM BR CLR M02/M03 A3028 300 88 -1600 130/05 RMK AO2
14840KMKG MKG20071102073009811/02/07 07:30:31  5-MIN KMKG 021230Z 13005KT 5SM BR CLR M02/M03 A3028 300 88 -1600 140/05 RMK AO2
14840KMKG MKG20071102073509811/02/07 07:35:31  5-MIN KMKG 021235Z 14005KT 5SM BR CLR M02/M03 A3028 300 88 -1600 150/05 RMK AO2
14840KMKG MKG20071102074009811/02/07 07:40:31  5-MIN KMKG 021240Z 15004KT 6SM BR CLR M01/M03 A3028 290 88 -1500 150/04 RMK AO2
14840KMKG MKG20071102074509811/02/07 07:45:31  5-MIN KMKG 021245Z 15004KT 6SM BR CLR M01/M03 A3029 290 85 -1500 160/04 RMK AO2
14840KMKG MKG20071102075011111/02/07 07:50:31  5-MIN KMKG 021250Z 15005KT 7SM CLR 00/M02 A3029 290 88 -1400 150/05 RMK AO2 SLP263 T00001017
14840KMKG MKG20071102075511111/02/07 07:55:31  5-MIN KMKG 021255Z 15005KT 8SM CLR 01/M02 A3029 290 85 -1300 150/05 RMK AO2 SLP264 T00061017
14840KMKG MKG20071102080009411/02/07 08:00:31  5-MIN KMKG 021300Z 16006KT 8SM CLR 01/M02 A3029 290 85 -1300 160/06 RMK AO2
14840KMKG MKG20071102080509411/02/07 08:05:31  5-MIN KMKG 021305Z 16005KT 9SM CLR 01/M02 A3029 290 82 -1200 170/05 RMK AO2
14840KMKG MKG20071102081009411/02/07 08:10:31  5-MIN KMKG 021310Z 16006KT 9SM CLR 01/M01 A3029 290 85 -1200 160/06 RMK AO2
14840KMKG MKG20071102081509411/02/07 08:15:31  5-MIN KMKG 021315Z 17006KT 9SM CLR 01/M01 A3029 290 85 -1200 170/06 RMK AO2
14840KMKG MKG20071102082009411/02/07 08:20:31  5-MIN KMKG 021320Z 16006KT 9SM CLR 01/M01 A3029 290 85 -1200 160/06 RMK AO2
14840KMKG MKG20071102082509511/02/07 08:25:31  5-MIN KMKG 021325Z 16007KT 10SM CLR 02/M01 A3029 290 82 -1200 160/07 RMK AO2
14840KMKG MKG20071102083009511/02/07 08:30:31  5-MIN KMKG 021330Z 16007KT 10SM CLR 02/M01 A3029 290 82 -1200 160/07 RMK AO2
14840KMKG MKG20071102083509511/02/07 08:35:31  5-MIN KMKG 021335Z 15007KT 10SM CLR 02/M01 A3029 290 78 -1100 150/07 RMK AO2
14840KMKG MKG20071102084009511/02/07 08:40:31  5-MIN KMKG 021340Z 15008KT 10SM CLR 02/M01 A3028 300 82 -1100 150/08 RMK AO2
14840KMKG MKG20071102084509511/02/07 08:45:31  5-MIN KMKG 021345Z 15009KT 10SM CLR 03/M01 A3028 300 79 -1000 160/09 RMK AO2
14840KMKG MKG20071102085011211/02/07 08:50:31  5-MIN KMKG 021350Z 15008KT 10SM CLR 03/M01 A3028 300 79 -1000 160/08 RMK AO2 SLP260 T00281006
14840KMKG MKG20071102085511011/02/07 08:55:31  5-MIN KMKG 021355Z 15008KT 10SM CLR 03/00 A3027 300 79 -900 160/08 RMK AO2 SLP259 T00330000
14840KMKG MKG20071102090009411/02/07 09:00:31  5-MIN KMKG 021400Z 15007KT 10SM CLR 03/00 A3028 300 79 -1000 160/07 RMK AO2
14840KMKG MKG20071102090509311/02/07 09:05:31  5-MIN KMKG 021405Z 15009KT 10SM CLR 04/00 A3028 300 76 -900 150/09 RMK AO2
14840KMKG MKG20071102091009311/02/07 09:10:31  5-MIN KMKG 021410Z 15006KT 10SM CLR 04/00 A3028 300 76 -900 160/06 RMK AO2
14840KMKG MKG20071102091509311/02/07 09:15:31  5-MIN KMKG 021415Z 16007KT 10SM CLR 04/01 A3028 300 76 -800 170/07 RMK AO2
14840KMKG MKG20071102092009311/02/07 09:20:31  5-MIN KMKG 021420Z 16006KT 10SM CLR 05/01 A3028 300 73 -700 170/06 RMK AO2
14840KMKG MKG20071102092509311/02/07 09:25:31  5-MIN KMKG 021425Z 17007KT 10SM CLR 05/00 A3028 300 70 -700 170/07 RMK AO2
14840KMKG MKG20071102093009311/02/07 09:30:31  5-MIN KMKG 021430Z 17008KT 10SM CLR 06/01 A3028 300 70 -700 170/08 RMK AO2
14840KMKG MKG20071102093509311/02/07 09:35:31  5-MIN KMKG 021435Z 16008KT 10SM CLR 06/01 A3028 300 70 -700 170/08 RMK AO2
14840KMKG MKG20071102094009311/02/07 09:40:31  5-MIN KMKG 021440Z 18006KT 10SM CLR 06/01 A3028 300 67 -600 180/06 RMK AO2
14840KMKG MKG20071102094509311/02/07 09:45:31  5-MIN KMKG 021445Z 17006KT 10SM CLR 07/01 A3028 300 65 -500 180/06 RMK AO2
14840KMKG MKG20071102095011911/02/07 09:50:31  5-MIN KMKG 021450Z 17007KT 10SM FEW025 07/01 A3028 300 65 -500 180/07 RMK AO2 SLP258 T00670006 53001
14840KMKG MKG20071102095511911/02/07 09:55:31  5-MIN KMKG 021455Z 16007KT 10SM FEW025 07/01 A3027 310 62 -500 160/07 RMK AO2 SLP257 T00720006 58001
14840KMKG MKG20071102100009311/02/07 10:00:31  5-MIN KMKG 021500Z 17007KT 10SM CLR 07/01 A3027 310 62 -500 180/07 RMK AO2
14840KMKG MKG20071102100509311/02/07 10:05:31  5-MIN KMKG 021505Z 18008KT 10SM CLR 08/01 A3027 310 60 -400 180/08 RMK AO2
14840KMKG MKG20071102101009311/02/07 10:10:31  5-MIN KMKG 021510Z 18008KT 10SM CLR 08/01 A3027 310 58 -300 180/08 RMK AO2
14840KMKG MKG20071102101509311/02/07 10:15:31  5-MIN KMKG 021515Z 19008KT 10SM CLR 08/01 A3027 310 58 -300 190/08 RMK AO2
14840KMKG MKG20071102102009311/02/07 10:20:31  5-MIN KMKG 021520Z 20009KT 10SM CLR 09/01 A3027 310 56 -300 200/09 RMK AO2
14840KMKG MKG20071102102509311/02/07 10:25:31  5-MIN KMKG 021525Z 20009KT 10SM CLR 09/01 A3027 310 56 -300 200/09 RMK AO2
14840KMKG MKG20071102103009311/02/07 10:30:31  5-MIN KMKG 021530Z 19011KT 10SM CLR 09/01 A3027 310 58 -300 200/11 RMK AO2
14840KMKG MKG20071102103509311/02/07 10:35:31  5-MIN KMKG 021535Z 19010KT 10SM CLR 09/01 A3027 310 56 -200 200/10 RMK AO2
14840KMKG MKG20071102104009311/02/07 10:40:31  5-MIN KMKG 021540Z 19011KT 10SM CLR 09/02 A3027 310 58 -200 190/11 RMK AO2
14840KMKG MKG20071102104509311/02/07 10:45:31  5-MIN KMKG 021545Z 18012KT 10SM CLR 10/02 A3027 310 58 -100 190/12 RMK AO2
14840KMKG MKG20071102105011911/02/07 10:50:31  5-MIN KMKG 021550Z 18010G18KT 10SM FEW029 09/02 A3027 310 60 -200 190/10G18 RMK AO2 SLP258 T00940022
14840KMKG MKG20071102105511911/02/07 10:55:31  5-MIN KMKG 021555Z 19010G18KT 10SM FEW029 10/02 A3027 300 58 -100 200/10G18 RMK AO2 SLP257 T01000022
14840KMKG MKG20071102110010211/02/07 11:00:31  5-MIN KMKG 021600Z 19013G16KT 10SM FEW029 10/03 A3027 310 60 -100 200/13G16 RMK AO2
14840KMKG MKG20071102110510211/02/07 11:05:31  5-MIN KMKG 021605Z 20013G18KT 10SM FEW029 10/03 A3027 310 60 -100 210/13G18 RMK AO2
14840KMKG MKG20071102111010211/02/07 11:10:31  5-MIN KMKG 021610Z 18011G18KT 10SM FEW029 10/03 A3027 310 60 -100 190/11G18 RMK AO2
14840KMKG MKG20071102111509611/02/07 11:15:31  5-MIN KMKG 021615Z 19011KT 10SM FEW029 11/03 A3027 310 58 -100 190/11 RMK AO2
14840KMKG MKG20071102112009611/02/07 11:20:31  5-MIN KMKG 021620Z 17011KT 10SM FEW029 11/03 A3027 310 61 -100 180/11 RMK AO2
14840KMKG MKG20071102112509611/02/07 11:25:31  5-MIN KMKG 021625Z 20010KT 10SM FEW029 11/03 A3027 310 61 -100 200/10 RMK AO2
14840KMKG MKG20071102113009911/02/07 11:30:31  5-MIN KMKG 021630Z 19015G20KT 10SM FEW029 11/03 A3026 310 58 0 200/15G20 RMK AO2
14840KMKG MKG20071102113509911/02/07 11:35:31  5-MIN KMKG 021635Z 19014G20KT 10SM FEW029 11/03 A3026 310 56 0 190/14G20 RMK AO2
14840KMKG MKG20071102114009311/02/07 11:40:31  5-MIN KMKG 021640Z 20010KT 10SM FEW029 11/02 A3026 320 54 0 200/10 RMK AO2
14840KMKG MKG20071102114509611/02/07 11:45:31  5-MIN KMKG 021645Z 19012G22KT 10SM CLR 12/02 A3026 320 52 0 200/12G22 RMK AO2
14840KMKG MKG20071102115011611/02/07 11:50:31  5-MIN KMKG 021650Z 21012G22KT 10SM FEW040 12/01 A3026 320 48 0 210/12G22 RMK AO2 SLP251 T01170011
14840KMKG MKG20071102115511611/02/07 11:55:31  5-MIN KMKG 021655Z 20010G19KT 10SM FEW040 12/02 A3025 320 50 0 200/10G19 RMK AO2 SLP249 T01170017
14840KMKG MKG20071102120009611/02/07 12:00:31  5-MIN KMKG 021700Z 18015G19KT 10SM CLR 12/02 A3025 330 50 0 190/15G19 RMK AO2
14840KMKG MKG20071102120509811/02/07 12:05:31  5-MIN KMKG 021705Z 20012G20KT 10SM CLR 12/02 A3024 330 50 100 200/12G20 RMK AO2
14840KMKG MKG20071102121009811/02/07 12:10:31  5-MIN KMKG 021710Z 21012G20KT 10SM CLR 12/02 A3024 330 50 100 210/12G20 RMK AO2
14840KMKG MKG20071102121509811/02/07 12:15:31  5-MIN KMKG 021715Z 22013G18KT 10SM CLR 12/01 A3024 330 48 100 220/13G18 RMK AO2
14840KMKG MKG20071102122009811/02/07 12:20:31  5-MIN KMKG 021720Z 19012G18KT 10SM CLR 12/02 A3024 340 48 100 200/12G18 RMK AO2
14840KMKG MKG20071102122509811/02/07 12:25:31  5-MIN KMKG 021725Z 20010G16KT 10SM CLR 13/01 A3023 340 44 200 200/10G16 RMK AO2
14840KMKG MKG20071102123009811/02/07 12:30:31  5-MIN KMKG 021730Z 19011G21KT 10SM CLR 12/01 A3023 350 44 100 190/11G21 RMK AO2
14840KMKG MKG20071102123509811/02/07 12:35:31  5-MIN KMKG 021735Z 19011G21KT 10SM CLR 12/01 A3023 350 44 100 190/11G21 RMK AO2
14840KMKG MKG20071102124009811/02/07 12:40:31  5-MIN KMKG 021740Z 20013G18KT 10SM CLR 12/01 A3023 340 44 100 210/13G18 RMK AO2
14840KMKG MKG20071102124509811/02/07 12:45:31  5-MIN KMKG 021745Z 21014G21KT 10SM CLR 12/00 A3023 340 44 100 210/14G21 RMK AO2
14840KMKG MKG20071102125013311/02/07 12:50:31  5-MIN KMKG 021750Z 20012G21KT 10SM CLR 12/01 A3023 350 46 100 210/12G21 RMK AO2 SLP241 T01170006 10128 21022 58001
14840KMKG MKG20071102125512711/02/07 12:55:31  5-MIN KMKG 021755Z 20012KT 10SM CLR 12/00 A3022 350 43 100 200/12 RMK AO2 SLP240 T01220000 10128 21022 58016
14840KMKG MKG20071102130009911/02/07 13:00:31  5-MIN KMKG 021800Z 20014G19KT 10SM CLR 12/M01 A3022 350 41 100 210/14G19 RMK AO2
14840KMKG MKG20071102130509811/02/07 13:05:31  5-MIN KMKG 021805Z 20017G20KT 10SM CLR 12/01 A3022 360 46 100 210/17G20 RMK AO2
14840KMKG MKG20071102131009211/02/07 13:10:31  5-MIN KMKG 021810Z 21014KT 10SM CLR 12/01 A3021 360 46 100 210/14 RMK AO2
14840KMKG MKG20071102131509811/02/07 13:15:31  5-MIN KMKG 021815Z 18014G19KT 10SM CLR 12/01 A3021 360 44 200 180/14G19 RMK AO2
14840KMKG MKG20071102132009811/02/07 13:20:31  5-MIN KMKG 021820Z 21015G19KT 10SM CLR 12/01 A3021 360 46 100 210/15G19 RMK AO2
14840KMKG MKG20071102132509211/02/07 13:25:31  5-MIN KMKG 021825Z 20013KT 10SM CLR 12/01 A3021 360 44 200 210/13 RMK AO2
14840KMKG MKG20071102133009811/02/07 13:30:31  5-MIN KMKG 021830Z 22015G20KT 10SM CLR 12/01 A3022 350 44 100 220/15G20 RMK AO2
14840KMKG MKG20071102133509911/02/07 13:35:31  5-MIN KMKG 021835Z 23015G20KT 10SM CLR 12/M01 A3022 350 42 100 230/15G20 RMK AO2
14840KMKG MKG20071102134009211/02/07 13:40:31  5-MIN KMKG 021840Z 21014KT 10SM CLR 12/00 A3022 350 43 100 210/14 RMK AO2
14840KMKG MKG20071102134509811/02/07 13:45:31  5-MIN KMKG 021845Z 21013G20KT 10SM CLR 12/00 A3021 360 43 200 210/13G20 RMK AO2
14840KMKG MKG20071102135011511/02/07 13:50:31  5-MIN KMKG 021850Z 20015G21KT 10SM CLR 12/00 A3021 360 43 200 210/15G21 RMK AO2 SLP236 T01220000
14840KMKG MKG20071102135511511/02/07 13:55:31  5-MIN KMKG 021855Z 19018G21KT 10SM CLR 12/00 A3021 360 44 100 190/18G21 RMK AO2 SLP235 T01170000
14840KMKG MKG20071102140009811/02/07 14:00:31  5-MIN KMKG 021900Z 21015G21KT 10SM CLR 12/00 A3021 370 43 200 210/15G21 RMK AO2
14840KMKG MKG20071102140509811/02/07 14:05:31  5-MIN KMKG 021905Z 22016G21KT 10SM CLR 12/00 A3021 370 44 100 220/16G21 RMK AO2
14840KMKG MKG20071102141009911/02/07 14:10:31  5-MIN KMKG 021910Z 21014G21KT 10SM CLR 12/M01 A3020 370 41 200 210/14G21 RMK AO2
14840KMKG MKG20071102141510211/02/07 14:15:31  5-MIN KMKG 021915Z 20016G21KT 10SM FEW120 12/M01 A3020 370 42 100 200/16G21 RMK AO2
14840KMKG MKG20071102142010211/02/07 14:20:31  5-MIN KMKG 021920Z 20011G21KT 10SM FEW120 12/M01 A3020 380 39 200 200/11G21 RMK AO2
14840KMKG MKG20071102142510211/02/07 14:25:31  5-MIN KMKG 021925Z 22014G19KT 10SM FEW120 12/M01 A3019 380 41 200 220/14G19 RMK AO2
14840KMKG MKG20071102143010211/02/07 14:30:31  5-MIN KMKG 021930Z 21016G20KT 10SM FEW120 12/M01 A3019 390 39 200 210/16G20 RMK AO2
14840KMKG MKG20071102143510211/02/07 14:35:31  5-MIN KMKG 021935Z 18014G20KT 10SM FEW120 12/M01 A3018 390 39 200 180/14G20 RMK AO2
14840KMKG MKG20071102144010211/02/07 14:40:31  5-MIN KMKG 021940Z 19015G20KT 10SM FEW120 12/M01 A3018 390 39 200 200/15G20 RMK AO2
14840KMKG MKG20071102144509911/02/07 14:45:31  5-MIN KMKG 021945Z 18018G21KT 10SM CLR 12/M01 A3018 390 39 200 190/18G21 RMK AO2
14840KMKG MKG20071102145011911/02/07 14:50:31  5-MIN KMKG 021950Z 20014G21KT 10SM FEW120 12/M01 A3018 390 41 100 210/14G21 RMK AO2 SLP223 T01171011
14840KMKG MKG20071102145511911/02/07 14:55:31  5-MIN KMKG 021955Z 19014G20KT 10SM FEW120 12/M01 A3018 390 42 100 190/14G20 RMK AO2 SLP225 T01171006
14840KMKG MKG20071102150010211/02/07 15:00:31  5-MIN KMKG 022000Z 19013G20KT 10SM FEW120 12/M01 A3018 390 41 200 190/13G20 RMK AO2
14840KMKG MKG20071102150510211/02/07 15:05:31  5-MIN KMKG 022005Z 19016G21KT 10SM FEW120 12/M01 A3018 390 42 100 190/16G21 RMK AO2
14840KMKG MKG20071102151010211/02/07 15:10:31  5-MIN KMKG 022010Z 21014G21KT 10SM FEW120 12/M01 A3018 390 42 100 210/14G21 RMK AO2
14840KMKG MKG20071102151510211/02/07 15:15:31  5-MIN KMKG 022015Z 20013G20KT 10SM FEW120 12/M01 A3018 390 42 100 200/13G20 RMK AO2
14840KMKG MKG20071102152010011/02/07 15:20:31  5-MIN KMKG 022020Z 21014G20KT 10SM FEW120 11/M01 A3018 390 46 0 210/14G20 RMK AO2
14840KMKG MKG20071102152510011/02/07 15:25:31  5-MIN KMKG 022025Z 21015G19KT 10SM FEW120 11/M01 A3018 390 46 0 210/15G19 RMK AO2
14840KMKG MKG20071102153009911/02/07 15:30:31  5-MIN KMKG 022030Z 20010G19KT 10SM FEW120 11/00 A3019 380 48 0 210/10G19 RMK AO2
14840KMKG MKG20071102153509311/02/07 15:35:31  5-MIN KMKG 022035Z 20012KT 10SM FEW120 11/01 A3019 390 50 0 200/12 RMK AO2
14840KMKG MKG20071102154009311/02/07 15:40:31  5-MIN KMKG 022040Z 20014KT 10SM FEW120 11/01 A3019 390 52 0 210/14 RMK AO2
14840KMKG MKG20071102154509911/02/07 15:45:31  5-MIN KMKG 022045Z 20011G17KT 10SM FEW120 11/01 A3019 390 52 0 200/11G17 RMK AO2
14840KMKG MKG20071102155011611/02/07 15:50:31  5-MIN KMKG 022050Z 21011KT 10SM FEW120 11/01 A3018 390 52 0 210/11 RMK AO2 SLP226 T01060011 58016
14840KMKG MKG20071102155511811/02/07 15:55:31  5-MIN KMKG 022055Z 20011KT 10SM SCT120 11/01 A3018 390 50 100 200/11 RMK AO2 SLP226 T01110011 55013
14840KMKG MKG20071102160010111/02/07 16:00:31  5-MIN KMKG 022100Z 21012G17KT 10SM SCT120 11/01 A3018 390 48 100 220/12G17 RMK AO2
14840KMKG MKG20071102160509511/02/07 16:05:31  5-MIN KMKG 022105Z 21013KT 10SM SCT120 11/01 A3018 390 50 100 220/13 RMK AO2
14840KMKG MKG20071102161009311/02/07 16:10:31  5-MIN KMKG 022110Z 21012KT 10SM SCT120 11/01 A3018 390 52 0 220/12 RMK AO2
14840KMKG MKG20071102161509511/02/07 16:15:31  5-MIN KMKG 022115Z 20011KT 10SM SCT120 11/01 A3018 390 50 100 200/11 RMK AO2
14840KMKG MKG20071102162009311/02/07 16:20:31  5-MIN KMKG 022120Z 21011KT 10SM SCT120 11/01 A3018 390 52 0 210/11 RMK AO2
14840KMKG MKG20071102162509311/02/07 16:25:31  5-MIN KMKG 022125Z 20012KT 10SM SCT120 11/01 A3018 390 52 0 200/12 RMK AO2
14840KMKG MKG20071102163009311/02/07 16:30:31  5-MIN KMKG 022130Z 21013KT 10SM SCT120 11/01 A3018 390 52 0 220/13 RMK AO2
14840KMKG MKG20071102163509311/02/07 16:35:31  5-MIN KMKG 022135Z 20011KT 10SM SCT120 11/01 A3017 400 52 0 200/11 RMK AO2
14840KMKG MKG20071102164009311/02/07 16:40:31  5-MIN KMKG 022140Z 21012KT 10SM SCT120 11/01 A3017 400 52 0 210/12 RMK AO2
14840KMKG MKG20071102164509911/02/07 16:45:31  5-MIN KMKG 022145Z 21009G17KT 10SM SCT120 11/02 A3018 390 54 0 220/09G17 RMK AO2
14840KMKG MKG20071102165011011/02/07 16:50:31  5-MIN KMKG 022150Z 21013KT 10SM SCT120 10/02 A3018 390 56 0 210/13 RMK AO2 SLP224 T01000017
14840KMKG MKG20071102165511011/02/07 16:55:31  5-MIN KMKG 022155Z 22011KT 10SM SCT120 10/02 A3018 390 56 0 220/11 RMK AO2 SLP225 T01000017
14840KMKG MKG20071102170009011/02/07 17:00:31  5-MIN KMKG 022200Z 22011KT 10SM CLR 10/02 A3018 390 56 0 220/11 RMK AO2
14840KMKG MKG20071102170509311/02/07 17:05:31  5-MIN KMKG 022205Z 21011KT 10SM SCT120 10/01 A3018 390 54 0 210/11 RMK AO2
14840KMKG MKG20071102171009311/02/07 17:10:31  5-MIN KMKG 022210Z 22008KT 10SM SCT120 10/01 A3018 390 54 0 220/08 RMK AO2
14840KMKG MKG20071102171509611/02/07 17:15:31  5-MIN KMKG 022215Z 22008KT 10SM SCT120 09/01 A3018 390 56 -100 220/08 RMK AO2
14840KMKG MKG20071102172009311/02/07 17:20:31  5-MIN KMKG 022220Z 21010KT 10SM SCT120 10/01 A3018 390 54 0 210/10 RMK AO2
14840KMKG MKG20071102172509311/02/07 17:25:31  5-MIN KMKG 022225Z 22011KT 10SM SCT120 10/01 A3018 390 54 0 220/11 RMK AO2
14840KMKG MKG20071102173009311/02/07 17:30:31  5-MIN KMKG 022230Z 21010KT 10SM SCT120 10/01 A3018 390 54 0 220/10 RMK AO2
14840KMKG MKG20071102173509311/02/07 17:35:31  5-MIN KMKG 022235Z 21009KT 10SM SCT120 10/01 A3018 390 54 0 210/09 RMK AO2
14840KMKG MKG20071102174009311/02/07 17:40:31  5-MIN KMKG 022240Z 21008KT 10SM SCT120 10/01 A3018 390 54 0 210/08 RMK AO2
14840KMKG MKG20071102174509311/02/07 17:45:31  5-MIN KMKG 022245Z 22008KT 10SM SCT100 10/01 A3018 390 54 0 220/08 RMK AO2
14840KMKG MKG20071102175011711/02/07 17:50:31  5-MIN KMKG 022250Z 21011KT 10SM FEW080 SCT100 10/01 A3018 390 54 0 210/11 RMK AO2 SLP226 T01000011
14840KMKG MKG20071102175511711/02/07 17:55:31  5-MIN KMKG 022255Z 21009KT 10SM FEW080 SCT100 10/01 A3018 390 52 0 210/09 RMK AO2 SLP225 T01000006
14840KMKG MKG20071102180009311/02/07 18:00:31  5-MIN KMKG 022300Z 21009KT 10SM FEW090 10/01 A3018 390 54 0 210/09 RMK AO2
14840KMKG MKG20071102180509311/02/07 18:05:31  5-MIN KMKG 022305Z 21009KT 10SM FEW090 10/01 A3018 390 54 0 220/09 RMK AO2
14840KMKG MKG20071102181009311/02/07 18:10:31  5-MIN KMKG 022310Z 21008KT 10SM FEW085 10/01 A3018 390 54 0 210/08 RMK AO2
14840KMKG MKG20071102181509011/02/07 18:15:31  5-MIN KMKG 022315Z 21008KT 10SM CLR 10/01 A3018 390 52 0 210/08 RMK AO2
14840KMKG MKG20071102182009011/02/07 18:20:31  5-MIN KMKG 022320Z 21008KT 10SM CLR 10/01 A3018 390 52 0 220/08 RMK AO2
14840KMKG MKG20071102182509011/02/07 18:25:31  5-MIN KMKG 022325Z 21008KT 10SM CLR 10/01 A3018 390 54 0 210/08 RMK AO2
14840KMKG MKG20071102183009011/02/07 18:30:31  5-MIN KMKG 022330Z 20009KT 10SM CLR 10/01 A3018 390 54 0 210/09 RMK AO2
14840KMKG MKG20071102183509011/02/07 18:35:31  5-MIN KMKG 022335Z 19009KT 10SM CLR 10/01 A3017 400 52 0 200/09 RMK AO2
14840KMKG MKG20071102184010311/02/07 18:40:31  5-MIN KMKG 022340Z 18013G17KT 10SM CLR 10/01 A3016 410 52 0 190/13G17 RMK AO2 PRESFR
14840KMKG MKG20071102184509611/02/07 18:45:31  5-MIN KMKG 022345Z 18009G17KT 10SM CLR 10/01 A3016 410 52 0 190/09G17 RMK AO2
14840KMKG MKG20071102185012811/02/07 18:50:31  5-MIN KMKG 022350Z 19009KT 10SM FEW100 10/00 A3016 410 49 0 200/09 RMK AO2 SLP218 T01000000 10128 20094 55013
14840KMKG MKG20071102185512811/02/07 18:55:31  5-MIN KMKG 022355Z 19011KT 10SM FEW100 10/00 A3015 420 49 0 190/11 RMK AO2 SLP217 T01000000 10128 20094 58010
14840KMKG MKG20071102190009311/02/07 19:00:31  5-MIN KMKG 030000Z 22009KT 10SM FEW100 10/00 A3016 410 49 0 220/09 RMK AO2
14840KMKG MKG20071102190509011/02/07 19:05:31  5-MIN KMKG 030005Z 21009KT 10SM CLR 10/00 A3016 410 49 0 210/09 RMK AO2
14840KMKG MKG20071102191009311/02/07 19:10:31  5-MIN KMKG 030010Z 20009KT 10SM FEW110 10/00 A3016 410 49 0 210/09 RMK AO2
14840KMKG MKG20071102191509311/02/07 19:15:31  5-MIN KMKG 030015Z 20009KT 10SM FEW100 10/00 A3016 410 49 0 200/09 RMK AO2
14840KMKG MKG20071102192009411/02/07 19:20:31  5-MIN KMKG 030020Z 19009KT 10SM FEW100 10/M01 A3016 410 47 0 190/09 RMK AO2
14840KMKG MKG20071102192509311/02/07 19:25:31  5-MIN KMKG 030025Z 19010KT 10SM FEW100 11/00 A3015 420 48 0 190/10 RMK AO2
14840KMKG MKG20071102193009311/02/07 19:30:31  5-MIN KMKG 030030Z 20008KT 10SM SCT100 11/00 A3016 410 48 0 200/08 RMK AO2
14840KMKG MKG20071102193509311/02/07 19:35:31  5-MIN KMKG 030035Z 21008KT 10SM SCT100 11/00 A3016 410 48 0 210/08 RMK AO2
14840KMKG MKG20071102194009411/02/07 19:40:31  5-MIN KMKG 030040Z 21009KT 10SM BKN100 11/M01 A3016 410 46 0 220/09 RMK AO2
14840KMKG MKG20071102194509411/02/07 19:45:31  5-MIN KMKG 030045Z 22010KT 10SM SCT100 11/M01 A3017 400 46 0 220/10 RMK AO2
14840KMKG MKG20071102195011111/02/07 19:50:31  5-MIN KMKG 030050Z 23006KT 10SM SCT100 10/M01 A3017 400 47 0 230/06 RMK AO2 SLP221 T01001006
14840KMKG MKG20071102195511011/02/07 19:55:31  5-MIN KMKG 030055Z 21009KT 10SM FEW100 10/00 A3017 400 49 0 220/09 RMK AO2 SLP220 T01000000
14840KMKG MKG20071102200009411/02/07 20:00:31  5-MIN KMKG 030100Z 20009KT 10SM FEW100 10/M01 A3017 400 47 0 210/09 RMK AO2
14840KMKG MKG20071102200509111/02/07 20:05:31  5-MIN KMKG 030105Z 21008KT 10SM CLR 11/M01 A3017 400 46 0 220/08 RMK AO2
14840KMKG MKG20071102201009011/02/07 20:10:31  5-MIN KMKG 030110Z 21008KT 10SM CLR 10/00 A3017 400 49 0 220/08 RMK AO2
14840KMKG MKG20071102201509011/02/07 20:15:31  5-MIN KMKG 030115Z 21008KT 10SM CLR 10/00 A3016 410 49 0 220/08 RMK AO2
14840KMKG MKG20071102202009011/02/07 20:20:31  5-MIN KMKG 030120Z 21007KT 10SM CLR 10/00 A3016 410 49 0 210/07 RMK AO2
14840KMKG MKG20071102202509011/02/07 20:25:31  5-MIN KMKG 030125Z 21008KT 10SM CLR 10/00 A3016 410 49 0 210/08 RMK AO2
14840KMKG MKG20071102203009011/02/07 20:30:31  5-MIN KMKG 030130Z 21008KT 10SM CLR 10/00 A3016 410 49 0 210/08 RMK AO2
14840KMKG MKG20071102203509011/02/07 20:35:31  5-MIN KMKG 030135Z 21007KT 10SM CLR 10/00 A3016 410 49 0 210/07 RMK AO2
14840KMKG MKG20071102204009011/02/07 20:40:31  5-MIN KMKG 030140Z 21010KT 10SM CLR 10/00 A3016 410 49 0 220/10 RMK AO2
14840KMKG MKG20071102204509011/02/07 20:45:31  5-MIN KMKG 030145Z 21007KT 10SM CLR 10/00 A3016 410 49 0 220/07 RMK AO2
14840KMKG MKG20071102205010711/02/07 20:50:31  5-MIN KMKG 030150Z 21009KT 10SM CLR 10/00 A3016 410 49 0 220/09 RMK AO2 SLP217 T01000000
14840KMKG MKG20071102205511011/02/07 20:55:31  5-MIN KMKG 030155Z 21008KT 10SM FEW100 10/00 A3016 410 49 0 220/08 RMK AO2 SLP217 T01000000
14840KMKG MKG20071102210009111/02/07 21:00:31  5-MIN KMKG 030200Z 22008KT 10SM CLR 11/M01 A3016 410 46 0 220/08 RMK AO2
14840KMKG MKG20071102210509111/02/07 21:05:31  5-MIN KMKG 030205Z 21007KT 10SM CLR 10/M01 A3016 410 47 0 220/07 RMK AO2
14840KMKG MKG20071102211009011/02/07 21:10:31  5-MIN KMKG 030210Z 22007KT 10SM CLR 10/00 A3016 410 49 0 220/07 RMK AO2
14840KMKG MKG20071102211509311/02/07 21:15:31  5-MIN KMKG 030215Z 22007KT 10SM CLR 09/00 A3016 410 51 -100 220/07 RMK AO2
14840KMKG MKG20071102212009311/02/07 21:20:31  5-MIN KMKG 030220Z 22007KT 10SM CLR 09/00 A3016 410 51 -100 220/07 RMK AO2
14840KMKG MKG20071102212509311/02/07 21:25:31  5-MIN KMKG 030225Z 22007KT 10SM CLR 09/00 A3016 410 51 -100 230/07 RMK AO2
14840KMKG MKG20071102213009311/02/07 21:30:31  5-MIN KMKG 030230Z 22007KT 10SM CLR 09/00 A3016 410 51 -100 220/07 RMK AO2
14840KMKG MKG20071102213509311/02/07 21:35:31  5-MIN KMKG 030235Z 22007KT 10SM CLR 09/00 A3016 410 51 -100 220/07 RMK AO2
14840KMKG MKG20071102214009311/02/07 21:40:31  5-MIN KMKG 030240Z 22007KT 10SM CLR 09/01 A3016 410 53 -100 220/07 RMK AO2
14840KMKG MKG20071102214509311/02/07 21:45:31  5-MIN KMKG 030245Z 22008KT 10SM CLR 09/01 A3016 410 53 -100 230/08 RMK AO2
14840KMKG MKG20071102215011611/02/07 21:50:31  5-MIN KMKG 030250Z 22009KT 10SM CLR 09/01 A3016 410 53 -100 230/09 RMK AO2 SLP215 T00940006 58010
14840KMKG MKG20071102215511611/02/07 21:55:31  5-MIN KMKG 030255Z 22007KT 10SM CLR 09/01 A3015 410 53 -100 230/07 RMK AO2 SLP215 T00940006 50000
14840KMKG MKG20071102220009311/02/07 22:00:31  5-MIN KMKG 030300Z 22008KT 10SM CLR 09/01 A3015 410 56 -100 230/08 RMK AO2
14840KMKG MKG20071102220509311/02/07 22:05:31  5-MIN KMKG 030305Z 22008KT 10SM CLR 09/01 A3015 410 56 -100 230/08 RMK AO2
14840KMKG MKG20071102221009011/02/07 22:10:31  5-MIN KMKG 030310Z 22008KT 10SM CLR 10/01 A3015 420 54 0 230/08 RMK AO2
14840KMKG MKG20071102221509011/02/07 22:15:31  5-MIN KMKG 030315Z 22008KT 10SM CLR 10/01 A3015 420 54 0 230/08 RMK AO2
14840KMKG MKG20071102222009311/02/07 22:20:31  5-MIN KMKG 030320Z 22007KT 10SM CLR 09/01 A3015 420 56 -100 220/07 RMK AO2
14840KMKG MKG20071102222509311/02/07 22:25:31  5-MIN KMKG 030325Z 23007KT 10SM CLR 09/01 A3015 410 56 -100 230/07 RMK AO2
14840KMKG MKG20071102223009311/02/07 22:30:31  5-MIN KMKG 030330Z 23006KT 10SM CLR 09/01 A3015 410 53 -100 230/06 RMK AO2
14840KMKG MKG20071102223509311/02/07 22:35:31  5-MIN KMKG 030335Z 22007KT 10SM CLR 09/01 A3015 410 53 -100 230/07 RMK AO2
14840KMKG MKG20071102224009311/02/07 22:40:31  5-MIN KMKG 030340Z 23006KT 10SM CLR 09/01 A3015 420 56 -100 230/06 RMK AO2
14840KMKG MKG20071102224509311/02/07 22:45:31  5-MIN KMKG 030345Z 23007KT 10SM CLR 09/01 A3015 410 56 -100 230/07 RMK AO2
14840KMKG MKG20071102225010711/02/07 22:50:31  5-MIN KMKG 030350Z 23007KT 10SM CLR 10/01 A3015 410 52 0 230/07 RMK AO2 SLP214 T01000006
14840KMKG MKG20071102225511011/02/07 22:55:31  5-MIN KMKG 030355Z 23008KT 10SM CLR 09/01 A3015 420 53 -100 230/08 RMK AO2 SLP214 T00940006
14840KMKG MKG20071102230009011/02/07 23:00:31  5-MIN KMKG 030400Z 22008KT 10SM CLR 10/01 A3015 420 52 0 230/08 RMK AO2
14840KMKG MKG20071102230509311/02/07 23:05:31  5-MIN KMKG 030405Z 23007KT 10SM CLR 09/01 A3015 420 56 -100 230/07 RMK AO2
14840KMKG MKG20071102231009311/02/07 23:10:31  5-MIN KMKG 030410Z 23007KT 10SM CLR 09/01 A3015 420 56 -100 230/07 RMK AO2
14840KMKG MKG20071102231509011/02/07 23:15:31  5-MIN KMKG 030415Z 23008KT 10SM CLR 10/02 A3015 420 56 0 240/08 RMK AO2
14840KMKG MKG20071102232009011/02/07 23:20:31  5-MIN KMKG 030420Z 23007KT 10SM CLR 11/02 A3015 420 54 0 240/07 RMK AO2
14840KMKG MKG20071102232509011/02/07 23:25:31  5-MIN KMKG 030425Z 23007KT 10SM CLR 11/01 A3015 420 52 0 240/07 RMK AO2
14840KMKG MKG20071102233009011/02/07 23:30:31  5-MIN KMKG 030430Z 24009KT 10SM CLR 11/01 A3015 420 52 0 240/09 RMK AO2
14840KMKG MKG20071102233509011/02/07 23:35:31  5-MIN KMKG 030435Z 24007KT 10SM CLR 11/01 A3015 420 52 0 250/07 RMK AO2
14840KMKG MKG20071102234009211/02/07 23:40:31  5-MIN KMKG 030440Z 24007KT 10SM CLR 11/01 A3015 420 50 100 240/07 RMK AO2
14840KMKG MKG20071102234509011/02/07 23:45:31  5-MIN KMKG 030445Z 25006KT 10SM CLR 11/01 A3015 420 52 0 250/06 RMK AO2
14840KMKG MKG20071102235011711/02/07 23:50:31  5-MIN KMKG 030450Z 24008KT 10SM CLR 11/01 A3015 420 52 0 250/08 RMK AO2 SLP210 T01060011 401281022
14840KMKG MKG20071102235511911/02/07 23:55:31  5-MIN KMKG 030455Z 25008KT 10SM CLR 11/01 A3014 420 50 100 250/08 RMK AO2 SLP210 T01110011 401281022
14840KMKG MKG20071103000009211/03/07 00:00:32  5-MIN KMKG 030500Z 25007KT 10SM CLR 11/01 A3015 420 50 100 250/07 RMK AO2
14840KMKG MKG20071103000509211/03/07 00:05:31  5-MIN KMKG 030505Z 25007KT 10SM CLR 11/01 A3014 420 50 100 250/07 RMK AO2
14840KMKG MKG20071103001009211/03/07 00:10:31  5-MIN KMKG 030510Z 25008KT 10SM CLR 11/01 A3015 420 50 100 260/08 RMK AO2
14840KMKG MKG20071103001509211/03/07 00:15:31  5-MIN KMKG 030515Z 25008KT 10SM CLR 11/01 A3015 420 48 100 250/08 RMK AO2
14840KMKG MKG20071103002009211/03/07 00:20:31  5-MIN KMKG 030520Z 25007KT 10SM CLR 11/01 A3015 420 48 100 260/07 RMK AO2
14840KMKG MKG20071103002509211/03/07 00:25:31  5-MIN KMKG 030525Z 26007KT 10SM CLR 11/01 A3015 420 48 100 260/07 RMK AO2
14840KMKG MKG20071103003009511/03/07 00:30:31  5-MIN KMKG 030530Z 26007KT 10SM FEW110 11/01 A3015 420 50 100 260/07 RMK AO2
14840KMKG MKG20071103003509511/03/07 00:35:31  5-MIN KMKG 030535Z 27008KT 10SM SCT110 11/01 A3015 420 50 100 270/08 RMK AO2
14840KMKG MKG20071103004009511/03/07 00:40:31  5-MIN KMKG 030540Z 27010KT 10SM BKN110 11/01 A3015 420 50 100 270/10 RMK AO2
14840KMKG MKG20071103004509511/03/07 00:45:31  5-MIN KMKG 030545Z 27010KT 10SM BKN110 12/01 A3014 420 48 200 280/10 RMK AO2
14840KMKG MKG20071103005013011/03/07 00:50:31  5-MIN KMKG 030550Z 28009KT 10SM BKN110 11/02 A3014 420 52 100 290/09 RMK AO2 SLP210 T01110017 10117 20094 50000
14840KMKG MKG20071103005513011/03/07 00:55:31  5-MIN KMKG 030555Z 28007KT 10SM BKN110 11/02 A3014 420 52 100 280/07 RMK AO2 SLP210 T01110017 10117 20094 57004
14840KMKG MKG20071103010009511/03/07 01:00:31  5-MIN KMKG 030600Z 29008KT 10SM BKN110 11/02 A3014 420 52 100 290/08 RMK AO2
14840KMKG MKG20071103010509511/03/07 01:05:31  5-MIN KMKG 030605Z 28009KT 10SM BKN110 11/02 A3014 420 52 100 290/09 RMK AO2
14840KMKG MKG20071103011009311/03/07 01:10:31  5-MIN KMKG 030610Z 29007KT 10SM BKN110 11/02 A3015 420 54 0 300/07 RMK AO2
14840KMKG MKG20071103011509311/03/07 01:15:31  5-MIN KMKG 030615Z 29009KT 10SM SCT110 11/02 A3015 420 54 0 300/09 RMK AO2
14840KMKG MKG20071103012009311/03/07 01:20:31  5-MIN KMKG 030620Z 29008KT 10SM SCT110 11/02 A3014 420 54 0 300/08 RMK AO2
14840KMKG MKG20071103012509311/03/07 01:25:31  5-MIN KMKG 030625Z 30007KT 10SM SCT110 11/02 A3014 420 56 0 300/07 RMK AO2
14840KMKG MKG20071103013009311/03/07 01:30:31  5-MIN KMKG 030630Z 29008KT 10SM FEW110 11/02 A3014 420 54 0 300/08 RMK AO2
14840KMKG MKG20071103013509311/03/07 01:35:31  5-MIN KMKG 030635Z 30007KT 10SM FEW110 10/02 A3014 420 56 0 310/07 RMK AO2
14840KMKG MKG20071103014009011/03/07 01:40:31  5-MIN KMKG 030640Z 31007KT 10SM CLR 11/02 A3014 420 54 0 310/07 RMK AO2
14840KMKG MKG20071103014509311/03/07 01:45:31  5-MIN KMKG 030645Z 31005KT 10SM FEW110 10/02 A3015 420 56 0 310/05 RMK AO2
14840KMKG MKG20071103015011011/03/07 01:50:31  5-MIN KMKG 030650Z 31006KT 10SM SCT110 10/02 A3014 420 56 0 310/06 RMK AO2 SLP210 T01000017
14840KMKG MKG20071103015511011/03/07 01:55:31  5-MIN KMKG 030655Z 31007KT 10SM SCT110 10/02 A3014 420 56 0 310/07 RMK AO2 SLP210 T01000017
14840KMKG MKG20071103020009311/03/07 02:00:31  5-MIN KMKG 030700Z 31006KT 10SM FEW110 10/02 A3014 420 56 0 310/06 RMK AO2
14840KMKG MKG20071103020509311/03/07 02:05:31  5-MIN KMKG 030705Z 31006KT 10SM FEW110 10/02 A3015 420 56 0 310/06 RMK AO2
14840KMKG MKG20071103021009311/03/07 02:10:31  5-MIN KMKG 030710Z 31006KT 10SM FEW110 09/02 A3014 420 58 0 320/06 RMK AO2
14840KMKG MKG20071103021509311/03/07 02:15:31  5-MIN KMKG 030715Z 32007KT 10SM FEW110 09/02 A3014 430 60 0 320/07 RMK AO2
14840KMKG MKG20071103022009311/03/07 02:20:31  5-MIN KMKG 030720Z 32010KT 10SM FEW110 09/02 A3014 430 60 0 320/10 RMK AO2
14840KMKG MKG20071103022509311/03/07 02:25:31  5-MIN KMKG 030725Z 32007KT 10SM FEW110 10/02 A3014 430 56 0 320/07 RMK AO2
14840KMKG MKG20071103023009311/03/07 02:30:31  5-MIN KMKG 030730Z 32008KT 10SM FEW110 09/02 A3014 430 58 0 320/08 RMK AO2
14840KMKG MKG20071103023509611/03/07 02:35:31  5-MIN KMKG 030735Z 32008KT 10SM FEW110 09/02 A3014 420 60 -100 320/08 RMK AO2
14840KMKG MKG20071103024009611/03/07 02:40:31  5-MIN KMKG 030740Z 32007KT 10SM FEW110 09/02 A3014 420 58 -100 330/07 RMK AO2
14840KMKG MKG20071103024509311/03/07 02:45:31  5-MIN KMKG 030745Z 32008KT 10SM CLR 09/02 A3014 420 60 -100 320/08 RMK AO2
14840KMKG MKG20071103025011011/03/07 02:50:31  5-MIN KMKG 030750Z 32007KT 10SM CLR 09/02 A3014 420 60 -100 330/07 RMK AO2 SLP211 T00890017
14840KMKG MKG20071103025511011/03/07 02:55:31  5-MIN KMKG 030755Z 33006KT 10SM CLR 09/02 A3015 420 60 -100 330/06 RMK AO2 SLP211 T00890017
14840KMKG MKG20071103030009311/03/07 03:00:31  5-MIN KMKG 030800Z 33006KT 10SM CLR 08/02 A3015 420 63 -200 330/06 RMK AO2
14840KMKG MKG20071103030509311/03/07 03:05:31  5-MIN KMKG 030805Z 33006KT 10SM CLR 08/02 A3015 420 63 -200 340/06 RMK AO2
14840KMKG MKG20071103031009311/03/07 03:10:31  5-MIN KMKG 030810Z 33005KT 10SM CLR 08/02 A3015 420 65 -300 340/05 RMK AO2
14840KMKG MKG20071103031509311/03/07 03:15:31  5-MIN KMKG 030815Z 33005KT 10SM CLR 08/01 A3014 420 62 -300 340/05 RMK AO2
14840KMKG MKG20071103032009311/03/07 03:20:31  5-MIN KMKG 030820Z 33005KT 10SM CLR 08/01 A3014 420 62 -300 330/05 RMK AO2
14840KMKG MKG20071103032509311/03/07 03:25:31  5-MIN KMKG 030825Z 33005KT 10SM CLR 08/01 A3014 430 62 -300 340/05 RMK AO2
14840KMKG MKG20071103033009311/03/07 03:30:31  5-MIN KMKG 030830Z 33005KT 10SM CLR 07/01 A3014 430 65 -300 330/05 RMK AO2
14840KMKG MKG20071103033509311/03/07 03:35:31  5-MIN KMKG 030835Z 33004KT 10SM CLR 07/01 A3014 430 65 -300 330/04 RMK AO2
14840KMKG MKG20071103034009311/03/07 03:40:31  5-MIN KMKG 030840Z 33004KT 10SM CLR 07/01 A3014 430 65 -400 330/04 RMK AO2
14840KMKG MKG20071103034509311/03/07 03:45:31  5-MIN KMKG 030845Z 33004KT 10SM CLR 07/01 A3014 430 65 -300 340/04 RMK AO2
14840KMKG MKG20071103035011611/03/07 03:50:31  5-MIN KMKG 030850Z 32004KT 10SM CLR 07/01 A3014 430 65 -400 330/04 RMK AO2 SLP209 T00670006 57004
14840KMKG MKG20071103035511611/03/07 03:55:31  5-MIN KMKG 030855Z 33003KT 10SM CLR 07/01 A3014 430 65 -400 330/03 RMK AO2 SLP209 T00670006 58001
14840KMKG MKG20071103040009311/03/07 04:00:31  5-MIN KMKG 030900Z 00000KT 10SM CLR 07/01 A3014 430 62 -300 000/00 RMK AO2
14840KMKG MKG20071103040509311/03/07 04:05:31  5-MIN KMKG 030905Z 00000KT 10SM CLR 07/01 A3014 430 62 -300 000/00 RMK AO2
14840KMKG MKG20071103041009311/03/07 04:10:31  5-MIN KMKG 030910Z 00000KT 10SM CLR 07/01 A3014 430 62 -300 000/00 RMK AO2
14840KMKG MKG20071103041509311/03/07 04:15:31  5-MIN KMKG 030915Z 00000KT 10SM CLR 07/00 A3014 430 60 -300 000/00 RMK AO2
14840KMKG MKG20071103042009311/03/07 04:20:31  5-MIN KMKG 030920Z 00000KT 10SM CLR 07/00 A3014 430 60 -300 000/00 RMK AO2
14840KMKG MKG20071103042509311/03/07 04:25:31  5-MIN KMKG 030925Z 00000KT 10SM CLR 07/00 A3014 430 60 -300 000/00 RMK AO2
14840KMKG MKG20071103043009311/03/07 04:30:31  5-MIN KMKG 030930Z 00000KT 10SM CLR 07/00 A3013 430 62 -400 000/00 RMK AO2
14840KMKG MKG20071103043509311/03/07 04:35:31  5-MIN KMKG 030935Z 00000KT 10SM CLR 07/00 A3014 430 62 -400 000/00 RMK AO2
14840KMKG MKG20071103044009411/03/07 04:40:31  5-MIN KMKG 030940Z 32003KT 10SM CLR 07/M01 A3014 430 60 -400 320/03 RMK AO2
14840KMKG MKG20071103044509411/03/07 04:45:31  5-MIN KMKG 030945Z 33003KT 10SM CLR 06/M01 A3014 430 62 -500 330/03 RMK AO2
14840KMKG MKG20071103045011111/03/07 04:50:31  5-MIN KMKG 030950Z 32003KT 10SM CLR 06/M01 A3014 430 65 -500 330/03 RMK AO2 SLP210 T00561006
14840KMKG MKG20071103045511011/03/07 04:55:31  5-MIN KMKG 030955Z 00000KT 10SM CLR 06/00 A3014 430 65 -500 000/00 RMK AO2 SLP211 T00610000
14840KMKG MKG20071103050009311/03/07 05:00:31  5-MIN KMKG 031000Z 00000KT 10SM CLR 07/00 A3014 430 62 -400 000/00 RMK AO2
14840KMKG MKG20071103050509411/03/07 05:05:31  5-MIN KMKG 031005Z 00000KT 10SM CLR 07/M01 A3014 430 60 -400 000/00 RMK AO2
14840KMKG MKG20071103051009411/03/07 05:10:31  5-MIN KMKG 031010Z 00000KT 10SM CLR 07/M01 A3014 430 60 -400 000/00 RMK AO2
14840KMKG MKG20071103051509411/03/07 05:15:31  5-MIN KMKG 031015Z 00000KT 10SM CLR 07/M01 A3014 430 60 -400 000/00 RMK AO2
14840KMKG MKG20071103052009411/03/07 05:20:31  5-MIN KMKG 031020Z 00000KT 10SM CLR 06/M01 A3014 420 62 -500 000/00 RMK AO2
14840KMKG MKG20071103052509411/03/07 05:25:31  5-MIN KMKG 031025Z 00000KT 10SM CLR 06/M01 A3014 420 62 -500 000/00 RMK AO2
14840KMKG MKG20071103053009411/03/07 05:30:31  5-MIN KMKG 031030Z 00000KT 10SM CLR 04/M01 A3015 420 70 -700 000/00 RMK AO2
14840KMKG MKG20071103053509411/03/07 05:35:31  5-MIN KMKG 031035Z 00000KT 10SM CLR 04/M01 A3014 420 70 -700 000/00 RMK AO2
14840KMKG MKG20071103054009411/03/07 05:40:31  5-MIN KMKG 031040Z 00000KT 10SM CLR 04/M01 A3015 420 70 -700 000/00 RMK AO2
14840KMKG MKG20071103054509411/03/07 05:45:31  5-MIN KMKG 031045Z 00000KT 10SM CLR 02/M01 A3014 420 78 -900 000/00 RMK AO2
14840KMKG MKG20071103055011211/03/07 05:50:31  5-MIN KMKG 031050Z 00000KT 10SM CLR 02/M02 A3015 420 78 -1000 000/00 RMK AO2 SLP213 T00171017
14840KMKG MKG20071103055511211/03/07 05:55:31  5-MIN KMKG 031055Z 00000KT 10SM CLR 01/M02 A3015 420 82 -1100 000/00 RMK AO2 SLP213 T00111017
14840KMKG MKG20071103060009511/03/07 06:00:31  5-MIN KMKG 031100Z 00000KT 10SM CLR 01/M02 A3015 420 82 -1100 000/00 RMK AO2
14840KMKG MKG20071103060509511/03/07 06:05:31  5-MIN KMKG 031105Z 00000KT 10SM CLR 02/M02 A3014 420 78 -1000 000/00 RMK AO2
14840KMKG MKG20071103061009511/03/07 06:10:31  5-MIN KMKG 031110Z 00000KT 10SM CLR 02/M02 A3014 420 78 -1000 000/00 RMK AO2
14840KMKG MKG20071103061509511/03/07 06:15:31  5-MIN KMKG 031115Z 00000KT 10SM CLR 02/M01 A3014 420 82 -1000 000/00 RMK AO2
14840KMKG MKG20071103062009511/03/07 06:20:31  5-MIN KMKG 031120Z 00000KT 10SM CLR 01/M02 A3014 420 82 -1100 000/00 RMK AO2
14840KMKG MKG20071103062509511/03/07 06:25:31  5-MIN KMKG 031125Z 00000KT 10SM CLR 01/M02 A3014 420 82 -1100 000/00 RMK AO2
14840KMKG MKG20071103063009511/03/07 06:30:31  5-MIN KMKG 031130Z 00000KT 10SM CLR 01/M02 A3014 420 82 -1100 000/00 RMK AO2
14840KMKG MKG20071103063509511/03/07 06:35:31  5-MIN KMKG 031135Z 00000KT 10SM CLR 02/M02 A3014 420 78 -1000 000/00 RMK AO2
14840KMKG MKG20071103064009411/03/07 06:40:31  5-MIN KMKG 031140Z 00000KT 10SM CLR 02/M01 A3014 420 78 -900 000/00 RMK AO2
14840KMKG MKG20071103064509511/03/07 06:45:31  5-MIN KMKG 031145Z 00000KT 10SM CLR 02/M01 A3014 420 82 -1000 000/00 RMK AO2
14840KMKG MKG20071103065013011/03/07 06:50:31  5-MIN KMKG 031150Z 00000KT 10SM CLR 01/M02 A3015 420 82 -1100 000/00 RMK AO2 SLP213 T00111017 10111 20011 58001
14840KMKG MKG20071103065513011/03/07 06:55:31  5-MIN KMKG 031155Z 00000KT 10SM CLR 01/M02 A3014 420 82 -1100 000/00 RMK AO2 SLP213 T00111017 10111 20011 50001
14840KMKG MKG20071103070009511/03/07 07:00:31  5-MIN KMKG 031200Z 00000KT 10SM CLR 01/M02 A3014 420 82 -1100 000/00 RMK AO2
14840KMKG MKG20071103070509511/03/07 07:05:31  5-MIN KMKG 031205Z 00000KT 10SM CLR 01/M02 A3015 420 82 -1100 000/00 RMK AO2
14840KMKG MKG20071103071009511/03/07 07:10:31  5-MIN KMKG 031210Z 00000KT 10SM CLR 01/M02 A3015 420 85 -1200 000/00 RMK AO2
14840KMKG MKG20071103071509511/03/07 07:15:31  5-MIN KMKG 031215Z 00000KT 10SM CLR 01/M02 A3015 420 82 -1200 000/00 RMK AO2
14840KMKG MKG20071103072009511/03/07 07:20:31  5-MIN KMKG 031220Z 00000KT 10SM CLR 01/M02 A3015 420 82 -1200 000/00 RMK AO2
14840KMKG MKG20071103072509511/03/07 07:25:31  5-MIN KMKG 031225Z 00000KT 10SM CLR 01/M02 A3015 420 82 -1200 000/00 RMK AO2
14840KMKG MKG20071103073009511/03/07 07:30:31  5-MIN KMKG 031230Z 00000KT 10SM CLR 01/M02 A3015 420 82 -1100 000/00 RMK AO2
14840KMKG MKG20071103073509511/03/07 07:35:31  5-MIN KMKG 031235Z 00000KT 10SM CLR 01/M02 A3015 420 82 -1100 000/00 RMK AO2
14840KMKG MKG20071103074009511/03/07 07:40:31  5-MIN KMKG 031240Z 00000KT 10SM CLR 01/M02 A3015 420 85 -1200 000/00 RMK AO2
14840KMKG MKG20071103074509511/03/07 07:45:31  5-MIN KMKG 031245Z 00000KT 10SM CLR 01/M02 A3015 410 85 -1200 000/00 RMK AO2
14840KMKG MKG20071103075011211/03/07 07:50:31  5-MIN KMKG 031250Z 00000KT 10SM CLR 01/M02 A3016 410 82 -1200 000/00 RMK AO2 SLP216 T00061022
14840KMKG MKG20071103075511211/03/07 07:55:31  5-MIN KMKG 031255Z 00000KT 10SM CLR 01/M02 A3016 410 85 -1200 000/00 RMK AO2 SLP216 T00061017
14840KMKG MKG20071103080009511/03/07 08:00:31  5-MIN KMKG 031300Z 00000KT 10SM CLR 01/M02 A3016 410 85 -1200 000/00 RMK AO2
14840KMKG MKG20071103080509511/03/07 08:05:31  5-MIN KMKG 031305Z 00000KT 10SM CLR 01/M02 A3016 410 85 -1200 000/00 RMK AO2
14840KMKG MKG20071103081009511/03/07 08:10:31  5-MIN KMKG 031310Z 00000KT 10SM CLR 01/M01 A3016 410 85 -1100 000/00 RMK AO2
14840KMKG MKG20071103081509511/03/07 08:15:31  5-MIN KMKG 031315Z 00000KT 10SM CLR 01/M01 A3016 410 85 -1100 000/00 RMK AO2
14840KMKG MKG20071103082009511/03/07 08:20:31  5-MIN KMKG 031320Z 00000KT 10SM CLR 02/M01 A3016 410 82 -1000 000/00 RMK AO2
14840KMKG MKG20071103082509511/03/07 08:25:31  5-MIN KMKG 031325Z 00000KT 10SM CLR 02/M01 A3016 410 82 -1000 000/00 RMK AO2
14840KMKG MKG20071103083009511/03/07 08:30:31  5-MIN KMKG 031330Z 00000KT 10SM CLR 02/M01 A3016 410 82 -1000 000/00 RMK AO2
14840KMKG MKG20071103083509511/03/07 08:35:31  5-MIN KMKG 031335Z 00000KT 10SM CLR 02/M01 A3016 410 82 -1000 000/00 RMK AO2
14840KMKG MKG20071103084009511/03/07 08:40:31  5-MIN KMKG 031340Z 00000KT 10SM CLR 02/M01 A3016 410 82 -1000 000/00 RMK AO2
14840KMKG MKG20071103084509511/03/07 08:45:31  5-MIN KMKG 031345Z 00000KT 10SM CLR 02/M01 A3016 400 82 -1000 000/00 RMK AO2
14840KMKG MKG20071103085011211/03/07 08:50:31  5-MIN KMKG 031350Z 00000KT 10SM CLR 02/M01 A3017 400 82 -1000 000/00 RMK AO2 SLP220 T00221006
14840KMKG MKG20071103085511011/03/07 08:55:31  5-MIN KMKG 031355Z 00000KT 10SM CLR 03/00 A3016 410 82 -900 000/00 RMK AO2 SLP218 T00280000
14840KMKG MKG20071103090009311/03/07 09:00:31  5-MIN KMKG 031400Z 00000KT 10SM CLR 03/00 A3016 400 79 -800 000/00 RMK AO2
14840KMKG MKG20071103090509311/03/07 09:05:31  5-MIN KMKG 031405Z 00000KT 10SM CLR 04/01 A3016 400 79 -800 000/00 RMK AO2
14840KMKG MKG20071103091009311/03/07 09:10:31  5-MIN KMKG 031410Z 00000KT 10SM CLR 04/01 A3017 400 79 -700 000/00 RMK AO2
14840KMKG MKG20071103091509311/03/07 09:15:31  5-MIN KMKG 031415Z 00000KT 10SM CLR 06/02 A3017 400 76 -600 000/00 RMK AO2
14840KMKG MKG20071103092009311/03/07 09:20:31  5-MIN KMKG 031420Z 00000KT 10SM CLR 06/02 A3017 400 76 -500 000/00 RMK AO2
14840KMKG MKG20071103092509311/03/07 09:25:31  5-MIN KMKG 031425Z 00000KT 10SM CLR 07/02 A3016 410 70 -300 000/00 RMK AO2
14840KMKG MKG20071103093009311/03/07 09:30:31  5-MIN KMKG 031430Z 00000KT 10SM CLR 08/03 A3016 410 68 -200 000/00 RMK AO2
14840KMKG MKG20071103093509311/03/07 09:35:31  5-MIN KMKG 031435Z VRB03KT 10SM CLR 09/03 A3016 410 65 -100 VRB/03 RMK AO2
14840KMKG MKG20071103094009311/03/07 09:40:31  5-MIN KMKG 031440Z 30005KT 10SM CLR 09/03 A3016 410 63 -100 310/05 RMK AO2
14840KMKG MKG20071103094509011/03/07 09:45:31  5-MIN KMKG 031445Z 28009KT 10SM CLR 10/02 A3016 410 58 0 290/09 RMK AO2
14840KMKG MKG20071103095011311/03/07 09:50:31  5-MIN KMKG 031450Z 31009KT 10SM CLR 10/03 A3016 410 60 0 310/09 RMK AO2 SLP215 T01000028 50001
14840KMKG MKG20071103095511311/03/07 09:55:31  5-MIN KMKG 031455Z 28007KT 10SM CLR 11/03 A3016 410 58 0 290/07 RMK AO2 SLP215 T01060028 50004
14840KMKG MKG20071103100009011/03/07 10:00:31  5-MIN KMKG 031500Z 29008KT 10SM CLR 10/02 A3016 410 58 0 290/08 RMK AO2
14840KMKG MKG20071103100509011/03/07 10:05:31  5-MIN KMKG 031505Z 28010KT 10SM CLR 10/02 A3016 410 58 0 280/10 RMK AO2
14840KMKG MKG20071103101009011/03/07 10:10:31  5-MIN KMKG 031510Z 30010KT 10SM CLR 10/02 A3016 410 58 0 300/10 RMK AO2
14840KMKG MKG20071103101509011/03/07 10:15:31  5-MIN KMKG 031515Z 29009KT 10SM CLR 10/02 A3015 410 58 0 290/09 RMK AO2
14840KMKG MKG20071103102009011/03/07 10:20:31  5-MIN KMKG 031520Z 30009KT 10SM CLR 10/02 A3015 420 56 0 310/09 RMK AO2
14840KMKG MKG20071103102509011/03/07 10:25:31  5-MIN KMKG 031525Z 27009KT 10SM CLR 10/02 A3015 420 58 0 280/09 RMK AO2
14840KMKG MKG20071103103009011/03/07 10:30:31  5-MIN KMKG 031530Z 29010KT 10SM CLR 11/02 A3015 420 56 0 290/10 RMK AO2
14840KMKG MKG20071103103509011/03/07 10:35:31  5-MIN KMKG 031535Z 29011KT 10SM CLR 10/02 A3015 410 58 0 290/11 RMK AO2
14840KMKG MKG20071103104009011/03/07 10:40:31  5-MIN KMKG 031540Z 29011KT 10SM CLR 11/02 A3015 410 56 0 290/11 RMK AO2
14840KMKG MKG20071103104509611/03/07 10:45:31  5-MIN KMKG 031545Z 29012G16KT 10SM CLR 10/02 A3016 410 56 0 290/12G16 RMK AO2
14840KMKG MKG20071103105011311/03/07 10:50:31  5-MIN KMKG 031550Z 30009G16KT 10SM CLR 11/02 A3016 410 54 0 310/09G16 RMK AO2 SLP214 T01060017
14840KMKG MKG20071103105511311/03/07 10:55:31  5-MIN KMKG 031555Z 29012G15KT 10SM CLR 11/01 A3016 410 52 0 290/12G15 RMK AO2 SLP215 T01060011
14840KMKG MKG20071103110009011/03/07 11:00:31  5-MIN KMKG 031600Z 27011KT 10SM CLR 11/01 A3016 410 52 0 280/11 RMK AO2
14840KMKG MKG20071103110509611/03/07 11:05:31  5-MIN KMKG 031605Z 30009G17KT 10SM CLR 11/01 A3016 410 52 0 300/09G17 RMK AO2
14840KMKG MKG20071103111009611/03/07 11:10:31  5-MIN KMKG 031610Z 30008G17KT 10SM CLR 11/01 A3016 410 52 0 300/08G17 RMK AO2
14840KMKG MKG20071103111509611/03/07 11:15:31  5-MIN KMKG 031615Z 27011G17KT 10SM CLR 11/02 A3016 410 54 0 280/11G17 RMK AO2
14840KMKG MKG20071103112009011/03/07 11:20:31  5-MIN KMKG 031620Z 28011KT 10SM CLR 11/01 A3016 410 52 0 280/11 RMK AO2
14840KMKG MKG20071103112509011/03/07 11:25:31  5-MIN KMKG 031625Z 27009KT 10SM CLR 10/02 A3016 410 56 0 280/09 RMK AO2
14840KMKG MKG20071103113009011/03/07 11:30:31  5-MIN KMKG 031630Z 30011KT 10SM CLR 10/02 A3015 410 56 0 300/11 RMK AO2
14840KMKG MKG20071103113509011/03/07 11:35:31  5-MIN KMKG 031635Z 30009KT 10SM CLR 11/02 A3016 410 54 0 300/09 RMK AO2
14840KMKG MKG20071103114009611/03/07 11:40:31  5-MIN KMKG 031640Z 30008G15KT 10SM CLR 10/02 A3015 410 56 0 300/08G15 RMK AO2
14840KMKG MKG20071103114509011/03/07 11:45:31  5-MIN KMKG 031645Z 29011KT 10SM CLR 10/01 A3016 410 54 0 300/11 RMK AO2
14840KMKG MKG20071103115011011/03/07 11:50:31  5-MIN KMKG 031650Z 30010KT 10SM FEW035 10/02 A3015 410 56 0 310/10 RMK AO2 SLP214 T01000017
14840KMKG MKG20071103115512611/03/07 11:55:31  5-MIN KMKG 031655Z 28009KT 250V310 10SM FEW035 10/02 A3015 420 56 0 280/09 250V310 RMK AO2 SLP213 T01000017
14840KMKG MKG20071103120009011/03/07 12:00:31  5-MIN KMKG 031700Z 31010KT 10SM CLR 10/01 A3015 420 54 0 310/10 RMK AO2
14840KMKG MKG20071103120509611/03/07 12:05:31  5-MIN KMKG 031705Z 29012G17KT 10SM CLR 11/02 A3015 420 54 0 290/12G17 RMK AO2
14840KMKG MKG20071103121009611/03/07 12:10:31  5-MIN KMKG 031710Z 29011G17KT 10SM CLR 10/01 A3014 420 54 0 300/11G17 RMK AO2
14840KMKG MKG20071103121509611/03/07 12:15:31  5-MIN KMKG 031715Z 30012G17KT 10SM CLR 10/01 A3014 420 54 0 300/12G17 RMK AO2
14840KMKG MKG20071103122009611/03/07 12:20:31  5-MIN KMKG 031720Z 30006G17KT 10SM CLR 10/01 A3014 430 54 0 310/06G17 RMK AO2
14840KMKG MKG20071103122509611/03/07 12:25:31  5-MIN KMKG 031725Z 28012G15KT 10SM CLR 11/01 A3014 430 52 0 290/12G15 RMK AO2
14840KMKG MKG20071103123009611/03/07 12:30:31  5-MIN KMKG 031730Z 27012G17KT 10SM CLR 10/01 A3014 430 52 0 270/12G17 RMK AO2
14840KMKG MKG20071103123509011/03/07 12:35:31  5-MIN KMKG 031735Z 29010KT 10SM CLR 10/01 A3014 430 54 0 290/10 RMK AO2
14840KMKG MKG20071103124009011/03/07 12:40:31  5-MIN KMKG 031740Z 28011KT 10SM CLR 11/01 A3014 430 52 0 290/11 RMK AO2
14840KMKG MKG20071103124509611/03/07 12:45:31  5-MIN KMKG 031745Z 31008G15KT 10SM CLR 10/01 A3013 440 54 0 310/08G15 RMK AO2
14840KMKG MKG20071103125013411/03/07 12:50:31  5-MIN KMKG 031750Z 28011G16KT 10SM FEW035 10/01 A3013 440 54 0 290/11G16 RMK AO2 SLP206 T01000011 10106 20006 50004
14840KMKG MKG20071103125512811/03/07 12:55:31  5-MIN KMKG 031755Z 29011KT 10SM FEW035 10/01 A3013 440 54 0 290/11 RMK AO2 SLP205 T01000011 10106 20006 58009
14840KMKG MKG20071103130009011/03/07 13:00:31  5-MIN KMKG 031800Z 29011KT 10SM CLR 10/01 A3013 440 54 0 290/11 RMK AO2
14840KMKG MKG20071103130509011/03/07 13:05:31  5-MIN KMKG 031805Z 27013KT 10SM CLR 10/01 A3012 440 54 0 280/13 RMK AO2
14840KMKG MKG20071103131009011/03/07 13:10:31  5-MIN KMKG 031810Z 27011KT 10SM CLR 10/01 A3012 440 52 0 270/11 RMK AO2
14840KMKG MKG20071103131509011/03/07 13:15:31  5-MIN KMKG 031815Z 28010KT 10SM CLR 10/01 A3012 450 54 0 280/10 RMK AO2
14840KMKG MKG20071103132009011/03/07 13:20:31  5-MIN KMKG 031820Z 28012KT 10SM CLR 10/01 A3012 450 54 0 280/12 RMK AO2
14840KMKG MKG20071103132509611/03/07 13:25:31  5-MIN KMKG 031825Z 28013G18KT 10SM CLR 09/01 A3012 450 53 0 280/13G18 RMK AO2
14840KMKG MKG20071103133009011/03/07 13:30:31  5-MIN KMKG 031830Z 29012KT 10SM CLR 10/01 A3012 450 52 0 290/12 RMK AO2
14840KMKG MKG20071103133509611/03/07 13:35:31  5-MIN KMKG 031835Z 29008G18KT 10SM CLR 09/01 A3012 450 53 0 300/08G18 RMK AO2
14840KMKG MKG20071103134009611/03/07 13:40:31  5-MIN KMKG 031840Z 28013G18KT 10SM CLR 10/01 A3011 450 54 0 280/13G18 RMK AO2
14840KMKG MKG20071103134509611/03/07 13:45:31  5-MIN KMKG 031845Z 28014G19KT 10SM CLR 10/01 A3011 450 54 0 290/14G19 RMK AO2
14840KMKG MKG20071103135011611/03/07 13:50:31  5-MIN KMKG 031850Z 28013G19KT 10SM FEW032 10/01 A3011 450 52 0 280/13G19 RMK AO2 SLP199 T01000006
14840KMKG MKG20071103135511011/03/07 13:55:31  5-MIN KMKG 031855Z 28012KT 10SM FEW032 10/01 A3011 460 52 0 280/12 RMK AO2 SLP198 T01000006
14840KMKG MKG20071103140009611/03/07 14:00:31  5-MIN KMKG 031900Z 31010G19KT 10SM CLR 10/01 A3011 460 52 0 320/10G19 RMK AO2
14840KMKG MKG20071103140509611/03/07 14:05:31  5-MIN KMKG 031905Z 31010G19KT 10SM CLR 10/01 A3011 460 52 0 320/10G19 RMK AO2
14840KMKG MKG20071103141009011/03/07 14:10:31  5-MIN KMKG 031910Z 32011KT 10SM CLR 09/00 A3010 460 51 0 320/11 RMK AO2
14840KMKG MKG20071103141511211/03/07 14:15:31  5-MIN KMKG 031915Z 30010G16KT 270V330 10SM CLR 10/01 A3010 460 52 0 300/10G16 270V330 RMK AO2
14840KMKG MKG20071103142009911/03/07 14:20:31  5-MIN KMKG 031920Z 28010G15KT 10SM FEW033 10/01 A3010 470 54 0 280/10G15 RMK AO2
14840KMKG MKG20071103142511711/03/07 14:25:31  5-MIN KMKG 031925Z 31010G15KT 280V350 10SM FEW035 11/01 A3010 470 52 100 310/10G15 280V350 RMK AO2
14840KMKG MKG20071103143009911/03/07 14:30:31  5-MIN KMKG 031930Z 29012G18KT 10SM FEW035 10/01 A3010 460 52 0 290/12G18 RMK AO2
14840KMKG MKG20071103143509911/03/07 14:35:31  5-MIN KMKG 031935Z 31011G18KT 10SM FEW035 09/01 A3010 460 53 0 310/11G18 RMK AO2
14840KMKG MKG20071103144009911/03/07 14:40:31  5-MIN KMKG 031940Z 28012G16KT 10SM FEW035 10/01 A3010 460 52 0 290/12G16 RMK AO2
14840KMKG MKG20071103144509911/03/07 14:45:31  5-MIN KMKG 031945Z 29012G17KT 10SM FEW035 09/01 A3010 460 53 0 290/12G17 RMK AO2
14840KMKG MKG20071103145011611/03/07 14:50:31  5-MIN KMKG 031950Z 28012G17KT 10SM FEW037 10/01 A3010 460 52 0 290/12G17 RMK AO2 SLP196 T01000006
14840KMKG MKG20071103145511611/03/07 14:55:31  5-MIN KMKG 031955Z 29011G16KT 10SM FEW037 09/00 A3011 460 51 0 300/11G16 RMK AO2 SLP197 T00940000
14840KMKG MKG20071103150009911/03/07 15:00:31  5-MIN KMKG 032000Z 28013G17KT 10SM FEW037 09/00 A3010 460 51 0 290/13G17 RMK AO2
14840KMKG MKG20071103150509911/03/07 15:05:31  5-MIN KMKG 032005Z 32012G19KT 10SM FEW037 09/00 A3010 460 51 0 320/12G19 RMK AO2
14840KMKG MKG20071103151010011/03/07 15:10:31  5-MIN KMKG 032010Z 29011G19KT 10SM FEW037 09/M01 A3010 460 49 0 290/11G19 RMK AO2
14840KMKG MKG20071103151511511/03/07 15:15:31  5-MIN KMKG 032015Z 29010G16KT 260V330 10SM FEW037 10/00 A3010 460 49 0 300/10G16 260V330 RMK AO2
14840KMKG MKG20071103152010011/03/07 15:20:31  5-MIN KMKG 032020Z 30011G17KT 10SM FEW037 10/M01 A3010 460 47 0 300/11G17 RMK AO2
14840KMKG MKG20071103152509411/03/07 15:25:31  5-MIN KMKG 032025Z 30011KT 10SM FEW037 09/M01 A3010 460 47 0 300/11 RMK AO2
14840KMKG MKG20071103153009411/03/07 15:30:31  5-MIN KMKG 032030Z 29013KT 10SM FEW037 09/M02 A3010 460 45 0 300/13 RMK AO2
14840KMKG MKG20071103153509711/03/07 15:35:31  5-MIN KMKG 032035Z 30011G18KT 10SM CLR 09/M02 A3010 460 45 0 310/11G18 RMK AO2
14840KMKG MKG20071103154009711/03/07 15:40:31  5-MIN KMKG 032040Z 30013G18KT 10SM CLR 09/M02 A3010 460 44 0 300/13G18 RMK AO2
14840KMKG MKG20071103154509711/03/07 15:45:31  5-MIN KMKG 032045Z 31010G18KT 10SM CLR 09/M02 A3010 460 44 0 310/10G18 RMK AO2
14840KMKG MKG20071103155012311/03/07 15:50:31  5-MIN KMKG 032050Z 31009G18KT 10SM FEW037 09/M02 A3010 460 45 0 320/09G18 RMK AO2 SLP198 T00941017 58009
14840KMKG MKG20071103155511711/03/07 15:55:31  5-MIN KMKG 032055Z 30010KT 10SM FEW037 09/M02 A3010 460 44 0 300/10 RMK AO2 SLP198 T00941022 56008
14840KMKG MKG20071103160009711/03/07 16:00:31  5-MIN KMKG 032100Z 30010G17KT 10SM CLR 09/M02 A3010 460 44 0 300/10G17 RMK AO2
14840KMKG MKG20071103160510011/03/07 16:05:31  5-MIN KMKG 032105Z 30009G17KT 10SM CLR 09/M03 A3010 460 43 -100 300/09G17 RMK AO2
14840KMKG MKG20071103161009411/03/07 16:10:31  5-MIN KMKG 032110Z 30010KT 10SM CLR 09/M02 A3010 460 45 -100 310/10 RMK AO2
14840KMKG MKG20071103161509411/03/07 16:15:31  5-MIN KMKG 032115Z 32009KT 10SM CLR 09/M03 A3011 460 43 -100 320/09 RMK AO2
14840KMKG MKG20071103162009411/03/07 16:20:31  5-MIN KMKG 032120Z 31009KT 10SM CLR 09/M03 A3011 460 43 -100 310/09 RMK AO2
14840KMKG MKG20071103162509411/03/07 16:25:31  5-MIN KMKG 032125Z 29009KT 10SM CLR 09/M03 A3011 460 43 -100 290/09 RMK AO2
14840KMKG MKG20071103163009411/03/07 16:30:31  5-MIN KMKG 032130Z 30009KT 10SM CLR 09/M03 A3011 460 43 -100 310/09 RMK AO2
14840KMKG MKG20071103163509411/03/07 16:35:31  5-MIN KMKG 032135Z 31008KT 10SM CLR 09/M03 A3011 460 43 -100 310/08 RMK AO2
14840KMKG MKG20071103164009411/03/07 16:40:31  5-MIN KMKG 032140Z 29010KT 10SM CLR 09/M03 A3011 460 43 -100 290/10 RMK AO2
14840KMKG MKG20071103164509711/03/07 16:45:31  5-MIN KMKG 032145Z 30008KT 10SM FEW037 08/M03 A3010 460 45 -100 300/08 RMK AO2
14840KMKG MKG20071103165011411/03/07 16:50:31  5-MIN KMKG 032150Z 31007KT 10SM FEW037 08/M03 A3010 460 45 -100 320/07 RMK AO2 SLP198 T00831028
14840KMKG MKG20071103165511411/03/07 16:55:31  5-MIN KMKG 032155Z 30008KT 10SM FEW037 08/M03 A3010 460 45 -100 300/08 RMK AO2 SLP197 T00831028
14840KMKG MKG20071103170009411/03/07 17:00:31  5-MIN KMKG 032200Z 31008KT 10SM CLR 08/M03 A3010 460 45 -100 320/08 RMK AO2
14840KMKG MKG20071103170509411/03/07 17:05:31  5-MIN KMKG 032205Z 32008KT 10SM CLR 08/M03 A3010 460 45 -100 330/08 RMK AO2
14840KMKG MKG20071103171009411/03/07 17:10:31  5-MIN KMKG 032210Z 32008KT 10SM CLR 08/M03 A3010 460 45 -200 330/08 RMK AO2
14840KMKG MKG20071103171509411/03/07 17:15:31  5-MIN KMKG 032215Z 32009KT 10SM CLR 08/M03 A3010 460 47 -200 320/09 RMK AO2
14840KMKG MKG20071103172009411/03/07 17:20:31  5-MIN KMKG 032220Z 31006KT 10SM CLR 08/M03 A3010 460 45 -200 310/06 RMK AO2
14840KMKG MKG20071103172509411/03/07 17:25:31  5-MIN KMKG 032225Z 31007KT 10SM CLR 08/M03 A3010 460 45 -200 320/07 RMK AO2
14840KMKG MKG20071103173009411/03/07 17:30:31  5-MIN KMKG 032230Z 32004KT 10SM CLR 08/M03 A3010 460 47 -200 320/04 RMK AO2
14840KMKG MKG20071103173509411/03/07 17:35:31  5-MIN KMKG 032235Z 32005KT 10SM CLR 07/M03 A3010 460 51 -300 330/05 RMK AO2
14840KMKG MKG20071103174009411/03/07 17:40:31  5-MIN KMKG 032240Z 32004KT 10SM CLR 07/M03 A3010 460 51 -300 330/04 RMK AO2
14840KMKG MKG20071103174509411/03/07 17:45:31  5-MIN KMKG 032245Z 32003KT 10SM CLR 07/M03 A3010 470 51 -300 330/03 RMK AO2
14840KMKG MKG20071103175011111/03/07 17:50:31  5-MIN KMKG 032250Z 36003KT 10SM CLR 06/M03 A3010 470 53 -400 360/03 RMK AO2 SLP198 T00611028
14840KMKG MKG20071103175511111/03/07 17:55:31  5-MIN KMKG 032255Z 00000KT 10SM CLR 06/M03 A3010 470 53 -400 000/00 RMK AO2 SLP197 T00611028
14840KMKG MKG20071103180009411/03/07 18:00:31  5-MIN KMKG 032300Z 00000KT 10SM CLR 07/M03 A3010 470 51 -300 000/00 RMK AO2
14840KMKG MKG20071103180509411/03/07 18:05:31  5-MIN KMKG 032305Z 00000KT 10SM CLR 06/M03 A3009 470 53 -400 000/00 RMK AO2
14840KMKG MKG20071103181009411/03/07 18:10:31  5-MIN KMKG 032310Z 00000KT 10SM CLR 06/M03 A3009 470 53 -400 000/00 RMK AO2
14840KMKG MKG20071103181509411/03/07 18:15:31  5-MIN KMKG 032315Z 00000KT 10SM CLR 06/M03 A3009 470 53 -400 000/00 RMK AO2
14840KMKG MKG20071103182009411/03/07 18:20:31  5-MIN KMKG 032320Z 00000KT 10SM CLR 05/M03 A3009 470 55 -500 000/00 RMK AO2
14840KMKG MKG20071103182509411/03/07 18:25:31  5-MIN KMKG 032325Z 00000KT 10SM CLR 05/M03 A3009 470 55 -500 000/00 RMK AO2
14840KMKG MKG20071103183009411/03/07 18:30:31  5-MIN KMKG 032330Z 00000KT 10SM CLR 04/M03 A3009 470 57 -600 000/00 RMK AO2
14840KMKG MKG20071103183509411/03/07 18:35:31  5-MIN KMKG 032335Z 00000KT 10SM CLR 04/M03 A3009 470 57 -600 000/00 RMK AO2
14840KMKG MKG20071103184009411/03/07 18:40:31  5-MIN KMKG 032340Z 00000KT 10SM CLR 05/M03 A3009 470 57 -500 000/00 RMK AO2
14840KMKG MKG20071103184509411/03/07 18:45:31  5-MIN KMKG 032345Z 00000KT 10SM CLR 04/M03 A3009 470 59 -600 000/00 RMK AO2
14840KMKG MKG20071103185012911/03/07 18:50:31  5-MIN KMKG 032350Z 00000KT 10SM CLR 03/M02 A3009 470 67 -700 000/00 RMK AO2 SLP197 T00331022 10106 20033 56008
14840KMKG MKG20071103185512911/03/07 18:55:31  5-MIN KMKG 032355Z 00000KT 10SM CLR 03/M02 A3009 470 67 -700 000/00 RMK AO2 SLP197 T00331022 10106 20033 58004
14840KMKG MKG20071103190009411/03/07 19:00:31  5-MIN KMKG 040000Z 00000KT 10SM CLR 03/M02 A3009 470 67 -700 000/00 RMK AO2
14840KMKG MKG20071103190509411/03/07 19:05:31  5-MIN KMKG 040005Z 00000KT 10SM CLR 03/M02 A3009 470 67 -700 000/00 RMK AO2
14840KMKG MKG20071103191009411/03/07 19:10:31  5-MIN KMKG 040010Z 00000KT 10SM CLR 03/M02 A3009 470 72 -800 000/00 RMK AO2
14840KMKG MKG20071103191509411/03/07 19:15:31  5-MIN KMKG 040015Z 00000KT 10SM CLR 03/M02 A3009 470 72 -800 000/00 RMK AO2
14840KMKG MKG20071103192009411/03/07 19:20:31  5-MIN KMKG 040020Z 00000KT 10SM CLR 03/M02 A3009 470 69 -800 000/00 RMK AO2
14840KMKG MKG20071103192509411/03/07 19:25:31  5-MIN KMKG 040025Z 00000KT 10SM CLR 03/M02 A3009 470 69 -800 000/00 RMK AO2
14840KMKG MKG20071103193009411/03/07 19:30:31  5-MIN KMKG 040030Z 00000KT 10SM CLR 03/M02 A3009 470 69 -800 000/00 RMK AO2
14840KMKG MKG20071103193509411/03/07 19:35:31  5-MIN KMKG 040035Z 00000KT 10SM CLR 02/M02 A3009 470 72 -900 000/00 RMK AO2
14840KMKG MKG20071103194009411/03/07 19:40:31  5-MIN KMKG 040040Z 00000KT 10SM CLR 02/M02 A3009 470 72 -900 000/00 RMK AO2
14840KMKG MKG20071103194509411/03/07 19:45:31  5-MIN KMKG 040045Z 00000KT 10SM CLR 03/M02 A3009 480 69 -800 000/00 RMK AO2
14840KMKG MKG20071103195011111/03/07 19:50:31  5-MIN KMKG 040050Z 00000KT 10SM CLR 02/M02 A3009 480 72 -900 000/00 RMK AO2 SLP195 T00221022
14840KMKG MKG20071103195511111/03/07 19:55:31  5-MIN KMKG 040055Z 00000KT 10SM CLR 02/M02 A3009 480 72 -900 000/00 RMK AO2 SLP194 T00221022
14840KMKG MKG20071103200009411/03/07 20:00:31  5-MIN KMKG 040100Z 00000KT 10SM CLR 03/M02 A3008 480 69 -800 000/00 RMK AO2
14840KMKG MKG20071103200509411/03/07 20:05:31  5-MIN KMKG 040105Z 00000KT 10SM CLR 03/M02 A3008 480 69 -800 000/00 RMK AO2
14840KMKG MKG20071103201009411/03/07 20:10:31  5-MIN KMKG 040110Z 00000KT 10SM CLR 03/M02 A3008 480 69 -800 000/00 RMK AO2
14840KMKG MKG20071103201509411/03/07 20:15:31  5-MIN KMKG 040115Z 00000KT 10SM CLR 03/M02 A3008 480 69 -800 000/00 RMK AO2
14840KMKG MKG20071103202009411/03/07 20:20:31  5-MIN KMKG 040120Z 36003KT 10SM CLR 03/M02 A3008 490 72 -800 360/03 RMK AO2
14840KMKG MKG20071103202509411/03/07 20:25:31  5-MIN KMKG 040125Z 00000KT 10SM CLR 03/M02 A3007 490 72 -800 000/00 RMK AO2
14840KMKG MKG20071103203009411/03/07 20:30:31  5-MIN KMKG 040130Z 00000KT 10SM CLR 03/M01 A3007 490 75 -800 000/00 RMK AO2
14840KMKG MKG20071103203509411/03/07 20:35:31  5-MIN KMKG 040135Z 00000KT 10SM CLR 02/M02 A3007 490 75 -900 000/00 RMK AO2
14840KMKG MKG20071103205511111/03/07 20:55:31  5-MIN KMKG 040155Z 00000KT 10SM CLR 02/M02 A3007 500 75 -900 000/00 RMK AO2 SLP188 T00171022
14840KMKG MKG20071103210009511/03/07 21:00:31  5-MIN KMKG 040200Z 00000KT 10SM CLR 01/M02 A3006 500 78 -1000 000/00 RMK AO2
14840KMKG MKG20071103210509511/03/07 21:05:31  5-MIN KMKG 040205Z 00000KT 10SM CLR 01/M02 A3006 500 78 -1000 000/00 RMK AO2
14840KMKG MKG20071103211009511/03/07 21:10:31  5-MIN KMKG 040210Z 00000KT 10SM CLR 01/M02 A3006 500 78 -1000 000/00 RMK AO2
14840KMKG MKG20071103211509511/03/07 21:15:31  5-MIN KMKG 040215Z 00000KT 10SM CLR 01/M02 A3006 500 78 -1000 000/00 RMK AO2
14840KMKG MKG20071103212009511/03/07 21:20:31  5-MIN KMKG 040220Z 00000KT 10SM CLR 01/M03 A3006 500 78 -1000 000/00 RMK AO2
14840KMKG MKG20071103212509511/03/07 21:25:31  5-MIN KMKG 040225Z 00000KT 10SM CLR 01/M03 A3006 500 78 -1100 000/00 RMK AO2
14840KMKG MKG20071103213009511/03/07 21:30:31  5-MIN KMKG 040230Z 00000KT 10SM CLR 01/M03 A3006 500 78 -1100 000/00 RMK AO2
14840KMKG MKG20071103213509511/03/07 21:35:31  5-MIN KMKG 040235Z 00000KT 10SM CLR 01/M03 A3006 500 78 -1100 000/00 RMK AO2
14840KMKG MKG20071103214009511/03/07 21:40:31  5-MIN KMKG 040240Z 00000KT 10SM CLR 01/M03 A3006 500 75 -1000 000/00 RMK AO2
14840KMKG MKG20071103214509511/03/07 21:45:31  5-MIN KMKG 040245Z 00000KT 10SM CLR 01/M03 A3006 500 75 -1000 000/00 RMK AO2
14840KMKG MKG20071103215011811/03/07 21:50:31  5-MIN KMKG 040250Z 00000KT 10SM CLR 01/M03 A3006 500 75 -1000 000/00 RMK AO2 SLP183 T00111028 58004
14840KMKG MKG20071103215511811/03/07 21:55:31  5-MIN KMKG 040255Z 00000KT 10SM CLR 01/M03 A3006 500 75 -1000 000/00 RMK AO2 SLP183 T00111028 58012
14840KMKG MKG20071103220009511/03/07 22:00:31  5-MIN KMKG 040300Z 00000KT 10SM CLR 01/M03 A3006 510 78 -1000 000/00 RMK AO2
14840KMKG MKG20071103220509511/03/07 22:05:31  5-MIN KMKG 040305Z 00000KT 10SM CLR 01/M02 A3005 510 78 -1000 000/00 RMK AO2
14840KMKG MKG20071103221009511/03/07 22:10:31  5-MIN KMKG 040310Z 00000KT 10SM CLR 01/M02 A3006 510 78 -1000 000/00 RMK AO2
14840KMKG MKG20071103221509511/03/07 22:15:31  5-MIN KMKG 040315Z 00000KT 10SM CLR 01/M03 A3005 510 75 -1000 000/00 RMK AO2
14840KMKG MKG20071103222009511/03/07 22:20:31  5-MIN KMKG 040320Z 00000KT 10SM CLR 01/M03 A3005 510 75 -1000 000/00 RMK AO2
14840KMKG MKG20071103222509511/03/07 22:25:31  5-MIN KMKG 040325Z 00000KT 10SM CLR 01/M03 A3005 510 78 -1000 000/00 RMK AO2
14840KMKG MKG20071103223009511/03/07 22:30:31  5-MIN KMKG 040330Z 00000KT 10SM CLR 01/M03 A3005 510 78 -1000 000/00 RMK AO2
14840KMKG MKG20071103223509511/03/07 22:35:31  5-MIN KMKG 040335Z 00000KT 10SM CLR 00/M03 A3005 510 81 -1100 000/00 RMK AO2
14840KMKG MKG20071103224009511/03/07 22:40:31  5-MIN KMKG 040340Z 00000KT 10SM CLR 00/M03 A3005 510 81 -1100 000/00 RMK AO2
14840KMKG MKG20071103224509511/03/07 22:45:31  5-MIN KMKG 040345Z 12003KT 10SM CLR 00/M02 A3004 520 85 -1100 120/03 RMK AO2
14840KMKG MKG20071103225011211/03/07 22:50:31  5-MIN KMKG 040350Z 13003KT 10SM CLR 01/M02 A3004 520 82 -1000 130/03 RMK AO2 SLP179 T00061022
14840KMKG MKG20071103225511211/03/07 22:55:31  5-MIN KMKG 040355Z 00000KT 10SM CLR 01/M02 A3004 520 82 -1000 000/00 RMK AO2 SLP178 T00061022
14840KMKG MKG20071103230009511/03/07 23:00:31  5-MIN KMKG 040400Z 13003KT 10SM CLR 01/M02 A3004 520 82 -1000 130/03 RMK AO2
14840KMKG MKG20071103230509511/03/07 23:05:31  5-MIN KMKG 040405Z 00000KT 10SM CLR 00/M02 A3004 520 85 -1100 000/00 RMK AO2
14840KMKG MKG20071103231009511/03/07 23:10:31  5-MIN KMKG 040410Z 00000KT 10SM CLR 01/M03 A3004 520 78 -1000 000/00 RMK AO2
14840KMKG MKG20071103231509511/03/07 23:15:31  5-MIN KMKG 040415Z 00000KT 10SM CLR 01/M03 A3004 520 78 -1000 000/00 RMK AO2
14840KMKG MKG20071103232009511/03/07 23:20:31  5-MIN KMKG 040420Z 00000KT 10SM CLR 01/M03 A3004 520 78 -1000 000/00 RMK AO2
14840KMKG MKG20071103232509511/03/07 23:25:31  5-MIN KMKG 040425Z 00000KT 10SM CLR 01/M03 A3004 520 78 -1000 000/00 RMK AO2
14840KMKG MKG20071103233009511/03/07 23:30:31  5-MIN KMKG 040430Z 00000KT 10SM CLR 01/M03 A3004 520 78 -1000 000/00 RMK AO2
14840KMKG MKG20071103233509511/03/07 23:35:31  5-MIN KMKG 040435Z 00000KT 10SM CLR 01/M03 A3004 520 78 -1000 000/00 RMK AO2
14840KMKG MKG20071103234009511/03/07 23:40:31  5-MIN KMKG 040440Z 00000KT 10SM CLR 01/M02 A3004 520 78 -1000 000/00 RMK AO2
14840KMKG MKG20071103234509511/03/07 23:45:31  5-MIN KMKG 040445Z 00000KT 10SM CLR 01/M02 A3004 520 78 -1000 000/00 RMK AO2
14840KMKG MKG20071103235012211/03/07 23:50:31  5-MIN KMKG 040450Z 00000KT 10SM CLR 01/M02 A3003 530 82 -1000 000/00 RMK AO2 SLP175 T00061022 401170000
14840KMKG MKG20071103235512211/03/07 23:55:31  5-MIN KMKG 040455Z 00000KT 10SM CLR 01/M02 A3003 530 78 -1000 000/00 RMK AO2 SLP175 T00111022 401170000
14840KMKG MKG20071104000009511/04/07 00:00:32  5-MIN KMKG 040500Z 00000KT 10SM CLR 01/M02 A3003 530 82 -1000 000/00 RMK AO2
14840KMKG MKG20071104000509511/04/07 00:05:31  5-MIN KMKG 040505Z 00000KT 10SM CLR 01/M02 A3003 530 82 -1000 000/00 RMK AO2
14840KMKG MKG20071104001009411/04/07 00:10:31  5-MIN KMKG 040510Z 00000KT 10SM CLR 01/M02 A3003 530 78 -900 000/00 RMK AO2
14840KMKG MKG20071104001509411/04/07 00:15:31  5-MIN KMKG 040515Z 11003KT 10SM CLR 01/M02 A3003 530 82 -900 120/03 RMK AO2
14840KMKG MKG20071104002009511/04/07 00:20:31  5-MIN KMKG 040520Z 12003KT 10SM CLR 01/M02 A3002 530 85 -1000 130/03 RMK AO2
14840KMKG MKG20071104002509511/04/07 00:25:31  5-MIN KMKG 040525Z 12003KT 10SM CLR 01/M02 A3002 530 82 -1000 130/03 RMK AO2
14840KMKG MKG20071104003009511/04/07 00:30:31  5-MIN KMKG 040530Z 13003KT 10SM CLR 01/M02 A3002 530 82 -1000 130/03 RMK AO2
14840KMKG MKG20071104003509511/04/07 00:35:31  5-MIN KMKG 040535Z 13003KT 10SM CLR 01/M02 A3002 530 85 -1000 130/03 RMK AO2
14840KMKG MKG20071104004009511/04/07 00:40:31  5-MIN KMKG 040540Z 13003KT 10SM CLR 01/M02 A3002 540 82 -1000 130/03 RMK AO2
14840KMKG MKG20071104004509511/04/07 00:45:31  5-MIN KMKG 040545Z 12003KT 10SM CLR 01/M02 A3002 540 82 -1000 130/03 RMK AO2
14840KMKG MKG20071104005013011/04/07 00:50:31  5-MIN KMKG 040550Z 12003KT 10SM CLR 01/M02 A3002 540 82 -1000 120/03 RMK AO2 SLP170 T00061022 10033 20000 58012
14840KMKG MKG20071104005513011/04/07 00:55:31  5-MIN KMKG 040555Z 12003KT 10SM CLR 00/M02 A3002 540 85 -1100 130/03 RMK AO2 SLP170 T00001022 10033 20000 56013
14840KMKG MKG20071104010009511/04/07 01:00:31  5-MIN KMKG 040600Z 11003KT 10SM CLR 01/M02 A3002 540 82 -1000 120/03 RMK AO2
14840KMKG MKG20071104010509511/04/07 01:05:31  5-MIN KMKG 040605Z 11003KT 10SM CLR 01/M02 A3001 540 82 -1000 110/03 RMK AO2
14840KMKG MKG20071104011009511/04/07 01:10:31  5-MIN KMKG 040610Z 11003KT 10SM CLR 01/M02 A3001 550 82 -1000 120/03 RMK AO2
14840KMKG MKG20071104011509511/04/07 01:15:31  5-MIN KMKG 040615Z 12004KT 10SM CLR 01/M02 A3001 550 82 -1000 120/04 RMK AO2
14840KMKG MKG20071104012009511/04/07 01:20:31  5-MIN KMKG 040620Z 12004KT 10SM CLR 01/M02 A3001 550 82 -1000 120/04 RMK AO2
14840KMKG MKG20071104012509511/04/07 01:25:31  5-MIN KMKG 040625Z 13003KT 10SM CLR 01/M02 A3001 550 82 -1000 130/03 RMK AO2
14840KMKG MKG20071104013009511/04/07 01:30:31  5-MIN KMKG 040630Z 13003KT 10SM CLR 01/M02 A3000 550 82 -1000 140/03 RMK AO2
14840KMKG MKG20071104013509411/04/07 01:35:31  5-MIN KMKG 040635Z 00000KT 9SM CLR 01/M02 A3000 550 82 -1000 000/00 RMK AO2
14840KMKG MKG20071104014009511/04/07 01:40:31  5-MIN KMKG 040640Z 00000KT 10SM CLR 01/M02 A3000 550 82 -1000 000/00 RMK AO2
14840KMKG MKG20071104014509411/04/07 01:45:31  5-MIN KMKG 040645Z 00000KT 10SM CLR 01/M02 A3000 560 82 -900 000/00 RMK AO2
14840KMKG MKG20071104015011111/04/07 01:50:31  5-MIN KMKG 040650Z 12003KT 10SM CLR 01/M02 A3000 560 78 -900 130/03 RMK AO2 SLP163 T00111022
14840KMKG MKG20071104015511111/04/07 01:55:31  5-MIN KMKG 040655Z 13004KT 10SM CLR 01/M02 A3000 560 78 -900 130/04 RMK AO2 SLP162 T00111022
14840KMKG MKG20071104020009511/04/07 02:00:31  5-MIN KMKG 040700Z 13004KT 10SM CLR 01/M02 A2999 560 82 -1000 140/04 RMK AO2
14840KMKG MKG20071104020509511/04/07 02:05:31  5-MIN KMKG 040705Z 12004KT 10SM CLR 01/M02 A2999 560 82 -1000 130/04 RMK AO2
14840KMKG MKG20071104021009511/04/07 02:10:31  5-MIN KMKG 040710Z 12004KT 10SM CLR 01/M02 A2999 570 82 -1000 120/04 RMK AO2
14840KMKG MKG20071104021509411/04/07 02:15:31  5-MIN KMKG 040715Z 12004KT 10SM CLR 01/M02 A2999 570 78 -900 120/04 RMK AO2
14840KMKG MKG20071104022009411/04/07 02:20:31  5-MIN KMKG 040720Z 12004KT 10SM CLR 01/M02 A2999 570 78 -900 130/04 RMK AO2
14840KMKG MKG20071104022509511/04/07 02:25:31  5-MIN KMKG 040725Z 13005KT 10SM CLR 01/M02 A2998 570 82 -1000 130/05 RMK AO2
14840KMKG MKG20071104023009511/04/07 02:30:31  5-MIN KMKG 040730Z 14005KT 10SM CLR 01/M02 A2998 570 82 -1000 140/05 RMK AO2
14840KMKG MKG20071104023509511/04/07 02:35:31  5-MIN KMKG 040735Z 14005KT 10SM CLR 01/M02 A2998 570 82 -1000 140/05 RMK AO2
14840KMKG MKG20071104024009511/04/07 02:40:31  5-MIN KMKG 040740Z 14004KT 10SM CLR 01/M02 A2998 580 82 -1000 140/04 RMK AO2
14840KMKG MKG20071104024509511/04/07 02:45:31  5-MIN KMKG 040745Z 14005KT 10SM CLR 01/M02 A2998 580 82 -1000 150/05 RMK AO2
14840KMKG MKG20071104025011211/04/07 02:50:31  5-MIN KMKG 040750Z 14005KT 10SM CLR 01/M02 A2998 580 82 -1000 140/05 RMK AO2 SLP155 T00061022
14840KMKG MKG20071104025511211/04/07 02:55:31  5-MIN KMKG 040755Z 14005KT 10SM CLR 01/M02 A2997 580 82 -1000 140/05 RMK AO2 SLP154 T00061022
14840KMKG MKG20071104030009411/04/07 03:00:31  5-MIN KMKG 040800Z 13005KT 10SM CLR 01/M02 A2997 580 82 -900 140/05 RMK AO2
14840KMKG MKG20071104030509411/04/07 03:05:31  5-MIN KMKG 040805Z 13005KT 10SM CLR 01/M02 A2997 580 82 -900 140/05 RMK AO2
14840KMKG MKG20071104031009511/04/07 03:10:31  5-MIN KMKG 040810Z 14005KT 10SM CLR 00/M03 A2997 590 81 -1000 140/05 RMK AO2
14840KMKG MKG20071104031509511/04/07 03:15:31  5-MIN KMKG 040815Z 14004KT 10SM CLR 00/M03 A2997 590 81 -1000 140/04 RMK AO2
14840KMKG MKG20071104032009511/04/07 03:20:31  5-MIN KMKG 040820Z 12003KT 10SM CLR 00/M03 A2996 590 81 -1000 130/03 RMK AO2
14840KMKG MKG20071104032509511/04/07 03:25:31  5-MIN KMKG 040825Z 12003KT 10SM CLR 00/M03 A2996 590 81 -1000 120/03 RMK AO2
14840KMKG MKG20071104033009511/04/07 03:30:31  5-MIN KMKG 040830Z 11003KT 10SM CLR 00/M03 A2996 590 81 -1000 110/03 RMK AO2
14840KMKG MKG20071104033509511/04/07 03:35:31  5-MIN KMKG 040835Z 11003KT 10SM CLR 00/M03 A2996 600 81 -1000 120/03 RMK AO2
14840KMKG MKG20071104034009511/04/07 03:40:31  5-MIN KMKG 040840Z 12003KT 10SM CLR 00/M03 A2995 600 81 -1000 120/03 RMK AO2
14840KMKG MKG20071104034509511/04/07 03:45:31  5-MIN KMKG 040845Z 12003KT 10SM CLR 00/M03 A2995 600 81 -1000 120/03 RMK AO2
14840KMKG MKG20071104035011811/04/07 03:50:31  5-MIN KMKG 040850Z 11003KT 10SM CLR 00/M03 A2995 600 81 -1000 120/03 RMK AO2 SLP147 T00001028 56013
14840KMKG MKG20071104035511811/04/07 03:55:31  5-MIN KMKG 040855Z 11003KT 10SM CLR 00/M03 A2995 600 81 -1000 110/03 RMK AO2 SLP147 T00001028 57023
14840KMKG MKG20071104040009611/04/07 04:00:31  5-MIN KMKG 040900Z 12003KT 10SM CLR M01/M03 A2995 600 85 -1100 120/03 RMK AO2
14840KMKG MKG20071104040509611/04/07 04:05:31  5-MIN KMKG 040905Z 12004KT 10SM CLR M01/M03 A2995 610 85 -1100 120/04 RMK AO2
14840KMKG MKG20071104041009911/04/07 04:10:31  5-MIN KMKG 040910Z 12004KT 10SM SCT110 M01/M03 A2995 610 85 -1100 130/04 RMK AO2
14840KMKG MKG20071104041509811/04/07 04:15:31  5-MIN KMKG 040915Z 13004KT 10SM BKN110 00/M03 A2994 610 81 -1000 130/04 RMK AO2
14840KMKG MKG20071104042009811/04/07 04:20:31  5-MIN KMKG 040920Z 13004KT 10SM BKN110 00/M03 A2994 610 81 -1000 140/04 RMK AO2
14840KMKG MKG20071104042509811/04/07 04:25:31  5-MIN KMKG 040925Z 13005KT 10SM BKN110 00/M02 A2994 610 85 -1000 140/05 RMK AO2
14840KMKG MKG20071104043009711/04/07 04:30:31  5-MIN KMKG 040930Z 13006KT 10SM OVC110 01/M02 A2994 610 82 -900 130/06 RMK AO2
14840KMKG MKG20071104043509711/04/07 04:35:31  5-MIN KMKG 040935Z 13006KT 10SM OVC110 01/M02 A2994 620 82 -900 140/06 RMK AO2
14840KMKG MKG20071104044009711/04/07 04:40:31  5-MIN KMKG 040940Z 13005KT 10SM OVC110 01/M02 A2994 620 82 -900 130/05 RMK AO2
14840KMKG MKG20071104044509711/04/07 04:45:31  5-MIN KMKG 040945Z 12005KT 10SM OVC110 01/M02 A2993 620 82 -900 130/05 RMK AO2
14840KMKG MKG20071104045011411/04/07 04:50:31  5-MIN KMKG 040950Z 12005KT 10SM OVC110 01/M02 A2993 620 82 -900 120/05 RMK AO2 SLP141 T00061022
14840KMKG MKG20071104045511411/04/07 04:55:31  5-MIN KMKG 040955Z 12005KT 10SM OVC110 01/M02 A2993 620 82 -900 120/05 RMK AO2 SLP140 T00061022
14840KMKG MKG20071104050009711/04/07 05:00:31  5-MIN KMKG 041000Z 13005KT 10SM OVC100 01/M02 A2993 620 82 -900 130/05 RMK AO2
14840KMKG MKG20071104050509711/04/07 05:05:31  5-MIN KMKG 041005Z 13004KT 10SM OVC110 01/M02 A2993 620 82 -800 140/04 RMK AO2
14840KMKG MKG20071104051009711/04/07 05:10:31  5-MIN KMKG 041010Z 13005KT 10SM OVC110 01/M02 A2993 630 78 -800 130/05 RMK AO2
14840KMKG MKG20071104051509711/04/07 05:15:31  5-MIN KMKG 041015Z 13005KT 10SM OVC110 01/M02 A2992 630 82 -800 130/05 RMK AO2
14840KMKG MKG20071104052009711/04/07 05:20:31  5-MIN KMKG 041020Z 12006KT 10SM OVC110 01/M02 A2992 630 82 -800 120/06 RMK AO2
14840KMKG MKG20071104052509711/04/07 05:25:31  5-MIN KMKG 041025Z 11007KT 10SM OVC110 02/M02 A2992 630 78 -700 120/07 RMK AO2
14840KMKG MKG20071104053009711/04/07 05:30:31  5-MIN KMKG 041030Z 11006KT 10SM OVC110 02/M02 A2992 630 75 -800 120/06 RMK AO2
14840KMKG MKG20071104053509711/04/07 05:35:31  5-MIN KMKG 041035Z 12006KT 10SM OVC110 02/M02 A2992 630 75 -800 120/06 RMK AO2
14840KMKG MKG20071104054009711/04/07 05:40:31  5-MIN KMKG 041040Z 12006KT 10SM OVC110 02/M02 A2992 630 75 -800 120/06 RMK AO2
14840KMKG MKG20071104054509711/04/07 05:45:31  5-MIN KMKG 041045Z 12005KT 10SM OVC110 02/M02 A2992 630 75 -700 130/05 RMK AO2
14840KMKG MKG20071104055011411/04/07 05:50:31  5-MIN KMKG 041050Z 13005KT 10SM OVC110 02/M02 A2992 630 78 -700 130/05 RMK AO2 SLP137 T00171017
14840KMKG MKG20071104055511411/04/07 05:55:31  5-MIN KMKG 041055Z 13005KT 10SM OVC110 02/M02 A2992 630 78 -700 130/05 RMK AO2 SLP137 T00171017
14840KMKG MKG20071104060009711/04/07 06:00:31  5-MIN KMKG 041100Z 13006KT 10SM OVC110 02/M02 A2992 630 78 -700 130/06 RMK AO2
14840KMKG MKG20071104060509711/04/07 06:05:31  5-MIN KMKG 041105Z 13006KT 10SM OVC110 02/M02 A2992 630 78 -700 140/06 RMK AO2
14840KMKG MKG20071104061009711/04/07 06:10:31  5-MIN KMKG 041110Z 13005KT 10SM OVC110 02/M02 A2991 640 78 -700 130/05 RMK AO2
14840KMKG MKG20071104061509711/04/07 06:15:31  5-MIN KMKG 041115Z 13006KT 10SM OVC110 02/M02 A2991 640 78 -700 130/06 RMK AO2
14840KMKG MKG20071104062009711/04/07 06:20:31  5-MIN KMKG 041120Z 13006KT 10SM OVC110 02/M02 A2991 640 78 -700 130/06 RMK AO2
14840KMKG MKG20071104062509711/04/07 06:25:31  5-MIN KMKG 041125Z 15004KT 10SM OVC110 02/M02 A2991 640 75 -700 150/04 RMK AO2
14840KMKG MKG20071104063009711/04/07 06:30:31  5-MIN KMKG 041130Z 13005KT 10SM BKN110 03/M02 A2991 640 72 -600 140/05 RMK AO2
14840KMKG MKG20071104063509711/04/07 06:35:31  5-MIN KMKG 041135Z 12003KT 10SM BKN110 02/M02 A2991 640 75 -700 130/03 RMK AO2
14840KMKG MKG20071104064009711/04/07 06:40:31  5-MIN KMKG 041140Z 12003KT 10SM BKN120 02/M02 A2991 640 75 -700 130/03 RMK AO2
14840KMKG MKG20071104064509711/04/07 06:45:31  5-MIN KMKG 041145Z 13003KT 10SM SCT120 02/M02 A2991 640 75 -700 130/03 RMK AO2
14840KMKG MKG20071104065013911/04/07 06:50:31  5-MIN KMKG 041150Z 13003KT 10SM FEW090 BKN120 02/M02 A2991 640 75 -700 130/03 RMK AO2 SLP133 T00221017 10028 21006 57023
14840KMKG MKG20071104065515411/04/07 06:55:31  5-MIN KMKG 041155Z 13003KT 10SM SCT095 BKN120 02/M02 A2991 640 75 -700 130/03 RMK AO2 CIG 095 RWY 14 SLP133 T00221017 10028 21006 56014
14840KMKG MKG20071104070010411/04/07 07:00:31  5-MIN KMKG 041200Z 12004KT 10SM BKN095 BKN120 02/M02 A2991 640 75 -700 130/04 RMK AO2
14840KMKG MKG20071104070511911/04/07 07:05:31  5-MIN KMKG 041205Z 12004KT 10SM SCT095 BKN120 02/M02 A2991 640 75 -700 120/04 RMK AO2 CIG 090 RWY 14
14840KMKG MKG20071104071011911/04/07 07:10:31  5-MIN KMKG 041210Z 12003KT 10SM SCT095 BKN120 02/M02 A2991 640 75 -700 120/03 RMK AO2 CIG 090 RWY 14
14840KMKG MKG20071104071511911/04/07 07:15:31  5-MIN KMKG 041215Z 12003KT 10SM SCT090 OVC120 02/M02 A2991 640 75 -700 120/03 RMK AO2 CIG 085 RWY 14
14840KMKG MKG20071104072011911/04/07 07:20:31  5-MIN KMKG 041220Z 12003KT 10SM SCT090 OVC120 02/M02 A2991 640 75 -700 120/03 RMK AO2 CIG 090 RWY 14
14840KMKG MKG20071104072510411/04/07 07:25:31  5-MIN KMKG 041225Z 13004KT 10SM BKN095 OVC120 02/M02 A2991 640 75 -700 130/04 RMK AO2
14840KMKG MKG20071104073010411/04/07 07:30:31  5-MIN KMKG 041230Z 12003KT 10SM BKN090 OVC120 02/M02 A2991 640 75 -700 130/03 RMK AO2
14840KMKG MKG20071104073510411/04/07 07:35:31  5-MIN KMKG 041235Z 12004KT 10SM SCT090 BKN120 02/M02 A2991 640 75 -700 130/04 RMK AO2
14840KMKG MKG20071104074010411/04/07 07:40:31  5-MIN KMKG 041240Z 13003KT 10SM SCT090 BKN120 02/M01 A2991 640 78 -700 130/03 RMK AO2
14840KMKG MKG20071104074510411/04/07 07:45:31  5-MIN KMKG 041245Z 11004KT 10SM SCT090 BKN120 02/M01 A2991 640 78 -700 120/04 RMK AO2
14840KMKG MKG20071104075012111/04/07 07:50:31  5-MIN KMKG 041250Z 11003KT 10SM SCT090 BKN120 02/M01 A2991 640 78 -700 110/03 RMK AO2 SLP135 T00221011
14840KMKG MKG20071104075512111/04/07 07:55:31  5-MIN KMKG 041255Z 10003KT 10SM SCT090 BKN120 02/M02 A2991 640 75 -700 110/03 RMK AO2 SLP135 T00221017
14840KMKG MKG20071104080009711/04/07 08:00:31  5-MIN KMKG 041300Z 10003KT 10SM OVC095 02/M02 A2991 640 75 -700 110/03 RMK AO2
14840KMKG MKG20071104080509711/04/07 08:05:31  5-MIN KMKG 041305Z 09003KT 10SM OVC095 02/M02 A2991 640 75 -700 100/03 RMK AO2
14840KMKG MKG20071104081009711/04/07 08:10:31  5-MIN KMKG 041310Z 10004KT 10SM OVC095 02/M02 A2991 640 75 -700 110/04 RMK AO2
14840KMKG MKG20071104081509711/04/07 08:15:31  5-MIN KMKG 041315Z 10004KT 10SM OVC095 02/M02 A2991 640 75 -700 100/04 RMK AO2
14840KMKG MKG20071104082009711/04/07 08:20:31  5-MIN KMKG 041320Z 11004KT 10SM OVC095 02/M02 A2991 640 75 -700 110/04 RMK AO2
14840KMKG MKG20071104082509711/04/07 08:25:31  5-MIN KMKG 041325Z 11003KT 10SM OVC090 02/M02 A2991 640 75 -700 110/03 RMK AO2
14840KMKG MKG20071104083009711/04/07 08:30:31  5-MIN KMKG 041330Z 11003KT 10SM OVC085 02/M01 A2990 640 78 -700 110/03 RMK AO2
14840KMKG MKG20071104083510411/04/07 08:35:31  5-MIN KMKG 041335Z 12004KT 10SM SCT075 OVC090 02/M01 A2990 650 78 -700 120/04 RMK AO2
14840KMKG MKG20071104084010411/04/07 08:40:31  5-MIN KMKG 041340Z 11004KT 10SM BKN070 OVC090 03/M01 A2990 650 75 -600 110/04 RMK AO2
14840KMKG MKG20071104084510411/04/07 08:45:31  5-MIN KMKG 041345Z 12004KT 10SM BKN075 OVC090 03/M01 A2990 650 75 -600 120/04 RMK AO2
14840KMKG MKG20071104085012111/04/07 08:50:31  5-MIN KMKG 041350Z 13006KT 10SM BKN070 OVC085 03/M01 A2990 650 75 -600 130/06 RMK AO2 SLP131 T00281011
14840KMKG MKG20071104085511411/04/07 08:55:31  5-MIN KMKG 041355Z 12006KT 10SM OVC075 03/M01 A2990 650 75 -600 120/06 RMK AO2 SLP131 T00281011
14840KMKG MKG20071104090009711/04/07 09:00:31  5-MIN KMKG 041400Z 12005KT 10SM OVC075 03/M01 A2990 650 75 -600 120/05 RMK AO2
14840KMKG MKG20071104090509711/04/07 09:05:31  5-MIN KMKG 041405Z 12006KT 10SM OVC075 03/M01 A2990 650 72 -500 120/06 RMK AO2
14840KMKG MKG20071104091009711/04/07 09:10:31  5-MIN KMKG 041410Z 14005KT 10SM OVC070 03/M01 A2990 650 76 -500 140/05 RMK AO2
14840KMKG MKG20071104091510411/04/07 09:15:31  5-MIN KMKG 041415Z 14005KT 10SM BKN065 OVC080 03/M01 A2990 650 72 -500 140/05 RMK AO2
14840KMKG MKG20071104092010411/04/07 09:20:31  5-MIN KMKG 041420Z 15004KT 10SM BKN065 OVC080 03/M01 A2990 650 72 -500 150/04 RMK AO2
14840KMKG MKG20071104092509711/04/07 09:25:31  5-MIN KMKG 041425Z 13003KT 10SM OVC060 04/M01 A2990 650 73 -400 130/03 RMK AO2
14840KMKG MKG20071104093009711/04/07 09:30:31  5-MIN KMKG 041430Z 00000KT 10SM OVC060 04/M01 A2990 650 73 -400 000/00 RMK AO2
14840KMKG MKG20071104093509711/04/07 09:35:31  5-MIN KMKG 041435Z 14003KT 10SM OVC060 04/M01 A2990 650 73 -400 140/03 RMK AO2
14840KMKG MKG20071104094011311/04/07 09:40:31  5-MIN KMKG 041440Z 16003KT 10SM -RA OVC055 04/M01 A2990 650 73 -400 160/03 RMK AO2 RAB40 P0000
14840KMKG MKG20071104094511211/04/07 09:45:31  5-MIN KMKG 041445Z 00000KT 10SM -RA OVC055 04/00 A2989 650 76 -400 000/00 RMK AO2 RAB40 P0000
14840KMKG MKG20071104095014111/04/07 09:50:31  5-MIN KMKG 041450Z 07004KT 10SM -RA OVC055 04/00 A2989 660 73 -400 070/04 RMK AO2 RAB40 SLP127 P0000 60000 T00440000 56014
14840KMKG MKG20071104095514111/04/07 09:55:31  5-MIN KMKG 041455Z 05004KT 10SM -RA OVC060 04/00 A2989 660 73 -400 060/04 RMK AO2 RAB40 SLP126 P0000 60000 T00440000 58007
14840KMKG MKG20071104100011011/04/07 10:00:31  5-MIN KMKG 041500Z 05007KT 10SM OVC060 04/00 A2988 670 73 -400 060/07 RMK AO2 RAE1459 P0000
14840KMKG MKG20071104100511011/04/07 10:05:31  5-MIN KMKG 041505Z 05005KT 10SM OVC060 04/00 A2988 670 73 -400 060/05 RMK AO2 RAE1459 P0000
14840KMKG MKG20071104101011011/04/07 10:10:31  5-MIN KMKG 041510Z 04003KT 10SM OVC060 04/00 A2988 670 73 -400 050/03 RMK AO2 RAE1459 P0000
14840KMKG MKG20071104101511011/04/07 10:15:31  5-MIN KMKG 041515Z 07004KT 10SM OVC060 04/00 A2988 660 73 -400 070/04 RMK AO2 RAE1459 P0000
14840KMKG MKG20071104102011011/04/07 10:20:31  5-MIN KMKG 041520Z 07006KT 10SM OVC065 04/00 A2988 670 73 -400 070/06 RMK AO2 RAE1459 P0000
14840KMKG MKG20071104102511011/04/07 10:25:31  5-MIN KMKG 041525Z VRB05KT 10SM OVC065 05/00 A2988 660 70 -300 VRB/05 RMK AO2 RAE1459 P0000
14840KMKG MKG20071104103011011/04/07 10:30:31  5-MIN KMKG 041530Z 07006KT 10SM OVC065 05/00 A2988 670 70 -300 070/06 RMK AO2 RAE1459 P0000
14840KMKG MKG20071104103511011/04/07 10:35:31  5-MIN KMKG 041535Z 06004KT 10SM OVC070 05/00 A2988 670 70 -300 070/04 RMK AO2 RAE1459 P0000
14840KMKG MKG20071104104011011/04/07 10:40:31  5-MIN KMKG 041540Z 00000KT 10SM OVC070 06/01 A2988 670 70 -200 000/00 RMK AO2 RAE1459 P0000
14840KMKG MKG20071104104511011/04/07 10:45:31  5-MIN KMKG 041545Z 12003KT 10SM OVC070 05/01 A2989 660 73 -300 120/03 RMK AO2 RAE1459 P0000
14840KMKG MKG20071104105012711/04/07 10:50:31  5-MIN KMKG 041550Z 13004KT 10SM OVC070 06/01 A2988 670 70 -200 130/04 RMK AO2 RAE1459 SLP124 P0000 T00560006
14840KMKG MKG20071104105512711/04/07 10:55:31  5-MIN KMKG 041555Z 13003KT 10SM OVC070 06/01 A2989 660 70 -200 130/03 RMK AO2 RAE1459 SLP126 P0000 T00560006
14840KMKG MKG20071104110009611/04/07 11:00:31  5-MIN KMKG 041600Z 12007KT 10SM OVC070 06/01 A2988 670 70 -200 130/07 RMK AO2
14840KMKG MKG20071104110509611/04/07 11:05:31  5-MIN KMKG 041605Z 13005KT 10SM BKN070 06/01 A2988 670 67 -200 130/05 RMK AO2
14840KMKG MKG20071104111009611/04/07 11:10:31  5-MIN KMKG 041610Z 13005KT 10SM BKN075 06/01 A2988 660 67 -200 130/05 RMK AO2
14840KMKG MKG20071104111509611/04/07 11:15:31  5-MIN KMKG 041615Z 12006KT 10SM BKN075 07/01 A2988 660 65 -100 130/06 RMK AO2
14840KMKG MKG20071104112009611/04/07 11:20:31  5-MIN KMKG 041620Z 14005KT 10SM BKN075 07/01 A2988 660 65 -100 150/05 RMK AO2
14840KMKG MKG20071104112509311/04/07 11:25:31  5-MIN KMKG 041625Z 14005KT 10SM BKN075 07/01 A2988 660 65 0 140/05 RMK AO2
14840KMKG MKG20071104113009311/04/07 11:30:31  5-MIN KMKG 041630Z 13005KT 10SM SCT080 07/01 A2988 670 62 0 140/05 RMK AO2
14840KMKG MKG20071104113509311/04/07 11:35:31  5-MIN KMKG 041635Z 13005KT 10SM SCT085 08/01 A2988 670 60 0 140/05 RMK AO2
14840KMKG MKG20071104114010011/04/07 11:40:31  5-MIN KMKG 041640Z 14005KT 10SM SCT080 BKN095 08/01 A2988 670 60 0 140/05 RMK AO2
14840KMKG MKG20071104114510211/04/07 11:45:31  5-MIN KMKG 041645Z 14004KT 10SM SCT080 BKN095 08/01 A2988 670 60 100 140/04 RMK AO2
14840KMKG MKG20071104115011211/04/07 11:50:31  5-MIN KMKG 041650Z 15004KT 10SM BKN085 09/01 A2987 670 58 100 150/04 RMK AO2 SLP121 T00890011
14840KMKG MKG20071104115511911/04/07 11:55:31  5-MIN KMKG 041655Z 13005KT 10SM BKN080 BKN095 08/01 A2987 670 60 100 140/05 RMK AO2 SLP120 T00830011
14840KMKG MKG20071104120010211/04/07 12:00:31  5-MIN KMKG 041700Z 15004KT 10SM BKN080 OVC090 08/01 A2987 680 60 100 150/04 RMK AO2
14840KMKG MKG20071104120509511/04/07 12:05:31  5-MIN KMKG 041705Z 14003KT 10SM OVC090 08/01 A2987 680 58 100 150/03 RMK AO2
14840KMKG MKG20071104121009511/04/07 12:10:31  5-MIN KMKG 041710Z 13003KT 10SM OVC090 09/01 A2987 680 56 100 130/03 RMK AO2
14840KMKG MKG20071104121509511/04/07 12:15:31  5-MIN KMKG 041715Z 00000KT 10SM OVC090 09/01 A2987 680 56 100 000/00 RMK AO2
14840KMKG MKG20071104122009511/04/07 12:20:31  5-MIN KMKG 041720Z 00000KT 10SM OVC090 09/01 A2987 680 56 100 000/00 RMK AO2
14840KMKG MKG20071104122509511/04/07 12:25:31  5-MIN KMKG 041725Z 00000KT 10SM OVC090 09/01 A2986 680 56 200 000/00 RMK AO2
14840KMKG MKG20071104123009511/04/07 12:30:31  5-MIN KMKG 041730Z 00000KT 10SM OVC090 09/01 A2986 680 53 200 000/00 RMK AO2
14840KMKG MKG20071104123509511/04/07 12:35:31  5-MIN KMKG 041735Z VRB03KT 10SM OVC090 10/01 A2986 690 52 300 VRB/03 RMK AO2
14840KMKG MKG20071104124009511/04/07 12:40:31  5-MIN KMKG 041740Z 00000KT 10SM OVC090 10/01 A2986 690 52 300 000/00 RMK AO2
14840KMKG MKG20071104124509511/04/07 12:45:31  5-MIN KMKG 041745Z 11003KT 10SM OVC090 10/01 A2986 690 52 300 120/03 RMK AO2
14840KMKG MKG20071104125014311/04/07 12:50:31  5-MIN KMKG 041750Z 00000KT 10SM SCT075 OVC090 10/00 A2986 690 49 300 000/00 RMK AO2 SLP116 60000 T01000000 10100 20022 58007
14840KMKG MKG20071104125514311/04/07 12:55:31  5-MIN KMKG 041755Z 00000KT 10SM FEW075 SCT090 10/00 A2986 690 49 300 000/00 RMK AO2 SLP115 60000 T01000000 10100 20022 58009
14840KMKG MKG20071104130010211/04/07 13:00:31  5-MIN KMKG 041800Z 00000KT 10SM BKN080 OVC090 10/00 A2986 690 49 300 000/00 RMK AO2
14840KMKG MKG20071104130510211/04/07 13:05:31  5-MIN KMKG 041805Z 00000KT 10SM BKN080 OVC090 11/00 A2986 690 48 400 000/00 RMK AO2
14840KMKG MKG20071104131011111/04/07 13:10:31  5-MIN KMKG 041810Z 00000KT 10SM OVC085 10/M01 A2986 690 47 300 000/00 RMK AO2 CIG 070 RWY 14
14840KMKG MKG20071104131509611/04/07 13:15:31  5-MIN KMKG 041815Z 00000KT 10SM OVC085 10/M01 A2986 690 47 300 000/00 RMK AO2
14840KMKG MKG20071104132009611/04/07 13:20:31  5-MIN KMKG 041820Z 00000KT 10SM OVC085 10/M01 A2986 690 47 300 000/00 RMK AO2
14840KMKG MKG20071104132509611/04/07 13:25:31  5-MIN KMKG 041825Z VRB03KT 10SM OVC080 11/M01 A2986 690 46 400 VRB/03 RMK AO2
14840KMKG MKG20071104133009611/04/07 13:30:31  5-MIN KMKG 041830Z 33003KT 10SM OVC080 11/M01 A2986 690 44 400 330/03 RMK AO2
14840KMKG MKG20071104133510311/04/07 13:35:31  5-MIN KMKG 041835Z 32005KT 10SM BKN080 OVC090 10/M01 A2986 690 46 300 320/05 RMK AO2
14840KMKG MKG20071104134010311/04/07 13:40:31  5-MIN KMKG 041840Z 32004KT 10SM FEW042 OVC080 11/M01 A2986 690 44 400 330/04 RMK AO2
14840KMKG MKG20071104134510311/04/07 13:45:31  5-MIN KMKG 041845Z 00000KT 10SM FEW042 OVC080 11/M01 A2986 690 46 400 000/00 RMK AO2
14840KMKG MKG20071104135012011/04/07 13:50:31  5-MIN KMKG 041850Z 33003KT 10SM FEW042 BKN080 11/M01 A2986 690 46 400 340/03 RMK AO2 SLP114 T01061006
14840KMKG MKG20071104135512011/04/07 13:55:31  5-MIN KMKG 041855Z VRB03KT 10SM FEW042 BKN080 10/M01 A2985 690 47 300 VRB/03 RMK AO2 SLP113 T01001006
14840KMKG MKG20071104140010911/04/07 14:00:31  5-MIN KMKG 041900Z 33005KT 10SM FEW042 BKN075 BKN090 11/00 A2985 690 48 400 340/05 RMK AO2
14840KMKG MKG20071104140510911/04/07 14:05:31  5-MIN KMKG 041905Z 36003KT 10SM FEW042 BKN075 BKN090 11/00 A2985 700 46 400 360/03 RMK AO2
14840KMKG MKG20071104141010211/04/07 14:10:31  5-MIN KMKG 041910Z 32004KT 10SM BKN070 BKN085 11/00 A2985 690 46 400 320/04 RMK AO2
14840KMKG MKG20071104141510211/04/07 14:15:31  5-MIN KMKG 041915Z 29005KT 10SM BKN070 BKN090 11/00 A2985 700 48 400 290/05 RMK AO2
14840KMKG MKG20071104142010211/04/07 14:20:31  5-MIN KMKG 041920Z 32003KT 10SM BKN070 BKN090 11/00 A2985 700 48 400 330/03 RMK AO2
14840KMKG MKG20071104142510311/04/07 14:25:31  5-MIN KMKG 041925Z 34005KT 10SM BKN070 OVC090 11/M01 A2985 690 46 400 340/05 RMK AO2
14840KMKG MKG20071104143009511/04/07 14:30:31  5-MIN KMKG 041930Z 31005KT 10SM OVC065 11/00 A2985 690 48 400 310/05 RMK AO2
14840KMKG MKG20071104143509611/04/07 14:35:31  5-MIN KMKG 041935Z 30005KT 10SM OVC065 10/M01 A2985 690 47 300 310/05 RMK AO2
14840KMKG MKG20071104144009511/04/07 14:40:31  5-MIN KMKG 041940Z 31005KT 10SM OVC060 11/00 A2985 690 48 400 320/05 RMK AO2
14840KMKG MKG20071104144509611/04/07 14:45:31  5-MIN KMKG 041945Z 32007KT 10SM OVC060 11/M01 A2986 690 46 400 330/07 RMK AO2
14840KMKG MKG20071104145012011/04/07 14:50:31  5-MIN KMKG 041950Z 35006KT 10SM BKN060 OVC085 10/M01 A2986 690 47 300 350/06 RMK AO2 SLP114 T01001006
14840KMKG MKG20071104145512011/04/07 14:55:31  5-MIN KMKG 041955Z 32005KT 10SM BKN060 OVC090 10/M01 A2986 690 47 300 330/05 RMK AO2 SLP114 T01001006
14840KMKG MKG20071104150010311/04/07 15:00:31  5-MIN KMKG 042000Z 29006KT 10SM BKN060 BKN090 10/M01 A2986 690 47 300 290/06 RMK AO2
14840KMKG MKG20071104150510211/04/07 15:05:31  5-MIN KMKG 042005Z 30006KT 10SM BKN060 BKN090 10/00 A2986 690 49 300 300/06 RMK AO2
14840KMKG MKG20071104151010211/04/07 15:10:31  5-MIN KMKG 042010Z 32003KT 10SM BKN060 OVC090 10/00 A2985 690 49 300 320/03 RMK AO2
14840KMKG MKG20071104151510211/04/07 15:15:31  5-MIN KMKG 042015Z 32004KT 10SM BKN060 OVC090 10/00 A2986 690 49 300 320/04 RMK AO2
14840KMKG MKG20071104152010211/04/07 15:20:31  5-MIN KMKG 042020Z 31004KT 10SM BKN060 OVC090 10/00 A2986 690 49 300 310/04 RMK AO2
14840KMKG MKG20071104152509511/04/07 15:25:31  5-MIN KMKG 042025Z 30004KT 10SM OVC060 10/00 A2986 690 49 300 310/04 RMK AO2
14840KMKG MKG20071104153010211/04/07 15:30:31  5-MIN KMKG 042030Z 33006KT 10SM BKN060 OVC080 11/00 A2986 690 48 400 330/06 RMK AO2
14840KMKG MKG20071104153510211/04/07 15:35:31  5-MIN KMKG 042035Z 32006KT 10SM BKN060 BKN080 11/00 A2986 690 48 400 330/06 RMK AO2
14840KMKG MKG20071104154009511/04/07 15:40:31  5-MIN KMKG 042040Z 32006KT 10SM BKN060 11/00 A2986 690 48 400 320/06 RMK AO2
14840KMKG MKG20071104154509511/04/07 15:45:31  5-MIN KMKG 042045Z 31005KT 10SM OVC065 11/01 A2986 690 50 400 310/05 RMK AO2
14840KMKG MKG20071104155011811/04/07 15:50:31  5-MIN KMKG 042050Z 29006KT 10SM OVC060 10/01 A2986 680 52 300 300/06 RMK AO2 SLP116 T01000006 58009
14840KMKG MKG20071104155511811/04/07 15:55:31  5-MIN KMKG 042055Z 30004KT 10SM BKN060 10/01 A2986 680 52 300 300/04 RMK AO2 SLP117 T01000006 53001
14840KMKG MKG20071104160009511/04/07 16:00:31  5-MIN KMKG 042100Z 29006KT 10SM BKN065 10/01 A2987 680 52 300 300/06 RMK AO2
14840KMKG MKG20071104160509511/04/07 16:05:31  5-MIN KMKG 042105Z 29006KT 10SM OVC060 09/01 A2987 680 53 200 290/06 RMK AO2
14840KMKG MKG20071104161009511/04/07 16:10:31  5-MIN KMKG 042110Z 31004KT 10SM OVC060 09/01 A2987 680 53 200 310/04 RMK AO2
14840KMKG MKG20071104161510211/04/07 16:15:31  5-MIN KMKG 042115Z 30003KT 10SM BKN055 OVC070 09/01 A2987 680 53 200 300/03 RMK AO2
14840KMKG MKG20071104162009511/04/07 16:20:31  5-MIN KMKG 042120Z 30004KT 10SM OVC060 09/01 A2987 680 56 200 310/04 RMK AO2
14840KMKG MKG20071104162510211/04/07 16:25:31  5-MIN KMKG 042125Z 29005KT 10SM BKN055 OVC065 09/01 A2987 670 58 100 290/05 RMK AO2
14840KMKG MKG20071104163009511/04/07 16:30:31  5-MIN KMKG 042130Z 29006KT 10SM OVC060 09/01 A2988 670 56 200 290/06 RMK AO2
14840KMKG MKG20071104163509511/04/07 16:35:31  5-MIN KMKG 042135Z 29006KT 10SM OVC060 09/01 A2988 670 56 200 290/06 RMK AO2
14840KMKG MKG20071104164009511/04/07 16:40:31  5-MIN KMKG 042140Z 29005KT 10SM OVC060 09/01 A2988 670 58 100 290/05 RMK AO2
14840KMKG MKG20071104164509511/04/07 16:45:31  5-MIN KMKG 042145Z 29004KT 10SM OVC055 09/01 A2988 670 56 200 290/04 RMK AO2
14840KMKG MKG20071104165011211/04/07 16:50:31  5-MIN KMKG 042150Z 29005KT 10SM OVC060 09/01 A2988 670 58 100 290/05 RMK AO2 SLP122 T00890011
14840KMKG MKG20071104165511211/04/07 16:55:31  5-MIN KMKG 042155Z 30004KT 10SM OVC060 09/01 A2988 670 58 100 300/04 RMK AO2 SLP122 T00890011
14840KMKG MKG20071104170009511/04/07 17:00:31  5-MIN KMKG 042200Z 30003KT 10SM OVC060 09/01 A2988 670 58 100 300/03 RMK AO2
14840KMKG MKG20071104170509511/04/07 17:05:31  5-MIN KMKG 042205Z 30004KT 10SM OVC060 09/01 A2988 670 58 100 310/04 RMK AO2
14840KMKG MKG20071104171009511/04/07 17:10:31  5-MIN KMKG 042210Z 31006KT 10SM OVC060 09/01 A2988 670 58 100 310/06 RMK AO2
14840KMKG MKG20071104171509511/04/07 17:15:31  5-MIN KMKG 042215Z 31005KT 10SM OVC060 09/02 A2988 670 60 100 320/05 RMK AO2
14840KMKG MKG20071104172009511/04/07 17:20:31  5-MIN KMKG 042220Z 32006KT 10SM OVC060 09/02 A2988 670 60 100 320/06 RMK AO2
14840KMKG MKG20071104172509511/04/07 17:25:31  5-MIN KMKG 042225Z 31004KT 10SM OVC055 09/02 A2988 660 60 100 310/04 RMK AO2
14840KMKG MKG20071104173009511/04/07 17:30:31  5-MIN KMKG 042230Z 32004KT 10SM OVC055 09/02 A2988 660 60 100 320/04 RMK AO2
14840KMKG MKG20071104173509511/04/07 17:35:31  5-MIN KMKG 042235Z 30003KT 10SM OVC055 08/02 A2988 660 63 100 300/03 RMK AO2
14840KMKG MKG20071104174009511/04/07 17:40:31  5-MIN KMKG 042240Z 00000KT 10SM OVC055 08/02 A2989 660 63 100 000/00 RMK AO2
14840KMKG MKG20071104174509511/04/07 17:45:31  5-MIN KMKG 042245Z 28003KT 10SM OVC055 08/02 A2989 660 63 100 290/03 RMK AO2
14840KMKG MKG20071104175011911/04/07 17:50:31  5-MIN KMKG 042250Z 27003KT 10SM FEW037 OVC055 08/02 A2989 660 63 100 270/03 RMK AO2 SLP125 T00830017
14840KMKG MKG20071104175512611/04/07 17:55:31  5-MIN KMKG 042255Z 27003KT 10SM FEW037 SCT047 OVC055 08/02 A2989 660 63 100 270/03 RMK AO2 SLP126 T00830017
14840KMKG MKG20071104180010911/04/07 18:00:31  5-MIN KMKG 042300Z 28003KT 10SM SCT040 BKN048 OVC055 08/02 A2989 660 63 100 280/03 RMK AO2
14840KMKG MKG20071104180510911/04/07 18:05:31  5-MIN KMKG 042305Z 28003KT 10SM BKN038 BKN048 OVC055 08/02 A2989 660 63 100 280/03 RMK AO2
14840KMKG MKG20071104181012511/04/07 18:10:31  5-MIN KMKG 042310Z 29003KT 10SM -RA BKN038 BKN048 OVC055 08/02 A2989 660 65 100 290/03 RMK AO2 RAB08 P0000
14840KMKG MKG20071104181512511/04/07 18:15:31  5-MIN KMKG 042315Z 29003KT 10SM -RA BKN038 BKN047 OVC055 08/02 A2989 660 65 100 290/03 RMK AO2 RAB08 P0000
14840KMKG MKG20071104182012411/04/07 18:20:31  5-MIN KMKG 042320Z 29004KT 10SM BKN040 BKN047 OVC055 08/02 A2989 660 65 100 290/04 RMK AO2 RAB08E19 P0000
14840KMKG MKG20071104182512311/04/07 18:25:31  5-MIN KMKG 042325Z 28005KT 10SM -RA SCT037 BKN047 OVC055 08/03 A2989 660 70 0 280/05 RMK AO2 RAB08 P0000
14840KMKG MKG20071104183011811/04/07 18:30:31  5-MIN KMKG 042330Z 28007KT 10SM -RA SCT039 OVC047 08/03 A2989 660 68 100 280/07 RMK AO2 RAB08 P0000
14840KMKG MKG20071104183512311/04/07 18:35:31  5-MIN KMKG 042335Z 27004KT 10SM -RA FEW029 BKN048 OVC055 08/03 A2989 660 73 0 280/04 RMK AO2 RAB08 P0000
14840KMKG MKG20071104184012311/04/07 18:40:31  5-MIN KMKG 042340Z 29005KT 10SM -RA FEW027 BKN045 OVC055 08/04 A2989 660 76 0 290/05 RMK AO2 RAB08 P0000
14840KMKG MKG20071104184510911/04/07 18:45:31  5-MIN KMKG 042345Z 28005KT 10SM -RA BKN045 07/04 A2989 660 79 0 280/05 RMK AO2 RAB08 P0000
14840KMKG MKG20071104185014911/04/07 18:50:31  5-MIN KMKG 042350Z 26003KT 10SM BKN045 07/04 A2989 650 79 0 260/03 RMK AO2 RAB08E47 SLP128 P0000 60000 T00720039 10111 20072 53001
14840KMKG MKG20071104185514911/04/07 18:55:31  5-MIN KMKG 042355Z 26003KT 10SM OVC045 07/04 A2989 650 79 0 260/03 RMK AO2 RAB08E47 SLP128 P0000 60000 T00720039 10111 20072 51011
14840KMKG MKG20071104190010011/04/07 19:00:31  5-MIN KMKG 050000Z 00000KT 10SM BKN047 OVC065 07/04 A2989 660 79 0 000/00 RMK AO2
14840KMKG MKG20071104190510011/04/07 19:05:31  5-MIN KMKG 050005Z 00000KT 10SM BKN047 OVC060 07/04 A2989 660 79 0 000/00 RMK AO2
14840KMKG MKG20071104191010011/04/07 19:10:31  5-MIN KMKG 050010Z 00000KT 10SM SCT047 OVC065 07/04 A2989 660 79 0 000/00 RMK AO2
14840KMKG MKG20071104191510011/04/07 19:15:31  5-MIN KMKG 050015Z 00000KT 10SM SCT047 OVC065 07/04 A2989 650 79 0 000/00 RMK AO2
14840KMKG MKG20071104192010011/04/07 19:20:31  5-MIN KMKG 050020Z 00000KT 10SM FEW047 OVC060 07/04 A2989 660 79 0 000/00 RMK AO2
14840KMKG MKG20071104192510011/04/07 19:25:31  5-MIN KMKG 050025Z 00000KT 10SM FEW049 BKN060 07/04 A2989 660 79 0 000/00 RMK AO2
14840KMKG MKG20071104193009611/04/07 19:30:31  5-MIN KMKG 050030Z 00000KT 10SM BKN065 07/04 A2989 660 86 -100 000/00 RMK AO2
14840KMKG MKG20071104193509611/04/07 19:35:31  5-MIN KMKG 050035Z 00000KT 10SM SCT060 07/04 A2989 660 82 -100 000/00 RMK AO2
14840KMKG MKG20071104194009611/04/07 19:40:31  5-MIN KMKG 050040Z 00000KT 10SM FEW060 06/04 A2989 660 89 -200 000/00 RMK AO2
14840KMKG MKG20071104194509611/04/07 19:45:31  5-MIN KMKG 050045Z 00000KT 10SM FEW060 05/03 A2989 660 89 -300 000/00 RMK AO2
14840KMKG MKG20071104195011011/04/07 19:50:31  5-MIN KMKG 050050Z 00000KT 10SM CLR 04/03 A2989 660 92 -400 000/00 RMK AO2 SLP127 T00440033
14840KMKG MKG20071104195511311/04/07 19:55:31  5-MIN KMKG 050055Z 00000KT 10SM FEW065 05/03 A2989 660 89 -300 000/00 RMK AO2 SLP128 T00500033
14840KMKG MKG20071104200009311/04/07 20:00:31  5-MIN KMKG 050100Z 00000KT 10SM CLR 04/03 A2989 650 92 -400 000/00 RMK AO2
14840KMKG MKG20071104200509311/04/07 20:05:31  5-MIN KMKG 050105Z 00000KT 10SM CLR 05/03 A2989 650 89 -300 000/00 RMK AO2
14840KMKG MKG20071104201009311/04/07 20:10:31  5-MIN KMKG 050110Z 00000KT 10SM CLR 05/03 A2989 660 89 -300 000/00 RMK AO2
14840KMKG MKG20071104201509311/04/07 20:15:31  5-MIN KMKG 050115Z 16003KT 10SM CLR 05/03 A2989 660 89 -300 170/03 RMK AO2
14840KMKG MKG20071104202009311/04/07 20:20:31  5-MIN KMKG 050120Z 00000KT 10SM CLR 04/03 A2989 660 92 -400 000/00 RMK AO2
14840KMKG MKG20071104202509511/04/07 20:25:31  5-MIN KMKG 050125Z 00000KT 4SM BR CLR 03/02 A2989 660 92 -500 000/00 RMK AO2
14840KMKG MKG20071104203009511/04/07 20:30:31  5-MIN KMKG 050130Z 00000KT 3SM BR CLR 03/02 A2989 660 92 -500 000/00 RMK AO2
14840KMKG MKG20071104203509211/04/07 20:35:31  5-MIN KMKG 050135Z 00000KT 7SM CLR 03/02 A2989 660 92 -500 000/00 RMK AO2
14840KMKG MKG20071104204009311/04/07 20:40:31  5-MIN KMKG 050140Z 00000KT 10SM CLR 03/02 A2989 660 92 -500 000/00 RMK AO2
14840KMKG MKG20071104204509211/04/07 20:45:31  5-MIN KMKG 050145Z 00000KT 9SM CLR 03/02 A2989 660 92 -500 000/00 RMK AO2
14840KMKG MKG20071104205010911/04/07 20:50:31  5-MIN KMKG 050150Z 00000KT 9SM CLR 03/02 A2989 660 96 -600 000/00 RMK AO2 SLP126 T00280022
14840KMKG MKG20071104205510911/04/07 20:55:31  5-MIN KMKG 050155Z 00000KT 8SM CLR 02/02 A2989 660 96 -600 000/00 RMK AO2 SLP126 T00220017
14840KMKG MKG20071104210009211/04/07 21:00:31  5-MIN KMKG 050200Z 00000KT 8SM CLR 03/02 A2989 660 92 -600 000/00 RMK AO2
14840KMKG MKG20071104210509211/04/07 21:05:31  5-MIN KMKG 050205Z 00000KT 8SM CLR 03/02 A2989 660 96 -600 000/00 RMK AO2
14840KMKG MKG20071104211009211/04/07 21:10:31  5-MIN KMKG 050210Z 00000KT 8SM CLR 03/02 A2988 660 92 -600 000/00 RMK AO2
14840KMKG MKG20071104211509211/04/07 21:15:31  5-MIN KMKG 050215Z 14003KT 7SM CLR 02/02 A2988 660 96 -600 140/03 RMK AO2
14840KMKG MKG20071104212009211/04/07 21:20:31  5-MIN KMKG 050220Z 13004KT 8SM CLR 02/01 A2988 670 92 -600 130/04 RMK AO2
14840KMKG MKG20071104212509211/04/07 21:25:31  5-MIN KMKG 050225Z 12004KT 8SM CLR 02/01 A2989 660 96 -700 120/04 RMK AO2
14840KMKG MKG20071104213009211/04/07 21:30:31  5-MIN KMKG 050230Z 12004KT 8SM CLR 02/01 A2989 660 92 -700 130/04 RMK AO2
14840KMKG MKG20071104213509211/04/07 21:35:31  5-MIN KMKG 050235Z 12004KT 8SM CLR 02/01 A2988 660 92 -600 120/04 RMK AO2
14840KMKG MKG20071104214009211/04/07 21:40:31  5-MIN KMKG 050240Z 12003KT 9SM CLR 02/01 A2989 660 92 -600 130/03 RMK AO2
14840KMKG MKG20071104214509311/04/07 21:45:31  5-MIN KMKG 050245Z 11003KT 10SM CLR 02/01 A2988 660 92 -600 120/03 RMK AO2
14840KMKG MKG20071104215011611/04/07 21:50:31  5-MIN KMKG 050250Z 12003KT 10SM CLR 02/01 A2988 660 92 -600 130/03 RMK AO2 SLP125 T00220011 51011
14840KMKG MKG20071104215511611/04/07 21:55:31  5-MIN KMKG 050255Z 12003KT 10SM CLR 03/01 A2988 670 89 -600 120/03 RMK AO2 SLP124 T00280011 58004
14840KMKG MKG20071104220009311/04/07 22:00:31  5-MIN KMKG 050300Z 13004KT 10SM CLR 03/01 A2988 670 89 -600 130/04 RMK AO2
14840KMKG MKG20071104220509311/04/07 22:05:31  5-MIN KMKG 050305Z 14003KT 10SM CLR 02/01 A2988 670 92 -600 140/03 RMK AO2
14840KMKG MKG20071104221009211/04/07 22:10:31  5-MIN KMKG 050310Z 13003KT 9SM CLR 02/01 A2988 670 92 -600 140/03 RMK AO2
14840KMKG MKG20071104221509211/04/07 22:15:31  5-MIN KMKG 050315Z 13005KT 9SM CLR 02/01 A2988 670 92 -600 140/05 RMK AO2
14840KMKG MKG20071104222009211/04/07 22:20:31  5-MIN KMKG 050320Z 14004KT 9SM CLR 02/01 A2988 670 92 -600 140/04 RMK AO2
14840KMKG MKG20071104222509311/04/07 22:25:31  5-MIN KMKG 050325Z 13004KT 10SM CLR 03/01 A2987 670 89 -600 140/04 RMK AO2
14840KMKG MKG20071104223009311/04/07 22:30:31  5-MIN KMKG 050330Z 13005KT 10SM CLR 03/01 A2987 670 89 -600 130/05 RMK AO2
14840KMKG MKG20071104223509311/04/07 22:35:31  5-MIN KMKG 050335Z 13005KT 10SM CLR 03/01 A2987 680 89 -600 130/05 RMK AO2
14840KMKG MKG20071104224009311/04/07 22:40:31  5-MIN KMKG 050340Z 13005KT 10SM CLR 03/01 A2987 680 89 -600 140/05 RMK AO2
14840KMKG MKG20071104224509311/04/07 22:45:31  5-MIN KMKG 050345Z 14005KT 10SM CLR 03/02 A2987 680 89 -500 140/05 RMK AO2
14840KMKG MKG20071104225011011/04/07 22:50:31  5-MIN KMKG 050350Z 13005KT 10SM CLR 03/02 A2987 680 89 -500 140/05 RMK AO2 SLP119 T00330017
14840KMKG MKG20071104225511311/04/07 22:55:31  5-MIN KMKG 050355Z 13005KT 10SM FEW120 03/02 A2987 680 89 -500 130/05 RMK AO2 SLP119 T00330017
14840KMKG MKG20071104230009511/04/07 23:00:31  5-MIN KMKG 050400Z 13005KT 9SM SCT120 03/02 A2987 680 92 -500 130/05 RMK AO2
14840KMKG MKG20071104230509511/04/07 23:05:31  5-MIN KMKG 050405Z 13005KT 9SM BKN120 03/02 A2987 680 92 -500 130/05 RMK AO2
14840KMKG MKG20071104231009511/04/07 23:10:31  5-MIN KMKG 050410Z 14004KT 9SM SCT120 04/02 A2987 680 89 -400 140/04 RMK AO2
14840KMKG MKG20071104231509511/04/07 23:15:31  5-MIN KMKG 050415Z 13004KT 9SM SCT120 04/02 A2987 680 89 -400 140/04 RMK AO2
14840KMKG MKG20071104232009611/04/07 23:20:31  5-MIN KMKG 050420Z 13004KT 10SM BKN120 04/02 A2986 680 85 -300 140/04 RMK AO2
14840KMKG MKG20071104232509611/04/07 23:25:31  5-MIN KMKG 050425Z 00000KT 10SM BKN120 04/02 A2986 680 85 -300 000/00 RMK AO2
14840KMKG MKG20071104233009511/04/07 23:30:31  5-MIN KMKG 050430Z 00000KT 9SM BKN120 04/02 A2987 680 85 -300 000/00 RMK AO2
14840KMKG MKG20071104233509511/04/07 23:35:31  5-MIN KMKG 050435Z 00000KT 9SM BKN120 04/02 A2987 680 85 -300 000/00 RMK AO2
14840KMKG MKG20071104234009511/04/07 23:40:31  5-MIN KMKG 050440Z 00000KT 9SM BKN120 04/02 A2987 680 85 -300 000/00 RMK AO2
14840KMKG MKG20071104234509511/04/07 23:45:31  5-MIN KMKG 050445Z 00000KT 9SM OVC110 05/02 A2987 670 82 -300 000/00 RMK AO2
14840KMKG MKG20071104235013011/04/07 23:50:31  5-MIN KMKG 050450Z 16003KT 10SM BKN100 OVC120 05/03 A2987 680 85 -300 160/03 RMK AO2 SLP119 T00500028 401111006
14840KMKG MKG20071104235513011/04/07 23:55:31  5-MIN KMKG 050455Z 13003KT 10SM BKN100 OVC120 05/03 A2987 680 85 -300 140/03 RMK AO2 SLP119 T00500028 401111006
14840KMKG MKG20071105000010311/05/07 00:00:32  5-MIN KMKG 050500Z 00000KT 10SM BKN100 OVC120 05/03 A2987 670 85 -300 000/00 RMK AO2
14840KMKG MKG20071105000510211/05/07 00:05:31  5-MIN KMKG 050505Z 00000KT 9SM BKN090 OVC110 05/03 A2987 670 85 -300 000/00 RMK AO2
14840KMKG MKG20071105001010211/05/07 00:10:31  5-MIN KMKG 050510Z 11003KT 8SM BKN080 OVC100 05/03 A2987 670 89 -300 120/03 RMK AO2
14840KMKG MKG20071105001511711/05/07 00:15:31  5-MIN KMKG 050515Z 13004KT 8SM SCT080 BKN100 05/03 A2987 680 89 -300 130/04 RMK AO2 CIG 075 RWY 14
14840KMKG MKG20071105002009511/05/07 00:20:31  5-MIN KMKG 050520Z 12005KT 9SM BKN085 05/03 A2987 680 89 -300 130/05 RMK AO2
14840KMKG MKG20071105002510211/05/07 00:25:31  5-MIN KMKG 050525Z 11006KT 9SM SCT080 SCT100 05/03 A2987 680 89 -300 110/06 RMK AO2
14840KMKG MKG20071105003011711/05/07 00:30:31  5-MIN KMKG 050530Z 08004KT 9SM SCT080 BKN095 06/03 A2986 680 85 -200 090/04 RMK AO2 CIG 080 RWY 14
14840KMKG MKG20071105003511711/05/07 00:35:31  5-MIN KMKG 050535Z 07004KT 9SM SCT080 BKN095 06/03 A2986 680 85 -200 070/04 RMK AO2 CIG 075 RWY 14
14840KMKG MKG20071105004010311/05/07 00:40:31  5-MIN KMKG 050540Z 10004KT 10SM BKN085 BKN110 06/03 A2986 690 85 -200 100/04 RMK AO2
14840KMKG MKG20071105004510311/05/07 00:45:31  5-MIN KMKG 050545Z 11004KT 10SM BKN095 BKN110 06/03 A2986 690 85 -200 120/04 RMK AO2
14840KMKG MKG20071105005013811/05/07 00:50:31  5-MIN KMKG 050550Z 11005KT 10SM BKN095 OVC120 05/03 A2985 690 89 -300 110/05 RMK AO2 SLP113 T00500033 10072 20011 58004
14840KMKG MKG20071105005513711/05/07 00:55:31  5-MIN KMKG 050555Z 11005KT 9SM BKN095 OVC120 05/03 A2985 690 89 -300 120/05 RMK AO2 SLP112 T00500033 10072 20011 58010
14840KMKG MKG20071105010010211/05/07 01:00:31  5-MIN KMKG 050600Z 13007KT 9SM FEW080 OVC110 05/03 A2985 690 89 -300 130/07 RMK AO2
14840KMKG MKG20071105010509511/05/07 01:05:31  5-MIN KMKG 050605Z 13006KT 9SM BKN110 06/03 A2985 700 85 -200 140/06 RMK AO2
14840KMKG MKG20071105011011811/05/07 01:10:31  5-MIN KMKG 050610Z 13007KT 10SM SCT100 BKN120 06/03 A2984 700 85 -200 130/07 RMK AO2 CIG 100 RWY 14
14840KMKG MKG20071105011509611/05/07 01:15:31  5-MIN KMKG 050615Z 13007KT 10SM BKN110 06/03 A2984 710 85 -200 130/07 RMK AO2
14840KMKG MKG20071105012009511/05/07 01:20:31  5-MIN KMKG 050620Z 13008KT 9SM BKN110 06/03 A2983 710 85 -200 140/08 RMK AO2
14840KMKG MKG20071105012510211/05/07 01:25:31  5-MIN KMKG 050625Z 14008KT 9SM FEW090 SCT110 06/03 A2983 710 85 -200 150/08 RMK AO2
14840KMKG MKG20071105013009611/05/07 01:30:31  5-MIN KMKG 050630Z 15007KT 10SM FEW090 06/03 A2983 720 82 -100 150/07 RMK AO2
14840KMKG MKG20071105013509611/05/07 01:35:31  5-MIN KMKG 050635Z 15008KT 10SM FEW090 06/03 A2982 720 82 -100 150/08 RMK AO2
14840KMKG MKG20071105014009611/05/07 01:40:31  5-MIN KMKG 050640Z 14008KT 10SM FEW090 06/03 A2982 730 79 -100 140/08 RMK AO2
14840KMKG MKG20071105014510311/05/07 01:45:31  5-MIN KMKG 050645Z 14009KT 10SM FEW090 SCT110 06/03 A2981 730 79 -100 140/09 RMK AO2
14840KMKG MKG20071105015012011/05/07 01:50:31  5-MIN KMKG 050650Z 15008KT 10SM FEW090 BKN110 06/03 A2981 730 82 -100 150/08 RMK AO2 SLP099 T00610033
14840KMKG MKG20071105015511311/05/07 01:55:31  5-MIN KMKG 050655Z 15008KT 10SM SCT110 06/03 A2981 730 79 -100 150/08 RMK AO2 SLP099 T00610028
14840KMKG MKG20071105020009611/05/07 02:00:31  5-MIN KMKG 050700Z 14009KT 10SM SCT110 06/03 A2981 740 79 -100 150/09 RMK AO2
14840KMKG MKG20071105020509611/05/07 02:05:31  5-MIN KMKG 050705Z 15009KT 10SM SCT110 06/03 A2980 740 79 -100 150/09 RMK AO2
14840KMKG MKG20071105021009311/05/07 02:10:31  5-MIN KMKG 050710Z 15008KT 10SM SCT110 07/03 A2980 740 76 0 160/08 RMK AO2
14840KMKG MKG20071105021509311/05/07 02:15:31  5-MIN KMKG 050715Z 15009KT 10SM FEW110 07/03 A2979 750 76 0 160/09 RMK AO2
14840KMKG MKG20071105022010011/05/07 02:20:31  5-MIN KMKG 050720Z 15009KT 10SM FEW090 07/03 A2979 760 76 0 150/09 RMK AO2 PRESFR
14840KMKG MKG20071105022509311/05/07 02:25:31  5-MIN KMKG 050725Z 14009KT 10SM SCT090 07/03 A2978 760 79 0 150/09 RMK AO2
14840KMKG MKG20071105023009311/05/07 02:30:31  5-MIN KMKG 050730Z 14009KT 10SM BKN090 07/03 A2978 760 73 0 150/09 RMK AO2
14840KMKG MKG20071105023509511/05/07 02:35:31  5-MIN KMKG 050735Z 15010KT 10SM BKN085 07/03 A2977 770 73 100 150/10 RMK AO2
14840KMKG MKG20071105024009511/05/07 02:40:31  5-MIN KMKG 050740Z 15007KT 10SM BKN085 07/03 A2977 770 73 100 150/07 RMK AO2
14840KMKG MKG20071105024509311/05/07 02:45:31  5-MIN KMKG 050745Z 15009KT 10SM OVC085 07/03 A2978 760 73 0 160/09 RMK AO2
14840KMKG MKG20071105025011011/05/07 02:50:31  5-MIN KMKG 050750Z 16008KT 10SM BKN080 07/03 A2978 760 73 0 160/08 RMK AO2 SLP087 T00720028
14840KMKG MKG20071105025511211/05/07 02:55:31  5-MIN KMKG 050755Z 14008KT 10SM BKN080 07/02 A2977 770 70 100 150/08 RMK AO2 SLP083 T00720022
14840KMKG MKG20071105030010211/05/07 03:00:31  5-MIN KMKG 050800Z 16007KT 10SM BKN075 BKN090 07/02 A2977 770 70 100 160/07 RMK AO2
14840KMKG MKG20071105030511811/05/07 03:05:31  5-MIN KMKG 050805Z 16009KT 10SM -RA BKN075 BKN090 07/02 A2977 770 70 100 160/09 RMK AO2 RAB01 P0000
14840KMKG MKG20071105031013211/05/07 03:10:31  5-MIN KMKG 050810Z 14009KT 10SM SCT070 BKN090 07/02 A2976 780 70 100 150/09 RMK AO2 RAB01E10 CIG 070 RWY 14 P0000
14840KMKG MKG20071105031513711/05/07 03:15:31  5-MIN KMKG 050815Z 13010KT 10SM SCT070 BKN085 07/02 A2975 790 73 0 130/10 RMK AO2 RAB01E10 CIG 070 RWY 14 PRESFR P0000
14840KMKG MKG20071105032013011/05/07 03:20:31  5-MIN KMKG 050820Z 15008KT 10SM SCT070 BKN090 07/02 A2976 780 73 0 160/08 RMK AO2 RAB01E10 CIG 070 RWY 14 P0000
14840KMKG MKG20071105032513011/05/07 03:25:31  5-MIN KMKG 050825Z 15007KT 10SM FEW070 BKN090 07/02 A2975 780 73 0 160/07 RMK AO2 RAB01E10 CIG 070 RWY 14 P0000
14840KMKG MKG20071105033011711/05/07 03:30:31  5-MIN KMKG 050830Z 15007KT 10SM FEW070 BKN090 07/02 A2975 790 68 100 150/07 RMK AO2 RAB01E10 P0000
14840KMKG MKG20071105033510811/05/07 03:35:31  5-MIN KMKG 050835Z 15008KT 10SM BKN085 07/02 A2975 790 70 0 150/08 RMK AO2 RAB01E10 P0000
14840KMKG MKG20071105034011011/05/07 03:40:31  5-MIN KMKG 050840Z 15008KT 10SM OVC090 07/02 A2974 790 68 100 150/08 RMK AO2 RAB01E10 P0000
14840KMKG MKG20071105034510811/05/07 03:45:31  5-MIN KMKG 050845Z 15007KT 10SM OVC090 07/02 A2975 790 70 0 160/07 RMK AO2 RAB01E10 P0000
14840KMKG MKG20071105035013711/05/07 03:50:31  5-MIN KMKG 050850Z 15009KT 10SM OVC090 07/02 A2975 790 70 0 150/09 RMK AO2 RAB01E10 SLP076 P0000 60000 T00670017 58010
14840KMKG MKG20071105035513711/05/07 03:55:31  5-MIN KMKG 050855Z 14009KT 10SM OVC085 07/02 A2973 800 70 0 140/09 RMK AO2 RAB01E10 SLP072 P0000 60000 T00670017 56039
14840KMKG MKG20071105040009311/05/07 04:00:31  5-MIN KMKG 050900Z 14010KT 10SM BKN085 07/02 A2973 810 70 0 150/10 RMK AO2
14840KMKG MKG20071105040510011/05/07 04:05:31  5-MIN KMKG 050905Z 15007KT 10SM SCT080 BKN090 07/02 A2973 800 70 0 150/07 RMK AO2
14840KMKG MKG20071105041013811/05/07 04:10:31  5-MIN KMKG 050910Z 17007KT 10SM -RA FEW043 BKN080 BKN090 07/02 A2973 800 70 0 180/07 RMK AO2 RAB10 CIG 055 RWY 14 P0000
14840KMKG MKG20071105041514611/05/07 04:15:31  5-MIN KMKG 050915Z 15011G16KT 10SM -RA SCT050 BKN080 07/02 A2971 820 70 100 160/11G16 RMK AO2 RAB10 CIG 055 RWY 14 PRESFR P0000
14840KMKG MKG20071105042013111/05/07 04:20:31  5-MIN KMKG 050920Z 14010G16KT 10SM -RA BKN060 BKN080 07/02 A2971 830 68 100 140/10G16 RMK AO2 RAB10 PRESFR P0000
14840KMKG MKG20071105042511711/05/07 04:25:31  5-MIN KMKG 050925Z 14010KT 10SM BKN065 BKN080 07/02 A2971 830 70 100 150/10 RMK AO2 RAB10E23 P0000
14840KMKG MKG20071105043011711/05/07 04:30:31  5-MIN KMKG 050930Z 14010KT 10SM BKN065 BKN080 07/02 A2970 830 70 100 140/10 RMK AO2 RAB10E23 P0000
14840KMKG MKG20071105043511011/05/07 04:35:31  5-MIN KMKG 050935Z 14009KT 10SM BKN070 07/02 A2970 830 70 100 140/09 RMK AO2 RAB10E23 P0000
14840KMKG MKG20071105044011011/05/07 04:40:31  5-MIN KMKG 050940Z 14008KT 10SM BKN075 07/02 A2970 840 70 100 140/08 RMK AO2 RAB10E23 P0000
14840KMKG MKG20071105044511711/05/07 04:45:31  5-MIN KMKG 050945Z 14008KT 10SM BKN075 BKN090 07/02 A2969 840 70 100 150/08 RMK AO2 RAB10E23 P0000
14840KMKG MKG20071105045014811/05/07 04:50:31  5-MIN KMKG 050950Z 13010KT 10SM -RA SCT075 OVC090 07/02 A2968 860 70 100 130/10 RMK AO2 RAB10E23B49 PRESFR SLP052 P0000 T00670017
14840KMKG MKG20071105045514111/05/07 04:55:31  5-MIN KMKG 050955Z 13009KT 10SM -RA BKN075 OVC090 07/02 A2967 860 70 100 140/09 RMK AO2 RAB10E23B49 SLP052 P0000 T00670017
14840KMKG MKG20071105050011611/05/07 05:00:31  5-MIN KMKG 051000Z 14009KT 10SM BKN075 OVC090 07/02 A2967 860 70 100 140/09 RMK AO2 RAE0959 P0000
14840KMKG MKG20071105050512311/05/07 05:05:31  5-MIN KMKG 051005Z 13012KT 10SM BKN070 BKN090 07/02 A2966 870 70 100 140/12 RMK AO2 RAE0959 PRESFR P0000
14840KMKG MKG20071105051013111/05/07 05:10:31  5-MIN KMKG 051010Z 14012KT 10SM SCT070 BKN090 07/01 A2966 870 67 100 140/12 RMK AO2 RAE0959 CIG 070 RWY 14 P0000
14840KMKG MKG20071105051513111/05/07 05:15:31  5-MIN KMKG 051015Z 15012KT 10SM SCT075 BKN090 07/01 A2966 870 67 100 150/12 RMK AO2 RAE0959 CIG 075 RWY 14 P0000
14840KMKG MKG20071105052012211/05/07 05:20:31  5-MIN KMKG 051020Z 15014G21KT 10SM BKN075 BKN090 07/01 A2965 880 62 200 150/14G21 RMK AO2 RAE0959 P0000
14840KMKG MKG20071105052513711/05/07 05:25:31  5-MIN KMKG 051025Z 15012G21KT 10SM SCT065 BKN080 07/01 A2965 880 62 200 150/12G21 RMK AO2 RAE0959 CIG 065 RWY 14 P0000
14840KMKG MKG20071105053011611/05/07 05:30:31  5-MIN KMKG 051030Z 14012KT 10SM BKN060 BKN080 07/01 A2964 890 62 200 150/12 RMK AO2 RAE0959 P0000
14840KMKG MKG20071105053514511/05/07 05:35:31  5-MIN KMKG 051035Z 15011KT 10SM -RA SCT060 BKN085 07/01 A2963 900 62 200 150/11 RMK AO2 RAE0959B32 CIG 065 RWY 14 PRESFR P0000
14840KMKG MKG20071105054014511/05/07 05:40:31  5-MIN KMKG 051040Z 14012KT 10SM -RA SCT060 BKN085 BKN100 07/01 A2963 900 62 200 150/12 RMK AO2 RAE0959B32 CIG 060 RWY 14 P0000
14840KMKG MKG20071105054512211/05/07 05:45:31  5-MIN KMKG 051045Z 15010KT 10SM SCT060 SCT100 07/01 A2963 900 62 200 150/10 RMK AO2 RAE0959B32E41 P0000
14840KMKG MKG20071105055015411/05/07 05:50:31  5-MIN KMKG 051050Z 15008KT 10SM SCT065 BKN085 07/01 A2963 900 62 200 150/08 RMK AO2 RAE0959B32E41 CIG 065 RWY 14 SLP038 P0000 T00720006
14840KMKG MKG20071105055513911/05/07 05:55:31  5-MIN KMKG 051055Z 16007KT 10SM SCT065 BKN080 07/01 A2964 890 62 200 170/07 RMK AO2 RAE0959B32E41 SLP038 P0000 T00720006
14840KMKG MKG20071105060010211/05/07 06:00:31  5-MIN KMKG 051100Z 15010KT 10SM BKN065 BKN080 08/00 A2963 900 58 300 160/10 RMK AO2
14840KMKG MKG20071105060511811/05/07 06:05:31  5-MIN KMKG 051105Z 15008KT 10SM -RA BKN060 BKN080 07/00 A2963 900 60 200 150/08 RMK AO2 RAB03 P0000
14840KMKG MKG20071105061013311/05/07 06:10:31  5-MIN KMKG 051110Z 15008KT 10SM -RA SCT065 BKN085 07/00 A2962 910 60 200 150/08 RMK AO2 RAB03 CIG 070 RWY 14 P0000
14840KMKG MKG20071105061513211/05/07 06:15:31  5-MIN KMKG 051115Z 15009KT 10SM SCT070 BKN090 07/00 A2962 910 60 200 160/09 RMK AO2 RAB03E13 CIG 075 RWY 14 P0000
14840KMKG MKG20071105062011711/05/07 06:20:31  5-MIN KMKG 051120Z 15008KT 10SM SCT070 SCT090 07/00 A2962 910 60 200 150/08 RMK AO2 RAB03E13 P0000
14840KMKG MKG20071105062511011/05/07 06:25:31  5-MIN KMKG 051125Z 15007KT 10SM SCT070 07/00 A2962 910 60 200 160/07 RMK AO2 RAB03E13 P0000
14840KMKG MKG20071105063011111/05/07 06:30:31  5-MIN KMKG 051130Z 15008KT 10SM -RA FEW080 07/00 A2962 910 60 200 150/08 RMK AO2 RAB03 P0000
14840KMKG MKG20071105063511111/05/07 06:35:31  5-MIN KMKG 051135Z 15009KT 10SM -RA FEW085 07/00 A2961 920 60 200 150/09 RMK AO2 RAB03 P0000
14840KMKG MKG20071105064011111/05/07 06:40:31  5-MIN KMKG 051140Z 16007KT 10SM -RA FEW090 07/00 A2961 920 60 200 160/07 RMK AO2 RAB03 P0000
14840KMKG MKG20071105064511111/05/07 06:45:31  5-MIN KMKG 051145Z 16009KT 10SM -RA FEW080 07/01 A2961 920 62 200 160/09 RMK AO2 RAB03 P0000
14840KMKG MKG20071105065015111/05/07 06:50:31  5-MIN KMKG 051150Z 16010KT 10SM FEW080 07/00 A2960 930 60 300 160/10 RMK AO2 RAB03E47 SLP027 P0000 60000 T00720000 10078 20050 56039
14840KMKG MKG20071105065515211/05/07 06:55:31  5-MIN KMKG 051155Z 16010KT 10SM -RA FEW080 07/01 A2959 930 62 300 160/10 RMK AO2 RAB03 SLP024 P0000 60000 T00720006 10078 20050 56047
14840KMKG MKG20071105070010511/05/07 07:00:31  5-MIN KMKG 051200Z 16009KT 10SM -RA FEW080 07/01 A2959 940 65 200 170/09 RMK AO2 P0000
14840KMKG MKG20071105070510511/05/07 07:05:31  5-MIN KMKG 051205Z 17010KT 10SM -RA FEW080 07/00 A2959 940 60 300 170/10 RMK AO2 P0000
14840KMKG MKG20071105071010711/05/07 07:10:31  5-MIN KMKG 051210Z 17010KT 10SM FEW080 07/01 A2958 940 62 300 170/10 RMK AO2 RAE09 P0000
14840KMKG MKG20071105071510711/05/07 07:15:31  5-MIN KMKG 051215Z 17010KT 10SM FEW080 07/01 A2958 940 62 300 180/10 RMK AO2 RAE09 P0000
14840KMKG MKG20071105072011911/05/07 07:20:31  5-MIN KMKG 051220Z 18011KT 10SM CLR 08/01 A2959 940 62 300 190/11 RMK AO2 RAE09 CIG 110 RWY 14 P0000
14840KMKG MKG20071105072510711/05/07 07:25:31  5-MIN KMKG 051225Z 18010KT 10SM FEW100 08/02 A2959 940 63 400 180/10 RMK AO2 RAE09 P0000
14840KMKG MKG20071105073010711/05/07 07:30:31  5-MIN KMKG 051230Z 19009KT 10SM FEW100 09/02 A2959 930 63 500 200/09 RMK AO2 RAE09 P0000
14840KMKG MKG20071105073511311/05/07 07:35:31  5-MIN KMKG 051235Z 18007G16KT 10SM SCT095 09/03 A2959 930 65 500 190/07G16 RMK AO2 RAE09 P0000
14840KMKG MKG20071105074010711/05/07 07:40:31  5-MIN KMKG 051240Z 19007KT 10SM SCT095 10/04 A2959 930 65 600 190/07 RMK AO2 RAE09 P0000
14840KMKG MKG20071105074510711/05/07 07:45:31  5-MIN KMKG 051245Z 19008KT 10SM BKN100 11/04 A2959 940 66 700 190/08 RMK AO2 RAE09 P0000
14840KMKG MKG20071105075013011/05/07 07:50:31  5-MIN KMKG 051250Z 20012G17KT 10SM BKN095 11/04 A2959 940 66 700 200/12G17 RMK AO2 RAE09 SLP022 P0000 T01060044
14840KMKG MKG20071105075513011/05/07 07:55:31  5-MIN KMKG 051255Z 20015G20KT 10SM BKN095 11/04 A2958 940 63 700 200/15G20 RMK AO2 RAE09 SLP021 P0000 T01110044
14840KMKG MKG20071105080010111/05/07 08:00:31  5-MIN KMKG 051300Z 20016G21KT 10SM BKN095 11/04 A2958 950 63 700 200/16G21 RMK AO2
14840KMKG MKG20071105080510111/05/07 08:05:31  5-MIN KMKG 051305Z 20014G24KT 10SM SCT095 11/04 A2957 950 63 800 210/14G24 RMK AO2
14840KMKG MKG20071105081010111/05/07 08:10:31  5-MIN KMKG 051310Z 20018G24KT 10SM SCT100 12/04 A2957 950 61 800 210/18G24 RMK AO2
14840KMKG MKG20071105081510811/05/07 08:15:31  5-MIN KMKG 051315Z 20017G24KT 10SM SCT100 SCT110 12/04 A2957 950 58 800 210/17G24 RMK AO2
14840KMKG MKG20071105082010811/05/07 08:20:31  5-MIN KMKG 051320Z 21014G24KT 10SM SCT090 SCT110 12/04 A2958 950 61 800 210/14G24 RMK AO2
14840KMKG MKG20071105082510111/05/07 08:25:31  5-MIN KMKG 051325Z 22017G23KT 10SM SCT100 12/04 A2958 940 61 800 220/17G23 RMK AO2
14840KMKG MKG20071105083010111/05/07 08:30:31  5-MIN KMKG 051330Z 22015G23KT 10SM SCT100 12/04 A2959 940 61 800 220/15G23 RMK AO2
14840KMKG MKG20071105083509511/05/07 08:35:31  5-MIN KMKG 051335Z 21016KT 10SM SCT100 12/04 A2959 930 61 800 220/16 RMK AO2
14840KMKG MKG20071105084010211/05/07 08:40:31  5-MIN KMKG 051340Z 22014KT 10SM SCT090 SCT110 12/04 A2959 930 61 800 230/14 RMK AO2
14840KMKG MKG20071105084510111/05/07 08:45:31  5-MIN KMKG 051345Z 22017G21KT 10SM BKN090 12/05 A2959 930 63 800 230/17G21 RMK AO2
14840KMKG MKG20071105085011811/05/07 08:50:31  5-MIN KMKG 051350Z 23015G21KT 10SM BKN090 12/04 A2958 940 61 800 230/15G21 RMK AO2 SLP020 T01170044
14840KMKG MKG20071105085511211/05/07 08:55:31  5-MIN KMKG 051355Z 22012KT 10SM BKN090 12/04 A2958 950 61 800 220/12 RMK AO2 SLP019 T01170044
14840KMKG MKG20071105090009511/05/07 09:00:31  5-MIN KMKG 051400Z 22012KT 10SM BKN085 12/04 A2958 950 61 800 230/12 RMK AO2
14840KMKG MKG20071105090509511/05/07 09:05:31  5-MIN KMKG 051405Z 22011KT 10SM BKN085 12/04 A2958 950 58 800 230/11 RMK AO2
14840KMKG MKG20071105091010111/05/07 09:10:31  5-MIN KMKG 051410Z 23012G19KT 10SM BKN085 12/04 A2957 950 58 800 230/12G19 RMK AO2
14840KMKG MKG20071105091510111/05/07 09:15:31  5-MIN KMKG 051415Z 23015G21KT 10SM BKN090 12/04 A2957 950 58 800 230/15G21 RMK AO2
14840KMKG MKG20071105092009511/05/07 09:20:31  5-MIN KMKG 051420Z 23014KT 10SM BKN090 12/04 A2957 960 58 800 230/14 RMK AO2
14840KMKG MKG20071105092510111/05/07 09:25:31  5-MIN KMKG 051425Z 22012G21KT 10SM BKN085 12/04 A2957 960 58 800 230/12G21 RMK AO2
14840KMKG MKG20071105093009511/05/07 09:30:31  5-MIN KMKG 051430Z 23012KT 10SM BKN085 12/04 A2957 960 58 800 230/12 RMK AO2
14840KMKG MKG20071105093509511/05/07 09:35:31  5-MIN KMKG 051435Z 24013KT 10SM BKN090 12/04 A2956 960 58 800 240/13 RMK AO2
14840KMKG MKG20071105094010111/05/07 09:40:31  5-MIN KMKG 051440Z 23013G20KT 10SM OVC085 12/04 A2956 960 58 800 230/13G20 RMK AO2
14840KMKG MKG20071105094510111/05/07 09:45:31  5-MIN KMKG 051445Z 24009G20KT 10SM OVC085 12/03 A2956 970 56 800 250/09G20 RMK AO2
14840KMKG MKG20071105095013011/05/07 09:50:31  5-MIN KMKG 051450Z 24010G17KT 10SM OVC090 12/03 A2956 970 56 800 240/10G17 RMK AO2 SLP013 60000 T01170033 56047
14840KMKG MKG20071105095512411/05/07 09:55:31  5-MIN KMKG 051455Z 24012KT 10SM OVC085 12/03 A2956 970 56 800 250/12 RMK AO2 SLP012 60000 T01170033 58012
14840KMKG MKG20071105100010111/05/07 10:00:31  5-MIN KMKG 051500Z 24012G18KT 10SM OVC085 12/03 A2956 970 56 800 240/12G18 RMK AO2
14840KMKG MKG20071105100510111/05/07 10:05:31  5-MIN KMKG 051505Z 25010G18KT 10SM OVC080 11/03 A2956 960 56 800 250/10G18 RMK AO2
14840KMKG MKG20071105101010111/05/07 10:10:31  5-MIN KMKG 051510Z 25013G20KT 10SM OVC080 11/03 A2956 960 56 800 260/13G20 RMK AO2
14840KMKG MKG20071105101510111/05/07 10:15:31  5-MIN KMKG 051515Z 25012G20KT 10SM OVC080 12/03 A2956 970 54 800 260/12G20 RMK AO2
14840KMKG MKG20071105102010111/05/07 10:20:31  5-MIN KMKG 051520Z 24011G19KT 10SM OVC080 11/03 A2955 970 56 800 240/11G19 RMK AO2
14840KMKG MKG20071105102509511/05/07 10:25:31  5-MIN KMKG 051525Z 26011KT 10SM OVC080 11/03 A2956 970 56 800 260/11 RMK AO2
14840KMKG MKG20071105103010111/05/07 10:30:31  5-MIN KMKG 051530Z 25013G17KT 10SM OVC080 11/03 A2955 980 56 800 260/13G17 RMK AO2
14840KMKG MKG20071105103510111/05/07 10:35:31  5-MIN KMKG 051535Z 26010G17KT 10SM OVC080 11/03 A2955 970 56 800 260/10G17 RMK AO2
14840KMKG MKG20071105104010111/05/07 10:40:31  5-MIN KMKG 051540Z 27011G17KT 10SM OVC080 11/03 A2956 960 56 800 270/11G17 RMK AO2
14840KMKG MKG20071105104510111/05/07 10:45:31  5-MIN KMKG 051545Z 28012G18KT 10SM BKN080 11/03 A2956 970 56 800 280/12G18 RMK AO2
14840KMKG MKG20071105105012511/05/07 10:50:31  5-MIN KMKG 051550Z 27014G19KT 10SM FEW037 BKN080 11/03 A2956 960 56 800 270/14G19 RMK AO2 SLP013 T01110028
14840KMKG MKG20071105105512511/05/07 10:55:31  5-MIN KMKG 051555Z 28014G20KT 10SM FEW037 BKN080 11/03 A2956 960 56 800 280/14G20 RMK AO2 SLP014 T01110028
14840KMKG MKG20071105110010811/05/07 11:00:31  5-MIN KMKG 051600Z 28013G20KT 10SM FEW037 BKN080 11/03 A2957 960 56 800 290/13G20 RMK AO2
14840KMKG MKG20071105110510811/05/07 11:05:31  5-MIN KMKG 051605Z 27015G20KT 10SM SCT037 BKN080 11/03 A2956 960 58 700 270/15G20 RMK AO2
14840KMKG MKG20071105111013011/05/07 11:10:31  5-MIN KMKG 051610Z 29012G19KT 10SM SCT035 BKN060 BKN080 11/03 A2957 960 56 800 290/12G19 RMK AO2 CIG 038 RWY 14
14840KMKG MKG20071105111510211/05/07 11:15:31  5-MIN KMKG 051615Z 28013KT 10SM SCT035 BKN060 11/02 A2957 960 56 700 290/13 RMK AO2
14840KMKG MKG20071105112010811/05/07 11:20:31  5-MIN KMKG 051620Z 28011G18KT 10SM SCT035 BKN060 11/02 A2957 960 56 700 280/11G18 RMK AO2
14840KMKG MKG20071105112510811/05/07 11:25:31  5-MIN KMKG 051625Z 29014G19KT 10SM SCT035 BKN060 11/02 A2957 960 56 700 300/14G19 RMK AO2
14840KMKG MKG20071105113010811/05/07 11:30:31  5-MIN KMKG 051630Z 28015G23KT 10SM SCT035 OVC060 11/02 A2957 960 56 700 280/15G23 RMK AO2
14840KMKG MKG20071105113510811/05/07 11:35:31  5-MIN KMKG 051635Z 29013G23KT 10SM BKN035 OVC060 11/02 A2958 950 56 700 290/13G23 RMK AO2
14840KMKG MKG20071105114012611/05/07 11:40:31  5-MIN KMKG 051640Z 29017G26KT 10SM BKN037 OVC060 11/02 A2958 950 54 700 290/17G26 RMK AO2 PK WND 30026/1639
14840KMKG MKG20071105114512611/05/07 11:45:31  5-MIN KMKG 051645Z 29017G26KT 10SM BKN037 OVC065 11/02 A2957 960 54 700 290/17G26 RMK AO2 PK WND 30026/1639
14840KMKG MKG20071105115014311/05/07 11:50:31  5-MIN KMKG 051650Z 30017G25KT 10SM BKN037 OVC065 10/02 A2957 950 56 600 300/17G25 RMK AO2 PK WND 30026/1639 SLP017 T01000017
14840KMKG MKG20071105115514311/05/07 11:55:31  5-MIN KMKG 051655Z 30016G27KT 10SM BKN037 OVC065 10/02 A2957 960 56 600 300/16G27 RMK AO2 PK WND 30027/1651 SLP015 T01000017
14840KMKG MKG20071105120011911/05/07 12:00:31  5-MIN KMKG 051700Z 30019G27KT 10SM OVC037 10/01 A2957 950 54 600 300/19G27 RMK AO2 PK WND 31027/1659
14840KMKG MKG20071105120511911/05/07 12:05:31  5-MIN KMKG 051705Z 29021G28KT 10SM OVC037 10/01 A2958 950 54 600 300/21G28 RMK AO2 PK WND 30028/1705
14840KMKG MKG20071105121011911/05/07 12:10:31  5-MIN KMKG 051710Z 29019G30KT 10SM OVC037 10/02 A2957 950 56 600 300/19G30 RMK AO2 PK WND 29030/1709
14840KMKG MKG20071105121511911/05/07 12:15:31  5-MIN KMKG 051715Z 30018G30KT 10SM OVC037 10/01 A2957 960 54 600 300/18G30 RMK AO2 PK WND 29030/1709
14840KMKG MKG20071105122011911/05/07 12:20:31  5-MIN KMKG 051720Z 28018G27KT 10SM OVC037 10/01 A2957 950 54 600 290/18G27 RMK AO2 PK WND 29030/1709
14840KMKG MKG20071105122511911/05/07 12:25:31  5-MIN KMKG 051725Z 30010G27KT 10SM OVC035 10/01 A2958 950 54 600 300/10G27 RMK AO2 PK WND 29030/1709
14840KMKG MKG20071105123013511/05/07 12:30:31  5-MIN KMKG 051730Z 30016G22KT 260V320 10SM OVC035 10/02 A2958 950 56 600 310/16G22 260V320 RMK AO2 PK WND 29030/1709
14840KMKG MKG20071105123511911/05/07 12:35:31  5-MIN KMKG 051735Z 30018G24KT 10SM OVC035 10/02 A2958 950 56 600 300/18G24 RMK AO2 PK WND 29030/1709
14840KMKG MKG20071105124011911/05/07 12:40:31  5-MIN KMKG 051740Z 30019G29KT 10SM OVC035 09/02 A2958 950 58 600 300/19G29 RMK AO2 PK WND 29030/1709
14840KMKG MKG20071105124511911/05/07 12:45:31  5-MIN KMKG 051745Z 31020G29KT 10SM OVC035 09/02 A2958 940 58 500 320/20G29 RMK AO2 PK WND 29030/1709
14840KMKG MKG20071105125016711/05/07 12:50:31  5-MIN KMKG 051750Z 30017G29KT 10SM BKN035 OVC046 09/02 A2958 950 58 500 300/17G29 RMK AO2 PK WND 29030/1709 SLP020 60000 T00940017 10122 20067 58012
14840KMKG MKG20071105125516011/05/07 12:55:31  5-MIN KMKG 051755Z 30017G28KT 10SM OVC037 09/02 A2958 940 58 500 310/17G28 RMK AO2 PK WND 29030/1709 SLP021 60000 T00940017 10122 20067 53008
14840KMKG MKG20071105130012611/05/07 13:00:31  5-MIN KMKG 051800Z 29019G29KT 10SM FEW027 OVC037 09/02 A2959 940 60 500 300/19G29 RMK AO2 PK WND 29029/1800
14840KMKG MKG20071105130512611/05/07 13:05:31  5-MIN KMKG 051805Z 30019G29KT 10SM BKN030 OVC039 09/02 A2959 930 63 500 300/19G29 RMK AO2 PK WND 29029/1800
14840KMKG MKG20071105131012611/05/07 13:10:31  5-MIN KMKG 051810Z 29024G32KT 10SM BKN030 OVC039 09/02 A2960 930 60 500 300/24G32 RMK AO2 PK WND 28032/1808
14840KMKG MKG20071105131512611/05/07 13:15:31  5-MIN KMKG 051815Z 29022G32KT 10SM BKN027 OVC039 08/02 A2960 930 65 400 290/22G32 RMK AO2 PK WND 28032/1808
14840KMKG MKG20071105132012611/05/07 13:20:31  5-MIN KMKG 051820Z 29017G30KT 10SM BKN029 OVC039 08/02 A2960 930 63 400 300/17G30 RMK AO2 PK WND 28032/1808
14840KMKG MKG20071105132511911/05/07 13:25:31  5-MIN KMKG 051825Z 30020G32KT 10SM OVC030 08/02 A2960 930 63 400 310/20G32 RMK AO2 PK WND 31032/1825
14840KMKG MKG20071105133011911/05/07 13:30:31  5-MIN KMKG 051830Z 29021G32KT 10SM OVC030 08/01 A2961 920 60 400 300/21G32 RMK AO2 PK WND 31032/1825
14840KMKG MKG20071105133512611/05/07 13:35:31  5-MIN KMKG 051835Z 30016G31KT 10SM BKN028 OVC034 08/01 A2961 920 60 400 300/16G31 RMK AO2 PK WND 31032/1825
14840KMKG MKG20071105134012611/05/07 13:40:31  5-MIN KMKG 051840Z 29021G29KT 10SM BKN028 OVC034 08/01 A2960 930 60 400 290/21G29 RMK AO2 PK WND 31032/1825
14840KMKG MKG20071105134512611/05/07 13:45:31  5-MIN KMKG 051845Z 29019G29KT 10SM BKN030 OVC036 08/01 A2961 920 60 400 290/19G29 RMK AO2 PK WND 31032/1825
14840KMKG MKG20071105135014311/05/07 13:50:31  5-MIN KMKG 051850Z 29024G32KT 10SM SCT030 OVC038 08/01 A2961 920 60 400 290/24G32 RMK AO2 PK WND 29032/1848 SLP028 T00830011
14840KMKG MKG20071105135514311/05/07 13:55:31  5-MIN KMKG 051855Z 29019G32KT 10SM FEW028 OVC039 08/01 A2961 920 60 400 290/19G32 RMK AO2 PK WND 30032/1855 SLP029 T00830011
14840KMKG MKG20071105140014811/05/07 14:00:31  5-MIN KMKG 051900Z 28016G32KT 10SM FEW028 BKN045 OVC060 08/01 A2961 920 60 400 290/16G32 RMK AO2 PK WND 27027/1857 CIG 035 RWY 14
14840KMKG MKG20071105140513311/05/07 14:05:31  5-MIN KMKG 051905Z 30019G29KT 10SM FEW028 BKN039 OVC065 08/01 A2961 920 58 400 300/19G29 RMK AO2 PK WND 29029/1903
14840KMKG MKG20071105141013311/05/07 14:10:31  5-MIN KMKG 051910Z 29023G32KT 10SM FEW034 SCT042 OVC065 08/00 A2961 920 55 400 300/23G32 RMK AO2 PK WND 28032/1909
14840KMKG MKG20071105141513311/05/07 14:15:31  5-MIN KMKG 051915Z 29020G32KT 10SM FEW035 SCT044 OVC065 08/00 A2961 920 55 400 290/20G32 RMK AO2 PK WND 28032/1915
14840KMKG MKG20071105142013311/05/07 14:20:31  5-MIN KMKG 051920Z 28020G32KT 10SM FEW032 SCT042 OVC060 08/00 A2961 920 55 400 290/20G32 RMK AO2 PK WND 28032/1915
14840KMKG MKG20071105142512611/05/07 14:25:31  5-MIN KMKG 051925Z 29019G30KT 10SM FEW041 OVC065 08/00 A2961 920 55 400 300/19G30 RMK AO2 PK WND 28032/1915
14840KMKG MKG20071105143013411/05/07 14:30:31  5-MIN KMKG 051930Z 30022G32KT 10SM FEW037 SCT049 OVC065 08/M01 A2961 920 53 400 300/22G32 RMK AO2 PK WND 30032/1930
14840KMKG MKG20071105143513411/05/07 14:35:31  5-MIN KMKG 051935Z 29022G32KT 10SM FEW037 BKN049 OVC065 08/M01 A2961 910 53 400 290/22G32 RMK AO2 PK WND 30032/1930
14840KMKG MKG20071105144013311/05/07 14:40:31  5-MIN KMKG 051940Z 30022G30KT 10SM FEW034 BKN050 OVC065 08/00 A2961 920 55 400 300/22G30 RMK AO2 PK WND 30032/1930
14840KMKG MKG20071105144513411/05/07 14:45:31  5-MIN KMKG 051945Z 30020G32KT 10SM FEW034 BKN065 OVC075 08/M01 A2962 910 53 400 300/20G32 RMK AO2 PK WND 31032/1943
14840KMKG MKG20071105145015111/05/07 14:50:31  5-MIN KMKG 051950Z 30019G32KT 10SM FEW034 SCT050 BKN070 09/M01 A2961 920 49 400 300/19G32 RMK AO2 PK WND 30032/1946 SLP031 T00891011
14840KMKG MKG20071105145515111/05/07 14:55:31  5-MIN KMKG 051955Z 29018G32KT 10SM FEW034 SCT044 BKN050 09/M01 A2962 910 49 400 300/18G32 RMK AO2 PK WND 30032/1946 SLP034 T00891011
14840KMKG MKG20071105150013411/05/07 15:00:31  5-MIN KMKG 052000Z 30018G32KT 10SM FEW036 SCT044 BKN050 09/M01 A2962 910 51 400 310/18G32 RMK AO2 PK WND 31032/1959
14840KMKG MKG20071105150514911/05/07 15:05:31  5-MIN KMKG 052005Z 30014G32KT 10SM FEW036 SCT044 BKN055 08/M01 A2963 900 51 400 310/14G32 RMK AO2 PK WND 31032/1959 CIG 048 RWY 14
14840KMKG MKG20071105151013411/05/07 15:10:31  5-MIN KMKG 052010Z 31018G27KT 10SM FEW038 SCT046 BKN055 08/M01 A2963 900 51 400 320/18G27 RMK AO2 PK WND 31032/1959
14840KMKG MKG20071105151514911/05/07 15:15:31  5-MIN KMKG 052015Z 31018G31KT 10SM FEW038 SCT046 BKN055 08/M02 A2963 900 49 400 310/18G31 RMK AO2 PK WND 31032/1959 CIG 040 RWY 14
14840KMKG MKG20071105152014911/05/07 15:20:31  5-MIN KMKG 052020Z 31018G31KT 10SM FEW038 SCT046 BKN090 08/M03 A2963 900 47 300 310/18G31 RMK AO2 PK WND 31032/1959 CIG 075 RWY 14
14840KMKG MKG20071105152513411/05/07 15:25:31  5-MIN KMKG 052025Z 31015G29KT 10SM FEW038 SCT060 BKN090 08/M03 A2963 900 45 400 310/15G29 RMK AO2 PK WND 31032/1959
14840KMKG MKG20071105153013411/05/07 15:30:31  5-MIN KMKG 052030Z 29018G29KT 10SM FEW041 SCT055 BKN090 08/M02 A2963 900 47 400 300/18G29 RMK AO2 PK WND 31032/1959
14840KMKG MKG20071105153513411/05/07 15:35:31  5-MIN KMKG 052035Z 29016G29KT 10SM FEW039 SCT055 BKN090 08/M03 A2963 900 45 300 300/16G29 RMK AO2 PK WND 31032/1959
14840KMKG MKG20071105154018611/05/07 15:40:31  5-MIN KMKG 052040Z 29028G39KT 8SM -RASN FEW037 SCT045 BKN090 07/M01 A2964 890 55 200 300/28G39 RMK AO2 PK WND 28039/2037 RAB38SNB40 CIG 050 RWY 14 PRESENT WX -SG P0000
14840KMKG MKG20071105154516811/05/07 15:45:31  5-MIN KMKG 052045Z 29022G39KT 7SM RA SCT031 BKN042 BKN090 06/00 A2965 880 67 0 290/22G39 RMK AO2 PK WND 28039/2037 RAB38SNB40E45 PRESENT WX -SG P0000
14840KMKG MKG20071105155018311/05/07 15:50:31  5-MIN KMKG 052050Z 28015G34KT 7SM -RA BKN036 BKN042 BKN090 06/00 A2965 880 67 0 290/15G34 RMK AO2 PK WND 28039/2037 RAB38SNB40E45 SLP045 P0000 60000 T00560000 53008
14840KMKG MKG20071105155518611/05/07 15:55:31  5-MIN KMKG 052055Z 29014G30KT 10SM -RA BKN040 BKN075 BKN095 06/00 A2965 880 65 100 300/14G30 RMK AO2 PK WND 28039/2037 RAB38SNB40E45 SLP044 P0000 60000 T00610000 53023
14840KMKG MKG20071105160014411/05/07 16:00:31  5-MIN KMKG 052100Z 30016G26KT 10SM SCT039 BKN080 BKN095 07/00 A2966 870 62 100 310/16G26 RMK AO2 RAE2058 CIG 060 RWY 14 P0000
14840KMKG MKG20071105160514811/05/07 16:05:31  5-MIN KMKG 052105Z 30018G29KT 10SM SCT034 SCT042 BKN080 07/M02 A2965 880 51 200 300/18G29 RMK AO2 PK WND 29029/2102 RAE2058 P0000
14840KMKG MKG20071105161014811/05/07 16:10:31  5-MIN KMKG 052110Z 31022G34KT 10SM FEW034 SCT055 BKN080 07/M02 A2966 870 51 200 310/22G34 RMK AO2 PK WND 32034/2109 RAE2058 P0000
14840KMKG MKG20071105161514811/05/07 16:15:31  5-MIN KMKG 052115Z 30019G34KT 10SM FEW041 SCT050 BKN080 07/M02 A2965 880 51 200 300/19G34 RMK AO2 PK WND 32034/2109 RAE2058 P0000
14840KMKG MKG20071105162014811/05/07 16:20:31  5-MIN KMKG 052120Z 30017G33KT 10SM FEW040 SCT080 BKN100 07/M01 A2966 870 55 200 310/17G33 RMK AO2 PK WND 32034/2109 RAE2058 P0000
14840KMKG MKG20071105162514811/05/07 16:25:31  5-MIN KMKG 052125Z 29019G32KT 10SM FEW039 SCT080 BKN100 07/M02 A2966 870 53 200 300/19G32 RMK AO2 PK WND 32034/2109 RAE2058 P0000
14840KMKG MKG20071105163014111/05/07 16:30:31  5-MIN KMKG 052130Z 30015G32KT 10SM FEW039 BKN100 07/M01 A2966 870 55 200 300/15G32 RMK AO2 PK WND 32034/2109 RAE2058 P0000
14840KMKG MKG20071105163514111/05/07 16:35:31  5-MIN KMKG 052135Z 30020G30KT 10SM FEW050 BKN100 07/M02 A2967 860 55 100 310/20G30 RMK AO2 PK WND 32034/2109 RAE2058 P0000
14840KMKG MKG20071105164014111/05/07 16:40:31  5-MIN KMKG 052140Z 30020G30KT 10SM FEW041 SCT100 07/M02 A2968 860 53 100 300/20G30 RMK AO2 PK WND 32034/2109 RAE2058 P0000
14840KMKG MKG20071105164513411/05/07 16:45:31  5-MIN KMKG 052145Z 30017G32KT 10SM SCT100 07/M02 A2967 860 53 100 300/17G32 RMK AO2 PK WND 32034/2109 RAE2058 P0000
14840KMKG MKG20071105165015811/05/07 16:50:31  5-MIN KMKG 052150Z 31022G32KT 10SM FEW055 SCT100 07/M03 A2968 860 47 200 320/22G32 RMK AO2 PK WND 32034/2109 RAE2058 SLP053 P0000 T00721033
14840KMKG MKG20071105165518611/05/07 16:55:31  5-MIN KMKG 052155Z 29017G32KT 10SM -SN SCT042 SCT100 07/M02 A2968 850 51 200 300/17G32 RMK AO2 PK WND 32034/2109 RAE2058SNB54 SLP054 PRESENT WEATHER-SG P0000 T00721022
14840KMKG MKG20071105170014811/05/07 17:00:31  5-MIN KMKG 052200Z 30020G30KT 10SM -RA SCT042 BKN055 07/M02 A2968 860 51 200 300/20G30 RMK AO2 PK WND 29030/2157 RAB00SNE00 P0000
14840KMKG MKG20071105170515511/05/07 17:05:31  5-MIN KMKG 052205Z 29019G30KT 10SM -RA FEW034 SCT042 BKN050 07/M01 A2968 850 57 200 290/19G30 RMK AO2 PK WND 29030/2157 RAB00SNE00 P0000
14840KMKG MKG20071105171014411/05/07 17:10:31  5-MIN KMKG 052210Z 7SM -TSRA FEW030 BKN042 BKN048 06/00 A2970 840 65 0 M /M RMK AO2 FRQ LTGICCG RAB00 TSB06 NW MOV SE P0000 $
14840KMKG MKG20071105171521311/05/07 17:15:31  5-MIN KMKG 052215Z 30025KT 3SM -TSRASN SCT017 BKN042 OVC065 04/M01 A2970 830 70 -200 300/25 RMK AO2 PK WND 29036/2212 CIG 035 RWY 14 FRQ LTGICCG RAB00 TSB06 NW MOV SE PRESENT WEATHER -SG P0000 $
14840KMKG MKG20071105172021111/05/07 17:20:31  5-MIN KMKG 052220Z 30025KT 3SM -TSRA SCT022 BKN033 OVC042 04/M01 A2971 830 73 -200 300/25 RMK AO2 PK WND 29036/2212 PRESRR FRQ LTGICCG RAB00SNB06E19 TSB06 NW MOV SE PRESENT WEATHER -SG P0003 $
14840KMKG MKG20071105172520511/05/07 17:25:31  5-MIN KMKG 052225Z 30025KT 10SM -TSRA BKN034 OVC042 04/M01 A2971 830 70 -200 300/25 RMK AO2 PK WND 29036/2212 FRQ LTGICCG RAB00SNB06E19 TSB06 NW MOV SE PRESENT WEATHER -SG PRESRR P0003 $
14840KMKG MKG20071105173019111/05/07 17:30:31  5-MIN KMKG 052230Z 29014G28KT 10SM -TSRA BKN037 OVC090 04/M02 A2970 830 64 -200 300/14G28 RMK AO2 PK WND 29036/2212 FRQ LTGICCG RAB00SNB06E19 TSB06 NW MOV SE PRESRR P0003 $
14840KMKG MKG20071105173519111/05/07 17:35:31  5-MIN KMKG 052235Z 30017G29KT 10SM TS BKN038 BKN045 OVC090 05/M02 A2970 830 62 -100 310/17G29 RMK AO2 PK WND 29036/2212 FRQ LTGICCG RAB00E32SNB06E19 TSB06 NW MOV SE P0003 $
14840KMKG MKG20071105174020311/05/07 17:40:31  5-MIN KMKG 052240Z 30017G29KT 10SM TS SCT036 SCT044 OVC090 06/M02 A2971 830 57 0 310/17G29 RMK AO2 PK WND 29036/2212 CIG 043 RWY 14 FRQ LTGICCG RAB00E32SNB06E19 TSB06 NW MOV SE P0003 $
14840KMKG MKG20071105174515911/05/07 17:45:31  5-MIN KMKG 052245Z 29015G26KT 10SM BKN045 OVC090 06/M02 A2971 830 59 0 290/15G26 RMK AO2 PK WND 29036/2212 RAB00E32SNB06E19 TSB06E42 P0003 $
14840KMKG MKG20071105175017611/05/07 17:50:31  5-MIN KMKG 052250Z 29018G26KT 10SM BKN047 BKN090 06/M02 A2971 830 57 0 300/18G26 RMK AO2 PK WND 29036/2212 SLP063 RAB00E32SNB06E19 TSB06E42 P0003 T00611017 $
14840KMKG MKG20071105175517611/05/07 17:55:31  5-MIN KMKG 052255Z 30019G29KT 10SM SCT047 BKN060 BKN090 06/M02 A2971 830 55 0 300/19G29 RMK AO2 PK WND 29036/2212 RAB00E32SNB06E19 TSB06E42 P0003 T00611022 $
14840KMKG MKG20071105180013411/05/07 18:00:31  5-MIN KMKG 052300Z 30017G33KT 10SM FEW045 SCT050 BKN065 06/M03 A2971 820 53 0 300/17G33 RMK AO2 PK WND 29033/2257 $
14840KMKG MKG20071105180513411/05/07 18:05:31  5-MIN KMKG 052305Z 30016G33KT 10SM SCT047 BKN060 BKN090 06/M03 A2971 830 53 0 300/16G33 RMK AO2 PK WND 29033/2257 $
14840KMKG MKG20071105181012711/05/07 18:10:31  5-MIN KMKG 052310Z 29018G32KT 10SM SCT047 BKN060 06/M03 A2971 820 53 0 300/18G32 RMK AO2 PK WND 29033/2257 $
14840KMKG MKG20071105181512711/05/07 18:15:31  5-MIN KMKG 052315Z 30020G32KT 10SM FEW047 SCT060 06/M03 A2971 820 53 0 300/20G32 RMK AO2 PK WND 29033/2257 $
14840KMKG MKG20071105182013411/05/07 18:20:31  5-MIN KMKG 052320Z 29015G29KT 10SM FEW047 SCT055 BKN070 07/M03 A2972 810 51 0 300/15G29 RMK AO2 PK WND 29033/2257 $
14840KMKG MKG20071105182513611/05/07 18:25:31  5-MIN KMKG 052325Z 30014G28KT 10SM FEW047 SCT060 BKN070 07/M03 A2972 820 49 100 300/14G28 RMK AO2 PK WND 29033/2257 $
14840KMKG MKG20071105183013611/05/07 18:30:31  5-MIN KMKG 052330Z 29020G36KT 10SM FEW047 SCT055 BKN070 07/M03 A2972 820 49 100 300/20G36 RMK AO2 PK WND 29036/2327 $
14840KMKG MKG20071105183513411/05/07 18:35:31  5-MIN KMKG 052335Z 30022G36KT 10SM FEW047 BKN060 BKN080 07/M03 A2972 820 49 0 300/22G36 RMK AO2 PK WND 29036/2327 $
14840KMKG MKG20071105184013411/05/07 18:40:31  5-MIN KMKG 052340Z 29020G32KT 10SM FEW049 SCT065 BKN080 07/M04 A2972 810 47 0 290/20G32 RMK AO2 PK WND 29036/2327 $
14840KMKG MKG20071105184513411/05/07 18:45:31  5-MIN KMKG 052345Z 29019G30KT 10SM FEW046 BKN060 OVC080 07/M03 A2973 810 49 0 300/19G30 RMK AO2 PK WND 29036/2327 $
14840KMKG MKG20071105185017511/05/07 18:50:31  5-MIN KMKG 052350Z 29020G29KT 10SM FEW046 BKN065 OVC080 07/M03 A2972 810 49 0 300/20G29 RMK AO2 PK WND 29036/2327 SLP069 60003 T00671033 10094 20039 53023 $
14840KMKG MKG20071105185517511/05/07 18:55:31  5-MIN KMKG 052355Z 29022G31KT 10SM FEW046 SCT070 OVC080 07/M03 A2973 810 49 0 290/22G31 RMK AO2 PK WND 29036/2327 SLP069 60003 T00671033 10094 20039 51025 $
14840KMKG MKG20071105190013411/05/07 19:00:31  5-MIN KMKG 060000Z 30020G31KT 10SM FEW048 SCT065 OVC080 07/M03 A2973 810 49 0 300/20G31 RMK AO2 PK WND 30031/2356 $
14840KMKG MKG20071105190513411/05/07 19:05:31  5-MIN KMKG 060005Z 30018G31KT 10SM FEW046 BKN070 OVC080 07/M03 A2973 810 49 0 300/18G31 RMK AO2 PK WND 30031/2356 $
14840KMKG MKG20071105191014911/05/07 19:10:31  5-MIN KMKG 060010Z 30020G29KT 10SM FEW046 SCT060 OVC080 07/M03 A2973 800 49 0 300/20G29 RMK AO2 PK WND 30031/2356 CIG 065 RWY 14 $
14840KMKG MKG20071105191513411/05/07 19:15:31  5-MIN KMKG 060015Z 29016G29KT 10SM FEW048 SCT060 OVC075 07/M03 A2974 800 49 0 300/16G29 RMK AO2 PK WND 30031/2356 $
14840KMKG MKG20071105192013411/05/07 19:20:31  5-MIN KMKG 060020Z 29021G29KT 10SM SCT050 BKN070 OVC080 07/M04 A2973 810 47 0 300/21G29 RMK AO2 PK WND 30031/2356 $
14840KMKG MKG20071105192512711/05/07 19:25:31  5-MIN KMKG 060025Z 30023G34KT 10SM SCT050 OVC075 07/M04 A2973 810 47 0 300/23G34 RMK AO2 PK WND 31034/0025 $
14840KMKG MKG20071105193013411/05/07 19:30:31  5-MIN KMKG 060030Z 30022G34KT 10SM SCT047 BKN055 OVC075 07/M03 A2973 800 49 0 300/22G34 RMK AO2 PK WND 31034/0025 $
14840KMKG MKG20071105193512711/05/07 19:35:31  5-MIN KMKG 060035Z 29017G29KT 10SM BKN050 OVC075 07/M03 A2974 800 51 0 290/17G29 RMK AO2 PK WND 31034/0025 $
14840KMKG MKG20071105194013411/05/07 19:40:31  5-MIN KMKG 060040Z 29023G31KT 10SM SCT048 BKN060 OVC075 07/M03 A2974 800 51 0 300/23G31 RMK AO2 PK WND 31034/0025 $
14840KMKG MKG20071105194513411/05/07 19:45:31  5-MIN KMKG 060045Z 29023G34KT 10SM SCT048 BKN060 OVC075 07/M04 A2973 800 47 0 290/23G34 RMK AO2 PK WND 29034/0041 $
14840KMKG MKG20071105195015111/05/07 19:50:31  5-MIN KMKG 060050Z 29021G34KT 10SM SCT048 BKN060 OVC075 07/M03 A2974 800 49 0 300/21G34 RMK AO2 PK WND 29034/0041 SLP072 T00671033 $
14840KMKG MKG20071105195516611/05/07 19:55:31  5-MIN KMKG 060055Z 29019G33KT 10SM FEW045 SCT055 OVC075 07/M03 A2974 800 49 0 290/19G33 RMK AO2 PK WND 29034/0041 CIG 055 RWY 14 SLP072 T00671033 $
14840KMKG MKG20071105200013411/05/07 20:00:31  5-MIN KMKG 060100Z 30019G33KT 10SM SCT049 BKN060 OVC075 07/M03 A2974 800 49 0 300/19G33 RMK AO2 PK WND 31029/0059 $
14840KMKG MKG20071105200515011/05/07 20:05:31  5-MIN KMKG 060105Z 29024G33KT 10SM -RA SCT047 BKN060 OVC075 07/M03 A2974 800 51 0 290/24G33 RMK AO2 PK WND 28033/0104 RAB04 P0000 $
14840KMKG MKG20071105201015011/05/07 20:10:31  5-MIN KMKG 060110Z 29022G33KT 10SM -RA SCT048 BKN060 BKN075 07/M03 A2974 800 51 0 300/22G33 RMK AO2 PK WND 28033/0104 RAB04 P0000 $
14840KMKG MKG20071105201514911/05/07 20:15:31  5-MIN KMKG 060115Z 29017G30KT 10SM FEW040 BKN060 OVC075 07/M03 A2974 800 51 0 300/17G30 RMK AO2 PK WND 28033/0104 RAB04E14 P0000 $
14840KMKG MKG20071105202014911/05/07 20:20:31  5-MIN KMKG 060120Z 29020G32KT 10SM BKN047 BKN060 OVC075 07/M03 A2974 800 51 0 290/20G32 RMK AO2 PK WND 28033/0104 RAB04E14 P0000 $
14840KMKG MKG20071105202514211/05/07 20:25:31  5-MIN KMKG 060125Z 29019G32KT 10SM BKN047 BKN060 07/M03 A2974 800 49 0 300/19G32 RMK AO2 PK WND 28033/0104 RAB04E14 P0000 $
14840KMKG MKG20071105203014911/05/07 20:30:31  5-MIN KMKG 060130Z 29017G32KT 10SM FEW040 BKN049 BKN065 06/M03 A2974 800 53 0 290/17G32 RMK AO2 PK WND 28033/0104 RAB04E14 P0000 $
14840KMKG MKG20071105203514911/05/07 20:35:31  5-MIN KMKG 060135Z 27019G30KT 10SM SCT040 BKN049 BKN060 06/M02 A2974 800 57 0 280/19G30 RMK AO2 PK WND 28033/0104 RAB04E14 P0000 $
14840KMKG MKG20071105204014911/05/07 20:40:31  5-MIN KMKG 060140Z 28021G36KT 10SM FEW040 SCT049 BKN065 06/M02 A2975 790 57 0 290/21G36 RMK AO2 PK WND 27036/0138 RAB04E14 P0000 $
14840KMKG MKG20071105204514911/05/07 20:45:31  5-MIN KMKG 060145Z 28019G36KT 10SM FEW040 SCT049 BKN065 06/M01 A2975 790 60 0 280/19G36 RMK AO2 PK WND 27036/0138 RAB04E14 P0000 $
14840KMKG MKG20071105205016611/05/07 20:50:31  5-MIN KMKG 060150Z 29017G32KT 10SM SCT038 SCT050 BKN065 06/M01 A2975 790 60 0 290/17G32 RMK AO2 PK WND 27036/0138 RAB04E14 SLP076 P0000 T00611011 $
14840KMKG MKG20071105205516611/05/07 20:55:31  5-MIN KMKG 060155Z 28015G26KT 10SM FEW036 SCT044 BKN060 06/M02 A2976 780 57 0 290/15G26 RMK AO2 PK WND 27036/0138 RAB04E14 SLP078 P0000 T00611017 $
14840KMKG MKG20071105210011911/05/07 21:00:31  5-MIN KMKG 060200Z 28018G26KT 10SM FEW031 SCT049 BKN065 06/M02 A2975 780 59 -100 290/18G26 RMK AO2 $
14840KMKG MKG20071105210513711/05/07 21:05:31  5-MIN KMKG 060205Z 28018G30KT 10SM FEW031 SCT041 BKN065 06/M02 A2975 780 59 -100 290/18G30 RMK AO2 PK WND 28030/0201 $
14840KMKG MKG20071105211013411/05/07 21:10:31  5-MIN KMKG 060210Z 28021G31KT 10SM FEW033 SCT049 BKN065 06/M02 A2975 790 57 0 290/21G31 RMK AO2 PK WND 28031/0207 $
14840KMKG MKG20071105211513711/05/07 21:15:31  5-MIN KMKG 060215Z 28020G31KT 10SM FEW033 SCT047 BKN065 06/M02 A2976 780 59 -100 290/20G31 RMK AO2 PK WND 28031/0207 $
14840KMKG MKG20071105212013711/05/07 21:20:31  5-MIN KMKG 060220Z 29018G30KT 10SM FEW032 BKN050 BKN070 06/M01 A2975 780 62 -100 290/18G30 RMK AO2 PK WND 28031/0207 $
14840KMKG MKG20071105212513711/05/07 21:25:31  5-MIN KMKG 060225Z 28019G29KT 10SM FEW035 SCT048 BKN060 06/M01 A2975 790 62 -100 280/19G29 RMK AO2 PK WND 28031/0207 $
14840KMKG MKG20071105213015311/05/07 21:30:31  5-MIN KMKG 060230Z 29022G29KT 10SM -RA FEW031 SCT041 BKN055 06/M01 A2975 780 62 -100 290/22G29 RMK AO2 PK WND 28031/0207 RAB27 P0000 $
14840KMKG MKG20071105213515311/05/07 21:35:31  5-MIN KMKG 060235Z 29015G31KT 10SM -RA FEW029 BKN055 OVC085 06/M01 A2976 780 62 -100 300/15G31 RMK AO2 PK WND 28031/0231 RAB27 P0000 $
14840KMKG MKG20071105214015211/05/07 21:40:31  5-MIN KMKG 060240Z 29018G31KT 10SM SCT031 BKN046 BKN060 06/M01 A2976 780 62 -100 290/18G31 RMK AO2 PK WND 28031/0231 RAB27E38 P0000 $
14840KMKG MKG20071105214515211/05/07 21:45:31  5-MIN KMKG 060245Z 28019G28KT 10SM SCT031 SCT044 BKN060 05/M01 A2976 780 64 -200 290/19G28 RMK AO2 PK WND 28031/0231 RAB27E38 P0000 $
14840KMKG MKG20071105215018111/05/07 21:50:31  5-MIN KMKG 060250Z 28018G28KT 10SM SCT031 BKN047 BKN060 05/M02 A2977 770 62 -200 280/18G28 RMK AO2 PK WND 28031/0231 RAB27E38 SLP083 P0000 60000 T00501017 51025 $
14840KMKG MKG20071105215518111/05/07 21:55:31  5-MIN KMKG 060255Z 29017G28KT 10SM SCT030 BKN039 BKN060 05/M01 A2976 780 64 -200 300/17G28 RMK AO2 PK WND 28031/0231 RAB27E38 SLP081 P0000 60000 T00501011 51012 $
14840KMKG MKG20071105220013711/05/07 22:00:31  5-MIN KMKG 060300Z 29018G27KT 10SM SCT028 BKN034 BKN045 05/M01 A2977 770 64 -200 300/18G27 RMK AO2 PK WND 27027/0259 $
14840KMKG MKG20071105220513711/05/07 22:05:31  5-MIN KMKG 060305Z 29019G27KT 10SM FEW028 SCT034 BKN043 06/M01 A2976 780 62 -100 300/19G27 RMK AO2 PK WND 27027/0259 $
14840KMKG MKG20071105221015211/05/07 22:10:31  5-MIN KMKG 060310Z 29019G28KT 10SM FEW028 SCT034 BKN043 05/M02 A2976 780 62 -200 300/19G28 RMK AO2 PK WND 29028/0308 CIG 035 RWY 14 $
14840KMKG MKG20071105221515211/05/07 22:15:31  5-MIN KMKG 060315Z 29019G28KT 10SM FEW028 SCT034 BKN043 06/M02 A2976 780 59 -100 300/19G28 RMK AO2 PK WND 29028/0308 CIG 035 RWY 14 $
14840KMKG MKG20071105222013711/05/07 22:20:31  5-MIN KMKG 060320Z 29022G29KT 10SM FEW029 SCT035 BKN043 05/M02 A2976 770 62 -200 300/22G29 RMK AO2 PK WND 29029/0320 $
14840KMKG MKG20071105222513711/05/07 22:25:31  5-MIN KMKG 060325Z 29022G30KT 10SM FEW029 SCT035 BKN046 05/M01 A2976 780 64 -200 300/22G30 RMK AO2 PK WND 30030/0324 $
14840KMKG MKG20071105223013711/05/07 22:30:31  5-MIN KMKG 060330Z 29017G30KT 10SM FEW031 BKN040 BKN048 05/M01 A2976 770 64 -200 290/17G30 RMK AO2 PK WND 30030/0324 $
14840KMKG MKG20071105223513711/05/07 22:35:31  5-MIN KMKG 060335Z 29021G26KT 10SM FEW031 BKN038 BKN048 05/M02 A2976 780 62 -200 290/21G26 RMK AO2 PK WND 30030/0324 $
14840KMKG MKG20071105224013711/05/07 22:40:31  5-MIN KMKG 060340Z 29022G31KT 10SM FEW031 SCT038 BKN049 05/M02 A2977 770 62 -200 290/22G31 RMK AO2 PK WND 29031/0339 $
14840KMKG MKG20071105224513711/05/07 22:45:31  5-MIN KMKG 060345Z 29016G31KT 10SM SCT031 SCT038 BKN047 05/M02 A2977 770 62 -200 290/16G31 RMK AO2 PK WND 29031/0339 $
14840KMKG MKG20071105225015411/05/07 22:50:31  5-MIN KMKG 060350Z 30020G30KT 10SM FEW031 SCT035 BKN044 05/M02 A2977 770 59 -200 300/20G30 RMK AO2 PK WND 29031/0339 SLP085 T00501022 $
14840KMKG MKG20071105225515411/05/07 22:55:31  5-MIN KMKG 060355Z 29020G30KT 10SM SCT033 BKN042 BKN055 05/M02 A2976 780 59 -200 300/20G30 RMK AO2 PK WND 29031/0339 SLP082 T00501022 $
14840KMKG MKG20071105230013711/05/07 23:00:31  5-MIN KMKG 060400Z 29018G28KT 10SM FEW030 SCT035 BKN045 05/M02 A2977 770 59 -200 300/18G28 RMK AO2 PK WND 29027/0400 $
14840KMKG MKG20071105230513711/05/07 23:05:31  5-MIN KMKG 060405Z 29020G29KT 10SM SCT032 BKN045 BKN055 05/M02 A2977 770 59 -200 300/20G29 RMK AO2 PK WND 30029/0405 $
14840KMKG MKG20071105231013711/05/07 23:10:31  5-MIN KMKG 060410Z 29020G29KT 10SM SCT032 BKN046 BKN055 04/M02 A2977 770 62 -200 300/20G29 RMK AO2 PK WND 29029/0407 $
14840KMKG MKG20071105231513711/05/07 23:15:31  5-MIN KMKG 060415Z 30017G29KT 10SM SCT032 SCT039 BKN046 04/M02 A2977 770 62 -200 300/17G29 RMK AO2 PK WND 29029/0407 $
14840KMKG MKG20071105232013711/05/07 23:20:31  5-MIN KMKG 060420Z 29019G31KT 10SM SCT033 BKN047 BKN060 04/M03 A2977 770 59 -200 300/19G31 RMK AO2 PK WND 28031/0418 $
14840KMKG MKG20071105232513711/05/07 23:25:31  5-MIN KMKG 060425Z 29019G31KT 10SM SCT033 BKN047 BKN060 04/M03 A2977 770 59 -200 290/19G31 RMK AO2 PK WND 28031/0418 $
14840KMKG MKG20071105233013711/05/07 23:30:31  5-MIN KMKG 060430Z 29021G30KT 10SM FEW031 BKN047 BKN060 04/M03 A2976 770 59 -200 300/21G30 RMK AO2 PK WND 28031/0418 $
14840KMKG MKG20071105233513711/05/07 23:35:31  5-MIN KMKG 060435Z 29018G30KT 10SM FEW031 SCT043 BKN050 04/M03 A2976 770 59 -200 290/18G30 RMK AO2 PK WND 28031/0418 $
14840KMKG MKG20071105234013711/05/07 23:40:31  5-MIN KMKG 060440Z 29019G26KT 10SM SCT035 BKN046 OVC055 04/M03 A2976 780 59 -200 300/19G26 RMK AO2 PK WND 28031/0418 $
14840KMKG MKG20071105234513711/05/07 23:45:31  5-MIN KMKG 060445Z 29017G27KT 10SM SCT035 BKN046 OVC055 05/M03 A2977 770 57 -200 290/17G27 RMK AO2 PK WND 28031/0418 $
14840KMKG MKG20071105235016411/05/07 23:50:31  5-MIN KMKG 060450Z 29021G31KT 10SM SCT035 BKN046 OVC055 04/M03 A2977 770 59 -200 290/21G31 RMK AO2 PK WND 29031/0450 SLP084 T00441028 401220039 $
14840KMKG MKG20071105235515711/05/07 23:55:31  5-MIN KMKG 060455Z 29020G32KT 10SM SCT035 OVC048 04/M03 A2977 770 59 -200 300/20G32 RMK AO2 PK WND 31032/0453 SLP084 T00441028 401220039 $
14840KMKG MKG20071106000013711/06/07 00:00:32  5-MIN KMKG 060500Z 29021G32KT 10SM SCT035 BKN045 OVC050 04/M03 A2977 770 59 -200 290/21G32 RMK AO2 PK WND 29030/0456 $
14840KMKG MKG20071106000514511/06/07 00:05:31  5-MIN KMKG 060505Z 30022G32KT 10SM SCT035 OVC045 04/M03 A2977 770 59 -200 300/22G32 RMK AO2 PK WND 29032/0504 CIG 038 RWY 14 $
14840KMKG MKG20071106001013011/06/07 00:10:31  5-MIN KMKG 060510Z 29019G32KT 10SM SCT035 OVC044 04/M03 A2977 770 59 -200 300/19G32 RMK AO2 PK WND 29032/0504 $
14840KMKG MKG20071106001513011/06/07 00:15:31  5-MIN KMKG 060515Z 29020G30KT 10SM SCT036 OVC046 04/M03 A2977 770 59 -200 290/20G30 RMK AO2 PK WND 29032/0504 $
14840KMKG MKG20071106002013711/06/07 00:20:31  5-MIN KMKG 060520Z 30016G30KT 10SM SCT036 BKN042 OVC049 04/M03 A2977 770 59 -200 300/16G30 RMK AO2 PK WND 29032/0504 $
14840KMKG MKG20071106002513011/06/07 00:25:31  5-MIN KMKG 060525Z 29019G29KT 10SM FEW030 OVC040 04/M03 A2978 760 59 -200 300/19G29 RMK AO2 PK WND 29032/0504 $
14840KMKG MKG20071106003013711/06/07 00:30:31  5-MIN KMKG 060530Z 29021G29KT 10SM FEW030 BKN038 OVC045 04/M03 A2977 770 59 -200 300/21G29 RMK AO2 PK WND 29032/0504 $
14840KMKG MKG20071106003513711/06/07 00:35:31  5-MIN KMKG 060535Z 29023G33KT 10SM FEW030 BKN035 OVC045 04/M02 A2978 760 62 -200 290/23G33 RMK AO2 PK WND 28033/0535 $
14840KMKG MKG20071106004013711/06/07 00:40:31  5-MIN KMKG 060540Z 29019G33KT 10SM FEW030 BKN040 OVC050 04/M03 A2977 770 59 -200 300/19G33 RMK AO2 PK WND 28033/0535 $
14840KMKG MKG20071106004513011/06/07 00:45:31  5-MIN KMKG 060545Z 28020G29KT 10SM BKN036 OVC043 04/M03 A2977 770 59 -200 280/20G29 RMK AO2 PK WND 28033/0535 $
14840KMKG MKG20071106005017111/06/07 00:50:31  5-MIN KMKG 060550Z 29022G33KT 10SM BKN036 OVC043 04/M03 A2977 770 59 -200 300/22G33 RMK AO2 PK WND 30033/0548 SLP085 60000 T00441028 10067 20044 51012 $
14840KMKG MKG20071106005517811/06/07 00:55:31  5-MIN KMKG 060555Z 29015G33KT 10SM SCT032 BKN040 OVC047 04/M02 A2977 770 62 -200 300/15G33 RMK AO2 PK WND 30033/0548 SLP086 60000 T00441022 10067 20044 53004 $
14840KMKG MKG20071106010013711/06/07 01:00:31  5-MIN KMKG 060600Z 29021G28KT 10SM BKN035 BKN041 OVC048 04/M02 A2977 770 62 -200 290/21G28 RMK AO2 PK WND 29028/0559 $
14840KMKG MKG20071106010513011/06/07 01:05:31  5-MIN KMKG 060605Z 29020G28KT 10SM BKN035 OVC043 04/M02 A2977 770 62 -200 300/20G28 RMK AO2 PK WND 29028/0605 $
14840KMKG MKG20071106011013011/06/07 01:10:31  5-MIN KMKG 060610Z 28024G34KT 10SM BKN035 OVC043 04/M02 A2977 770 62 -200 280/24G34 RMK AO2 PK WND 28034/0609 $
14840KMKG MKG20071106011513711/06/07 01:15:31  5-MIN KMKG 060615Z 29023G34KT 10SM FEW027 BKN035 OVC043 04/M02 A2976 780 62 -200 290/23G34 RMK AO2 PK WND 28034/0609 $
14840KMKG MKG20071106012013011/06/07 01:20:31  5-MIN KMKG 060620Z 29021G32KT 10SM SCT035 OVC041 04/M02 A2977 770 62 -200 290/21G32 RMK AO2 PK WND 28034/0609 $
14840KMKG MKG20071106012513711/06/07 01:25:31  5-MIN KMKG 060625Z 28019G29KT 10SM FEW027 BKN035 OVC045 04/M02 A2976 780 62 -200 290/19G29 RMK AO2 PK WND 28034/0609 $
14840KMKG MKG20071106013013711/06/07 01:30:31  5-MIN KMKG 060630Z 29019G27KT 10SM FEW027 BKN035 OVC042 04/M02 A2976 780 62 -200 300/19G27 RMK AO2 PK WND 28034/0609 $
14840KMKG MKG20071106013513711/06/07 01:35:31  5-MIN KMKG 060635Z 29020G33KT 10SM FEW027 BKN035 OVC042 04/M02 A2976 770 62 -200 300/20G33 RMK AO2 PK WND 28034/0609 $
14840KMKG MKG20071106014013711/06/07 01:40:31  5-MIN KMKG 060640Z 30020G33KT 10SM SCT031 BKN040 OVC047 04/M02 A2977 770 62 -200 300/20G33 RMK AO2 PK WND 28034/0609 $
14840KMKG MKG20071106014513711/06/07 01:45:31  5-MIN KMKG 060645Z 29021G30KT 10SM SCT031 BKN038 OVC045 04/M02 A2977 770 62 -200 300/21G30 RMK AO2 PK WND 28034/0609 $
14840KMKG MKG20071106015015411/06/07 01:50:31  5-MIN KMKG 060650Z 28021G30KT 10SM SCT029 BKN040 OVC050 04/M02 A2976 780 62 -200 290/21G30 RMK AO2 PK WND 28034/0609 SLP082 T00441022 $
14840KMKG MKG20071106015515411/06/07 01:55:31  5-MIN KMKG 060655Z 29017G30KT 10SM FEW030 BKN037 OVC049 04/M02 A2976 780 64 -200 300/17G30 RMK AO2 PK WND 28034/0609 SLP081 T00441017 $
14840KMKG MKG20071106020013711/06/07 02:00:31  5-MIN KMKG 060700Z 29020G31KT 10SM SCT030 BKN041 OVC050 04/M02 A2976 780 64 -200 290/20G31 RMK AO2 PK WND 28031/0659 $
14840KMKG MKG20071106020513711/06/07 02:05:31  5-MIN KMKG 060705Z 30019G31KT 10SM FEW028 BKN039 OVC048 04/M02 A2976 780 64 -200 300/19G31 RMK AO2 PK WND 28031/0659 $
14840KMKG MKG20071106021013711/06/07 02:10:31  5-MIN KMKG 060710Z 29021G32KT 10SM FEW028 BKN039 OVC048 04/M02 A2976 780 62 -200 290/21G32 RMK AO2 PK WND 27032/0708 $
14840KMKG MKG20071106021513711/06/07 02:15:31  5-MIN KMKG 060715Z 29021G32KT 10SM FEW028 BKN038 OVC047 04/M02 A2976 770 62 -200 290/21G32 RMK AO2 PK WND 27032/0708 $
14840KMKG MKG20071106022013711/06/07 02:20:31  5-MIN KMKG 060720Z 29019G30KT 10SM FEW029 BKN038 OVC047 04/M02 A2976 780 62 -200 290/19G30 RMK AO2 PK WND 27032/0708 $
14840KMKG MKG20071106022513711/06/07 02:25:31  5-MIN KMKG 060725Z 28023G34KT 10SM FEW029 SCT034 OVC046 04/M02 A2976 780 62 -200 280/23G34 RMK AO2 PK WND 30034/0725 $
14840KMKG MKG20071106023013711/06/07 02:30:31  5-MIN KMKG 060730Z 29022G34KT 10SM FEW029 BKN038 OVC048 04/M02 A2977 770 62 -200 290/22G34 RMK AO2 PK WND 29034/0727 $
14840KMKG MKG20071106023513711/06/07 02:35:31  5-MIN KMKG 060735Z 29017G34KT 10SM FEW029 BKN038 OVC048 04/M02 A2976 780 62 -200 290/17G34 RMK AO2 PK WND 29034/0727 $
14840KMKG MKG20071106024013711/06/07 02:40:31  5-MIN KMKG 060740Z 30018G29KT 10SM FEW029 BKN036 OVC047 04/M02 A2977 770 62 -200 300/18G29 RMK AO2 PK WND 29034/0727 $
14840KMKG MKG20071106024513711/06/07 02:45:31  5-MIN KMKG 060745Z 29023G37KT 10SM SCT030 BKN039 OVC047 04/M02 A2976 780 64 -200 300/23G37 RMK AO2 PK WND 30037/0744 $
14840KMKG MKG20071106025015411/06/07 02:50:31  5-MIN KMKG 060750Z 29023G37KT 10SM FEW030 BKN038 OVC047 04/M03 A2977 770 59 -200 290/23G37 RMK AO2 PK WND 30037/0744 SLP083 T00441028 $
14840KMKG MKG20071106025515411/06/07 02:55:31  5-MIN KMKG 060755Z 29025G34KT 10SM FEW030 BKN038 OVC049 04/M02 A2976 780 62 -200 290/25G34 RMK AO2 PK WND 30037/0744 SLP082 T00441022 $
14840KMKG MKG20071106030015511/06/07 03:00:31  5-MIN KMKG 060800Z 29024G34KT 10SM -RA FEW030 BKN038 OVC049 04/M02 A2976 780 62 -200 300/24G34 RMK AO2 PK WND 28032/0800 RAB0759 P0000 $
14840KMKG MKG20071106030515511/06/07 03:05:31  5-MIN KMKG 060805Z 30020G33KT 10SM -RA SCT030 BKN038 OVC049 04/M02 A2976 780 64 -200 300/20G33 RMK AO2 PK WND 28033/0803 RAB0759 P0000 $
14840KMKG MKG20071106031015511/06/07 03:10:31  5-MIN KMKG 060810Z 30020G33KT 10SM -RA SCT030 BKN038 OVC046 04/M02 A2976 780 64 -200 300/20G33 RMK AO2 PK WND 28033/0803 RAB0759 P0000 $
14840KMKG MKG20071106031514811/06/07 03:15:31  5-MIN KMKG 060815Z 29022G39KT 10SM -RA SCT030 OVC041 04/M02 A2976 780 64 -200 290/22G39 RMK AO2 PK WND 30039/0813 RAB0759 P0000 $
14840KMKG MKG20071106032015511/06/07 03:20:31  5-MIN KMKG 060820Z 29020G39KT 10SM -RA SCT030 BKN040 OVC047 04/M02 A2976 780 64 -200 290/20G39 RMK AO2 PK WND 30039/0813 RAB0759 P0000 $
14840KMKG MKG20071106032515511/06/07 03:25:31  5-MIN KMKG 060825Z 29021G34KT 10SM -RA FEW030 SCT037 OVC046 05/M02 A2976 780 62 -200 300/21G34 RMK AO2 PK WND 30039/0813 RAB0759 P0000 $
14840KMKG MKG20071106033015511/06/07 03:30:31  5-MIN KMKG 060830Z 29016G34KT 10SM -RA FEW030 BKN047 OVC055 05/M02 A2976 780 59 -200 300/16G34 RMK AO2 PK WND 30039/0813 RAB0759 P0000 $
14840KMKG MKG20071106033515511/06/07 03:35:31  5-MIN KMKG 060835Z 30019G35KT 10SM -RA FEW030 BKN047 OVC055 05/M02 A2976 780 59 -100 300/19G35 RMK AO2 PK WND 30039/0813 RAB0759 P0000 $
14840KMKG MKG20071106034015511/06/07 03:40:31  5-MIN KMKG 060840Z 30016G35KT 10SM -RA SCT035 BKN047 OVC055 05/M02 A2976 780 59 -200 300/16G35 RMK AO2 PK WND 30039/0813 RAB0759 P0000 $
14840KMKG MKG20071106034515511/06/07 03:45:31  5-MIN KMKG 060845Z 30021G34KT 10SM -RA SCT037 BKN050 OVC060 05/M02 A2976 780 59 -100 300/21G34 RMK AO2 PK WND 30039/0813 RAB0759 P0000 $
14840KMKG MKG20071106035018411/06/07 03:50:31  5-MIN KMKG 060850Z 29022G37KT 10SM -RA SCT035 BKN050 OVC060 05/M02 A2975 780 59 -100 290/22G37 RMK AO2 PK WND 30039/0813 RAB0759 SLP080 P0000 60000 T00501022 53004 $
14840KMKG MKG20071106035517611/06/07 03:55:31  5-MIN KMKG 060855Z 30021G37KT 10SM SCT035 OVC055 05/M02 A2976 780 59 -100 300/21G37 RMK AO2 PK WND 30039/0813 RAB0759E54 SLP081 P0000 60000 T00501022 56006 $
14840KMKG MKG20071106040013711/06/07 04:00:31  5-MIN KMKG 060900Z 29020G31KT 10SM SCT037 BKN048 OVC060 05/M02 A2976 780 59 -200 300/20G31 RMK AO2 PK WND 30031/0900 $
14840KMKG MKG20071106040513711/06/07 04:05:31  5-MIN KMKG 060905Z 29025G36KT 10SM SCT034 BKN043 OVC055 05/M02 A2975 790 59 -100 290/25G36 RMK AO2 PK WND 30036/0905 $
14840KMKG MKG20071106041013711/06/07 04:10:31  5-MIN KMKG 060910Z 29021G36KT 10SM SCT034 SCT043 OVC055 05/M02 A2976 780 59 -100 300/21G36 RMK AO2 PK WND 30036/0905 $
14840KMKG MKG20071106041513711/06/07 04:15:31  5-MIN KMKG 060915Z 29023G35KT 10SM SCT034 SCT041 OVC055 05/M02 A2976 780 59 -100 290/23G35 RMK AO2 PK WND 30036/0905 $
14840KMKG MKG20071106042013711/06/07 04:20:31  5-MIN KMKG 060920Z 29026G35KT 10SM SCT034 SCT041 OVC055 05/M03 A2975 790 57 -100 290/26G35 RMK AO2 PK WND 30036/0905 $
14840KMKG MKG20071106042513711/06/07 04:25:31  5-MIN KMKG 060925Z 29021G35KT 10SM SCT034 BKN041 OVC055 05/M03 A2975 790 57 -100 300/21G35 RMK AO2 PK WND 30036/0905 $
14840KMKG MKG20071106043013011/06/07 04:30:31  5-MIN KMKG 060930Z 29022G35KT 10SM SCT034 OVC050 05/M03 A2975 790 57 -100 290/22G35 RMK AO2 PK WND 30036/0905 $
14840KMKG MKG20071106043514611/06/07 04:35:31  5-MIN KMKG 060935Z 28017G33KT 10SM -RA SCT036 OVC047 04/M03 A2975 790 59 -200 280/17G33 RMK AO2 PK WND 30036/0905 RAB32 P0000 $
14840KMKG MKG20071106044014611/06/07 04:40:31  5-MIN KMKG 060940Z 29022G31KT 10SM -RA SCT036 OVC047 04/M02 A2976 780 62 -200 300/22G31 RMK AO2 PK WND 30036/0905 RAB32 P0000 $
14840KMKG MKG20071106044514611/06/07 04:45:31  5-MIN KMKG 060945Z 29018G32KT 10SM -RA SCT037 OVC047 04/M02 A2976 780 64 -200 300/18G32 RMK AO2 PK WND 30036/0905 RAB32 P0000 $
14840KMKG MKG20071106045017811/06/07 04:50:31  5-MIN KMKG 060950Z 28022G34KT 10SM -RA SCT037 OVC047 04/M02 A2976 780 62 -200 290/22G34 RMK AO2 PK WND 30036/0905 RAB32 CIG 037 RWY 14 SLP080 P0000 T00441022 $
14840KMKG MKG20071106045517811/06/07 04:55:31  5-MIN KMKG 060955Z 29021G34KT 10SM -RA SCT037 OVC047 04/M02 A2975 790 64 -200 290/21G34 RMK AO2 PK WND 30036/0905 RAB32 CIG 035 RWY 14 SLP080 P0000 T00441017 $
14840KMKG MKG20071106050015511/06/07 05:00:31  5-MIN KMKG 061000Z 28022G33KT 10SM -RA SCT033 OVC044 04/M02 A2976 780 64 -200 290/22G33 RMK AO2 PK WND 27033/1000 CIG 035 RWY 14 P0000 $
14840KMKG MKG20071106050514711/06/07 05:05:31  5-MIN KMKG 061005Z 29023G33KT 10SM -RA FEW030 BKN038 OVC046 04/M02 A2976 780 64 -200 290/23G33 RMK AO2 PK WND 29033/1005 P0000 $
14840KMKG MKG20071106051014711/06/07 05:10:31  5-MIN KMKG 061010Z 29018G39KT 10SM -RA SCT030 BKN038 OVC046 04/M02 A2976 780 67 -300 300/18G39 RMK AO2 PK WND 28039/1006 P0000 $
14840KMKG MKG20071106051514511/06/07 05:15:31  5-MIN KMKG 061015Z 29020G39KT 8SM RA FEW018 BKN032 OVC046 04/M01 A2977 770 70 -300 290/20G39 RMK AO2 PK WND 28039/1006 P0001 $
14840KMKG MKG20071106052014611/06/07 05:20:31  5-MIN KMKG 061020Z 29025G35KT 8SM -RA FEW018 BKN035 OVC044 04/M01 A2977 770 70 -300 290/25G35 RMK AO2 PK WND 28039/1006 P0001 $
14840KMKG MKG20071106052514711/06/07 05:25:31  5-MIN KMKG 061025Z 31024G37KT 10SM -RA SCT024 BKN032 OVC041 04/M01 A2977 770 70 -300 310/24G37 RMK AO2 PK WND 28039/1006 P0001 $
14840KMKG MKG20071106053014011/06/07 05:30:31  5-MIN KMKG 061030Z 30019G37KT 10SM -RA BKN027 OVC034 04/M02 A2977 770 67 -300 300/19G37 RMK AO2 PK WND 28039/1006 P0001 $
14840KMKG MKG20071106053514711/06/07 05:35:31  5-MIN KMKG 061035Z 30020G34KT 10SM -RA SCT025 BKN032 OVC042 04/M02 A2976 780 67 -300 310/20G34 RMK AO2 PK WND 28039/1006 P0001 $
14840KMKG MKG20071106054014711/06/07 05:40:31  5-MIN KMKG 061040Z 29022G34KT 10SM -RA SCT025 BKN032 OVC042 04/M02 A2976 780 67 -300 300/22G34 RMK AO2 PK WND 28039/1006 P0001 $
14840KMKG MKG20071106054514711/06/07 05:45:31  5-MIN KMKG 061045Z 30018G32KT 10SM -RA BKN032 BKN040 OVC048 04/M02 A2976 770 67 -300 300/18G32 RMK AO2 PK WND 28039/1006 P0001 $
14840KMKG MKG20071106055016411/06/07 05:50:31  5-MIN KMKG 061050Z 30024G35KT 10SM -RA BKN031 BKN039 OVC048 04/M02 A2976 770 67 -300 300/24G35 RMK AO2 PK WND 28039/1006 SLP083 P0001 T00391017 $
14840KMKG MKG20071106055515711/06/07 05:55:31  5-MIN KMKG 061055Z 30017G35KT 10SM -RA BKN033 OVC050 04/M02 A2976 780 67 -300 300/17G35 RMK AO2 PK WND 28039/1006 SLP081 P0001 T00391017 $
14840KMKG MKG20071106060012911/06/07 06:00:31  5-MIN KMKG 061100Z 31017G30KT 10SM -RA BKN031 BKN039 OVC048 04/M02 A2976 780 67 -300 310/17G30 RMK AO2 P0000 $
14840KMKG MKG20071106060514711/06/07 06:05:31  5-MIN KMKG 061105Z 30014G30KT 10SM -RA BKN033 BKN040 OVC048 04/M02 A2976 770 64 -200 300/14G30 RMK AO2 PK WND 29030/1105 P0000 $
14840KMKG MKG20071106061014011/06/07 06:10:31  5-MIN KMKG 061110Z 30019G30KT 10SM -RA BKN035 OVC045 04/M02 A2977 770 62 -200 300/19G30 RMK AO2 PK WND 29030/1105 P0000 $
14840KMKG MKG20071106061514011/06/07 06:15:31  5-MIN KMKG 061115Z 30020G29KT 10SM -RA BKN035 OVC045 04/M02 A2976 770 62 -200 300/20G29 RMK AO2 PK WND 29030/1105 P0000 $
14840KMKG MKG20071106062014211/06/07 06:20:31  5-MIN KMKG 061120Z 31022G32KT 10SM BKN035 OVC047 04/M03 A2977 770 59 -200 310/22G32 RMK AO2 PK WND 31032/1119 RAE20 P0000 $
14840KMKG MKG20071106062514011/06/07 06:25:31  5-MIN KMKG 061125Z 30017G32KT 10SM -RA SCT037 OVC047 04/M02 A2977 770 62 -200 310/17G32 RMK AO2 PK WND 31032/1119 P0000 $
14840KMKG MKG20071106063014011/06/07 06:30:31  5-MIN KMKG 061130Z 30016G31KT 10SM -RA BKN040 OVC050 04/M03 A2976 770 59 -200 310/16G31 RMK AO2 PK WND 31032/1119 P0001 $
14840KMKG MKG20071106063514711/06/07 06:35:31  5-MIN KMKG 061135Z 30024G37KT 10SM -RA SCT036 BKN046 OVC055 04/M03 A2976 770 59 -200 310/24G37 RMK AO2 PK WND 33037/1133 P0001 $
14840KMKG MKG20071106064016411/06/07 06:40:31  5-MIN KMKG 061140Z 31022G37KT 10SM SCT038 BKN046 OVC060 04/M03 A2977 770 57 -200 310/22G37 RMK AO2 PK WND 33037/1133 RAE36 CIG 039 RWY 14 P0001 $
14840KMKG MKG20071106064514211/06/07 06:45:31  5-MIN KMKG 061145Z 30025G39KT 10SM BKN042 OVC055 04/M03 A2978 760 57 -200 310/25G39 RMK AO2 PK WND 30039/1142 RAE36 P0001 $
14840KMKG MKG20071106065019411/06/07 06:50:31  5-MIN KMKG 061150Z 30019G39KT 10SM -RA SCT037 BKN048 OVC070 04/M03 A2977 770 59 -200 310/19G39 RMK AO2 PK WND 30039/1142 SLP087 P0001 60002 70005 T00441028 10050 20039 56006 $
14840KMKG MKG20071106065519411/06/07 06:55:31  5-MIN KMKG 061155Z 31019G34KT 10SM -RA SCT037 BKN048 OVC060 04/M02 A2978 760 62 -200 310/19G34 RMK AO2 PK WND 30039/1142 SLP090 P0001 60002 70005 T00441022 10050 20039 53009 $
14840KMKG MKG20071106070014711/06/07 07:00:31  5-MIN KMKG 061200Z 30022G35KT 10SM -RA SCT037 BKN046 OVC085 04/M02 A2979 750 62 -300 300/22G35 RMK AO2 PK WND 30035/1200 P0000 $
14840KMKG MKG20071106070516211/06/07 07:05:31  5-MIN KMKG 061205Z 31025G40KT 10SM -RA FEW029 BKN046 OVC085 04/M02 A2980 750 64 -300 310/25G40 RMK AO2 PK WND 30040/1205 CIG 036 RWY 14 P0000 $
14840KMKG MKG20071106071014711/06/07 07:10:31  5-MIN KMKG 061210Z 31024G40KT 10SM -RA SCT030 BKN036 OVC090 04/M02 A2979 750 67 -300 320/24G40 RMK AO2 PK WND 30040/1205 P0000 $
14840KMKG MKG20071106071514711/06/07 07:15:31  5-MIN KMKG 061215Z 30020G36KT 10SM -RA SCT029 BKN037 OVC060 03/M02 A2979 750 70 -400 310/20G36 RMK AO2 PK WND 30040/1205 P0000 $
14840KMKG MKG20071106072016211/06/07 07:20:31  5-MIN KMKG 061220Z 31015G34KT 10SM -RA FEW027 BKN049 OVC060 04/M02 A2979 750 67 -300 310/15G34 RMK AO2 PK WND 30040/1205 CIG 039 RWY 14 P0000 $
14840KMKG MKG20071106072516211/06/07 07:25:31  5-MIN KMKG 061225Z 31019G34KT 10SM -RA SCT030 BKN050 OVC065 04/M02 A2979 750 67 -300 310/19G34 RMK AO2 PK WND 30040/1205 CIG 039 RWY 14 P0000 $
14840KMKG MKG20071106073016211/06/07 07:30:31  5-MIN KMKG 061230Z 30018G36KT 10SM -RA SCT032 BKN050 OVC065 04/M02 A2979 750 67 -300 300/18G36 RMK AO2 PK WND 30040/1205 CIG 039 RWY 14 P0000 $
14840KMKG MKG20071106073516211/06/07 07:35:31  5-MIN KMKG 061235Z 31023G36KT 10SM -RA FEW030 BKN055 OVC065 04/M02 A2980 750 67 -300 310/23G36 RMK AO2 PK WND 30040/1205 CIG 047 RWY 14 P0000 $
14840KMKG MKG20071106074014511/06/07 07:40:31  5-MIN KMKG 061240Z 30021G32KT 10SM -RA SCT033 BKN055 OVC065 04/M02 A2980 740 67 -300 310/21G32 RMK AO2 PK WND 30040/1205 P0000
14840KMKG MKG20071106074514511/06/07 07:45:31  5-MIN KMKG 061245Z 31024G35KT 10SM -RA SCT029 BKN037 OVC065 04/M02 A2980 740 67 -300 320/24G35 RMK AO2 PK WND 30040/1205 P0000
14840KMKG MKG20071106075016211/06/07 07:50:31  5-MIN KMKG 061250Z 31018G35KT 10SM -RA BKN031 BKN037 OVC065 04/M02 A2981 730 67 -300 320/18G35 RMK AO2 PK WND 30040/1205 SLP098 P0000 T00391017
14840KMKG MKG20071106075516211/06/07 07:55:31  5-MIN KMKG 061255Z 32022G33KT 10SM -RA SCT028 BKN033 OVC060 04/M02 A2981 730 67 -300 320/22G33 RMK AO2 PK WND 30040/1205 SLP099 P0000 T00391017
14840KMKG MKG20071106080016011/06/07 08:00:31  5-MIN KMKG 061300Z 31024G37KT 10SM -RA SCT026 BKN033 OVC048 04/M02 A2981 730 67 -300 310/24G37 RMK AO2 PK WND 32037/1300 CIG 028 RWY 14 P0000
14840KMKG MKG20071106080513811/06/07 08:05:31  5-MIN KMKG 061305Z 31022G37KT 10SM -RA BKN026 OVC034 04/M02 A2982 730 67 -400 310/22G37 RMK AO2 PK WND 32037/1300 P0000
14840KMKG MKG20071106081013811/06/07 08:10:31  5-MIN KMKG 061310Z 31022G40KT 10SM -RA BKN026 OVC034 03/M01 A2981 730 72 -400 320/22G40 RMK AO2 PK WND 32040/1307 P0000
14840KMKG MKG20071106081514511/06/07 08:15:31  5-MIN KMKG 061315Z 30021G40KT 10SM -RA BKN026 BKN036 OVC045 03/M01 A2982 720 72 -400 310/21G40 RMK AO2 PK WND 32040/1307 P0000
14840KMKG MKG20071106082014511/06/07 08:20:31  5-MIN KMKG 061320Z 30026G40KT 10SM -RA BKN026 BKN034 OVC045 04/M01 A2982 720 70 -400 300/26G40 RMK AO2 PK WND 29040/1320 P0000
14840KMKG MKG20071106082514511/06/07 08:25:31  5-MIN KMKG 061325Z 32024G40KT 10SM -RA BKN026 BKN034 OVC045 03/M02 A2983 720 70 -400 320/24G40 RMK AO2 PK WND 29040/1320 P0000
14840KMKG MKG20071106083014511/06/07 08:30:31  5-MIN KMKG 061330Z 31019G34KT 10SM -RA BKN026 BKN036 OVC045 03/M01 A2984 710 72 -400 310/19G34 RMK AO2 PK WND 29040/1320 P0000
14840KMKG MKG20071106083516011/06/07 08:35:31  5-MIN KMKG 061335Z 30017G34KT 10SM -RA SCT024 BKN034 OVC045 03/M01 A2983 720 72 -400 310/17G34 RMK AO2 PK WND 29040/1320 CIG 026 RWY 14 P0000
14840KMKG MKG20071106084013711/06/07 08:40:31  5-MIN KMKG 061340Z 30019G34KT 9SM -RA BKN024 OVC034 03/M01 A2983 710 72 -400 310/19G34 RMK AO2 PK WND 29040/1320 P0000
14840KMKG MKG20071106084514511/06/07 08:45:31  5-MIN KMKG 061345Z 31020G35KT 10SM -RA SCT022 BKN027 OVC033 03/M01 A2984 710 76 -400 320/20G35 RMK AO2 PK WND 29040/1320 P0000
14840KMKG MKG20071106085016211/06/07 08:50:31  5-MIN KMKG 061350Z 31022G35KT 10SM -RA FEW022 BKN027 OVC041 03/M02 A2984 700 70 -500 320/22G35 RMK AO2 PK WND 29040/1320 SLP109 P0000 T00331017
14840KMKG MKG20071106085516211/06/07 08:55:31  5-MIN KMKG 061355Z 31019G35KT 10SM -RA FEW022 BKN029 OVC043 04/M02 A2985 700 67 -400 320/19G35 RMK AO2 PK WND 29040/1320 SLP112 P0000 T00391017
14840KMKG MKG20071106090014511/06/07 09:00:31  5-MIN KMKG 061400Z 31021G35KT 10SM -RA FEW022 BKN033 OVC041 03/M02 A2985 690 70 -500 310/21G35 RMK AO2 PK WND 32030/1400 P0000
14840KMKG MKG20071106090514511/06/07 09:05:31  5-MIN KMKG 061405Z 31021G32KT 10SM -RA SCT024 BKN033 OVC041 04/M01 A2985 690 70 -400 320/21G32 RMK AO2 PK WND 33032/1405 P0000
14840KMKG MKG20071106091014511/06/07 09:10:31  5-MIN KMKG 061410Z 32020G32KT 10SM -RA SCT026 BKN034 OVC044 03/M01 A2986 690 72 -500 320/20G32 RMK AO2 PK WND 33032/1405 P0000
14840KMKG MKG20071106091513811/06/07 09:15:31  5-MIN KMKG 061415Z 30020G33KT 10SM -RA BKN026 OVC036 03/M01 A2985 690 76 -500 310/20G33 RMK AO2 PK WND 33033/1415 P0000
14840KMKG MKG20071106092014411/06/07 09:20:31  5-MIN KMKG 061420Z 31022G33KT 9SM -RA BKN022 BKN028 OVC041 03/M01 A2986 680 76 -500 310/22G33 RMK AO2 PK WND 33033/1418 P0000
14840KMKG MKG20071106092515911/06/07 09:25:31  5-MIN KMKG 061425Z 30019G33KT 7SM -RA SCT020 BKN026 OVC039 03/M01 A2986 690 76 -500 310/19G33 RMK AO2 PK WND 31033/1422 CIG 021 RWY 14 P0000
14840KMKG MKG20071106093014411/06/07 09:30:31  5-MIN KMKG 061430Z 31021G33KT 8SM -RA BKN022 BKN026 OVC032 03/M01 A2986 680 76 -500 310/21G33 RMK AO2 PK WND 31033/1422 P0000
14840KMKG MKG20071106093513711/06/07 09:35:31  5-MIN KMKG 061435Z 31017G31KT 9SM -RA BKN022 OVC026 03/M01 A2987 680 76 -500 320/17G31 RMK AO2 PK WND 31033/1422 P0001
14840KMKG MKG20071106094014411/06/07 09:40:31  5-MIN KMKG 061440Z 32023G38KT 7SM -RA FEW016 BKN020 OVC026 03/M01 A2987 680 76 -500 320/23G38 RMK AO2 PK WND 31038/1438 P0001
14840KMKG MKG20071106094514311/06/07 09:45:31  5-MIN KMKG 061445Z 31020G38KT 8SM -RA FEW016 BKN022 OVC029 03/00 A2987 680 79 -500 320/20G38 RMK AO2 PK WND 31038/1438 P0001
14840KMKG MKG20071106095016611/06/07 09:50:31  5-MIN KMKG 061450Z 32018G37KT 10SM -RA BKN022 OVC029 03/00 A2988 670 79 -500 320/18G37 RMK AO2 PK WND 31038/1438 SLP122 P0001 60001 T00330000 53009
14840KMKG MKG20071106095516511/06/07 09:55:31  5-MIN KMKG 061455Z 32021G34KT 9SM -RA BKN022 OVC027 03/00 A2987 670 79 -500 320/21G34 RMK AO2 PK WND 31038/1438 SLP122 P0001 60001 T00330000 51030
14840KMKG MKG20071106100013611/06/07 10:00:31  5-MIN KMKG 061500Z 31015G34KT 9SM -RA BKN022 OVC029 03/00 A2988 670 79 -500 310/15G34 RMK AO2 PK WND 33028/1458 P0000
14840KMKG MKG20071106100513711/06/07 10:05:31  5-MIN KMKG 061505Z 31021G37KT 10SM -RA BKN020 OVC027 03/00 A2987 670 79 -500 320/21G37 RMK AO2 PK WND 32037/1502 P0001
14840KMKG MKG20071106101013611/06/07 10:10:31  5-MIN KMKG 061510Z 32023G37KT 8SM -RA BKN022 OVC027 03/00 A2989 660 79 -500 320/23G37 RMK AO2 PK WND 32037/1502 P0001
14840KMKG MKG20071106101513611/06/07 10:15:31  5-MIN KMKG 061515Z 31022G34KT 6SM -RA BKN022 OVC027 03/00 A2989 660 79 -500 320/22G34 RMK AO2 PK WND 32037/1502 P0001
14840KMKG MKG20071106102013611/06/07 10:20:31  5-MIN KMKG 061520Z 32022G34KT 7SM -RA BKN020 OVC027 03/00 A2990 650 79 -500 320/22G34 RMK AO2 PK WND 32037/1502 P0001
14840KMKG MKG20071106102513611/06/07 10:25:31  5-MIN KMKG 061525Z 32018G33KT 9SM -RA BKN020 OVC027 03/00 A2990 650 79 -500 330/18G33 RMK AO2 PK WND 32037/1502 P0001
14840KMKG MKG20071106103013711/06/07 10:30:31  5-MIN KMKG 061530Z 32018G30KT 10SM -RA BKN020 OVC027 03/00 A2990 650 79 -500 320/18G30 RMK AO2 PK WND 32037/1502 P0001
14840KMKG MKG20071106103513711/06/07 10:35:31  5-MIN KMKG 061535Z 32026G32KT 10SM -RA BKN020 OVC027 03/00 A2991 640 79 -500 320/26G32 RMK AO2 PK WND 32037/1502 P0001
14840KMKG MKG20071106104013711/06/07 10:40:31  5-MIN KMKG 061540Z 32022G32KT 10SM -RA BKN020 OVC025 03/01 A2991 640 82 -500 320/22G32 RMK AO2 PK WND 32037/1502 P0001
14840KMKG MKG20071106104513711/06/07 10:45:31  5-MIN KMKG 061545Z 31020G32KT 10SM -RA BKN020 OVC027 03/01 A2991 640 82 -500 320/20G32 RMK AO2 PK WND 32037/1502 P0002
14840KMKG MKG20071106105015411/06/07 10:50:31  5-MIN KMKG 061550Z 31019G31KT 10SM -RA BKN020 OVC027 04/01 A2992 630 79 -500 320/19G31 RMK AO2 PK WND 32037/1502 SLP136 P0002 T00390006
14840KMKG MKG20071106105515411/06/07 10:55:31  5-MIN KMKG 061555Z 31017G30KT 10SM -RA BKN018 OVC026 04/01 A2991 640 79 -500 320/17G30 RMK AO2 PK WND 32037/1502 SLP134 P0002 T00390006
14840KMKG MKG20071106110013711/06/07 11:00:31  5-MIN KMKG 061600Z 32017G26KT 10SM -RA BKN018 OVC026 04/01 A2991 640 79 -500 320/17G26 RMK AO2 PK WND 33026/1557 P0000
14840KMKG MKG20071106110513711/06/07 11:05:31  5-MIN KMKG 061605Z 32021G33KT 10SM -RA BKN018 OVC024 03/01 A2993 630 82 -500 320/21G33 RMK AO2 PK WND 31033/1601 P0000
14840KMKG MKG20071106111013611/06/07 11:10:31  5-MIN KMKG 061610Z 31020G33KT 9SM -RA BKN016 OVC022 04/01 A2993 620 82 -500 320/20G33 RMK AO2 PK WND 31033/1601 P0000
14840KMKG MKG20071106111513611/06/07 11:15:31  5-MIN KMKG 061615Z 31020G31KT 9SM -RA BKN016 OVC024 04/01 A2993 620 82 -500 320/20G31 RMK AO2 PK WND 31033/1601 P0000
14840KMKG MKG20071106112013711/06/07 11:20:31  5-MIN KMKG 061620Z 31021G33KT 10SM -RA BKN018 OVC024 04/01 A2993 620 82 -500 310/21G33 RMK AO2 PK WND 33033/1616 P0000
14840KMKG MKG20071106112513611/06/07 11:25:31  5-MIN KMKG 061625Z 32020G33KT 9SM -RA BKN018 OVC026 04/01 A2994 620 79 -500 320/20G33 RMK AO2 PK WND 33033/1616 P0001
14840KMKG MKG20071106113014311/06/07 11:30:31  5-MIN KMKG 061630Z 32019G29KT 9SM -RA BKN018 BKN026 OVC080 04/01 A2993 620 82 -500 320/19G29 RMK AO2 PK WND 33033/1616 P0001
14840KMKG MKG20071106113514411/06/07 11:35:31  5-MIN KMKG 061635Z 32024G37KT 10SM -RA BKN016 BKN025 OVC033 04/01 A2994 610 76 -400 330/24G37 RMK AO2 PK WND 33037/1634 P0001
14840KMKG MKG20071106114014411/06/07 11:40:31  5-MIN KMKG 061640Z 32021G37KT 10SM -RA BKN018 BKN025 OVC033 04/01 A2994 610 79 -400 320/21G37 RMK AO2 PK WND 33037/1634 P0001
14840KMKG MKG20071106114513611/06/07 11:45:31  5-MIN KMKG 061645Z 32025G34KT 9SM -RA BKN018 OVC025 04/01 A2994 610 76 -400 320/25G34 RMK AO2 PK WND 33037/1634 P0001
14840KMKG MKG20071106115016011/06/07 11:50:31  5-MIN KMKG 061650Z 32020G34KT 9SM -RA SCT018 BKN025 OVC037 04/01 A2995 610 76 -400 320/20G34 RMK AO2 PK WND 33037/1634 SLP146 P0001 T00440006
14840KMKG MKG20071106115516911/06/07 11:55:31  5-MIN KMKG 061655Z 32023G36KT 10SM -RA SCT022 OVC032 04/01 A2995 610 76 -400 330/23G36 RMK AO2 PK WND 33037/1634 CIG 023 RWY 14 SLP146 P0001 T00440006
14840KMKG MKG20071106120013711/06/07 12:00:31  5-MIN KMKG 061700Z 32025G36KT 10SM -RA SCT021 OVC027 04/01 A2995 600 76 -400 320/25G36 RMK AO2 PK WND 31033/1700 P0000
14840KMKG MKG20071106120513711/06/07 12:05:31  5-MIN KMKG 061705Z 32018G34KT 10SM -RA SCT021 OVC027 04/01 A2994 610 76 -400 320/18G34 RMK AO2 PK WND 32034/1701 P0000
14840KMKG MKG20071106121013611/06/07 12:10:31  5-MIN KMKG 061710Z 32019G34KT 9SM -RA SCT021 OVC027 04/01 A2995 600 76 -400 320/19G34 RMK AO2 PK WND 32034/1701 P0000
14840KMKG MKG20071106121513711/06/07 12:15:31  5-MIN KMKG 061715Z 32020G33KT 10SM -RA FEW021 OVC027 04/01 A2995 600 79 -400 320/20G33 RMK AO2 PK WND 32034/1701 P0001
14840KMKG MKG20071106122013711/06/07 12:20:31  5-MIN KMKG 061720Z 32022G33KT 10SM -RA BKN021 OVC027 04/01 A2995 600 79 -400 320/22G33 RMK AO2 PK WND 32034/1701 P0001
14840KMKG MKG20071106122513711/06/07 12:25:31  5-MIN KMKG 061725Z 32018G33KT 10SM -RA BKN021 OVC027 04/01 A2996 600 79 -400 330/18G33 RMK AO2 PK WND 32034/1701 P0001
14840KMKG MKG20071106123015211/06/07 12:30:31  5-MIN KMKG 061730Z 32022G29KT 10SM -RA SCT019 OVC027 04/01 A2997 590 79 -500 330/22G29 RMK AO2 PK WND 32034/1701 CIG 021 RWY 14 P0001
14840KMKG MKG20071106123513711/06/07 12:35:31  5-MIN KMKG 061735Z 32020G28KT 10SM -RA BKN019 OVC027 04/02 A2997 580 82 -500 330/20G28 RMK AO2 PK WND 32034/1701 P0001
14840KMKG MKG20071106124013711/06/07 12:40:31  5-MIN KMKG 061740Z 32020G29KT 10SM -RA BKN019 OVC027 04/01 A2997 590 79 -500 320/20G29 RMK AO2 PK WND 32034/1701 P0001
14840KMKG MKG20071106124513711/06/07 12:45:31  5-MIN KMKG 061745Z 32019G29KT 10SM -RA BKN019 OVC027 04/01 A2997 580 79 -500 330/19G29 RMK AO2 PK WND 32034/1701 P0001
14840KMKG MKG20071106125018511/06/07 12:50:31  5-MIN KMKG 061750Z 33021G29KT 10SM -RA BKN019 BKN027 OVC060 05/02 A2998 580 79 -400 330/21G29 RMK AO2 PK WND 32034/1701 SLP156 P0001 60005 T00500017 10050 20033 51030
14840KMKG MKG20071106125520011/06/07 12:55:31  5-MIN KMKG 061755Z 32015G25KT 10SM -RA SCT019 BKN027 OVC060 05/02 A2998 580 79 -400 320/15G25 RMK AO2 PK WND 32034/1701 CIG 021 RWY 14 SLP156 P0001 60005 T00500017 10050 20033 51035
14840KMKG MKG20071106130014411/06/07 13:00:31  5-MIN KMKG 061800Z 33019G26KT 10SM -RA SCT019 BKN025 OVC055 05/02 A2998 570 79 -400 340/19G26 RMK AO2 PK WND 32026/1757 P0000
14840KMKG MKG20071106130514411/06/07 13:05:31  5-MIN KMKG 061805Z 32019G27KT 10SM -RA FEW019 BKN025 OVC075 05/01 A2998 580 76 -400 320/19G27 RMK AO2 PK WND 32027/1805 P0000
14840KMKG MKG20071106131014411/06/07 13:10:31  5-MIN KMKG 061810Z 33023G31KT 10SM -RA SCT023 BKN046 OVC060 06/01 A2998 580 73 -300 330/23G31 RMK AO2 PK WND 33031/1809 P0000
14840KMKG MKG20071106131514611/06/07 13:15:31  5-MIN KMKG 061815Z 33017G31KT 10SM SCT023 SCT033 OVC060 06/01 A2998 570 67 -300 330/17G31 RMK AO2 PK WND 33031/1809 RAE15 P0000
14840KMKG MKG20071106132014611/06/07 13:20:31  5-MIN KMKG 061820Z 32020G29KT 10SM SCT023 BKN034 OVC060 06/01 A2998 570 70 -300 330/20G29 RMK AO2 PK WND 33031/1809 RAE15 P0000
14840KMKG MKG20071106132514411/06/07 13:25:31  5-MIN KMKG 061825Z 32020G32KT 10SM -RA SCT025 BKN034 OVC065 06/01 A2999 560 70 -400 330/20G32 RMK AO2 PK WND 33032/1822 P0000
14840KMKG MKG20071106133014411/06/07 13:30:31  5-MIN KMKG 061830Z 33021G32KT 10SM -RA SCT025 BKN034 OVC065 06/01 A3000 560 70 -400 330/21G32 RMK AO2 PK WND 33032/1822 P0000
14840KMKG MKG20071106133514411/06/07 13:35:31  5-MIN KMKG 061835Z 33024G33KT 10SM -RA FEW025 BKN034 OVC060 06/01 A2999 560 70 -400 330/24G33 RMK AO2 PK WND 33033/1834 P0000
14840KMKG MKG20071106134014611/06/07 13:40:31  5-MIN KMKG 061840Z 33018G33KT 10SM SCT028 BKN034 BKN060 06/01 A3000 560 67 -300 330/18G33 RMK AO2 PK WND 33033/1834 RAE37 P0000
14840KMKG MKG20071106134515511/06/07 13:45:31  5-MIN KMKG 061845Z 32022G28KT 10SM -RA SCT027 BKN034 BKN055 06/01 A3000 560 67 -300 330/22G28 RMK AO2 PK WND 33033/1834 RE15B25E37 P0000
14840KMKG MKG20071106135015211/06/07 13:50:31  5-MIN KMKG 061850Z 31020G30KT 10SM -RA BKN027 BKN034 BKN055 05/01 A3000 550 73 -400 320/20G30 RMK AO2 PK WND 33033/1834 RE15B25 P0000
14840KMKG MKG20071106135518411/06/07 13:55:31  5-MIN KMKG 061855Z 33018G30KT 10SM -RA FEW020 BKN027 OVC055 05/01 A3001 550 76 -400 330/18G30 RMK AO2 PK WND 33033/1834 CIG 022 RWY 14 SLP167 RE15B25 P0000 T00500011
14840KMKG MKG20071106140013311/06/07 14:00:31  5-MIN KMKG 061900Z 34016G26KT 10SM -RA SCT020 BKN026 OVC055 05/01 A3002 540 76 -500 340/16G26 RMK AO2 PRESRR P0000
14840KMKG MKG20071106140514411/06/07 14:05:31  5-MIN KMKG 061905Z 33024G30KT 10SM -RA BKN020 BKN026 OVC055 04/01 A3002 540 79 -500 340/24G30 RMK AO2 PK WND 33030/1905 P0001
14840KMKG MKG20071106141014311/06/07 14:10:31  5-MIN KMKG 061910Z 33023G30KT 9SM -RA BKN020 BKN026 OVC030 04/01 A3002 530 76 -500 340/23G30 RMK AO2 PK WND 33030/1905 P0001
14840KMKG MKG20071106141514311/06/07 14:15:31  5-MIN KMKG 061915Z 33020G29KT 9SM -RA BKN020 BKN029 OVC055 04/01 A3002 540 79 -500 340/20G29 RMK AO2 PK WND 33030/1905 P0001
14840KMKG MKG20071106142014411/06/07 14:20:31  5-MIN KMKG 061920Z 32015G26KT 10SM -RA SCT020 BKN026 OVC055 04/01 A3002 530 79 -500 330/15G26 RMK AO2 PK WND 33030/1905 P0001
14840KMKG MKG20071106142514611/06/07 14:25:31  5-MIN KMKG 061925Z 33018G25KT 10SM SCT020 BKN038 OVC055 04/01 A3003 530 79 -500 340/18G25 RMK AO2 PK WND 33030/1905 RAE21 P0001
14840KMKG MKG20071106143015211/06/07 14:30:31  5-MIN KMKG 061930Z 34023G34KT 8SM -RA SCT020 BKN025 OVC055 04/01 A3004 520 76 -500 340/23G34 RMK AO2 PK WND 34034/1928 RAE21B28 P0001
14840KMKG MKG20071106143515211/06/07 14:35:31  5-MIN KMKG 061935Z 33019G34KT 9SM -RA SCT018 BKN030 OVC055 04/01 A3004 520 79 -600 340/19G34 RMK AO2 PK WND 34034/1928 RAE21B28 P0001
14840KMKG MKG20071106144015311/06/07 14:40:31  5-MIN KMKG 061940Z 33020G29KT 10SM -RA FEW018 BKN040 OVC055 04/01 A3004 520 79 -600 330/20G29 RMK AO2 PK WND 34034/1928 RAE21B28 P0001
14840KMKG MKG20071106144515311/06/07 14:45:31  5-MIN KMKG 061945Z 33022G33KT 10SM -RA FEW018 BKN044 OVC055 04/01 A3004 520 79 -600 340/22G33 RMK AO2 PK WND 34034/1928 RAE21B28 P0001
14840KMKG MKG20071106145017011/06/07 14:50:31  5-MIN KMKG 061950Z 33021G33KT 10SM -RA FEW022 BKN044 OVC055 04/01 A3004 520 76 -500 330/21G33 RMK AO2 PK WND 34034/1928 SLP180 RAE21B28 P0001 T00440006
14840KMKG MKG20071106145518411/06/07 14:55:31  5-MIN KMKG 061955Z 32018G29KT 10SM FEW018 SCT026 OVC055 04/01 A3004 520 76 -500 330/18G29 RMK AO2 PK WND 34034/1928 CIG 047 RWY 14 SLP180 RAE21B28E52 P0001 T00440006
14840KMKG MKG20071106150013411/06/07 15:00:31  5-MIN KMKG 062000Z 33021G27KT 10SM FEW035 SCT043 OVC055 04/01 A3005 510 76 -600 330/21G27 RMK AO2 PK WND 32027/1958
14840KMKG MKG20071106150513311/06/07 15:05:31  5-MIN KMKG 062005Z 33017G28KT 9SM FEW027 SCT043 OVC055 04/01 A3006 500 76 -600 330/17G28 RMK AO2 PK WND 32028/2001
14840KMKG MKG20071106151014911/06/07 15:10:31  5-MIN KMKG 062010Z 34020G28KT 9SM -RA FEW025 BKN045 OVC055 04/01 A3006 500 79 -600 340/20G28 RMK AO2 PK WND 32028/2001 RAB06 P0000
14840KMKG MKG20071106151516511/06/07 15:15:31  5-MIN KMKG 062015Z 32018G26KT 10SM -RA FEW027 SCT045 OVC055 04/01 A3005 510 76 -600 330/18G26 RMK AO2 PK WND 32028/2001 RAB06 CIG 045 RWY 14 P0000
14840KMKG MKG20071106152014911/06/07 15:20:31  5-MIN KMKG 062020Z 32017G24KT 10SM FEW025 SCT047 BKN055 04/00 A3006 500 73 -600 330/17G24 RMK AO2 PK WND 32028/2001 RAB06E18 P0000
14840KMKG MKG20071106152514911/06/07 15:25:31  5-MIN KMKG 062025Z 33017G25KT 10SM FEW025 SCT047 BKN060 04/00 A3006 500 73 -600 330/17G25 RMK AO2 PK WND 32028/2001 RAB06E18 P0000
14840KMKG MKG20071106153014211/06/07 15:30:31  5-MIN KMKG 062030Z 33015G28KT 10SM FEW022 BKN060 04/01 A3007 490 76 -600 340/15G28 RMK AO2 PK WND 32028/2030 RAB06E18 P0000
14840KMKG MKG20071106162514411/06/07 16:25:31  5-MIN KMKG 062125Z 33022G33KT 10SM -RA FEW017 BKN049 BKN060 04/00 A3010 470 76 -700 330/22G33 RMK AO2 PK WND 33033/2125 P0000
14840KMKG MKG20071106163014611/06/07 16:30:31  5-MIN KMKG 062130Z 33017G33KT 10SM FEW017 SCT045 OVC055 04/00 A3010 460 76 -700 330/17G33 RMK AO2 PK WND 33033/2125 RAE28 P0000
14840KMKG MKG20071106163514611/06/07 16:35:31  5-MIN KMKG 062135Z 33017G25KT 10SM FEW017 SCT045 OVC055 03/00 A3011 460 79 -800 330/17G25 RMK AO2 PK WND 33033/2125 RAE28 P0000
14840KMKG MKG20071106164013911/06/07 16:40:31  5-MIN KMKG 062140Z 33017G25KT 10SM FEW045 BKN055 04/00 A3011 460 76 -700 330/17G25 RMK AO2 PK WND 33033/2125 RAE28 P0000
14840KMKG MKG20071106164514011/06/07 16:45:31  5-MIN KMKG 062145Z 33019G31KT 10SM FEW045 OVC055 03/M01 A3011 450 76 -800 340/19G31 RMK AO2 PK WND 33033/2125 RAE28 P0000
14840KMKG MKG20071106165015711/06/07 16:50:31  5-MIN KMKG 062150Z 34014G31KT 10SM FEW043 OVC050 04/M01 A3011 460 73 -700 340/14G31 RMK AO2 PK WND 33033/2125 RAE28 SLP202 P0000 T00391006
14840KMKG MKG20071106165515711/06/07 16:55:31  5-MIN KMKG 062155Z 35015G20KT 10SM BKN048 OVC055 04/M01 A3011 450 73 -700 350/15G20 RMK AO2 PK WND 33033/2125 RAE28 SLP203 P0000 T00391006
14840KMKG MKG20071106170011011/06/07 17:00:31  5-MIN KMKG 062200Z 33014G20KT 10SM BKN048 OVC055 04/M01 A3012 450 73 -700 340/14G20 RMK AO2
14840KMKG MKG20071106170510311/06/07 17:05:31  5-MIN KMKG 062205Z 33012G21KT 10SM OVC050 04/M01 A3012 450 73 -700 330/12G21 RMK AO2
14840KMKG MKG20071106171010311/06/07 17:10:31  5-MIN KMKG 062210Z 33013G21KT 10SM OVC050 04/M01 A3012 450 73 -700 330/13G21 RMK AO2
14840KMKG MKG20071106171509711/06/07 17:15:31  5-MIN KMKG 062215Z 32011KT 10SM OVC049 04/M01 A3012 440 73 -700 330/11 RMK AO2
14840KMKG MKG20071106172010311/06/07 17:20:31  5-MIN KMKG 062220Z 32015G20KT 10SM OVC049 04/M01 A3012 440 67 -600 330/15G20 RMK AO2
14840KMKG MKG20071106172511011/06/07 17:25:31  5-MIN KMKG 062225Z 32016G21KT 10SM BKN047 OVC055 04/M01 A3013 440 67 -600 330/16G21 RMK AO2
14840KMKG MKG20071106173010311/06/07 17:30:31  5-MIN KMKG 062230Z 34017G23KT 10SM OVC047 04/M02 A3013 440 62 -600 340/17G23 RMK AO2
14840KMKG MKG20071106173510311/06/07 17:35:31  5-MIN KMKG 062235Z 33019G23KT 10SM OVC047 04/M03 A3013 440 59 -600 330/19G23 RMK AO2
14840KMKG MKG20071106174010311/06/07 17:40:31  5-MIN KMKG 062240Z 33018G23KT 10SM OVC047 04/M03 A3014 430 59 -700 340/18G23 RMK AO2
14840KMKG MKG20071106174512111/06/07 17:45:31  5-MIN KMKG 062245Z 33020G30KT 10SM OVC047 04/M03 A3014 430 59 -700 330/20G30 RMK AO2 PK WND 32030/2244
14840KMKG MKG20071106175013811/06/07 17:50:31  5-MIN KMKG 062250Z 32015G30KT 10SM OVC047 04/M03 A3014 430 57 -700 330/15G30 RMK AO2 PK WND 32030/2244 SLP212 T00441033
14840KMKG MKG20071106175513811/06/07 17:55:31  5-MIN KMKG 062255Z 33015G22KT 10SM OVC047 04/M03 A3014 430 57 -700 340/15G22 RMK AO2 PK WND 32030/2244 SLP212 T00441033
14840KMKG MKG20071106180010311/06/07 18:00:31  5-MIN KMKG 062300Z 34016G20KT 10SM OVC049 04/M03 A3015 420 57 -700 340/16G20 RMK AO2
14840KMKG MKG20071106180510311/06/07 18:05:31  5-MIN KMKG 062305Z 34012G19KT 10SM OVC049 04/M03 A3015 420 59 -700 340/12G19 RMK AO2
14840KMKG MKG20071106181010311/06/07 18:10:31  5-MIN KMKG 062310Z 34018G23KT 10SM OVC049 04/M03 A3015 420 59 -700 340/18G23 RMK AO2
14840KMKG MKG20071106181511011/06/07 18:15:31  5-MIN KMKG 062315Z 32017G23KT 10SM BKN045 OVC055 04/M03 A3015 420 59 -700 330/17G23 RMK AO2
14840KMKG MKG20071106182011011/06/07 18:20:31  5-MIN KMKG 062320Z 33011G21KT 10SM BKN042 OVC050 04/M03 A3015 420 59 -700 340/11G21 RMK AO2
14840KMKG MKG20071106182511011/06/07 18:25:31  5-MIN KMKG 062325Z 33013G18KT 10SM BKN042 OVC050 04/M03 A3016 410 62 -700 330/13G18 RMK AO2
14840KMKG MKG20071106183011011/06/07 18:30:31  5-MIN KMKG 062330Z 33012G18KT 10SM BKN040 OVC050 04/M03 A3016 410 62 -700 330/12G18 RMK AO2
14840KMKG MKG20071106183510411/06/07 18:35:31  5-MIN KMKG 062335Z 32008KT 10SM BKN040 OVC055 04/M03 A3016 410 62 -700 320/08 RMK AO2
14840KMKG MKG20071106184011111/06/07 18:40:31  5-MIN KMKG 062340Z 30007KT 10SM BKN040 BKN050 OVC060 04/M02 A3016 410 64 -800 300/07 RMK AO2
14840KMKG MKG20071106184510411/06/07 18:45:31  5-MIN KMKG 062345Z 32009KT 10SM BKN040 OVC055 04/M02 A3017 400 64 -800 320/09 RMK AO2
14840KMKG MKG20071106185015811/06/07 18:50:31  5-MIN KMKG 062350Z 32013G16KT 10SM SCT038 BKN045 OVC055 04/M02 A3017 400 67 -800 320/13G16 RMK AO2 SLP221 60001 T00391017 10061 20033 53027
14840KMKG MKG20071106185515211/06/07 18:55:31  5-MIN KMKG 062355Z 30011KT 10SM FEW026 BKN040 OVC047 04/M02 A3017 400 67 -800 300/11 RMK AO2 SLP222 60001 T00391017 10061 20033 53025
14840KMKG MKG20071106190012911/06/07 19:00:31  5-MIN KMKG 070000Z 31013KT 10SM -RA FEW026 BKN040 OVC048 03/M01 A3017 400 75 -900 310/13 RMK AO2 RAB2358 P0000
14840KMKG MKG20071106190513511/06/07 19:05:31  5-MIN KMKG 070005Z 32015G22KT 10SM -RA FEW022 BKN036 OVC046 03/M01 A3018 390 79 -900 320/15G22 RMK AO2 RAB2358 P0000
14840KMKG MKG20071106191013411/06/07 19:10:31  5-MIN KMKG 070010Z 34014G22KT 8SM -RA SCT018 BKN039 OVC049 03/M01 A3018 390 79 -900 340/14G22 RMK AO2 RAB2358 P0000
14840KMKG MKG20071106191512811/06/07 19:15:31  5-MIN KMKG 070015Z 34013KT 8SM -RA FEW018 BKN034 OVC045 03/M01 A3018 390 79 -900 350/13 RMK AO2 RAB2358 P0000
14840KMKG MKG20071106192012811/06/07 19:20:31  5-MIN KMKG 070020Z 35011KT 10SM -RA FEW020 BKN034 OVC045 03/00 A3019 390 82 -900 360/11 RMK AO2 RAB2358 P0000
14840KMKG MKG20071106192512811/06/07 19:25:31  5-MIN KMKG 070025Z 35013KT 9SM -RA FEW020 BKN034 OVC045 02/00 A3018 390 85 -1000 350/13 RMK AO2 RAB2358 P0000
14840KMKG MKG20071106193012811/06/07 19:30:31  5-MIN KMKG 070030Z 35012KT 9SM -RA FEW017 BKN034 OVC043 02/00 A3019 390 85 -1000 350/12 RMK AO2 RAB2358 P0000
14840KMKG MKG20071106193512111/06/07 19:35:31  5-MIN KMKG 070035Z 36011KT 9SM -RA FEW017 OVC036 02/00 A3019 380 85 -1000 360/11 RMK AO2 RAB2358 P0001
14840KMKG MKG20071106194011511/06/07 19:40:31  5-MIN KMKG 070040Z 35010KT 10SM -RA OVC036 02/00 A3019 380 85 -1000 350/10 RMK AO2 RAB2358 P0001
14840KMKG MKG20071106194512311/06/07 19:45:31  5-MIN KMKG 070045Z 36007KT 10SM -RA OVC036 02/00 A3019 380 85 -1000 360/07 RMK AO2 RAB2358UPB43E45 P0001
14840KMKG MKG20071106195013911/06/07 19:50:31  5-MIN KMKG 070050Z 35006KT 10SM -RA BKN036 OVC049 02/00 A3019 380 85 -1000 350/06 RMK AO2 SLP229 RAB2358 P0001 T00220000
14840KMKG MKG20071106195513911/06/07 19:55:31  5-MIN KMKG 070055Z 34006KT 10SM -RA BKN037 OVC049 02/00 A3019 380 85 -1000 350/06 RMK AO2 RAB2358 SLP229 P0001 T00220000
14840KMKG MKG20071106200011411/06/07 20:00:31  5-MIN KMKG 070100Z 35009KT 10SM -RA BKN039 OVC047 02/00 A3019 380 85 -1000 350/09 RMK AO2 P0000
14840KMKG MKG20071106200511311/06/07 20:05:31  5-MIN KMKG 070105Z 34007KT 10SM -RA BKN039 OVC047 03/00 A3019 380 82 -900 340/07 RMK AO2 P0000
14840KMKG MKG20071106201011311/06/07 20:10:31  5-MIN KMKG 070110Z 33005KT 10SM -RA BKN041 OVC049 03/00 A3019 380 82 -900 330/05 RMK AO2 P0000
14840KMKG MKG20071106201511311/06/07 20:15:31  5-MIN KMKG 070115Z 33009KT 10SM -RA BKN041 OVC049 03/00 A3019 380 82 -900 340/09 RMK AO2 P0000
14840KMKG MKG20071106202010711/06/07 20:20:31  5-MIN KMKG 070120Z 33010KT 10SM -RA OVC044 03/M01 A3019 380 79 -900 340/10 RMK AO2 P0000
14840KMKG MKG20071106202510911/06/07 20:25:31  5-MIN KMKG 070125Z 34010KT 10SM OVC044 03/M01 A3019 380 79 -900 340/10 RMK AO2 RAE22 P0000
14840KMKG MKG20071106203010911/06/07 20:30:31  5-MIN KMKG 070130Z 33011KT 10SM OVC044 03/M01 A3019 380 72 -900 330/11 RMK AO2 RAE22 P0000
14840KMKG MKG20071106203510911/06/07 20:35:31  5-MIN KMKG 070135Z 32011KT 10SM OVC044 03/M01 A3019 380 72 -900 330/11 RMK AO2 RAE22 P0000
14840KMKG MKG20071106204010911/06/07 20:40:31  5-MIN KMKG 070140Z 33010KT 10SM OVC042 03/M01 A3019 380 72 -900 340/10 RMK AO2 RAE22 P0000
14840KMKG MKG20071106204510911/06/07 20:45:31  5-MIN KMKG 070145Z 34012KT 10SM OVC042 03/M01 A3020 370 72 -900 340/12 RMK AO2 RAE22 P0000
14840KMKG MKG20071106205013211/06/07 20:50:31  5-MIN KMKG 070150Z 35016G21KT 10SM OVC042 03/M01 A3020 370 72 -900 350/16G21 RMK AO2 RAE22 SLP233 P0000 T00331011
14840KMKG MKG20071106205513211/06/07 20:55:31  5-MIN KMKG 070155Z 34013G21KT 10SM OVC042 03/M01 A3020 370 72 -900 340/13G21 RMK AO2 RAE22 SLP234 P0000 T00331011
14840KMKG MKG20071106210009711/06/07 21:00:31  5-MIN KMKG 070200Z 34013KT 10SM OVC042 03/M02 A3021 370 70 -900 340/13 RMK AO2
14840KMKG MKG20071106210510411/06/07 21:05:31  5-MIN KMKG 070205Z 34011KT 10SM BKN042 OVC049 03/M01 A3021 370 72 -900 340/11 RMK AO2
14840KMKG MKG20071106211010411/06/07 21:10:31  5-MIN KMKG 070210Z 33011KT 10SM BKN042 OVC049 03/M01 A3021 370 72 -900 340/11 RMK AO2
14840KMKG MKG20071106211513511/06/07 21:15:31  5-MIN KMKG 070215Z 33011KT 10SM -RA SCT035 OVC045 03/M02 A3021 360 70 -900 340/11 RMK AO2 RAB15 CIG 035 RWY 14 P0000
14840KMKG MKG20071106212012611/06/07 21:20:31  5-MIN KMKG 070220Z 33012G18KT 10SM -RA BKN035 OVC046 03/M02 A3021 360 70 -900 340/12G18 RMK AO2 RAB15 P0000
14840KMKG MKG20071106212511911/06/07 21:25:31  5-MIN KMKG 070225Z 33011G18KT 10SM -RA OVC037 03/M02 A3021 360 70 -900 340/11G18 RMK AO2 RAB15 P0000
14840KMKG MKG20071106213012011/06/07 21:30:31  5-MIN KMKG 070230Z 33009KT 10SM -RA BKN037 OVC047 03/M02 A3021 360 70 -900 340/09 RMK AO2 RAB15 P0000
14840KMKG MKG20071106213511311/06/07 21:35:31  5-MIN KMKG 070235Z 33012KT 10SM -RA OVC037 03/M02 A3021 360 67 -900 330/12 RMK AO2 RAB15 P0000
14840KMKG MKG20071106214012111/06/07 21:40:31  5-MIN KMKG 070240Z 33012KT 10SM -SN OVC037 03/M02 A3022 360 67 -900 340/12 RMK AO2 RAB15E39SNB39 P0000
14840KMKG MKG20071106214512111/06/07 21:45:31  5-MIN KMKG 070245Z 34010KT 10SM -SN OVC039 03/M02 A3022 360 67 -900 340/10 RMK AO2 RAB15E39SNB39 P0000
14840KMKG MKG20071106215014111/06/07 21:50:31  5-MIN KMKG 070250Z 33008KT 9SM -RA OVC039 03/M02 A3022 360 67 -900 330/08 RMK AO2 SLP238 RAB15 P0000 60001 T00331022 53025
14840KMKG MKG20071106215514911/06/07 21:55:31  5-MIN KMKG 070255Z 33012KT 10SM OVC039 03/M02 A3022 360 67 -900 330/12 RMK AO2 RAB15E51SNB39E50 SLP238 P0000 60001 T00331022 51016
14840KMKG MKG20071106220009711/06/07 22:00:31  5-MIN KMKG 070300Z 33013KT 10SM OVC039 03/M03 A3022 360 64 -900 330/13 RMK AO2
14840KMKG MKG20071106220510311/06/07 22:05:31  5-MIN KMKG 070305Z 32013G20KT 10SM OVC039 03/M03 A3022 360 61 -900 320/13G20 RMK AO2
14840KMKG MKG20071106221010311/06/07 22:10:31  5-MIN KMKG 070310Z 32013G20KT 10SM OVC039 03/M03 A3022 360 61 -900 330/13G20 RMK AO2
14840KMKG MKG20071106221509711/06/07 22:15:31  5-MIN KMKG 070315Z 33011KT 10SM OVC039 03/M03 A3022 350 61 -900 330/11 RMK AO2
14840KMKG MKG20071106222009711/06/07 22:20:31  5-MIN KMKG 070320Z 33010KT 10SM OVC041 03/M03 A3022 350 64 -900 340/10 RMK AO2
14840KMKG MKG20071106222509711/06/07 22:25:31  5-MIN KMKG 070325Z 33011KT 10SM OVC041 03/M03 A3022 350 61 -900 330/11 RMK AO2
14840KMKG MKG20071106223009711/06/07 22:30:31  5-MIN KMKG 070330Z 33011KT 10SM OVC041 03/M03 A3022 350 61 -900 340/11 RMK AO2
14840KMKG MKG20071106223511911/06/07 22:35:31  5-MIN KMKG 070335Z 32013G20KT 10SM -RA OVC041 03/M03 A3022 360 61 -900 330/13G20 RMK AO2 RAB34 P0000
14840KMKG MKG20071106224011911/06/07 22:40:31  5-MIN KMKG 070340Z 34013G20KT 10SM -RA OVC041 03/M03 A3022 350 64 -900 340/13G20 RMK AO2 RAB34 P0000
14840KMKG MKG20071106224511311/06/07 22:45:31  5-MIN KMKG 070345Z 33013KT 10SM -RA OVC041 03/M03 A3023 350 64 -900 330/13 RMK AO2 RAB34 P0000
14840KMKG MKG20071106225013011/06/07 22:50:31  5-MIN KMKG 070350Z 33010KT 10SM -RA OVC041 03/M03 A3022 350 64 -900 330/10 RMK AO2 RAB34 SLP241 P0000 T00331028
14840KMKG MKG20071106225513511/06/07 22:55:31  5-MIN KMKG 070355Z 33014G20KT 10SM OVC041 03/M03 A3022 350 64 -900 340/14G20 RMK AO2 RAB34E55 SLP241 P0000 T00331028
14840KMKG MKG20071106230010311/06/07 23:00:31  5-MIN KMKG 070400Z 34018G21KT 10SM OVC041 03/M03 A3023 350 64 -900 340/18G21 RMK AO2
14840KMKG MKG20071106230510311/06/07 23:05:31  5-MIN KMKG 070405Z 33013G21KT 10SM OVC039 03/M03 A3023 350 61 -900 340/13G21 RMK AO2
14840KMKG MKG20071106231010311/06/07 23:10:31  5-MIN KMKG 070410Z 33014G22KT 10SM OVC039 03/M03 A3022 350 61 -900 340/14G22 RMK AO2
14840KMKG MKG20071106231510311/06/07 23:15:31  5-MIN KMKG 070415Z 33012G22KT 10SM OVC039 03/M03 A3023 350 61 -900 330/12G22 RMK AO2
14840KMKG MKG20071106232010311/06/07 23:20:31  5-MIN KMKG 070420Z 33013G19KT 10SM OVC039 03/M03 A3023 350 61 -900 330/13G19 RMK AO2
14840KMKG MKG20071106232512811/06/07 23:25:31  5-MIN KMKG 070425Z 32013KT 10SM UP BKN036 OVC043 03/M03 A3023 350 64 -1000 330/13 RMK AO2 UPB24SNB22E24 P0000
14840KMKG MKG20071106233011211/06/07 23:30:31  5-MIN KMKG 070430Z 32011KT 9SM -SN OVC038 03/M03 A3022 350 61 -900 330/11 RMK AO2 SNB22 P0000
14840KMKG MKG20071106233510811/06/07 23:35:31  5-MIN KMKG 070435Z 32009KT 9SM OVC038 03/M03 A3022 350 64 -900 330/09 RMK AO2 SNB22 P0000
14840KMKG MKG20071106234010911/06/07 23:40:31  5-MIN KMKG 070440Z 33012KT 10SM OVC038 03/M03 A3023 350 64 -900 330/12 RMK AO2 SNB22 P0000
14840KMKG MKG20071106234511011/06/07 23:45:31  5-MIN KMKG 070445Z 33013KT 10SM OVC038 03/M03 A3023 350 64 -1000 340/13 RMK AO2 SNB22 P0000
14840KMKG MKG20071106235013611/06/07 23:50:31  5-MIN KMKG 070450Z 33013G18KT 10SM OVC038 03/M03 A3023 350 67 -1000 340/13G18 RMK AO2 SNB22 P0000 T00281028 400610022
14840KMKG MKG20071106235514611/06/07 23:55:31  5-MIN KMKG 070455Z 33010G16KT 10SM OVC038 03/M03 A3023 350 64 -1000 340/10G16 RMK AO2 SNB22E32 SLP241 P0000 T00281033 400610022
14840KMKG MKG20071107000009811/07/07 00:00:32  5-MIN KMKG 070500Z 33011KT 10SM OVC038 03/M03 A3023 350 67 -1000 340/11 RMK AO2
14840KMKG MKG20071107000509811/07/07 00:05:31  5-MIN KMKG 070505Z 33010KT 10SM OVC040 03/M03 A3023 350 67 -1000 340/10 RMK AO2
14840KMKG MKG20071107001009811/07/07 00:10:31  5-MIN KMKG 070510Z 33009KT 10SM OVC038 03/M03 A3023 340 67 -1000 340/09 RMK AO2
14840KMKG MKG20071107001510511/07/07 00:15:31  5-MIN KMKG 070515Z 33009KT 10SM BKN036 OVC044 03/M03 A3023 340 67 -1000 340/09 RMK AO2
14840KMKG MKG20071107002009811/07/07 00:20:31  5-MIN KMKG 070520Z 33012KT 10SM OVC036 03/M03 A3023 350 67 -1000 340/12 RMK AO2
14840KMKG MKG20071107002511411/07/07 00:25:31  5-MIN KMKG 070525Z 32010KT 10SM -SN OVC036 03/M03 A3023 350 67 -1000 330/10 RMK AO2 SNB22 P0000
14840KMKG MKG20071107003012011/07/07 00:30:31  5-MIN KMKG 070530Z 34012KT 9SM -SN BKN034 OVC042 03/M03 A3023 340 67 -1000 340/12 RMK AO2 SNB22 P0000
14840KMKG MKG20071107003512011/07/07 00:35:31  5-MIN KMKG 070535Z 33011KT 9SM -SN BKN036 OVC047 03/M03 A3023 350 67 -1000 330/11 RMK AO2 SNB22 P0000
14840KMKG MKG20071107004011911/07/07 00:40:31  5-MIN KMKG 070540Z 33011KT 9SM BKN036 OVC049 03/M03 A3023 340 67 -1000 340/11 RMK AO2 SNB22E37 P0000
14840KMKG MKG20071107004512011/07/07 00:45:31  5-MIN KMKG 070545Z 32012KT 10SM BKN036 OVC049 03/M03 A3023 340 64 -1000 320/12 RMK AO2 SNB22E37 P0000
14840KMKG MKG20071107005016211/07/07 00:50:31  5-MIN KMKG 070550Z 33012KT 10SM -SN BKN036 OVC049 03/M03 A3023 340 64 -1000 330/12 RMK AO2 SNB22 SLP243 P0000 60001 T00281033 10033 20022 51016
14840KMKG MKG20071107005516011/07/07 00:55:31  5-MIN KMKG 070555Z 33010KT 9SM BKN036 OVC049 03/M03 A3023 340 64 -1000 330/10 RMK AO2 SNB22E53 SLP243 P0000 60001 T00281033 10033 20022 51004
14840KMKG MKG20071107010010511/07/07 01:00:31  5-MIN KMKG 070600Z 33010KT 10SM BKN036 OVC049 03/M03 A3023 340 64 -1000 340/10 RMK AO2
14840KMKG MKG20071107010511411/07/07 01:05:31  5-MIN KMKG 070605Z 33011KT 10SM -SN OVC036 03/M03 A3023 350 64 -1000 330/11 RMK AO2 SNB03 P0000
14840KMKG MKG20071107011011311/07/07 01:10:31  5-MIN KMKG 070610Z 33011KT 10SM OVC036 03/M03 A3023 350 64 -1000 330/11 RMK AO2 SNB03E07 P0000
14840KMKG MKG20071107011511311/07/07 01:15:31  5-MIN KMKG 070615Z 34012KT 10SM OVC036 03/M03 A3023 340 64 -1000 340/12 RMK AO2 SNB03E07 P0000
14840KMKG MKG20071107012011411/07/07 01:20:31  5-MIN KMKG 070620Z 33008KT 10SM -SN OVC036 03/M03 A3023 340 64 -1000 340/08 RMK AO2 SNB03 P0000
14840KMKG MKG20071107012512011/07/07 01:25:31  5-MIN KMKG 070625Z 34011KT 9SM -SN BKN034 OVC041 03/M03 A3023 340 64 -1000 340/11 RMK AO2 SNB03 P0000
14840KMKG MKG20071107013012011/07/07 01:30:31  5-MIN KMKG 070630Z 32012KT 9SM -SN BKN036 OVC048 03/M03 A3023 350 64 -1000 330/12 RMK AO2 SNB03 P0000
14840KMKG MKG20071107013512011/07/07 01:35:31  5-MIN KMKG 070635Z 33010KT 9SM -SN BKN036 OVC046 03/M03 A3023 340 64 -1000 340/10 RMK AO2 SNB03 P0000
14840KMKG MKG20071107014011911/07/07 01:40:31  5-MIN KMKG 070640Z 33011KT 9SM BKN037 OVC048 03/M03 A3023 340 64 -1000 330/11 RMK AO2 SNB03E36 P0000
14840KMKG MKG20071107014512611/07/07 01:45:31  5-MIN KMKG 070645Z 34010G16KT 10SM BKN037 OVC050 03/M03 A3023 340 64 -1000 340/10G16 RMK AO2 SNB03E36 P0000
14840KMKG MKG20071107015013711/07/07 01:50:31  5-MIN KMKG 070650Z 34010KT 10SM BKN039 OVC050 03/M03 A3023 350 64 -1000 340/10 RMK AO2 SNB03E36 SLP242 P0000 T00281033
14840KMKG MKG20071107015513711/07/07 01:55:31  5-MIN KMKG 070655Z 33010KT 10SM SCT039 OVC050 03/M03 A3023 340 64 -1000 340/10 RMK AO2 SNB03E36 SLP243 P0000 T00281033
14840KMKG MKG20071107020010511/07/07 02:00:31  5-MIN KMKG 070700Z 35012KT 10SM BKN041 OVC050 03/M03 A3023 340 64 -1000 350/12 RMK AO2
14840KMKG MKG20071107020511211/07/07 02:05:31  5-MIN KMKG 070705Z 35008KT 10SM SCT038 BKN049 OVC060 03/M03 A3023 340 64 -1000 350/08 RMK AO2
14840KMKG MKG20071107021011211/07/07 02:10:31  5-MIN KMKG 070710Z 35008KT 10SM FEW038 SCT050 OVC055 03/M03 A3023 340 64 -1000 350/08 RMK AO2
14840KMKG MKG20071107021510511/07/07 02:15:31  5-MIN KMKG 070715Z 35010KT 10SM FEW038 OVC055 02/M03 A3023 340 67 -1000 350/10 RMK AO2
14840KMKG MKG20071107022010511/07/07 02:20:31  5-MIN KMKG 070720Z 35007KT 10SM FEW041 OVC055 02/M03 A3023 340 67 -1000 350/07 RMK AO2
14840KMKG MKG20071107022510511/07/07 02:25:31  5-MIN KMKG 070725Z 35007KT 10SM FEW041 OVC055 02/M03 A3023 340 67 -1000 360/07 RMK AO2
14840KMKG MKG20071107023009811/07/07 02:30:31  5-MIN KMKG 070730Z 34006KT 10SM OVC055 02/M03 A3023 340 67 -1000 340/06 RMK AO2
14840KMKG MKG20071107023509811/07/07 02:35:31  5-MIN KMKG 070735Z 34006KT 10SM OVC055 02/M03 A3024 340 67 -1000 340/06 RMK AO2
14840KMKG MKG20071107024009811/07/07 02:40:31  5-MIN KMKG 070740Z 34007KT 10SM OVC050 02/M03 A3024 340 67 -1000 350/07 RMK AO2
14840KMKG MKG20071107024510411/07/07 02:45:31  5-MIN KMKG 070745Z 34009G15KT 10SM OVC055 02/M03 A3024 330 67 -1100 350/09G15 RMK AO2
14840KMKG MKG20071107025012811/07/07 02:50:31  5-MIN KMKG 070750Z 34007G15KT 10SM FEW039 OVC055 02/M03 A3024 330 67 -1000 350/07G15 RMK AO2 SLP247 T00221033
14840KMKG MKG20071107025512211/07/07 02:55:31  5-MIN KMKG 070755Z 34010KT 10SM SCT039 OVC055 02/M03 A3024 330 67 -1000 340/10 RMK AO2 SLP247 T00221033
14840KMKG MKG20071107030012311/07/07 03:00:31  5-MIN KMKG 070800Z 34009KT 10SM -SN SCT039 OVC055 02/M03 A3024 330 67 -1100 340/09 RMK AO2 SNB0756 P0000
14840KMKG MKG20071107030512111/07/07 03:05:31  5-MIN KMKG 070805Z 34009KT 9SM FEW039 OVC050 02/M03 A3024 330 67 -1100 340/09 RMK AO2 SNB0756E05 P0000
14840KMKG MKG20071107031012111/07/07 03:10:31  5-MIN KMKG 070810Z 34011KT 9SM FEW039 OVC050 02/M03 A3024 330 67 -1100 350/11 RMK AO2 SNB0756E05 P0000
14840KMKG MKG20071107031513711/07/07 03:15:31  5-MIN KMKG 070815Z 34010KT 10SM SCT039 OVC050 02/M03 A3024 330 67 -1100 340/10 RMK AO2 SNB0756E05 CIG 040 RWY 14 P0000
14840KMKG MKG20071107032013711/07/07 03:20:31  5-MIN KMKG 070820Z 35010KT 10SM SCT039 OVC050 02/M03 A3024 330 67 -1000 350/10 RMK AO2 SNB0756E05 CIG 040 RWY 14 P0000
14840KMKG MKG20071107032512211/07/07 03:25:31  5-MIN KMKG 070825Z 34008KT 10SM FEW040 OVC050 02/M03 A3024 330 67 -1000 340/08 RMK AO2 SNB0756E05 P0000
14840KMKG MKG20071107033012211/07/07 03:30:31  5-MIN KMKG 070830Z 34007KT 10SM FEW040 OVC050 02/M03 A3024 330 67 -1100 350/07 RMK AO2 SNB0756E05 P0000
14840KMKG MKG20071107033512211/07/07 03:35:31  5-MIN KMKG 070835Z 34008KT 10SM FEW040 OVC055 02/M03 A3024 330 67 -1100 340/08 RMK AO2 SNB0756E05 P0000
14840KMKG MKG20071107034013711/07/07 03:40:31  5-MIN KMKG 070840Z 34007KT 10SM FEW040 OVC055 02/M03 A3024 330 67 -1100 340/07 RMK AO2 SNB0756E05 CIG 047 RWY 14 P0000
14840KMKG MKG20071107034513711/07/07 03:45:31  5-MIN KMKG 070845Z 35008KT 10SM SCT038 OVC055 02/M03 A3024 330 67 -1000 350/08 RMK AO2 SNB0756E05 CIG 047 RWY 14 P0000
14840KMKG MKG20071107035016611/07/07 03:50:31  5-MIN KMKG 070850Z 35006KT 10SM SCT037 OVC055 02/M03 A3024 330 67 -1000 360/06 RMK AO2 SNB0756E05 CIG 047 RWY 14 SLP247 P0000 60000 T00221033 51004
14840KMKG MKG20071107035515111/07/07 03:55:31  5-MIN KMKG 070855Z 35006KT 10SM SCT037 OVC055 02/M03 A3024 330 67 -1000 360/06 RMK AO2 SNB0756E05 SLP247 P0000 60000 T00221033 52004
14840KMKG MKG20071107040010511/07/07 04:00:31  5-MIN KMKG 070900Z 35006KT 10SM SCT037 OVC055 02/M03 A3024 330 67 -1100 360/06 RMK AO2
14840KMKG MKG20071107040510511/07/07 04:05:31  5-MIN KMKG 070905Z 35006KT 10SM FEW037 OVC050 02/M03 A3024 330 67 -1100 360/06 RMK AO2
14840KMKG MKG20071107041010511/07/07 04:10:31  5-MIN KMKG 070910Z 36005KT 10SM FEW035 OVC050 02/M03 A3024 330 67 -1100 010/05 RMK AO2
14840KMKG MKG20071107041510511/07/07 04:15:31  5-MIN KMKG 070915Z 36005KT 10SM FEW035 OVC050 02/M03 A3024 330 67 -1100 360/05 RMK AO2
14840KMKG MKG20071107042009811/07/07 04:20:31  5-MIN KMKG 070920Z 01005KT 10SM OVC050 02/M03 A3024 330 67 -1100 010/05 RMK AO2
14840KMKG MKG20071107042510511/07/07 04:25:31  5-MIN KMKG 070925Z 01005KT 10SM FEW041 OVC050 02/M03 A3025 330 67 -1100 020/05 RMK AO2
14840KMKG MKG20071107043012111/07/07 04:30:31  5-MIN KMKG 070930Z 01006KT 10SM -SN SCT041 OVC050 02/M03 A3025 330 67 -1100 020/06 RMK AO2 SNB28 P0000
14840KMKG MKG20071107043512011/07/07 04:35:31  5-MIN KMKG 070935Z 36006KT 9SM -SN FEW038 OVC048 02/M03 A3025 330 67 -1100 010/06 RMK AO2 SNB28 P0000
14840KMKG MKG20071107044011911/07/07 04:40:31  5-MIN KMKG 070940Z 36006KT 9SM FEW038 OVC048 02/M03 A3025 330 67 -1100 360/06 RMK AO2 SNB28E39 P0000
14840KMKG MKG20071107044512011/07/07 04:45:31  5-MIN KMKG 070945Z 01005KT 10SM FEW038 OVC050 02/M03 A3025 330 67 -1100 010/05 RMK AO2 SNB28E39 P0000
14840KMKG MKG20071107045013711/07/07 04:50:31  5-MIN KMKG 070950Z 01005KT 10SM FEW038 OVC050 02/M03 A3025 320 69 -1100 020/05 RMK AO2 SNB28E39 SLP250 P0000 T00171033
14840KMKG MKG20071107045513011/07/07 04:55:31  5-MIN KMKG 070955Z 36004KT 10SM OVC048 02/M03 A3025 320 69 -1100 010/04 RMK AO2 SNB28E39 SLP251 P0000 T00171033
14840KMKG MKG20071107050009811/07/07 05:00:31  5-MIN KMKG 071000Z 01004KT 10SM OVC050 02/M03 A3026 320 69 -1100 010/04 RMK AO2
14840KMKG MKG20071107050509811/07/07 05:05:31  5-MIN KMKG 071005Z 36003KT 10SM OVC050 02/M03 A3026 320 69 -1100 010/03 RMK AO2
14840KMKG MKG20071107051009811/07/07 05:10:31  5-MIN KMKG 071010Z 36004KT 10SM OVC048 02/M03 A3026 320 69 -1100 360/04 RMK AO2
14840KMKG MKG20071107051509811/07/07 05:15:31  5-MIN KMKG 071015Z 36004KT 10SM OVC048 02/M03 A3026 320 69 -1100 360/04 RMK AO2
14840KMKG MKG20071107052009811/07/07 05:20:31  5-MIN KMKG 071020Z 36004KT 10SM OVC048 02/M03 A3026 320 72 -1100 010/04 RMK AO2
14840KMKG MKG20071107052509811/07/07 05:25:31  5-MIN KMKG 071025Z 01004KT 10SM OVC048 02/M03 A3026 320 72 -1100 020/04 RMK AO2
14840KMKG MKG20071107053009811/07/07 05:30:31  5-MIN KMKG 071030Z 02004KT 10SM OVC048 02/M03 A3026 320 72 -1100 020/04 RMK AO2
14840KMKG MKG20071107053509811/07/07 05:35:31  5-MIN KMKG 071035Z 02004KT 10SM OVC048 02/M03 A3026 320 72 -1100 020/04 RMK AO2
14840KMKG MKG20071107054009811/07/07 05:40:31  5-MIN KMKG 071040Z 02005KT 10SM OVC048 02/M03 A3026 310 69 -1100 020/05 RMK AO2
14840KMKG MKG20071107054509811/07/07 05:45:31  5-MIN KMKG 071045Z 36006KT 10SM OVC048 02/M03 A3026 310 69 -1100 010/06 RMK AO2
14840KMKG MKG20071107055012211/07/07 05:50:31  5-MIN KMKG 071050Z 35006KT 10SM FEW035 OVC048 02/M03 A3027 310 67 -1100 360/06 RMK AO2 SLP255 T00221033
14840KMKG MKG20071107055513811/07/07 05:55:31  5-MIN KMKG 071055Z 35007KT 10SM -SN FEW035 OVC046 02/M03 A3027 310 67 -1100 360/07 RMK AO2 SNB54 SLP255 P0000 T00221033
14840KMKG MKG20071107060011411/07/07 06:00:31  5-MIN KMKG 071100Z 35005KT 9SM -SN SCT035 OVC046 02/M03 A3027 310 67 -1100 350/05 RMK AO2 P0000
14840KMKG MKG20071107060511411/07/07 06:05:31  5-MIN KMKG 071105Z 34008KT 9SM -SN SCT035 OVC044 02/M03 A3027 310 67 -1100 340/08 RMK AO2 P0000
14840KMKG MKG20071107061011411/07/07 06:10:31  5-MIN KMKG 071110Z 34008KT 9SM -SN SCT035 OVC044 02/M03 A3027 310 67 -1100 350/08 RMK AO2 P0000
14840KMKG MKG20071107061511411/07/07 06:15:31  5-MIN KMKG 071115Z 34007KT 9SM -SN BKN035 OVC044 02/M03 A3027 310 67 -1100 350/07 RMK AO2 P0000
14840KMKG MKG20071107062011411/07/07 06:20:31  5-MIN KMKG 071120Z 33007KT 8SM -SN BKN035 OVC044 02/M04 A3027 310 66 -1200 330/07 RMK AO2 P0000
14840KMKG MKG20071107062511411/07/07 06:25:31  5-MIN KMKG 071125Z 33008KT 9SM -SN BKN035 OVC044 02/M04 A3027 310 66 -1200 340/08 RMK AO2 P0000
14840KMKG MKG20071107063011411/07/07 06:30:31  5-MIN KMKG 071130Z 34008KT 9SM -SN BKN035 OVC044 02/M04 A3027 300 66 -1200 340/08 RMK AO2 P0000
14840KMKG MKG20071107063511611/07/07 06:35:31  5-MIN KMKG 071135Z 34007KT 9SM BKN035 OVC044 02/M03 A3027 300 69 -1200 350/07 RMK AO2 SNE31 P0000
14840KMKG MKG20071107064011011/07/07 06:40:31  5-MIN KMKG 071140Z 35007KT 10SM OVC039 02/M04 A3028 300 66 -1200 350/07 RMK AO2 SNE31 P0000
14840KMKG MKG20071107064511011/07/07 06:45:31  5-MIN KMKG 071145Z 34008KT 10SM OVC039 02/M04 A3028 300 66 -1200 350/08 RMK AO2 SNE31 P0000
14840KMKG MKG20071107065015711/07/07 06:50:31  5-MIN KMKG 071150Z 34006KT 10SM OVC039 02/M04 A3027 300 66 -1200 350/06 RMK AO2 SNE31 SLP258 P0000 60000 70007 T00171039 10028 20017 52004
14840KMKG MKG20071107065515711/07/07 06:55:31  5-MIN KMKG 071155Z 35006KT 10SM OVC039 02/M04 A3027 300 66 -1200 360/06 RMK AO2 SNE31 SLP258 P0000 60000 70007 T00171039 10028 20017 51011
14840KMKG MKG20071107070009811/07/07 07:00:31  5-MIN KMKG 071200Z 35005KT 10SM OVC041 02/M04 A3027 300 66 -1200 360/05 RMK AO2
14840KMKG MKG20071107070509811/07/07 07:05:31  5-MIN KMKG 071205Z 36007KT 10SM OVC041 02/M04 A3027 300 66 -1200 360/07 RMK AO2
14840KMKG MKG20071107071009811/07/07 07:10:31  5-MIN KMKG 071210Z 35005KT 10SM OVC041 02/M04 A3028 300 66 -1200 360/05 RMK AO2
14840KMKG MKG20071107071509811/07/07 07:15:31  5-MIN KMKG 071215Z 34003KT 10SM OVC041 02/M04 A3028 300 66 -1200 350/03 RMK AO2
14840KMKG MKG20071107072009811/07/07 07:20:31  5-MIN KMKG 071220Z 36005KT 10SM OVC043 02/M04 A3028 300 66 -1200 360/05 RMK AO2
14840KMKG MKG20071107072509811/07/07 07:25:31  5-MIN KMKG 071225Z 36005KT 10SM OVC045 02/M04 A3028 300 66 -1200 360/05 RMK AO2
14840KMKG MKG20071107073009811/07/07 07:30:31  5-MIN KMKG 071230Z 35007KT 10SM OVC045 02/M04 A3028 300 61 -1100 360/07 RMK AO2
14840KMKG MKG20071107073509811/07/07 07:35:31  5-MIN KMKG 071235Z 35006KT 10SM OVC045 02/M04 A3028 300 64 -1100 350/06 RMK AO2
14840KMKG MKG20071107074009811/07/07 07:40:31  5-MIN KMKG 071240Z 35007KT 10SM OVC045 02/M04 A3028 300 64 -1100 350/07 RMK AO2
14840KMKG MKG20071107074509811/07/07 07:45:31  5-MIN KMKG 071245Z 36005KT 10SM OVC045 02/M04 A3028 300 64 -1100 360/05 RMK AO2
14840KMKG MKG20071107075013111/07/07 07:50:31  5-MIN KMKG 071250Z 36005KT 10SM -SN OVC045 02/M04 A3028 300 66 -1200 010/05 RMK AO2 SNB50 SLP261 P0000 T00171039
14840KMKG MKG20071107075513011/07/07 07:55:31  5-MIN KMKG 071255Z 01003KT 9SM -SN OVC043 02/M04 A3028 300 66 -1200 020/03 RMK AO2 SNB50 SLP261 P0000 T00171039
14840KMKG MKG20071107080010711/07/07 08:00:31  5-MIN KMKG 071300Z 01004KT 9SM -SN OVC043 02/M04 A3028 300 66 -1200 010/04 RMK AO2 P0000
14840KMKG MKG20071107080510711/07/07 08:05:31  5-MIN KMKG 071305Z 36004KT 9SM -SN OVC043 02/M04 A3028 300 66 -1200 360/04 RMK AO2 P0000
14840KMKG MKG20071107081010711/07/07 08:10:31  5-MIN KMKG 071310Z 35006KT 9SM -SN OVC043 02/M04 A3028 300 64 -1100 350/06 RMK AO2 P0000
14840KMKG MKG20071107081510711/07/07 08:15:31  5-MIN KMKG 071315Z 34006KT 9SM -SN OVC043 02/M04 A3028 300 61 -1100 340/06 RMK AO2 P0000
14840KMKG MKG20071107082010711/07/07 08:20:31  5-MIN KMKG 071320Z 35005KT 9SM -SN OVC043 02/M04 A3028 300 61 -1100 350/05 RMK AO2 P0000
14840KMKG MKG20071107082510711/07/07 08:25:31  5-MIN KMKG 071325Z 35004KT 9SM -SN OVC043 02/M04 A3028 300 61 -1100 350/04 RMK AO2 P0000
14840KMKG MKG20071107083010711/07/07 08:30:31  5-MIN KMKG 071330Z 34006KT 9SM -SN OVC043 02/M04 A3028 300 61 -1100 340/06 RMK AO2 P0000
14840KMKG MKG20071107083510711/07/07 08:35:31  5-MIN KMKG 071335Z 35006KT 9SM -SN OVC043 02/M05 A3028 300 59 -1100 350/06 RMK AO2 P0000
14840KMKG MKG20071107084010911/07/07 08:40:31  5-MIN KMKG 071340Z 34005KT 9SM OVC043 02/M04 A3029 290 61 -1100 350/05 RMK AO2 SNE40 P0000
14840KMKG MKG20071107084510911/07/07 08:45:31  5-MIN KMKG 071345Z 34005KT 9SM OVC043 02/M04 A3029 290 61 -1100 350/05 RMK AO2 SNE40 P0000
14840KMKG MKG20071107085012711/07/07 08:50:31  5-MIN KMKG 071350Z 35005KT 10SM OVC043 02/M05 A3029 290 59 -1100 350/05 RMK AO2 SNE40 SLP261 P0000 T00221050
14840KMKG MKG20071107085512711/07/07 08:55:31  5-MIN KMKG 071355Z 35005KT 10SM OVC043 03/M05 A3029 290 56 -1000 350/05 RMK AO2 SNE40 SLP262 P0000 T00281050
14840KMKG MKG20071107090009811/07/07 09:00:31  5-MIN KMKG 071400Z 35004KT 10SM OVC043 03/M05 A3029 290 56 -1000 350/04 RMK AO2
14840KMKG MKG20071107090509811/07/07 09:05:31  5-MIN KMKG 071405Z 33006KT 10SM OVC043 03/M05 A3029 290 56 -1000 330/06 RMK AO2
14840KMKG MKG20071107091009811/07/07 09:10:31  5-MIN KMKG 071410Z 34006KT 10SM OVC043 03/M06 A3029 290 54 -1000 340/06 RMK AO2
14840KMKG MKG20071107091509811/07/07 09:15:31  5-MIN KMKG 071415Z 33004KT 10SM OVC043 03/M06 A3029 290 54 -1000 340/04 RMK AO2
14840KMKG MKG20071107092009811/07/07 09:20:31  5-MIN KMKG 071420Z 36004KT 10SM OVC043 03/M06 A3029 290 54 -1000 010/04 RMK AO2
14840KMKG MKG20071107092509811/07/07 09:25:31  5-MIN KMKG 071425Z 34004KT 10SM OVC043 03/M05 A3029 290 56 -1000 350/04 RMK AO2
14840KMKG MKG20071107093009811/07/07 09:30:31  5-MIN KMKG 071430Z 35004KT 10SM OVC043 03/M05 A3029 290 56 -1000 350/04 RMK AO2
14840KMKG MKG20071107093509811/07/07 09:35:31  5-MIN KMKG 071435Z 35004KT 10SM OVC043 03/M05 A3029 290 56 -1000 350/04 RMK AO2
14840KMKG MKG20071107094009811/07/07 09:40:31  5-MIN KMKG 071440Z 34006KT 10SM OVC043 03/M06 A3029 290 54 -1000 340/06 RMK AO2
14840KMKG MKG20071107094509811/07/07 09:45:31  5-MIN KMKG 071445Z 33005KT 10SM OVC043 03/M06 A3029 290 54 -1000 330/05 RMK AO2
14840KMKG MKG20071107095012711/07/07 09:50:31  5-MIN KMKG 071450Z 33005KT 10SM OVC043 03/M06 A3029 290 54 -1000 340/05 RMK AO2 SLP264 60000 T00281056 51011
14840KMKG MKG20071107095512711/07/07 09:55:31  5-MIN KMKG 071455Z 32003KT 10SM OVC043 03/M06 A3029 290 52 -1000 320/03 RMK AO2 SLP263 60000 T00281061 52005
14840KMKG MKG20071107100009811/07/07 10:00:31  5-MIN KMKG 071500Z 30003KT 10SM OVC043 03/M06 A3029 290 52 -1000 300/03 RMK AO2
14840KMKG MKG20071107100509811/07/07 10:05:31  5-MIN KMKG 071505Z 29003KT 10SM OVC043 03/M06 A3029 290 54 -1000 290/03 RMK AO2
14840KMKG MKG20071107101009811/07/07 10:10:31  5-MIN KMKG 071510Z 31003KT 10SM OVC043 03/M06 A3029 290 52 -1000 310/03 RMK AO2
14840KMKG MKG20071107101509811/07/07 10:15:31  5-MIN KMKG 071515Z 00000KT 10SM OVC043 03/M06 A3029 290 52 -1000 000/00 RMK AO2
14840KMKG MKG20071107102009811/07/07 10:20:31  5-MIN KMKG 071520Z 33005KT 10SM OVC041 03/M06 A3029 290 52 -1000 340/05 RMK AO2
14840KMKG MKG20071107102510511/07/07 10:25:31  5-MIN KMKG 071525Z 30005KT 10SM BKN036 OVC043 03/M05 A3029 290 56 -1000 300/05 RMK AO2
14840KMKG MKG20071107103009811/07/07 10:30:31  5-MIN KMKG 071530Z VRB05KT 10SM OVC038 03/M05 A3029 290 56 -1000 VRB/05 RMK AO2
14840KMKG MKG20071107103509811/07/07 10:35:31  5-MIN KMKG 071535Z 30005KT 10SM OVC038 03/M04 A3029 290 61 -1000 300/05 RMK AO2
14840KMKG MKG20071107104009811/07/07 10:40:31  5-MIN KMKG 071540Z VRB06KT 10SM OVC036 03/M04 A3029 290 61 -1000 VRB/06 RMK AO2
14840KMKG MKG20071107104509811/07/07 10:45:31  5-MIN KMKG 071545Z 29008KT 10SM OVC036 03/M03 A3029 290 64 -1000 290/08 RMK AO2
14840KMKG MKG20071107105011511/07/07 10:50:31  5-MIN KMKG 071550Z 29007KT 10SM OVC036 03/M03 A3029 290 64 -1000 300/07 RMK AO2 SLP263 T00281033
14840KMKG MKG20071107105512211/07/07 10:55:31  5-MIN KMKG 071555Z 30006KT 10SM FEW030 OVC040 03/M03 A3029 290 64 -1000 300/06 RMK AO2 SLP263 T00281033
14840KMKG MKG20071107110010511/07/07 11:00:31  5-MIN KMKG 071600Z 29008KT 10SM FEW032 OVC040 03/M03 A3029 290 64 -1000 290/08 RMK AO2
14840KMKG MKG20071107110510511/07/07 11:05:31  5-MIN KMKG 071605Z 27008KT 10SM FEW030 OVC040 03/M03 A3029 290 67 -1000 270/08 RMK AO2
14840KMKG MKG20071107111011311/07/07 11:10:31  5-MIN KMKG 071610Z 28005KT 9SM -SN OVC040 03/M03 A3029 290 67 -1000 280/05 RMK AO2 SNB08 P0000
14840KMKG MKG20071107111512011/07/07 11:15:31  5-MIN KMKG 071615Z 30006KT 9SM -SN FEW028 OVC038 03/M03 A3029 290 64 -1000 310/06 RMK AO2 SNB08 P0000
14840KMKG MKG20071107112011311/07/07 11:20:31  5-MIN KMKG 071620Z 30005KT 9SM -SN OVC038 03/M03 A3029 290 64 -1000 310/05 RMK AO2 SBB08 P0000
14840KMKG MKG20071107112512011/07/07 11:25:31  5-MIN KMKG 071625Z 31006KT 9SM -SN FEW030 OVC038 03/M04 A3029 290 61 -1000 320/06 RMK AO2 SNB08 P0000
14840KMKG MKG20071107113012011/07/07 11:30:31  5-MIN KMKG 071630Z 32006KT 9SM -SN FEW030 OVC038 03/M04 A3028 300 61 -1000 320/06 RMK AO2 SNB08 P0000
14840KMKG MKG20071107113512011/07/07 11:35:31  5-MIN KMKG 071635Z 29005KT 9SM -SN FEW030 OVC038 03/M04 A3028 300 59 -1000 290/05 RMK AO2 SNB08 P0000
14840KMKG MKG20071107114011811/07/07 11:40:31  5-MIN KMKG 071640Z 30009G14KT 9SM OVC038 03/M04 A3028 300 61 -1000 300/09G14 RMK AO2 SNB08E35 P0000
14840KMKG MKG20071107114511911/07/07 11:45:31  5-MIN KMKG 071645Z 31005G14KT 10SM OVC040 03/M03 A3028 300 64 -1000 310/05G14 RMK AO2 SNB08E35 P0000
14840KMKG MKG20071107115013011/07/07 11:50:31  5-MIN KMKG 071650Z 31008KT 10SM OVC040 03/M03 A3028 300 61 -1000 320/08 RMK AO2 SLP258 SNB08E35 P0000 T00331033
14840KMKG MKG20071107115512911/07/07 11:55:31  5-MIN KMKG 071655Z 32005KT 10SM OVC040 03/M03 A3027 310 61 -900 330/05 RMK AO2 SNB08E35 SLP258 P0000 T00331033
14840KMKG MKG20071107120009711/07/07 12:00:31  5-MIN KMKG 071700Z 33005KT 10SM OVC040 03/M03 A3027 310 61 -900 330/05 RMK AO2
14840KMKG MKG20071107120509711/07/07 12:05:31  5-MIN KMKG 071705Z 31004KT 10SM OVC042 03/M03 A3026 310 61 -900 320/04 RMK AO2
14840KMKG MKG20071107121009711/07/07 12:10:31  5-MIN KMKG 071710Z 29006KT 10SM OVC042 03/M03 A3026 320 61 -900 300/06 RMK AO2
14840KMKG MKG20071107121509711/07/07 12:15:31  5-MIN KMKG 071715Z VRB04KT 10SM OVC042 03/M04 A3026 320 59 -900 VRB/04 RMK AO2
14840KMKG MKG20071107122009711/07/07 12:20:31  5-MIN KMKG 071720Z 28006KT 10SM OVC042 03/M04 A3025 320 59 -900 280/06 RMK AO2
14840KMKG MKG20071107122510511/07/07 12:25:31  5-MIN KMKG 071725Z 28006KT 10SM FEW032 OVC040 03/M04 A3025 320 61 -1000 280/06 RMK AO2
14840KMKG MKG20071107123012011/07/07 12:30:31  5-MIN KMKG 071730Z 26007KT 10SM SCT032 OVC040 03/M04 A3025 330 61 -1000 270/07 RMK AO2 CIG 033 RWY 14
14840KMKG MKG20071107123510511/07/07 12:35:31  5-MIN KMKG 071735Z 28007KT 10SM BKN032 OVC040 03/M04 A3025 330 61 -1000 280/07 RMK AO2
14840KMKG MKG20071107124009811/07/07 12:40:31  5-MIN KMKG 071740Z 28005KT 10SM OVC034 03/M04 A3025 330 61 -1000 280/05 RMK AO2
14840KMKG MKG20071107124509711/07/07 12:45:31  5-MIN KMKG 071745Z 28005KT 10SM OVC034 03/M04 A3025 330 59 -900 280/05 RMK AO2
14840KMKG MKG20071107125013811/07/07 12:50:31  5-MIN KMKG 071750Z 28005KT 10SM OVC034 03/M04 A3025 330 59 -900 280/05 RMK AO2 SLP249 60000 T00331039 10033 20017 52005
14840KMKG MKG20071107125513811/07/07 12:55:31  5-MIN KMKG 071755Z 28005KT 10SM OVC034 03/M04 A3025 330 59 -900 290/05 RMK AO2 SLP249 60000 T00331039 10033 20017 58014
14840KMKG MKG20071107130009711/07/07 13:00:31  5-MIN KMKG 071800Z 29007KT 10SM OVC034 03/M04 A3025 330 59 -900 290/07 RMK AO2
14840KMKG MKG20071107130509711/07/07 13:05:31  5-MIN KMKG 071805Z 29007KT 10SM OVC034 03/M04 A3025 330 59 -900 300/07 RMK AO2
14840KMKG MKG20071107131009711/07/07 13:10:31  5-MIN KMKG 071810Z 28004KT 10SM OVC034 03/M04 A3025 330 57 -900 290/04 RMK AO2
14840KMKG MKG20071107131509711/07/07 13:15:31  5-MIN KMKG 071815Z 27005KT 10SM OVC038 03/M04 A3025 330 59 -900 270/05 RMK AO2
14840KMKG MKG20071107132009711/07/07 13:20:31  5-MIN KMKG 071820Z 28007KT 10SM OVC036 03/M04 A3025 330 59 -900 280/07 RMK AO2
14840KMKG MKG20071107132509711/07/07 13:25:31  5-MIN KMKG 071825Z 25007KT 10SM OVC036 03/M04 A3025 330 59 -900 260/07 RMK AO2
14840KMKG MKG20071107133009711/07/07 13:30:31  5-MIN KMKG 071830Z 29006KT 10SM OVC036 03/M04 A3024 330 57 -900 290/06 RMK AO2
14840KMKG MKG20071107133509711/07/07 13:35:31  5-MIN KMKG 071835Z 29006KT 10SM OVC036 03/M04 A3024 330 59 -900 290/06 RMK AO2
14840KMKG MKG20071107134009711/07/07 13:40:31  5-MIN KMKG 071840Z 25007KT 10SM OVC036 03/M04 A3024 340 59 -900 260/07 RMK AO2
14840KMKG MKG20071107134509811/07/07 13:45:31  5-MIN KMKG 071845Z 27007KT 10SM OVC034 03/M04 A3024 340 61 -1000 280/07 RMK AO2
14840KMKG MKG20071107135011411/07/07 13:50:31  5-MIN KMKG 071850Z 25006KT 10SM OVC034 03/M04 A3024 340 59 -900 250/06 RMK AO2 SLP245 T00331039
14840KMKG MKG20071107135511411/07/07 13:55:31  5-MIN KMKG 071855Z 25007KT 10SM OVC034 03/M04 A3024 340 59 -900 260/07 RMK AO2 SLP246 T00331039
14840KMKG MKG20071107140009811/07/07 14:00:31  5-MIN KMKG 071900Z 25008KT 10SM OVC034 03/M04 A3024 340 59 -1000 260/08 RMK AO2
14840KMKG MKG20071107140509711/07/07 14:05:31  5-MIN KMKG 071905Z 27005KT 10SM OVC034 03/M04 A3024 340 59 -900 270/05 RMK AO2
14840KMKG MKG20071107141010411/07/07 14:10:31  5-MIN KMKG 071910Z 26007KT 10SM BKN034 OVC041 03/M04 A3024 340 59 -900 260/07 RMK AO2
14840KMKG MKG20071107141510411/07/07 14:15:31  5-MIN KMKG 071915Z 25007KT 10SM BKN034 OVC042 03/M04 A3024 340 59 -900 250/07 RMK AO2
14840KMKG MKG20071107142010411/07/07 14:20:31  5-MIN KMKG 071920Z 26007KT 10SM BKN034 OVC041 03/M04 A3024 340 59 -900 260/07 RMK AO2
14840KMKG MKG20071107142509711/07/07 14:25:31  5-MIN KMKG 071925Z 26008KT 10SM OVC036 03/M04 A3024 340 59 -900 270/08 RMK AO2
14840KMKG MKG20071107143009711/07/07 14:30:31  5-MIN KMKG 071930Z 28008KT 10SM OVC038 03/M04 A3024 340 57 -900 280/08 RMK AO2
14840KMKG MKG20071107143509711/07/07 14:35:31  5-MIN KMKG 071935Z 25007KT 10SM OVC038 03/M04 A3024 340 57 -900 250/07 RMK AO2
14840KMKG MKG20071107144009711/07/07 14:40:31  5-MIN KMKG 071940Z 26010KT 10SM OVC038 03/M04 A3023 340 57 -900 260/10 RMK AO2
14840KMKG MKG20071107144510411/07/07 14:45:31  5-MIN KMKG 071945Z 25005KT 10SM SCT033 OVC041 03/M04 A3023 340 57 -900 250/05 RMK AO2
14840KMKG MKG20071107145011411/07/07 14:50:31  5-MIN KMKG 071950Z 26007KT 10SM OVC038 03/M04 A3023 340 57 -900 260/07 RMK AO2 SLP243 T00331044
14840KMKG MKG20071107145512111/07/07 14:55:31  5-MIN KMKG 071955Z 28009KT 10SM BKN037 OVC044 03/M04 A3023 340 57 -900 280/09 RMK AO2 SLP243 T00331044
14840KMKG MKG20071107150010411/07/07 15:00:31  5-MIN KMKG 072000Z 25006KT 10SM BKN033 OVC041 03/M04 A3023 350 57 -900 250/06 RMK AO2
14840KMKG MKG20071107150510411/07/07 15:05:31  5-MIN KMKG 072005Z 27009KT 10SM BKN033 OVC041 03/M04 A3023 350 57 -900 270/09 RMK AO2
14840KMKG MKG20071107151010411/07/07 15:10:31  5-MIN KMKG 072010Z 24007KT 10SM BKN035 OVC044 03/M04 A3022 350 57 -900 240/07 RMK AO2
14840KMKG MKG20071107151510411/07/07 15:15:31  5-MIN KMKG 072015Z 24008KT 10SM SCT035 OVC044 03/M04 A3022 350 57 -900 250/08 RMK AO2
14840KMKG MKG20071107152010411/07/07 15:20:31  5-MIN KMKG 072020Z 25009KT 10SM BKN038 OVC044 03/M04 A3022 350 57 -900 260/09 RMK AO2
14840KMKG MKG20071107152509711/07/07 15:25:31  5-MIN KMKG 072025Z 26006KT 10SM OVC040 03/M04 A3022 360 57 -900 260/06 RMK AO2
14840KMKG MKG20071107153009711/07/07 15:30:31  5-MIN KMKG 072030Z 24005KT 10SM OVC042 03/M04 A3022 360 57 -900 250/05 RMK AO2
14840KMKG MKG20071107153509711/07/07 15:35:31  5-MIN KMKG 072035Z 26004KT 10SM OVC040 03/M05 A3021 360 54 -900 270/04 RMK AO2
14840KMKG MKG20071107154010411/07/07 15:40:31  5-MIN KMKG 072040Z 22008KT 10SM BKN037 OVC044 03/M04 A3021 360 57 -900 220/08 RMK AO2
14840KMKG MKG20071107154509711/07/07 15:45:31  5-MIN KMKG 072045Z 22007KT 10SM BKN039 04/M04 A3021 360 54 -800 220/07 RMK AO2
14840KMKG MKG20071107155013611/07/07 15:50:31  5-MIN KMKG 072050Z 23007KT 200V280 10SM BKN039 04/M04 A3021 370 54 -800 230/07 200V280 RMK AO2 SLP235 T00391044 58014
14840KMKG MKG20071107155512011/07/07 15:55:31  5-MIN KMKG 072055Z 25005KT 10SM OVC039 03/M05 A3020 370 54 -900 260/05 RMK AO2 SLP233 T00331050 58015
14840KMKG MKG20071107160009711/07/07 16:00:31  5-MIN KMKG 072100Z 20004KT 10SM OVC039 03/M05 A3020 370 54 -900 210/04 RMK AO2
14840KMKG MKG20071107160509711/07/07 16:05:31  5-MIN KMKG 072105Z 25005KT 10SM OVC039 03/M05 A3020 370 54 -900 260/05 RMK AO2
14840KMKG MKG20071107161009711/07/07 16:10:31  5-MIN KMKG 072110Z 22007KT 10SM BKN037 03/M05 A3020 370 56 -900 220/07 RMK AO2
14840KMKG MKG20071107161509711/07/07 16:15:31  5-MIN KMKG 072115Z 22007KT 10SM BKN037 03/M05 A3020 380 54 -900 230/07 RMK AO2
14840KMKG MKG20071107162009711/07/07 16:20:31  5-MIN KMKG 072120Z 21008KT 10SM BKN037 03/M05 A3019 380 56 -900 220/08 RMK AO2
14840KMKG MKG20071107162509711/07/07 16:25:31  5-MIN KMKG 072125Z 21007KT 10SM SCT037 03/M05 A3019 380 56 -900 210/07 RMK AO2
14840KMKG MKG20071107163009711/07/07 16:30:31  5-MIN KMKG 072130Z 20008KT 10SM FEW037 03/M06 A3019 380 54 -900 210/08 RMK AO2
14840KMKG MKG20071107163509711/07/07 16:35:31  5-MIN KMKG 072135Z 20006KT 10SM FEW037 03/M06 A3019 380 54 -900 210/06 RMK AO2
14840KMKG MKG20071107164009411/07/07 16:40:31  5-MIN KMKG 072140Z 22005KT 10SM CLR 03/M06 A3019 380 54 -900 220/05 RMK AO2
14840KMKG MKG20071107164509511/07/07 16:45:31  5-MIN KMKG 072145Z 22007KT 10SM CLR 02/M05 A3019 380 59 -1000 220/07 RMK AO2
14840KMKG MKG20071107165011211/07/07 16:50:31  5-MIN KMKG 072150Z 22005KT 10SM CLR 02/M05 A3019 380 59 -1000 220/05 RMK AO2 SLP229 T00221050
14840KMKG MKG20071107165511511/07/07 16:55:31  5-MIN KMKG 072155Z 24004KT 10SM BKN037 02/M05 A3019 380 59 -1000 240/04 RMK AO2 SLP229 T00221050
14840KMKG MKG20071107170009811/07/07 17:00:31  5-MIN KMKG 072200Z 22005KT 10SM SCT035 02/M05 A3018 390 59 -1000 220/05 RMK AO2
14840KMKG MKG20071107170509811/07/07 17:05:31  5-MIN KMKG 072205Z 21005KT 10SM SCT035 02/M04 A3018 390 64 -1100 210/05 RMK AO2
14840KMKG MKG20071107171009811/07/07 17:10:31  5-MIN KMKG 072210Z 21005KT 10SM SCT037 02/M04 A3018 390 61 -1000 220/05 RMK AO2
14840KMKG MKG20071107171509811/07/07 17:15:31  5-MIN KMKG 072215Z 23003KT 10SM BKN037 02/M04 A3018 390 61 -1000 230/03 RMK AO2
14840KMKG MKG20071107172009811/07/07 17:20:31  5-MIN KMKG 072220Z 22003KT 10SM BKN037 02/M04 A3017 400 61 -1000 220/03 RMK AO2
14840KMKG MKG20071107172509811/07/07 17:25:31  5-MIN KMKG 072225Z 23003KT 10SM BKN037 02/M04 A3018 400 64 -1000 230/03 RMK AO2
14840KMKG MKG20071107173010511/07/07 17:30:31  5-MIN KMKG 072230Z 21003KT 10SM BKN035 BKN120 02/M04 A3017 400 64 -1000 210/03 RMK AO2
14840KMKG MKG20071107173510511/07/07 17:35:31  5-MIN KMKG 072235Z 21007KT 10SM BKN035 BKN120 02/M04 A3017 400 64 -1000 210/07 RMK AO2
14840KMKG MKG20071107174010511/07/07 17:40:31  5-MIN KMKG 072240Z 21005KT 10SM BKN035 OVC120 02/M04 A3017 400 61 -1000 210/05 RMK AO2
14840KMKG MKG20071107174510511/07/07 17:45:31  5-MIN KMKG 072245Z 20005KT 10SM BKN035 BKN120 02/M04 A3017 400 64 -1000 200/05 RMK AO2
14840KMKG MKG20071107175012211/07/07 17:50:31  5-MIN KMKG 072250Z 21003KT 10SM BKN035 BKN120 02/M04 A3017 400 66 -1000 210/03 RMK AO2 SLP222 T00171039
14840KMKG MKG20071107175512211/07/07 17:55:31  5-MIN KMKG 072255Z 19003KT 10SM BKN035 OVC120 02/M04 A3017 400 66 -1000 200/03 RMK AO2 SLP222 T00171039
14840KMKG MKG20071107180010511/07/07 18:00:31  5-MIN KMKG 072300Z 00000KT 10SM SCT035 OVC120 02/M04 A3016 410 66 -1000 000/00 RMK AO2
14840KMKG MKG20071107180512011/07/07 18:05:31  5-MIN KMKG 072305Z 19003KT 10SM SCT035 BKN120 02/M04 A3016 410 66 -1000 200/03 RMK AO2 CIG 037 RWY 14
14840KMKG MKG20071107181010511/07/07 18:10:31  5-MIN KMKG 072310Z 18004KT 10SM BKN035 BKN120 02/M04 A3016 410 66 -1000 190/04 RMK AO2
14840KMKG MKG20071107181510511/07/07 18:15:31  5-MIN KMKG 072315Z 17003KT 10SM BKN035 BKN120 02/M04 A3016 410 66 -1000 180/03 RMK AO2
14840KMKG MKG20071107182010511/07/07 18:20:31  5-MIN KMKG 072320Z 17003KT 10SM BKN035 BKN120 02/M04 A3016 410 66 -1000 170/03 RMK AO2
14840KMKG MKG20071107182510511/07/07 18:25:31  5-MIN KMKG 072325Z 15003KT 10SM BKN035 BKN110 02/M04 A3016 410 66 -1000 160/03 RMK AO2
14840KMKG MKG20071107183009811/07/07 18:30:31  5-MIN KMKG 072330Z 15003KT 10SM BKN035 02/M04 A3016 410 66 -1000 150/03 RMK AO2
14840KMKG MKG20071107183509811/07/07 18:35:31  5-MIN KMKG 072335Z 15003KT 10SM SCT035 01/M04 A3016 410 69 -1100 150/03 RMK AO2
14840KMKG MKG20071107184009811/07/07 18:40:31  5-MIN KMKG 072340Z 00000KT 10SM BKN035 01/M03 A3016 410 72 -1100 000/00 RMK AO2
14840KMKG MKG20071107184509811/07/07 18:45:31  5-MIN KMKG 072345Z 13003KT 10SM SCT035 01/M03 A3016 410 72 -1100 140/03 RMK AO2
14840KMKG MKG20071107185013311/07/07 18:50:31  5-MIN KMKG 072350Z 14003KT 10SM BKN037 01/M03 A3016 410 72 -1100 140/03 RMK AO2 SLP219 T00111033 10039 20011 58015
14840KMKG MKG20071107185513311/07/07 18:55:31  5-MIN KMKG 072355Z 13003KT 10SM BKN037 01/M03 A3016 410 72 -1100 140/03 RMK AO2 SLP219 T00111033 10039 20011 56015
14840KMKG MKG20071107190012011/07/07 19:00:31  5-MIN KMKG 080000Z 13004KT 10SM SCT037 BKN110 01/M03 A3016 410 72 -1100 140/04 RMK AO2 CIG 038 RWY 14
14840KMKG MKG20071107190512011/07/07 19:05:31  5-MIN KMKG 080005Z 12004KT 10SM SCT037 BKN110 01/M03 A3016 410 78 -1200 130/04 RMK AO2 CIG 038 RWY 14
14840KMKG MKG20071107191012011/07/07 19:10:31  5-MIN KMKG 080010Z 12005KT 10SM SCT037 BKN110 01/M03 A3015 410 78 -1200 120/05 RMK AO2 CIG 038 RWY 14
14840KMKG MKG20071107191512011/07/07 19:15:31  5-MIN KMKG 080015Z 12005KT 10SM SCT037 BKN110 01/M03 A3015 420 75 -1100 120/05 RMK AO2 CIG 038 RWY 14
14840KMKG MKG20071107192012011/07/07 19:20:31  5-MIN KMKG 080020Z 12005KT 10SM SCT039 BKN120 01/M03 A3015 420 75 -1100 130/05 RMK AO2 CIG 040 RWY 14
14840KMKG MKG20071107192512011/07/07 19:25:31  5-MIN KMKG 080025Z 12006KT 10SM SCT039 BKN120 01/M03 A3015 420 75 -1100 130/06 RMK AO2 CIG 040 RWY 14
14840KMKG MKG20071107193012011/07/07 19:30:31  5-MIN KMKG 080030Z 12005KT 10SM FEW039 BKN120 01/M03 A3015 420 75 -1100 130/05 RMK AO2 CIG 040 RWY 14
14840KMKG MKG20071107193512011/07/07 19:35:31  5-MIN KMKG 080035Z 12005KT 10SM SCT039 OVC120 01/M03 A3015 420 75 -1100 130/05 RMK AO2 CIG 038 RWY 14
14840KMKG MKG20071107194012011/07/07 19:40:31  5-MIN KMKG 080040Z 13006KT 10SM SCT039 OVC120 01/M03 A3015 420 75 -1100 140/06 RMK AO2 CIG 039 RWY 14
14840KMKG MKG20071107194510511/07/07 19:45:31  5-MIN KMKG 080045Z 14006KT 10SM BKN039 OVC120 01/M03 A3015 420 75 -1100 140/06 RMK AO2
14840KMKG MKG20071107195012211/07/07 19:50:31  5-MIN KMKG 080050Z 13006KT 10SM BKN039 OVC120 01/M03 A3015 420 72 -1100 140/06 RMK AO2 SLP215 T00111033
14840KMKG MKG20071107195512911/07/07 19:55:31  5-MIN KMKG 080055Z 13005KT 10SM BKN038 BKN044 OVC120 01/M03 A3014 430 72 -1100 140/05 RMK AO2 SLP214 T00111033
14840KMKG MKG20071107200010511/07/07 20:00:31  5-MIN KMKG 080100Z 13005KT 10SM BKN038 OVC120 01/M03 A3014 430 72 -1100 140/05 RMK AO2
14840KMKG MKG20071107200510511/07/07 20:05:31  5-MIN KMKG 080105Z 14005KT 10SM BKN038 OVC110 01/M03 A3014 430 72 -1100 140/05 RMK AO2
14840KMKG MKG20071107201010511/07/07 20:10:31  5-MIN KMKG 080110Z 14006KT 10SM BKN040 OVC110 02/M03 A3014 430 69 -1000 140/06 RMK AO2
14840KMKG MKG20071107201510511/07/07 20:15:31  5-MIN KMKG 080115Z 14005KT 10SM BKN040 OVC110 02/M03 A3014 430 69 -1000 140/05 RMK AO2
14840KMKG MKG20071107202010511/07/07 20:20:31  5-MIN KMKG 080120Z 14005KT 10SM BKN040 OVC110 02/M03 A3014 430 69 -1000 140/05 RMK AO2
14840KMKG MKG20071107202510511/07/07 20:25:31  5-MIN KMKG 080125Z 14006KT 10SM BKN040 OVC110 02/M03 A3014 430 69 -1000 140/06 RMK AO2
14840KMKG MKG20071107203011211/07/07 20:30:31  5-MIN KMKG 080130Z 14005KT 10SM BKN040 BKN090 OVC110 02/M03 A3013 430 69 -1000 140/05 RMK AO2
14840KMKG MKG20071107203510511/07/07 20:35:31  5-MIN KMKG 080135Z 14006KT 10SM BKN040 BKN090 02/M03 A3013 430 69 -1000 140/06 RMK AO2
14840KMKG MKG20071107204011211/07/07 20:40:31  5-MIN KMKG 080140Z 14007KT 10SM BKN040 BKN090 OVC110 02/M03 A3013 430 69 -1000 150/07 RMK AO2
14840KMKG MKG20071107204510511/07/07 20:45:31  5-MIN KMKG 080145Z 14006KT 10SM BKN040 OVC100 02/M03 A3013 430 69 -1000 140/06 RMK AO2
14840KMKG MKG20071107205012911/07/07 20:50:31  5-MIN KMKG 080150Z 14007KT 10SM FEW035 BKN042 OVC100 02/M03 A3013 430 69 -1000 140/07 RMK AO2 SLP210 T00171033
14840KMKG MKG20071107205513711/07/07 20:55:31  5-MIN KMKG 080155Z 14006KT 10SM SCT038 OVC100 02/M03 A3013 440 69 -1000 140/06 RMK AO2 CIG 039 RWY 14 SLP210 T00171033
14840KMKG MKG20071107210010511/07/07 21:00:31  5-MIN KMKG 080200Z 14005KT 10SM SCT038 OVC100 02/M03 A3013 440 69 -1000 140/05 RMK AO2
14840KMKG MKG20071107210510511/07/07 21:05:31  5-MIN KMKG 080205Z 13005KT 10SM FEW038 OVC095 02/M03 A3013 440 69 -1000 140/05 RMK AO2
14840KMKG MKG20071107211011211/07/07 21:10:31  5-MIN KMKG 080210Z 13004KT 10SM SCT038 BKN090 OVC110 02/M03 A3013 440 69 -1000 130/04 RMK AO2
14840KMKG MKG20071107211510511/07/07 21:15:31  5-MIN KMKG 080215Z 14005KT 10SM FEW040 OVC100 02/M03 A3012 440 69 -1000 140/05 RMK AO2
14840KMKG MKG20071107212010511/07/07 21:20:31  5-MIN KMKG 080220Z 14006KT 10SM FEW038 BKN100 02/M03 A3012 440 69 -1000 140/06 RMK AO2
14840KMKG MKG20071107212512711/07/07 21:25:31  5-MIN KMKG 080225Z 13006KT 10SM SCT038 BKN075 BKN095 02/M03 A3012 440 69 -1000 140/06 RMK AO2 CIG 039 RWY 14
14840KMKG MKG20071107213012711/07/07 21:30:31  5-MIN KMKG 080230Z 13006KT 10SM SCT038 BKN065 OVC110 02/M03 A3012 440 69 -1000 140/06 RMK AO2 CIG 039 RWY 14
14840KMKG MKG20071107213512711/07/07 21:35:31  5-MIN KMKG 080235Z 13006KT 10SM SCT038 BKN065 BKN085 02/M03 A3012 450 69 -1000 130/06 RMK AO2 CIG 039 RWY 14
14840KMKG MKG20071107214011211/07/07 21:40:31  5-MIN KMKG 080240Z 13007KT 10SM FEW036 BKN070 BKN110 02/M03 A3012 450 72 -1000 130/07 RMK AO2
14840KMKG MKG20071107214510511/07/07 21:45:31  5-MIN KMKG 080245Z 13008KT 10SM FEW036 BKN070 02/M03 A3012 450 72 -1000 130/08 RMK AO2
14840KMKG MKG20071107215013511/07/07 21:50:31  5-MIN KMKG 080250Z 13008KT 10SM FEW036 BKN070 OVC080 02/M03 A3011 450 72 -1000 130/08 RMK AO2 SLP204 T00171028 56015
14840KMKG MKG20071107215513511/07/07 21:55:31  5-MIN KMKG 080255Z 12007KT 10SM SCT036 BKN070 OVC080 02/M03 A3011 450 72 -1000 130/07 RMK AO2 SLP204 T00171028 58014
14840KMKG MKG20071107220010511/07/07 22:00:31  5-MIN KMKG 080300Z 12006KT 10SM SCT038 OVC075 02/M03 A3011 450 72 -1000 120/06 RMK AO2
14840KMKG MKG20071107220510511/07/07 22:05:31  5-MIN KMKG 080305Z 12006KT 10SM SCT038 OVC075 02/M03 A3011 450 72 -1000 120/06 RMK AO2
14840KMKG MKG20071107221011211/07/07 22:10:31  5-MIN KMKG 080310Z 13006KT 10SM SCT038 BKN075 OVC120 02/M03 A3011 450 72 -1000 130/06 RMK AO2
14840KMKG MKG20071107221512711/07/07 22:15:31  5-MIN KMKG 080315Z 13007KT 10SM SCT038 BKN085 OVC120 02/M03 A3011 460 72 -1000 130/07 RMK AO2 CIG 039 RWY 14
14840KMKG MKG20071107222012711/07/07 22:20:31  5-MIN KMKG 080320Z 13007KT 10SM SCT038 BKN095 OVC110 02/M03 A3011 460 72 -1000 130/07 RMK AO2 CIG 039 RWY 14
14840KMKG MKG20071107222512711/07/07 22:25:31  5-MIN KMKG 080325Z 13007KT 10SM FEW038 BKN100 BKN120 02/M03 A3011 460 72 -1000 130/07 RMK AO2 CIG 041 RWY 14
14840KMKG MKG20071107223012711/07/07 22:30:31  5-MIN KMKG 080330Z 13008KT 10SM SCT040 SCT095 BKN110 02/M03 A3010 460 72 -1000 140/08 RMK AO2 CIG 041 RWY 14
14840KMKG MKG20071107223511211/07/07 22:35:31  5-MIN KMKG 080335Z 13008KT 10SM SCT038 BKN047 BKN110 02/M03 A3010 460 72 -1000 140/08 RMK AO2
14840KMKG MKG20071107224012711/07/07 22:40:31  5-MIN KMKG 080340Z 13008KT 10SM SCT040 BKN049 BKN110 02/M03 A3010 460 72 -1000 130/08 RMK AO2 CIG 041 RWY 14
14840KMKG MKG20071107224511111/07/07 22:45:31  5-MIN KMKG 080345Z 13009KT 10SM BKN042 BKN049 BKN110 02/M03 A3010 460 69 -900 140/09 RMK AO2
14840KMKG MKG20071107225014311/07/07 22:50:31  5-MIN KMKG 080350Z 13007KT 10SM FEW039 BKN048 BKN095 02/M03 A3010 470 69 -900 130/07 RMK AO2 CIG 041 RWY 14 SLP198 T00221028
14840KMKG MKG20071107225512111/07/07 22:55:31  5-MIN KMKG 080355Z 13007KT 10SM SCT039 BKN048 02/M03 A3010 460 69 -900 140/07 RMK AO2 SLP199 T00221028
14840KMKG MKG20071107230010411/07/07 23:00:31  5-MIN KMKG 080400Z 13007KT 10SM SCT042 BKN050 02/M03 A3010 460 69 -900 140/07 RMK AO2
14840KMKG MKG20071107230510411/07/07 23:05:31  5-MIN KMKG 080405Z 14006KT 10SM BKN042 BKN050 02/M03 A3010 460 69 -900 150/06 RMK AO2
14840KMKG MKG20071107231011111/07/07 23:10:31  5-MIN KMKG 080410Z 14005KT 10SM BKN042 BKN050 BKN090 02/M03 A3010 460 69 -900 140/05 RMK AO2
14840KMKG MKG20071107231511111/07/07 23:15:31  5-MIN KMKG 080415Z 14006KT 10SM BKN042 BKN050 BKN085 02/M03 A3010 470 69 -900 150/06 RMK AO2
14840KMKG MKG20071107232011111/07/07 23:20:31  5-MIN KMKG 080420Z 16006KT 10SM BKN044 BKN050 BKN085 02/M03 A3010 470 67 -900 160/06 RMK AO2
14840KMKG MKG20071107232511111/07/07 23:25:31  5-MIN KMKG 080425Z 15007KT 10SM BKN042 BKN050 OVC085 02/M03 A3010 470 67 -900 160/07 RMK AO2
14840KMKG MKG20071107233011111/07/07 23:30:31  5-MIN KMKG 080430Z 15006KT 10SM SCT042 BKN050 OVC085 03/M03 A3010 470 64 -800 160/06 RMK AO2
14840KMKG MKG20071107233511111/07/07 23:35:31  5-MIN KMKG 080435Z 15006KT 10SM SCT042 BKN050 OVC090 03/M03 A3010 470 64 -800 150/06 RMK AO2
14840KMKG MKG20071107234011111/07/07 23:40:31  5-MIN KMKG 080440Z 14006KT 10SM FEW042 BKN050 OVC090 02/M03 A3010 470 67 -900 150/06 RMK AO2
14840KMKG MKG20071107234511111/07/07 23:45:31  5-MIN KMKG 080445Z 15007KT 10SM FEW040 BKN055 OVC085 02/M03 A3010 470 67 -900 160/07 RMK AO2
14840KMKG MKG20071107235013811/07/07 23:50:31  5-MIN KMKG 080450Z 15006KT 10SM SCT042 BKN055 OVC090 03/M03 A3010 470 64 -800 150/06 RMK AO2 SLP198 T00281033 400390006
14840KMKG MKG20071107235513811/07/07 23:55:31  5-MIN KMKG 080455Z 16006KT 10SM SCT042 BKN050 OVC090 02/M03 A3010 470 67 -900 160/06 RMK AO2 SLP198 T00221033 400390006
14840KMKG MKG20071108000011111/08/07 00:00:32  5-MIN KMKG 080500Z 14007KT 10SM SCT042 BKN055 OVC110 02/M03 A3010 470 67 -900 150/07 RMK AO2
14840KMKG MKG20071108000511111/08/07 00:05:31  5-MIN KMKG 080505Z 13010KT 10SM SCT043 BKN050 OVC110 02/M03 A3009 470 67 -900 140/10 RMK AO2
14840KMKG MKG20071108001011111/08/07 00:10:31  5-MIN KMKG 080510Z 14008KT 10SM BKN041 BKN055 OVC095 02/M03 A3009 470 67 -900 150/08 RMK AO2
14840KMKG MKG20071108001512611/08/07 00:15:31  5-MIN KMKG 080515Z 14007KT 10SM SCT043 BKN060 OVC100 02/M03 A3009 470 67 -900 150/07 RMK AO2 CIG 049 RWY 14
14840KMKG MKG20071108002011111/08/07 00:20:31  5-MIN KMKG 080520Z 14006KT 10SM SCT043 BKN060 OVC095 02/M03 A3009 470 67 -900 150/06 RMK AO2
14840KMKG MKG20071108002512611/08/07 00:25:31  5-MIN KMKG 080525Z 13007KT 10SM SCT041 BKN060 OVC095 03/M03 A3009 470 67 -800 140/07 RMK AO2 CIG 049 RWY 14
14840KMKG MKG20071108003011111/08/07 00:30:31  5-MIN KMKG 080530Z 14007KT 10SM BKN041 BKN050 OVC095 02/M03 A3009 470 69 -900 150/07 RMK AO2
14840KMKG MKG20071108003511111/08/07 00:35:31  5-MIN KMKG 080535Z VRB06KT 10SM SCT041 BKN050 OVC095 03/M03 A3009 470 64 -800 VRB/06 RMK AO2
14840KMKG MKG20071108004011111/08/07 00:40:31  5-MIN KMKG 080540Z 25010KT 10SM SCT043 BKN050 OVC095 04/M03 A3009 480 62 -700 250/10 RMK AO2
14840KMKG MKG20071108004511111/08/07 00:45:31  5-MIN KMKG 080545Z 23009KT 10SM FEW039 BKN046 BKN055 04/M03 A3009 480 57 -600 230/09 RMK AO2
14840KMKG MKG20071108005015211/08/07 00:50:31  5-MIN KMKG 080550Z 23011G18KT 10SM SCT039 BKN048 BKN060 05/M03 A3009 480 57 -500 230/11G18 RMK AO2 SLP193 T00501028 10050 20006 58014
14840KMKG MKG20071108005515211/08/07 00:55:31  5-MIN KMKG 080555Z 23008G18KT 10SM SCT037 BKN048 BKN060 04/M02 A3008 480 62 -600 240/08G18 RMK AO2 SLP192 T00441022 10050 20006 58011
14840KMKG MKG20071108010011111/08/07 01:00:31  5-MIN KMKG 080600Z 24007KT 10SM SCT037 BKN048 BKN060 04/M02 A3008 480 62 -600 240/07 RMK AO2
14840KMKG MKG20071108010513311/08/07 01:05:31  5-MIN KMKG 080605Z 23012G19KT 10SM -RA BKN037 BKN046 BKN055 04/M02 A3008 480 62 -600 240/12G19 RMK AO2 RAB02 P0000
14840KMKG MKG20071108011013311/08/07 01:10:31  5-MIN KMKG 080610Z 24012G19KT 10SM -RA FEW031 BKN039 BKN049 04/M02 A3008 480 62 -600 240/12G19 RMK AO2 RAB02 P0000
14840KMKG MKG20071108011512711/08/07 01:15:31  5-MIN KMKG 080615Z 23011KT 10SM -RA SCT029 BKN037 OVC049 04/M01 A3008 490 67 -600 230/11 RMK AO2 RAB02 P0000
14840KMKG MKG20071108012012711/08/07 01:20:31  5-MIN KMKG 080620Z 23013KT 10SM -RA SCT029 BKN037 OVC049 04/M01 A3007 490 67 -600 240/13 RMK AO2 RAB02 P0000
14840KMKG MKG20071108012512711/08/07 01:25:31  5-MIN KMKG 080625Z 25008KT 10SM -RA SCT029 BKN037 OVC049 04/M01 A3007 490 67 -600 250/08 RMK AO2 RAB02 P0000
14840KMKG MKG20071108013012611/08/07 01:30:31  5-MIN KMKG 080630Z 24011KT 10SM SCT029 BKN037 OVC045 04/M02 A3007 490 64 -600 240/11 RMK AO2 RAB02E26 P0000
14840KMKG MKG20071108013513211/08/07 01:35:31  5-MIN KMKG 080635Z 25011G16KT 10SM BKN029 BKN042 OVC055 04/M02 A3007 490 64 -600 250/11G16 RMK AO2 RAB02E26 P0000
14840KMKG MKG20071108014013211/08/07 01:40:31  5-MIN KMKG 080640Z 23007G16KT 10SM BKN029 BKN035 OVC055 04/M02 A3007 500 64 -600 240/07G16 RMK AO2 RAB02E26 P0000
14840KMKG MKG20071108014513311/08/07 01:45:31  5-MIN KMKG 080645Z 25010KT 10SM -RA BKN027 BKN038 OVC048 04/M01 A3007 500 67 -600 260/10 RMK AO2 RAB02E26B44 P0000
14840KMKG MKG20071108015013911/08/07 01:50:31  5-MIN KMKG 080650Z 25011G17KT 10SM -RA FEW023 BKN030 OVC048 04/M01 A3006 500 73 -600 250/11G17 RMK AO2 RAB02E26B44 P0000
14840KMKG MKG20071108015517111/08/07 01:55:31  5-MIN KMKG 080655Z 24011G17KT 10SM -RA SCT026 BKN034 OVC048 04/M01 A3006 500 73 -600 240/11G17 RMK AO2 RAB02E26B44 CIG 029 RWY 14 SLP185 P0000 T00391006
14840KMKG MKG20071108020012111/08/07 02:00:31  5-MIN KMKG 080700Z 24011KT 10SM -RA FEW023 BKN028 OVC036 04/M01 A3006 500 73 -600 250/11 RMK AO2 P0000
14840KMKG MKG20071108020512611/08/07 02:05:31  5-MIN KMKG 080705Z 24014G20KT 10SM -RA FEW021 BKN030 OVC036 04/00 A3006 500 76 -600 240/14G20 RMK AO2 P0000
14840KMKG MKG20071108021012511/08/07 02:10:31  5-MIN KMKG 080710Z 24011G20KT 9SM -RA FEW019 BKN027 OVC033 04/00 A3005 510 76 -600 240/11G20 RMK AO2 P0000
14840KMKG MKG20071108021513411/08/07 02:15:31  5-MIN KMKG 080715Z 24009KT 8SM -RA SCT019 BKN027 OVC035 04/00 A3006 510 76 -600 240/09 RMK AO2 CIG 019 RWY 14 P0000
14840KMKG MKG20071108022011911/08/07 02:20:31  5-MIN KMKG 080720Z 25010KT 8SM -RA SCT017 BKN027 OVC035 03/00 A3005 510 79 -700 250/10 RMK AO2 P0000
14840KMKG MKG20071108022513411/08/07 02:25:31  5-MIN KMKG 080725Z 25009KT 8SM -RA SCT017 BKN028 OVC044 03/01 A3005 510 82 -700 250/09 RMK AO2 CIG 017 RWY 14 P0000
14840KMKG MKG20071108023012511/08/07 02:30:31  5-MIN KMKG 080730Z 26012G19KT 7SM -RA BKN017 BKN028 OVC044 03/01 A3005 510 82 -700 260/12G19 RMK AO2 P0000
14840KMKG MKG20071108023513311/08/07 02:35:31  5-MIN KMKG 080735Z 26009G19KT 7SM -RA SCT014 OVC021 03/01 A3005 510 82 -700 260/09G19 RMK AO2 CIG 014 RWY 14 P0000
14840KMKG MKG20071108024011811/08/07 02:40:31  5-MIN KMKG 080740Z 26011G17KT 8SM -RA BKN016 OVC025 03/00 A3005 510 79 -700 260/11G17 RMK AO2 P0000
14840KMKG MKG20071108024511911/08/07 02:45:31  5-MIN KMKG 080745Z 26008KT 8SM -RA FEW014 BKN019 OVC025 03/00 A3005 510 79 -700 260/08 RMK AO2 P0000
14840KMKG MKG20071108025013611/08/07 02:50:31  5-MIN KMKG 080750Z 24010KT 8SM -RA FEW014 BKN019 OVC028 03/00 A3005 510 79 -700 240/10 RMK AO2 SLP181 P0000 T00330000
14840KMKG MKG20071108025513611/08/07 02:55:31  5-MIN KMKG 080755Z 25007KT 8SM -RA FEW014 BKN019 OVC027 03/00 A3005 510 79 -700 260/07 RMK AO2 SLP180 P0001 T00330000
14840KMKG MKG20071108030011211/08/07 03:00:31  5-MIN KMKG 080800Z 25007KT 7SM -RA BKN021 OVC027 03/00 A3004 520 79 -700 260/07 RMK AO2 P0000
14840KMKG MKG20071108030511211/08/07 03:05:31  5-MIN KMKG 080805Z 23007KT 7SM -RA BKN019 OVC027 03/00 A3004 520 79 -700 240/07 RMK AO2 P0000
14840KMKG MKG20071108031012511/08/07 03:10:31  5-MIN KMKG 080810Z 24011G16KT 7SM -RA BKN019 BKN025 OVC042 03/00 A3004 520 79 -700 240/11G16 RMK AO2 P0000
14840KMKG MKG20071108031511911/08/07 03:15:31  5-MIN KMKG 080815Z 24010KT 7SM -RA SCT019 BKN023 OVC042 03/00 A3004 520 79 -700 250/10 RMK AO2 P0000
14840KMKG MKG20071108032011911/08/07 03:20:31  5-MIN KMKG 080820Z 24008KT 8SM -RA SCT019 BKN023 OVC039 03/00 A3003 530 79 -700 240/08 RMK AO2 P0000
14840KMKG MKG20071108032511911/08/07 03:25:31  5-MIN KMKG 080825Z 24008KT 8SM -RA BKN019 BKN029 OVC039 03/00 A3003 530 79 -700 240/08 RMK AO2 P0000
14840KMKG MKG20071108033011911/08/07 03:30:31  5-MIN KMKG 080830Z 23009KT 9SM -RA SCT019 BKN029 OVC039 04/00 A3003 530 76 -600 230/09 RMK AO2 P0000
14840KMKG MKG20071108033511911/08/07 03:35:31  5-MIN KMKG 080835Z 24009KT 9SM -RA FEW019 BKN029 OVC038 04/00 A3003 530 76 -600 240/09 RMK AO2 P0000
14840KMKG MKG20071108034012111/08/07 03:40:31  5-MIN KMKG 080840Z 23009KT 9SM FEW019 BKN029 OVC038 04/00 A3002 530 76 -600 240/09 RMK AO2 RAE39 P0000
14840KMKG MKG20071108034512511/08/07 03:45:31  5-MIN KMKG 080845Z 23012G16KT 9SM -RA FEW021 BKN029 OVC036 04/00 A3002 540 76 -600 230/12G16 RMK AO2 P0000
14840KMKG MKG20071108035014811/08/07 03:50:31  5-MIN KMKG 080850Z 24010KT 9SM -RA SCT021 BKN029 OVC036 04/00 A3002 540 76 -600 250/10 RMK AO2 SLP171 P0000 60001 T00390000 58011
14840KMKG MKG20071108035515011/08/07 03:55:31  5-MIN KMKG 080855Z 24008KT 9SM SCT021 BKN029 OVC036 04/00 A3002 540 76 -600 240/08 RMK AO2 RAE54 SLP170 P0000 60001 T00390000 58022
14840KMKG MKG20071108040010911/08/07 04:00:31  5-MIN KMKG 080900Z 23007KT 8SM SCT020 BKN027 OVC039 04/00 A3001 550 76 -600 240/07 RMK AO2
14840KMKG MKG20071108040512511/08/07 04:05:31  5-MIN KMKG 080905Z 23010KT 8SM -RA FEW020 BKN029 OVC035 04/00 A3001 550 76 -600 230/10 RMK AO2 RAB05 P0000
14840KMKG MKG20071108041012511/08/07 04:10:31  5-MIN KMKG 080910Z 23007KT 8SM -RA FEW020 BKN029 OVC080 04/00 A3001 550 76 -600 230/07 RMK AO2 RAB05 P0000
14840KMKG MKG20071108041512511/08/07 04:15:31  5-MIN KMKG 080915Z 23007KT 8SM -RA FEW018 BKN029 OVC075 03/01 A3000 550 82 -600 230/07 RMK AO2 RAB05 P0000
14840KMKG MKG20071108042012511/08/07 04:20:31  5-MIN KMKG 080920Z 23008KT 8SM -RA SCT020 BKN034 OVC075 03/01 A3000 550 82 -600 230/08 RMK AO2 RAB05 P0000
14840KMKG MKG20071108042512511/08/07 04:25:31  5-MIN KMKG 080925Z 23008KT 8SM -RA SCT020 BKN031 OVC075 03/00 A3000 550 79 -600 230/08 RMK AO2 RAB05 P0000
14840KMKG MKG20071108043014011/08/07 04:30:31  5-MIN KMKG 080930Z 23008KT 9SM -RA SCT020 SCT029 OVC070 03/00 A3000 550 79 -600 230/08 RMK AO2 RAB05 CIG 035 RWY 14 P0000
14840KMKG MKG20071108043514011/08/07 04:35:31  5-MIN KMKG 080935Z 23007KT 9SM -RA SCT020 BKN037 OVC070 03/00 A3000 550 79 -600 240/07 RMK AO2 RAB05 CIG 026 RWY 14 P0000
14840KMKG MKG20071108044013911/08/07 04:40:31  5-MIN KMKG 080940Z 23006KT 9SM SCT020 BKN037 OVC070 04/00 A3000 550 76 -600 230/06 RMK AO2 RAB05E38 CIG 028 RWY 14 P0000
14840KMKG MKG20071108044513911/08/07 04:45:31  5-MIN KMKG 080945Z 22006KT 9SM FEW020 BKN037 OVC070 04/01 A3000 560 79 -600 220/06 RMK AO2 RAB05E38 CIG 028 RWY 14 P0000
14840KMKG MKG20071108045015611/08/07 04:50:31  5-MIN KMKG 080950Z 21007KT 9SM FEW020 BKN037 OVC047 04/01 A3000 560 79 -600 220/07 RMK AO2 RAB05E38 CIG 028 RWY 14 SLP164 P0000 T00390006
14840KMKG MKG20071108045514111/08/07 04:55:31  5-MIN KMKG 080955Z 21007KT 9SM FEW020 BKN037 OVC045 04/01 A3000 560 79 -600 210/07 RMK AO2 RAB05E38 SLP163 P0000 T00390006
14840KMKG MKG20071108050012411/08/07 05:00:31  5-MIN KMKG 081000Z 20006KT 9SM FEW020 SCT037 OVC045 04/00 A2999 560 76 -600 200/06 RMK AO2 CIG 038 RWY 14
14840KMKG MKG20071108050510911/08/07 05:05:31  5-MIN KMKG 081005Z 19004KT 9SM FEW034 BKN045 OVC060 03/01 A2999 560 82 -600 190/04 RMK AO2
14840KMKG MKG20071108051010911/08/07 05:10:31  5-MIN KMKG 081010Z 17004KT 9SM FEW034 BKN045 OVC060 04/01 A2999 570 79 -600 170/04 RMK AO2
14840KMKG MKG20071108051510211/08/07 05:15:31  5-MIN KMKG 081015Z 17004KT 9SM BKN045 OVC055 03/01 A2999 570 82 -600 180/04 RMK AO2
14840KMKG MKG20071108052010211/08/07 05:20:31  5-MIN KMKG 081020Z 16004KT 8SM SCT045 OVC055 03/01 A2999 570 82 -600 170/04 RMK AO2
14840KMKG MKG20071108052510211/08/07 05:25:31  5-MIN KMKG 081025Z 16003KT 8SM FEW045 OVC055 04/01 A2999 570 79 -600 160/03 RMK AO2
14840KMKG MKG20071108053010211/08/07 05:30:31  5-MIN KMKG 081030Z 15003KT 8SM FEW044 OVC050 03/01 A2999 570 82 -600 150/03 RMK AO2
14840KMKG MKG20071108053510211/08/07 05:35:31  5-MIN KMKG 081035Z 15004KT 8SM FEW022 OVC050 03/01 A2999 570 82 -600 150/04 RMK AO2
14840KMKG MKG20071108054010211/08/07 05:40:31  5-MIN KMKG 081040Z 14004KT 8SM FEW022 OVC050 03/01 A2999 560 82 -600 140/04 RMK AO2
14840KMKG MKG20071108054511211/08/07 05:45:31  5-MIN KMKG 081045Z 12007KT 6SM BR SCT022 SCT028 OVC050 03/01 A2999 570 85 -600 120/07 RMK AO2
14840KMKG MKG20071108055011211/08/07 05:50:31  5-MIN KMKG 081050Z 11006KT 5SM BR SCT022 BKN028 OVC050 03/01 A2999 570 89 -700 120/06 RMK AO2
14840KMKG MKG20071108055512911/08/07 05:55:31  5-MIN KMKG 081055Z 12008KT 4SM BR SCT022 BKN028 OVC048 03/01 A2999 570 89 -700 120/08 RMK AO2 SLP162 T00280011
14840KMKG MKG20071108060011211/08/07 06:00:31  5-MIN KMKG 081100Z 12008KT 4SM BR BKN022 BKN028 OVC048 03/01 A2999 570 89 -700 130/08 RMK AO2
14840KMKG MKG20071108060511211/08/07 06:05:31  5-MIN KMKG 081105Z 12010KT 3SM BR BKN022 BKN028 OVC048 02/01 A2999 570 92 -800 130/10 RMK AO2
14840KMKG MKG20071108061011211/08/07 06:10:31  5-MIN KMKG 081110Z 13009KT 3SM BR SCT020 BKN026 OVC048 02/01 A2999 570 92 -800 130/09 RMK AO2
14840KMKG MKG20071108061511211/08/07 06:15:31  5-MIN KMKG 081115Z 14009KT 3SM BR SCT020 BKN026 OVC048 02/01 A2999 570 92 -800 140/09 RMK AO2
14840KMKG MKG20071108062011211/08/07 06:20:31  5-MIN KMKG 081120Z 14008KT 4SM BR SCT023 BKN029 OVC048 02/01 A2998 570 92 -800 140/08 RMK AO2
14840KMKG MKG20071108062512711/08/07 06:25:31  5-MIN KMKG 081125Z 14008KT 4SM BR SCT023 BKN029 OVC048 02/01 A2998 570 92 -800 140/08 RMK AO2 CIG 023 RWY 14
14840KMKG MKG20071108063012711/08/07 06:30:31  5-MIN KMKG 081130Z 14008KT 4SM BR SCT023 BKN029 OVC048 02/01 A2998 570 89 -800 140/08 RMK AO2 CIG 023 RWY 14
14840KMKG MKG20071108063511211/08/07 06:35:31  5-MIN KMKG 081135Z 14007KT 4SM BR FEW023 BKN029 OVC048 02/01 A2998 570 89 -800 150/07 RMK AO2
14840KMKG MKG20071108064011211/08/07 06:40:31  5-MIN KMKG 081140Z 14008KT 4SM BR FEW023 BKN038 OVC048 02/01 A2998 570 89 -800 140/08 RMK AO2
14840KMKG MKG20071108064511211/08/07 06:45:31  5-MIN KMKG 081145Z 14008KT 4SM BR FEW025 BKN029 OVC037 02/01 A2998 580 89 -700 140/08 RMK AO2
14840KMKG MKG20071108065015911/08/07 06:50:31  5-MIN KMKG 081150Z 13008KT 4SM BR FEW022 BKN029 OVC038 02/01 A2998 580 89 -700 140/08 RMK AO2 SLP158 60001 70001 T00220006 10044 20022 58022
14840KMKG MKG20071108065515911/08/07 06:55:31  5-MIN KMKG 081155Z 13008KT 4SM BR FEW006 BKN031 BKN038 02/01 A2998 570 89 -800 140/08 RMK AO2 SLP159 60001 70001 T00220006 10044 20022 56012
14840KMKG MKG20071108070011211/08/07 07:00:31  5-MIN KMKG 081200Z 14009KT 4SM BR SCT006 BKN025 BKN031 02/01 A2998 580 89 -700 140/09 RMK AO2
14840KMKG MKG20071108070511211/08/07 07:05:31  5-MIN KMKG 081205Z 14008KT 4SM BR SCT006 BKN025 BKN031 02/01 A2998 580 89 -700 150/08 RMK AO2
14840KMKG MKG20071108071011211/08/07 07:10:31  5-MIN KMKG 081210Z 15008KT 4SM BR FEW006 BKN029 OVC048 02/01 A2998 580 89 -700 150/08 RMK AO2
14840KMKG MKG20071108071512711/08/07 07:15:31  5-MIN KMKG 081215Z 14008KT 4SM BR FEW006 SCT024 BKN032 02/01 A2998 580 89 -700 150/08 RMK AO2 CIG 026 RWY 14
14840KMKG MKG20071108072012711/08/07 07:20:31  5-MIN KMKG 081220Z 14009KT 4SM BR FEW006 SCT024 BKN040 02/01 A2998 580 89 -700 140/09 RMK AO2 CIG 023 RWY 14
14840KMKG MKG20071108072512711/08/07 07:25:31  5-MIN KMKG 081225Z 14008KT 4SM BR FEW006 BKN041 OVC050 02/01 A2997 580 89 -700 140/08 RMK AO2 CIG 030 RWY 14
14840KMKG MKG20071108073011211/08/07 07:30:31  5-MIN KMKG 081230Z 13008KT 4SM BR FEW006 BKN025 OVC050 02/01 A2997 580 89 -700 140/08 RMK AO2
14840KMKG MKG20071108073511211/08/07 07:35:31  5-MIN KMKG 081235Z 13008KT 4SM BR SCT025 BKN034 OVC050 02/01 A2997 580 89 -700 130/08 RMK AO2
14840KMKG MKG20071108074011211/08/07 07:40:31  5-MIN KMKG 081240Z 14008KT 4SM BR FEW025 BKN044 OVC050 02/01 A2998 580 89 -700 140/08 RMK AO2
14840KMKG MKG20071108074511211/08/07 07:45:31  5-MIN KMKG 081245Z 13008KT 4SM BR FEW025 BKN044 OVC050 02/01 A2998 580 89 -700 130/08 RMK AO2
14840KMKG MKG20071108075012911/08/07 07:50:31  5-MIN KMKG 081250Z 13008KT 4SM BR FEW009 BKN043 OVC050 02/01 A2998 580 89 -700 140/08 RMK AO2 SLP158 T00220006
14840KMKG MKG20071108075512911/08/07 07:55:31  5-MIN KMKG 081255Z 14008KT 3SM BR FEW009 BKN045 BKN055 02/01 A2998 580 89 -700 140/08 RMK AO2 SLP157 T00220006
14840KMKG MKG20071108080010511/08/07 08:00:31  5-MIN KMKG 081300Z 14008KT 3SM BR FEW009 BKN050 02/01 A2997 580 89 -700 140/08 RMK AO2
14840KMKG MKG20071108080511211/08/07 08:05:31  5-MIN KMKG 081305Z 14008KT 3SM BR FEW009 SCT048 BKN055 02/00 A2997 580 85 -700 140/08 RMK AO2
14840KMKG MKG20071108081010511/08/07 08:10:31  5-MIN KMKG 081310Z 14008KT 4SM BR FEW009 BKN055 02/00 A2997 580 85 -700 150/08 RMK AO2
14840KMKG MKG20071108081510511/08/07 08:15:31  5-MIN KMKG 081315Z 14009KT 4SM BR FEW007 BKN055 02/00 A2997 580 85 -700 150/09 RMK AO2
14840KMKG MKG20071108082009811/08/07 08:20:31  5-MIN KMKG 081320Z 14010KT 5SM BR BKN055 02/00 A2997 580 85 -700 150/10 RMK AO2
14840KMKG MKG20071108082509811/08/07 08:25:31  5-MIN KMKG 081325Z 14009KT 5SM BR OVC055 02/00 A2997 590 85 -700 150/09 RMK AO2
14840KMKG MKG20071108083009811/08/07 08:30:31  5-MIN KMKG 081330Z 15008KT 5SM BR OVC055 02/00 A2997 580 85 -700 150/08 RMK AO2
14840KMKG MKG20071108083509811/08/07 08:35:31  5-MIN KMKG 081335Z 14007KT 5SM BR OVC060 02/00 A2997 580 85 -700 140/07 RMK AO2
14840KMKG MKG20071108084009811/08/07 08:40:31  5-MIN KMKG 081340Z 14007KT 5SM BR OVC060 02/00 A2997 580 85 -700 150/07 RMK AO2
14840KMKG MKG20071108084509811/08/07 08:45:31  5-MIN KMKG 081345Z 15006KT 5SM BR OVC060 02/00 A2997 580 85 -700 150/06 RMK AO2
14840KMKG MKG20071108085011511/08/07 08:50:31  5-MIN KMKG 081350Z 14007KT 6SM BR OVC060 02/00 A2997 580 85 -700 150/07 RMK AO2 SLP156 T00220000
14840KMKG MKG20071108085511611/08/07 08:55:31  5-MIN KMKG 081355Z 15005KT 6SM HZ OVC060 02/M01 A2997 580 82 -700 150/05 RMK AO2 SLP156 T00221006
14840KMKG MKG20071108090009911/08/07 09:00:31  5-MIN KMKG 081400Z 14007KT 6SM HZ OVC060 02/M01 A2997 580 82 -700 140/07 RMK AO2
14840KMKG MKG20071108090509611/08/07 09:05:31  5-MIN KMKG 081405Z 15009KT 7SM BKN060 02/M01 A2997 580 82 -700 150/09 RMK AO2
14840KMKG MKG20071108091009611/08/07 09:10:31  5-MIN KMKG 081410Z 14009KT 7SM BKN060 03/M01 A2997 580 79 -700 150/09 RMK AO2
14840KMKG MKG20071108091509611/08/07 09:15:31  5-MIN KMKG 081415Z 14008KT 7SM BKN060 03/M01 A2997 580 79 -700 150/08 RMK AO2
14840KMKG MKG20071108092009611/08/07 09:20:31  5-MIN KMKG 081420Z 15008KT 7SM BKN060 03/M01 A2997 580 79 -700 150/08 RMK AO2
14840KMKG MKG20071108092510211/08/07 09:25:31  5-MIN KMKG 081425Z 15010G15KT 7SM SCT060 02/M01 A2997 580 82 -700 150/10G15 RMK AO2
14840KMKG MKG20071108093009611/08/07 09:30:31  5-MIN KMKG 081430Z 16009KT 8SM SCT060 03/M01 A2997 580 79 -700 160/09 RMK AO2
14840KMKG MKG20071108093509611/08/07 09:35:31  5-MIN KMKG 081435Z 16008KT 8SM BKN065 03/M01 A2997 580 79 -700 160/08 RMK AO2
14840KMKG MKG20071108094009611/08/07 09:40:31  5-MIN KMKG 081440Z 16009KT 8SM BKN065 03/M01 A2997 590 75 -700 160/09 RMK AO2
14840KMKG MKG20071108094509611/08/07 09:45:31  5-MIN KMKG 081445Z 15008KT 8SM BKN065 03/M01 A2997 590 75 -700 150/08 RMK AO2
14840KMKG MKG20071108095011911/08/07 09:50:31  5-MIN KMKG 081450Z 16009KT 8SM BKN065 03/M01 A2997 590 79 -700 160/09 RMK AO2 SLP154 T00281006 56012
14840KMKG MKG20071108095511911/08/07 09:55:31  5-MIN KMKG 081455Z 16009KT 7SM OVC065 03/M01 A2997 590 75 -700 160/09 RMK AO2 SLP154 T00281011 58004
14840KMKG MKG20071108100010211/08/07 10:00:31  5-MIN KMKG 081500Z 15007G15KT 8SM BKN065 03/M01 A2997 590 75 -700 160/07G15 RMK AO2
14840KMKG MKG20071108100510211/08/07 10:05:31  5-MIN KMKG 081505Z 15010G15KT 8SM BKN060 03/M01 A2996 590 79 -700 150/10G15 RMK AO2
14840KMKG MKG20071108101010311/08/07 10:10:31  5-MIN KMKG 081510Z 16010KT 9SM BKN060 BKN075 03/M01 A2996 590 72 -600 160/10 RMK AO2
14840KMKG MKG20071108101510311/08/07 10:15:31  5-MIN KMKG 081515Z 16010KT 9SM SCT060 BKN075 03/M01 A2996 590 72 -600 160/10 RMK AO2
14840KMKG MKG20071108102010311/08/07 10:20:31  5-MIN KMKG 081520Z 16010KT 9SM FEW060 SCT075 03/M01 A2996 590 72 -600 160/10 RMK AO2
14840KMKG MKG20071108102509611/08/07 10:25:31  5-MIN KMKG 081525Z 15006KT 9SM SCT070 03/M01 A2996 590 72 -600 160/06 RMK AO2
14840KMKG MKG20071108103009611/08/07 10:30:31  5-MIN KMKG 081530Z 14006KT 9SM SCT070 03/M01 A2996 590 76 -600 140/06 RMK AO2
14840KMKG MKG20071108103509611/08/07 10:35:31  5-MIN KMKG 081535Z 15008KT 9SM SCT075 03/M01 A2996 590 76 -600 150/08 RMK AO2
14840KMKG MKG20071108104009611/08/07 10:40:31  5-MIN KMKG 081540Z 15008KT 9SM SCT075 03/M01 A2996 590 76 -600 150/08 RMK AO2
14840KMKG MKG20071108104509611/08/07 10:45:31  5-MIN KMKG 081545Z 14007KT 9SM SCT075 03/M01 A2996 590 76 -600 140/07 RMK AO2
14840KMKG MKG20071108105011311/08/07 10:50:31  5-MIN KMKG 081550Z 13007KT 9SM SCT075 04/M01 A2996 590 73 -500 140/07 RMK AO2 SLP150 T00391006
14840KMKG MKG20071108105511311/08/07 10:55:31  5-MIN KMKG 081555Z 15008KT 9SM OVC070 04/M01 A2996 590 73 -500 150/08 RMK AO2 SLP151 T00391006
14840KMKG MKG20071108110011811/08/07 11:00:31  5-MIN KMKG 081600Z 13010KT 9SM SCT065 BKN080 04/M01 A2996 590 73 -500 140/10 RMK AO2 CIG 065 RWY 14
14840KMKG MKG20071108110510311/08/07 11:05:31  5-MIN KMKG 081605Z 14010KT 9SM BKN065 BKN080 04/M01 A2996 600 73 -500 140/10 RMK AO2
14840KMKG MKG20071108111009611/08/07 11:10:31  5-MIN KMKG 081610Z 14008KT 9SM BKN070 04/M01 A2995 600 73 -500 140/08 RMK AO2
14840KMKG MKG20071108111509611/08/07 11:15:31  5-MIN KMKG 081615Z 15007KT 9SM BKN070 04/M01 A2995 600 73 -500 150/07 RMK AO2
14840KMKG MKG20071108112009611/08/07 11:20:31  5-MIN KMKG 081620Z 13008KT 9SM BKN070 04/M01 A2995 600 73 -500 140/08 RMK AO2
14840KMKG MKG20071108112509711/08/07 11:25:31  5-MIN KMKG 081625Z 13009KT 10SM OVC070 04/M01 A2995 600 73 -500 130/09 RMK AO2
14840KMKG MKG20071108113009711/08/07 11:30:31  5-MIN KMKG 081630Z 13008KT 10SM OVC070 04/M01 A2996 600 70 -400 140/08 RMK AO2
14840KMKG MKG20071108113509611/08/07 11:35:31  5-MIN KMKG 081635Z 13007KT 10SM OVC070 04/00 A2995 600 73 -400 140/07 RMK AO2
14840KMKG MKG20071108114009711/08/07 11:40:31  5-MIN KMKG 081640Z 13009KT 10SM OVC070 04/M01 A2995 600 70 -400 140/09 RMK AO2
14840KMKG MKG20071108114509611/08/07 11:45:31  5-MIN KMKG 081645Z 13008KT 10SM OVC070 04/00 A2994 610 73 -400 140/08 RMK AO2
14840KMKG MKG20071108115011311/08/07 11:50:31  5-MIN KMKG 081650Z 12010KT 10SM OVC070 05/00 A2994 610 70 -400 130/10 RMK AO2 SLP144 T00500000
14840KMKG MKG20071108115511311/08/07 11:55:31  5-MIN KMKG 081655Z 13008KT 10SM OVC075 05/00 A2994 610 70 -400 140/08 RMK AO2 SLP143 T00500000
14840KMKG MKG20071108120009611/08/07 12:00:31  5-MIN KMKG 081700Z 14007KT 10SM OVC075 05/00 A2994 610 70 -400 150/07 RMK AO2
14840KMKG MKG20071108120509611/08/07 12:05:31  5-MIN KMKG 081705Z 15008KT 10SM OVC075 05/00 A2994 620 70 -400 150/08 RMK AO2
14840KMKG MKG20071108121009611/08/07 12:10:31  5-MIN KMKG 081710Z 16008KT 10SM OVC075 06/00 A2993 620 67 -300 160/08 RMK AO2
14840KMKG MKG20071108121509611/08/07 12:15:31  5-MIN KMKG 081715Z 16007KT 10SM OVC075 06/00 A2993 620 67 -300 160/07 RMK AO2
14840KMKG MKG20071108122009611/08/07 12:20:31  5-MIN KMKG 081720Z 14008KT 10SM OVC075 06/00 A2993 630 65 -200 140/08 RMK AO2
14840KMKG MKG20071108122509611/08/07 12:25:31  5-MIN KMKG 081725Z 15008KT 10SM BKN075 06/00 A2992 630 65 -200 160/08 RMK AO2
14840KMKG MKG20071108123010311/08/07 12:30:31  5-MIN KMKG 081730Z 16008KT 10SM BKN075 BKN100 06/00 A2992 630 65 -200 160/08 RMK AO2
14840KMKG MKG20071108123510311/08/07 12:35:31  5-MIN KMKG 081735Z 14007KT 10SM SCT075 BKN100 07/00 A2992 630 62 -100 140/07 RMK AO2
14840KMKG MKG20071108124012511/08/07 12:40:31  5-MIN KMKG 081740Z 16009KT 10SM FEW024 SCT075 BKN100 07/01 A2992 630 65 -100 160/09 RMK AO2 CIG 075 RWY 14
14840KMKG MKG20071108124512511/08/07 12:45:31  5-MIN KMKG 081745Z 14006KT 10SM FEW024 SCT075 BKN100 07/00 A2992 630 62 -100 140/06 RMK AO2 CIG 075 RWY 14
14840KMKG MKG20071108125015911/08/07 12:50:31  5-MIN KMKG 081750Z 16012G17KT 10SM FEW024 BKN100 07/00 A2991 640 62 -100 170/12G17 RMK AO2 CIG 024 RWY 14 SLP134 T00670000 10067 20022 58004
14840KMKG MKG20071108125515911/08/07 12:55:31  5-MIN KMKG 081755Z 18007G17KT 10SM SCT024 BKN100 06/00 A2991 640 65 -200 180/07G17 RMK AO2 CIG 024 RWY 14 SLP134 T00610000 10067 20022 58018
14840KMKG MKG20071108130011811/08/07 13:00:31  5-MIN KMKG 081800Z VRB06KT 10SM SCT024 BKN100 07/01 A2991 640 62 -100 VRB/06 RMK AO2 CIG 024 RWY 14
14840KMKG MKG20071108130510911/08/07 13:05:31  5-MIN KMKG 081805Z 18009G15KT 10SM SCT024 SCT100 07/00 A2992 630 62 -100 180/09G15 RMK AO2
14840KMKG MKG20071108131010211/08/07 13:10:31  5-MIN KMKG 081810Z 17007G15KT 10SM SCT026 07/00 A2992 630 62 -100 180/07G15 RMK AO2
14840KMKG MKG20071108131510211/08/07 13:15:31  5-MIN KMKG 081815Z 18007G14KT 10SM SCT026 07/00 A2991 640 62 -100 180/07G14 RMK AO2
14840KMKG MKG20071108132011211/08/07 13:20:31  5-MIN KMKG 081820Z 16007KT 140V200 10SM BKN026 07/01 A2991 640 62 -100 170/07 140V200 RMK AO2
14840KMKG MKG20071108132509611/08/07 13:25:31  5-MIN KMKG 081825Z 21008KT 10SM BKN026 07/01 A2991 640 62 -100 210/08 RMK AO2
14840KMKG MKG20071108133009611/08/07 13:30:31  5-MIN KMKG 081830Z 20008KT 10SM BKN026 07/00 A2991 640 60 -100 200/08 RMK AO2
14840KMKG MKG20071108133509611/08/07 13:35:31  5-MIN KMKG 081835Z 20009KT 10SM BKN028 07/00 A2991 640 60 -100 210/09 RMK AO2
14840KMKG MKG20071108134010311/08/07 13:40:31  5-MIN KMKG 081840Z 20008KT 10SM BKN028 BKN075 07/00 A2991 640 62 -100 210/08 RMK AO2
14840KMKG MKG20071108134511811/08/07 13:45:31  5-MIN KMKG 081845Z 21010KT 10SM SCT028 BKN075 07/00 A2991 640 60 -100 210/10 RMK AO2 CIG 028 RWY 14
14840KMKG MKG20071108135011811/08/07 13:50:31  5-MIN KMKG 081850Z 19007KT 10SM SCT028 BKN075 07/00 A2991 640 60 -100 190/07 RMK AO2 CIG 028 RWY 14
14840KMKG MKG20071108135513511/08/07 13:55:31  5-MIN KMKG 081855Z 20009KT 10SM SCT028 BKN075 07/00 A2991 640 62 -100 200/09 RMK AO2 CIG 028 RWY 14 SLP134 T00670000
14840KMKG MKG20071108140012511/08/07 14:00:31  5-MIN KMKG 081900Z 21010KT 10SM FEW030 BKN075 BKN090 07/00 A2991 640 62 -100 210/10 RMK AO2 CIG 031 RWY 14
14840KMKG MKG20071108140512511/08/07 14:05:31  5-MIN KMKG 081905Z 21010KT 10SM FEW030 BKN075 BKN090 07/00 A2991 640 62 -100 210/10 RMK AO2 CIG 031 RWY 14
14840KMKG MKG20071108141011011/08/07 14:10:31  5-MIN KMKG 081910Z 20008KT 10SM FEW030 BKN080 BKN090 07/00 A2991 640 62 -100 200/08 RMK AO2
14840KMKG MKG20071108141511811/08/07 14:15:31  5-MIN KMKG 081915Z 20010KT 10SM SCT032 BKN080 07/00 A2991 640 62 -100 200/10 RMK AO2 CIG 031 RWY 14
14840KMKG MKG20071108142011911/08/07 14:20:31  5-MIN KMKG 081920Z 21009KT 10SM SCT032 BKN080 07/M01 A2991 640 60 -100 210/09 RMK AO2 CIG 031 RWY 14
14840KMKG MKG20071108142510411/08/07 14:25:31  5-MIN KMKG 081925Z 19007KT 10SM BKN032 BKN080 07/M01 A2991 640 60 -100 190/07 RMK AO2
14840KMKG MKG20071108143010411/08/07 14:30:31  5-MIN KMKG 081930Z 19006KT 10SM BKN032 BKN080 07/M01 A2991 640 60 -100 190/06 RMK AO2
14840KMKG MKG20071108143510411/08/07 14:35:31  5-MIN KMKG 081935Z 20006KT 10SM BKN032 BKN080 07/M01 A2991 640 60 -100 210/06 RMK AO2
14840KMKG MKG20071108144010411/08/07 14:40:31  5-MIN KMKG 081940Z 18008KT 10SM BKN032 OVC075 07/M01 A2991 640 60 -100 180/08 RMK AO2
14840KMKG MKG20071108144509711/08/07 14:45:31  5-MIN KMKG 081945Z 19006KT 10SM BKN032 07/M01 A2991 640 60 -100 190/06 RMK AO2
14840KMKG MKG20071108145011411/08/07 14:50:31  5-MIN KMKG 081950Z 15007KT 10SM BKN032 07/M01 A2991 640 57 -100 160/07 RMK AO2 SLP132 T00721006
14840KMKG MKG20071108145511411/08/07 14:55:31  5-MIN KMKG 081955Z 17005KT 10SM BKN032 07/M01 A2991 640 60 -100 180/05 RMK AO2 SLP132 T00671006
14840KMKG MKG20071108150009711/08/07 15:00:31  5-MIN KMKG 082000Z 18004KT 10SM BKN032 07/M01 A2991 640 60 -100 180/04 RMK AO2
14840KMKG MKG20071108150509711/08/07 15:05:31  5-MIN KMKG 082005Z 19007KT 10SM BKN034 07/M01 A2990 650 60 -100 190/07 RMK AO2
14840KMKG MKG20071108151009711/08/07 15:10:31  5-MIN KMKG 082010Z 17007KT 10SM BKN034 07/M01 A2990 640 60 -100 180/07 RMK AO2
14840KMKG MKG20071108151509711/08/07 15:15:31  5-MIN KMKG 082015Z 14006KT 10SM BKN034 07/M01 A2991 640 60 -100 140/06 RMK AO2
14840KMKG MKG20071108152009711/08/07 15:20:31  5-MIN KMKG 082020Z 15006KT 10SM BKN034 07/M01 A2991 640 60 -100 150/06 RMK AO2
14840KMKG MKG20071108152509711/08/07 15:25:31  5-MIN KMKG 082025Z 15005KT 10SM BKN034 07/M01 A2991 640 60 -100 150/05 RMK AO2
14840KMKG MKG20071108153009711/08/07 15:30:31  5-MIN KMKG 082030Z 15006KT 10SM BKN034 07/M01 A2991 640 60 -100 160/06 RMK AO2
14840KMKG MKG20071108153509711/08/07 15:35:31  5-MIN KMKG 082035Z 15005KT 10SM BKN034 07/M01 A2991 640 57 -100 150/05 RMK AO2
14840KMKG MKG20071108154009711/08/07 15:40:31  5-MIN KMKG 082040Z 15006KT 10SM BKN034 07/M01 A2991 640 57 -100 160/06 RMK AO2
14840KMKG MKG20071108154509711/08/07 15:45:31  5-MIN KMKG 082045Z 14005KT 10SM BKN034 07/M01 A2991 640 60 -100 140/05 RMK AO2
14840KMKG MKG20071108155012711/08/07 15:50:31  5-MIN KMKG 082050Z 13006KT 10SM BKN034 BKN085 07/M01 A2991 640 60 -100 130/06 RMK AO2 SLP131 T00671006 58018
14840KMKG MKG20071108155512711/08/07 15:55:31  5-MIN KMKG 082055Z 12007KT 10SM SCT034 SCT085 07/M01 A2991 640 57 -100 130/07 RMK AO2 SLP131 T00671011 58003
14840KMKG MKG20071108160010411/08/07 16:00:31  5-MIN KMKG 082100Z 13006KT 10SM SCT034 SCT085 07/M01 A2990 650 60 -100 140/06 RMK AO2
14840KMKG MKG20071108160510411/08/07 16:05:31  5-MIN KMKG 082105Z 12007KT 10SM SCT034 BKN085 07/M01 A2990 650 60 -100 130/07 RMK AO2
14840KMKG MKG20071108161010411/08/07 16:10:31  5-MIN KMKG 082110Z 13007KT 10SM FEW034 BKN085 06/M01 A2990 650 62 -200 140/07 RMK AO2
14840KMKG MKG20071108161510411/08/07 16:15:31  5-MIN KMKG 082115Z 13008KT 10SM FEW034 BKN085 06/M01 A2990 650 62 -200 140/08 RMK AO2
14840KMKG MKG20071108162010411/08/07 16:20:31  5-MIN KMKG 082120Z 13008KT 10SM FEW036 SCT085 06/M01 A2990 650 62 -200 130/08 RMK AO2
14840KMKG MKG20071108162510411/08/07 16:25:31  5-MIN KMKG 082125Z 13007KT 10SM FEW036 SCT085 06/M01 A2990 650 62 -200 130/07 RMK AO2
14840KMKG MKG20071108163010411/08/07 16:30:31  5-MIN KMKG 082130Z 13008KT 10SM FEW036 SCT080 06/M01 A2990 650 62 -200 130/08 RMK AO2
14840KMKG MKG20071108163510411/08/07 16:35:31  5-MIN KMKG 082135Z 13007KT 10SM FEW038 SCT080 06/M01 A2990 640 62 -200 130/07 RMK AO2
14840KMKG MKG20071108164009711/08/07 16:40:31  5-MIN KMKG 082140Z 12007KT 10SM FEW038 06/M01 A2991 640 62 -200 130/07 RMK AO2
14840KMKG MKG20071108164509711/08/07 16:45:31  5-MIN KMKG 082145Z 12006KT 10SM FEW075 06/M01 A2991 640 62 -200 130/06 RMK AO2
14840KMKG MKG20071108165012811/08/07 16:50:31  5-MIN KMKG 082150Z 12006KT 10SM SCT038 BKN075 OVC100 06/M01 A2991 640 62 -200 120/06 RMK AO2 SLP132 T00611006
14840KMKG MKG20071108165512811/08/07 16:55:31  5-MIN KMKG 082155Z 12006KT 10SM SCT038 BKN075 OVC100 06/M01 A2991 640 62 -200 130/06 RMK AO2 SLP132 T00611006
14840KMKG MKG20071108170009711/08/07 17:00:31  5-MIN KMKG 082200Z 11004KT 10SM SCT035 06/M01 A2991 640 62 -200 110/04 RMK AO2
14840KMKG MKG20071108170509711/08/07 17:05:31  5-MIN KMKG 082205Z 11005KT 10SM SCT035 06/M01 A2991 640 62 -200 120/05 RMK AO2
14840KMKG MKG20071108171009711/08/07 17:10:31  5-MIN KMKG 082210Z 11005KT 10SM BKN035 06/M01 A2991 640 62 -200 110/05 RMK AO2
14840KMKG MKG20071108171509711/08/07 17:15:31  5-MIN KMKG 082215Z 11005KT 10SM BKN035 06/M01 A2991 640 62 -200 110/05 RMK AO2
14840KMKG MKG20071108172009711/08/07 17:20:31  5-MIN KMKG 082220Z 10004KT 10SM BKN035 06/M01 A2991 640 62 -200 100/04 RMK AO2
14840KMKG MKG20071108172511911/08/07 17:25:31  5-MIN KMKG 082225Z 10004KT 10SM SCT035 BKN075 06/M01 A2991 640 62 -200 100/04 RMK AO2 CIG 035 RWY 14
14840KMKG MKG20071108173010411/08/07 17:30:31  5-MIN KMKG 082230Z 10004KT 10SM SCT035 SCT075 06/M01 A2992 630 62 -200 100/04 RMK AO2
14840KMKG MKG20071108173510411/08/07 17:35:31  5-MIN KMKG 082235Z 10004KT 10SM FEW035 SCT075 06/M01 A2992 630 65 -300 100/04 RMK AO2
14840KMKG MKG20071108174009711/08/07 17:40:31  5-MIN KMKG 082240Z 11004KT 10SM FEW035 06/M01 A2992 630 62 -200 110/04 RMK AO2
14840KMKG MKG20071108174509711/08/07 17:45:31  5-MIN KMKG 082245Z 10003KT 10SM FEW035 06/M01 A2992 630 65 -300 100/03 RMK AO2
14840KMKG MKG20071108175011411/08/07 17:50:31  5-MIN KMKG 082250Z 10004KT 10SM FEW037 06/M01 A2992 630 65 -300 110/04 RMK AO2 SLP137 T00561006
14840KMKG MKG20071108175512811/08/07 17:55:31  5-MIN KMKG 082255Z 10003KT 10SM SCT037 BKN075 OVC100 06/M01 A2992 630 65 -300 110/03 RMK AO2 SLP138 T00561006
14840KMKG MKG20071108180011111/08/07 18:00:31  5-MIN KMKG 082300Z 10003KT 10SM SCT037 BKN075 OVC100 06/M01 A2992 630 65 -300 110/03 RMK AO2
14840KMKG MKG20071108180511111/08/07 18:05:31  5-MIN KMKG 082305Z 10003KT 10SM SCT037 BKN075 OVC100 06/M01 A2992 630 65 -300 110/03 RMK AO2
14840KMKG MKG20071108181011111/08/07 18:10:31  5-MIN KMKG 082310Z 10003KT 10SM SCT037 BKN075 OVC100 06/M01 A2992 630 65 -300 100/03 RMK AO2
14840KMKG MKG20071108181511111/08/07 18:15:31  5-MIN KMKG 082315Z 10003KT 10SM SCT037 BKN075 OVC100 06/M01 A2993 630 65 -300 100/03 RMK AO2
14840KMKG MKG20071108182011111/08/07 18:20:31  5-MIN KMKG 082320Z 10003KT 10SM SCT037 BKN075 OVC100 06/M01 A2993 630 65 -300 110/03 RMK AO2
14840KMKG MKG20071108182511111/08/07 18:25:31  5-MIN KMKG 082325Z 00000KT 10SM SCT037 BKN075 OVC100 06/M01 A2993 630 65 -300 000/00 RMK AO2
14840KMKG MKG20071108183011011/08/07 18:30:31  5-MIN KMKG 082330Z 11003KT 10SM SCT037 BKN075 OVC100 06/00 A2993 630 67 -300 120/03 RMK AO2
14840KMKG MKG20071108183510411/08/07 18:35:31  5-MIN KMKG 082335Z 12003KT 10SM FEW034 BKN070 05/M01 A2993 630 67 -300 120/03 RMK AO2
14840KMKG MKG20071108184009611/08/07 18:40:31  5-MIN KMKG 082340Z 11003KT 10SM SCT070 05/00 A2993 630 70 -300 120/03 RMK AO2
14840KMKG MKG20071108184509711/08/07 18:45:31  5-MIN KMKG 082345Z 10004KT 10SM SCT070 05/M01 A2992 630 67 -300 110/04 RMK AO2
14840KMKG MKG20071108185014611/08/07 18:50:31  5-MIN KMKG 082350Z 10005KT 10SM SCT035 BKN070 OVC110 05/M01 A2992 630 67 -300 110/05 RMK AO2 SLP138 T00501006 10072 20050 58003
14840KMKG MKG20071108185514611/08/07 18:55:31  5-MIN KMKG 082355Z 10004KT 10SM SCT035 BKN070 OVC110 04/M01 A2992 630 70 -400 110/04 RMK AO2 SLP138 T00441006 10072 20044 51005
14840KMKG MKG20071108190009711/08/07 19:00:31  5-MIN KMKG 090000Z 11004KT 10SM FEW070 04/M01 A2992 630 67 -400 110/04 RMK AO2
14840KMKG MKG20071108190509411/08/07 19:05:31  5-MIN KMKG 090005Z 00000KT 10SM CLR 04/M01 A2992 630 73 -500 000/00 RMK AO2
14840KMKG MKG20071108191009411/08/07 19:10:31  5-MIN KMKG 090010Z 00000KT 10SM CLR 04/M01 A2992 630 70 -400 000/00 RMK AO2
14840KMKG MKG20071108191510411/08/07 19:15:31  5-MIN KMKG 090015Z 00000KT 10SM FEW035 SCT070 04/M01 A2992 630 70 -400 000/00 RMK AO2
14840KMKG MKG20071108192010411/08/07 19:20:31  5-MIN KMKG 090020Z 00000KT 10SM FEW035 SCT070 04/M01 A2992 630 70 -400 000/00 RMK AO2
14840KMKG MKG20071108192510411/08/07 19:25:31  5-MIN KMKG 090025Z 11003KT 10SM FEW035 SCT070 04/M01 A2992 630 70 -400 110/03 RMK AO2
14840KMKG MKG20071108193010411/08/07 19:30:31  5-MIN KMKG 090030Z 11003KT 10SM FEW035 SCT070 04/M01 A2992 630 70 -400 110/03 RMK AO2
14840KMKG MKG20071108193509711/08/07 19:35:31  5-MIN KMKG 090035Z 10003KT 10SM FEW070 04/M01 A2992 630 67 -400 110/03 RMK AO2
14840KMKG MKG20071108194009711/08/07 19:40:31  5-MIN KMKG 090040Z 00000KT 10SM FEW070 04/M01 A2992 630 67 -400 000/00 RMK AO2
14840KMKG MKG20071108194509711/08/07 19:45:31  5-MIN KMKG 090045Z 00000KT 10SM FEW070 04/M01 A2992 630 67 -400 000/00 RMK AO2
14840KMKG MKG20071108195011411/08/07 19:50:31  5-MIN KMKG 090050Z 10003KT 10SM FEW070 04/M01 A2992 630 70 -500 100/03 RMK AO2 SLP138 T00391011
14840KMKG MKG20071108195511111/08/07 19:55:31  5-MIN KMKG 090055Z 09003KT 10SM CLR 04/M01 A2992 630 70 -500 090/03 RMK AO2 SLP139 T00391011
14840KMKG MKG20071108200009411/08/07 20:00:31  5-MIN KMKG 090100Z 00000KT 10SM CLR 03/M01 A2992 630 72 -500 000/00 RMK AO2
14840KMKG MKG20071108200509311/08/07 20:05:31  5-MIN KMKG 090105Z 00000KT 9SM CLR 03/M01 A2992 630 75 -600 000/00 RMK AO2
14840KMKG MKG20071108201009311/08/07 20:10:31  5-MIN KMKG 090110Z 00000KT 9SM CLR 03/M01 A2992 630 72 -500 000/00 RMK AO2
14840KMKG MKG20071108201509311/08/07 20:15:31  5-MIN KMKG 090115Z 08003KT 9SM CLR 03/M01 A2992 630 72 -500 080/03 RMK AO2
14840KMKG MKG20071108202009311/08/07 20:20:31  5-MIN KMKG 090120Z 00000KT 9SM CLR 03/M01 A2992 630 75 -600 000/00 RMK AO2
14840KMKG MKG20071108202509311/08/07 20:25:31  5-MIN KMKG 090125Z 00000KT 9SM CLR 03/M01 A2992 630 72 -500 000/00 RMK AO2
14840KMKG MKG20071108203009311/08/07 20:30:31  5-MIN KMKG 090130Z 07003KT 9SM CLR 03/M01 A2992 630 76 -500 080/03 RMK AO2
14840KMKG MKG20071108203509311/08/07 20:35:31  5-MIN KMKG 090135Z 07003KT 9SM CLR 03/M01 A2992 630 75 -600 080/03 RMK AO2
14840KMKG MKG20071108204009311/08/07 20:40:31  5-MIN KMKG 090140Z 07003KT 8SM CLR 03/M01 A2992 630 75 -600 080/03 RMK AO2
14840KMKG MKG20071108204509311/08/07 20:45:31  5-MIN KMKG 090145Z 07003KT 9SM CLR 03/M01 A2992 630 75 -600 070/03 RMK AO2
14840KMKG MKG20071108205011011/08/07 20:50:31  5-MIN KMKG 090150Z 06003KT 9SM CLR 02/M01 A2992 630 78 -700 070/03 RMK AO2 SLP139 T00221011
14840KMKG MKG20071108205511011/08/07 20:55:31  5-MIN KMKG 090155Z 06003KT 9SM CLR 02/M01 A2992 630 78 -700 070/03 RMK AO2 SLP139 T00221011
14840KMKG MKG20071108210009311/08/07 21:00:31  5-MIN KMKG 090200Z 06003KT 9SM CLR 02/M01 A2992 630 78 -700 070/03 RMK AO2
14840KMKG MKG20071108210509311/08/07 21:05:31  5-MIN KMKG 090205Z 06003KT 9SM CLR 02/M01 A2992 630 78 -700 070/03 RMK AO2
14840KMKG MKG20071108211009311/08/07 21:10:31  5-MIN KMKG 090210Z 06004KT 9SM CLR 02/M01 A2992 630 78 -700 060/04 RMK AO2
14840KMKG MKG20071108211509311/08/07 21:15:31  5-MIN KMKG 090215Z 06004KT 9SM CLR 03/M01 A2992 630 75 -600 070/04 RMK AO2
14840KMKG MKG20071108212009311/08/07 21:20:31  5-MIN KMKG 090220Z 06005KT 9SM CLR 03/M01 A2992 630 75 -600 070/05 RMK AO2
14840KMKG MKG20071108212509311/08/07 21:25:31  5-MIN KMKG 090225Z 06004KT 9SM CLR 03/M01 A2992 630 75 -600 070/04 RMK AO2
14840KMKG MKG20071108213009311/08/07 21:30:31  5-MIN KMKG 090230Z 06005KT 9SM CLR 03/M01 A2992 630 75 -600 070/05 RMK AO2
14840KMKG MKG20071108213509311/08/07 21:35:31  5-MIN KMKG 090235Z 06005KT 9SM CLR 03/M01 A2992 630 75 -600 060/05 RMK AO2
14840KMKG MKG20071108214009311/08/07 21:40:31  5-MIN KMKG 090240Z 06005KT 9SM CLR 03/M01 A2992 630 75 -600 070/05 RMK AO2
14840KMKG MKG20071108214509311/08/07 21:45:31  5-MIN KMKG 090245Z 06005KT 9SM CLR 03/M01 A2992 630 75 -600 070/05 RMK AO2
14840KMKG MKG20071108215011611/08/07 21:50:31  5-MIN KMKG 090250Z 06005KT 9SM CLR 03/M01 A2992 630 75 -600 070/05 RMK AO2 SLP137 T00281011 51005
14840KMKG MKG20071108215511611/08/07 21:55:31  5-MIN KMKG 090255Z 07004KT 9SM CLR 03/M01 A2992 630 75 -600 070/04 RMK AO2 SLP137 T00281011 58000
14840KMKG MKG20071108220009311/08/07 22:00:31  5-MIN KMKG 090300Z 06004KT 9SM CLR 03/M01 A2992 630 75 -600 070/04 RMK AO2
14840KMKG MKG20071108220509311/08/07 22:05:31  5-MIN KMKG 090305Z 07004KT 9SM CLR 03/M01 A2992 630 75 -600 070/04 RMK AO2
14840KMKG MKG20071108221009311/08/07 22:10:31  5-MIN KMKG 090310Z 06004KT 9SM CLR 03/M01 A2992 630 75 -600 070/04 RMK AO2
14840KMKG MKG20071108221509311/08/07 22:15:31  5-MIN KMKG 090315Z 07004KT 9SM CLR 02/M01 A2992 630 78 -700 070/04 RMK AO2
14840KMKG MKG20071108222009311/08/07 22:20:31  5-MIN KMKG 090320Z 00000KT 9SM CLR 02/M01 A2992 630 78 -700 000/00 RMK AO2
14840KMKG MKG20071108222509311/08/07 22:25:31  5-MIN KMKG 090325Z 00000KT 9SM CLR 02/M01 A2992 630 78 -700 000/00 RMK AO2
14840KMKG MKG20071108223009311/08/07 22:30:31  5-MIN KMKG 090330Z 00000KT 9SM CLR 02/M01 A2992 630 78 -700 000/00 RMK AO2
14840KMKG MKG20071108223509311/08/07 22:35:31  5-MIN KMKG 090335Z 08003KT 9SM CLR 02/M01 A2992 630 78 -700 090/03 RMK AO2
14840KMKG MKG20071108224009311/08/07 22:40:31  5-MIN KMKG 090340Z 00000KT 9SM CLR 02/M01 A2992 630 78 -700 000/00 RMK AO2
14840KMKG MKG20071108224509311/08/07 22:45:31  5-MIN KMKG 090345Z 00000KT 9SM CLR 02/M01 A2992 630 78 -700 000/00 RMK AO2
14840KMKG MKG20071108225011011/08/07 22:50:31  5-MIN KMKG 090350Z 00000KT 9SM CLR 03/M01 A2992 630 75 -600 000/00 RMK AO2 SLP137 T00281011
14840KMKG MKG20071108225511011/08/07 22:55:31  5-MIN KMKG 090355Z 00000KT 9SM CLR 03/M01 A2992 630 75 -600 000/00 RMK AO2 SLP137 T00281011
14840KMKG MKG20071108230009311/08/07 23:00:31  5-MIN KMKG 090400Z 00000KT 9SM CLR 03/M01 A2992 630 75 -600 000/00 RMK AO2
14840KMKG MKG20071108230509311/08/07 23:05:31  5-MIN KMKG 090405Z 00000KT 9SM CLR 03/M01 A2992 630 75 -600 000/00 RMK AO2
14840KMKG MKG20071108231009611/08/07 23:10:31  5-MIN KMKG 090410Z 00000KT 9SM FEW047 03/M01 A2992 630 75 -600 000/00 RMK AO2
14840KMKG MKG20071108231509611/08/07 23:15:31  5-MIN KMKG 090415Z 00000KT 9SM FEW047 03/M01 A2992 630 75 -600 000/00 RMK AO2
14840KMKG MKG20071108232009611/08/07 23:20:31  5-MIN KMKG 090420Z 00000KT 9SM FEW047 02/M01 A2992 630 78 -700 000/00 RMK AO2
14840KMKG MKG20071108232509611/08/07 23:25:31  5-MIN KMKG 090425Z 00000KT 8SM FEW047 02/M01 A2992 630 82 -700 000/00 RMK AO2
14840KMKG MKG20071108233009611/08/07 23:30:31  5-MIN KMKG 090430Z 00000KT 8SM FEW047 02/M01 A2992 630 78 -700 000/00 RMK AO2
14840KMKG MKG20071108233509611/08/07 23:35:31  5-MIN KMKG 090435Z 00000KT 8SM FEW047 02/M01 A2992 630 78 -700 000/00 RMK AO2
14840KMKG MKG20071108234009611/08/07 23:40:31  5-MIN KMKG 090440Z 00000KT 8SM FEW045 02/M01 A2992 630 78 -700 000/00 RMK AO2
14840KMKG MKG20071108234509611/08/07 23:45:31  5-MIN KMKG 090445Z 00000KT 8SM FEW045 02/M01 A2991 640 78 -700 000/00 RMK AO2
14840KMKG MKG20071108235012011/08/07 23:50:31  5-MIN KMKG 090450Z 00000KT 8SM CLR 02/M01 A2991 640 78 -700 000/00 RMK AO2 SLP135 T00221011 400720017
14840KMKG MKG20071108235512011/08/07 23:55:31  5-MIN KMKG 090455Z 00000KT 8SM CLR 02/M02 A2992 630 78 -700 000/00 RMK AO2 SLP136 T00171017 400720017
14840KMKG MKG20071109000009311/09/07 00:00:32  5-MIN KMKG 090500Z 00000KT 8SM CLR 02/M01 A2991 640 82 -700 000/00 RMK AO2
14840KMKG MKG20071109000509311/09/07 00:05:31  5-MIN KMKG 090505Z 00000KT 8SM CLR 02/M01 A2991 640 82 -700 000/00 RMK AO2
14840KMKG MKG20071109001009311/09/07 00:10:31  5-MIN KMKG 090510Z 00000KT 8SM CLR 02/M01 A2991 640 82 -700 000/00 RMK AO2
14840KMKG MKG20071109001509311/09/07 00:15:31  5-MIN KMKG 090515Z 00000KT 8SM CLR 02/M01 A2991 640 82 -700 000/00 RMK AO2
14840KMKG MKG20071109002009311/09/07 00:20:31  5-MIN KMKG 090520Z 00000KT 8SM CLR 02/M01 A2991 640 78 -700 000/00 RMK AO2
14840KMKG MKG20071109002509311/09/07 00:25:31  5-MIN KMKG 090525Z 00000KT 8SM CLR 02/M01 A2991 640 82 -700 000/00 RMK AO2
14840KMKG MKG20071109003009311/09/07 00:30:31  5-MIN KMKG 090530Z 00000KT 8SM CLR 02/M01 A2991 640 82 -700 000/00 RMK AO2
14840KMKG MKG20071109003509311/09/07 00:35:31  5-MIN KMKG 090535Z 00000KT 8SM CLR 02/M01 A2991 640 82 -700 000/00 RMK AO2
14840KMKG MKG20071109004009311/09/07 00:40:31  5-MIN KMKG 090540Z 00000KT 8SM CLR 02/M01 A2991 640 82 -700 000/00 RMK AO2
14840KMKG MKG20071109004509311/09/07 00:45:31  5-MIN KMKG 090545Z 00000KT 8SM CLR 02/M01 A2991 640 82 -700 000/00 RMK AO2
14840KMKG MKG20071109005012811/09/07 00:50:31  5-MIN KMKG 090550Z 00000KT 8SM CLR 02/M01 A2991 640 82 -700 000/00 RMK AO2 SLP134 T00171011 10044 20017 58000
14840KMKG MKG20071109005512811/09/07 00:55:31  5-MIN KMKG 090555Z 00000KT 7SM CLR 01/M01 A2991 640 85 -800 000/00 RMK AO2 SLP134 T00111011 10044 20011 58003
14840KMKG MKG20071109010009311/09/07 01:00:31  5-MIN KMKG 090600Z 00000KT 7SM CLR 01/M01 A2991 640 85 -800 000/00 RMK AO2
14840KMKG MKG20071109010509311/09/07 01:05:31  5-MIN KMKG 090605Z 00000KT 7SM CLR 01/M01 A2991 640 85 -800 000/00 RMK AO2
14840KMKG MKG20071109011009311/09/07 01:10:31  5-MIN KMKG 090610Z 00000KT 7SM CLR 01/M01 A2991 640 85 -800 000/00 RMK AO2
14840KMKG MKG20071109011509311/09/07 01:15:31  5-MIN KMKG 090615Z 00000KT 7SM CLR 01/M01 A2991 640 85 -800 000/00 RMK AO2
14840KMKG MKG20071109012009311/09/07 01:20:31  5-MIN KMKG 090620Z 00000KT 7SM CLR 01/M01 A2991 640 85 -800 000/00 RMK AO2
14840KMKG MKG20071109012509311/09/07 01:25:31  5-MIN KMKG 090625Z 00000KT 7SM CLR 01/M01 A2991 640 85 -800 000/00 RMK AO2
14840KMKG MKG20071109013009311/09/07 01:30:31  5-MIN KMKG 090630Z 00000KT 7SM CLR 01/M02 A2991 640 82 -800 000/00 RMK AO2
14840KMKG MKG20071109013509311/09/07 01:35:31  5-MIN KMKG 090635Z 00000KT 7SM CLR 01/M01 A2991 640 85 -800 000/00 RMK AO2
14840KMKG MKG20071109014009311/09/07 01:40:31  5-MIN KMKG 090640Z 00000KT 7SM CLR 01/M01 A2991 640 85 -800 000/00 RMK AO2
14840KMKG MKG20071109014509611/09/07 01:45:31  5-MIN KMKG 090645Z 00000KT 6SM BR CLR 01/M01 A2991 640 89 -900 000/00 RMK AO2
14840KMKG MKG20071109015011311/09/07 01:50:31  5-MIN KMKG 090650Z 00000KT 6SM BR CLR 01/M01 A2991 640 89 -900 000/00 RMK AO2 SLP133 T00061011
14840KMKG MKG20071109015511311/09/07 01:55:31  5-MIN KMKG 090655Z 00000KT 6SM BR CLR 01/M01 A2991 640 89 -900 000/00 RMK AO2 SLP133 T00061011
14840KMKG MKG20071109020009611/09/07 02:00:31  5-MIN KMKG 090700Z 00000KT 6SM BR CLR 00/M02 A2991 640 88 -900 000/00 RMK AO2
14840KMKG MKG20071109020509611/09/07 02:05:31  5-MIN KMKG 090705Z 00000KT 5SM BR CLR 00/M02 A2991 640 88 -900 000/00 RMK AO2
14840KMKG MKG20071109021009611/09/07 02:10:31  5-MIN KMKG 090710Z 00000KT 4SM BR CLR 00/M02 A2991 640 88 -900 000/00 RMK AO2
14840KMKG MKG20071109021509611/09/07 02:15:31  5-MIN KMKG 090715Z 00000KT 4SM BR CLR 01/M01 A2991 640 89 -900 000/00 RMK AO2
14840KMKG MKG20071109022009611/09/07 02:20:31  5-MIN KMKG 090720Z 00000KT 5SM BR CLR 01/M01 A2991 640 85 -800 000/00 RMK AO2
14840KMKG MKG20071109022509611/09/07 02:25:31  5-MIN KMKG 090725Z 00000KT 6SM BR CLR 01/M01 A2991 640 85 -800 000/00 RMK AO2
14840KMKG MKG20071109023009311/09/07 02:30:31  5-MIN KMKG 090730Z 00000KT 7SM CLR 01/M01 A2991 640 85 -800 000/00 RMK AO2
14840KMKG MKG20071109023509611/09/07 02:35:31  5-MIN KMKG 090735Z 35003KT 6SM BR CLR 01/M01 A2992 630 89 -900 360/03 RMK AO2
14840KMKG MKG20071109024009611/09/07 02:40:31  5-MIN KMKG 090740Z 35003KT 5SM BR CLR 01/M01 A2992 630 89 -900 350/03 RMK AO2
14840KMKG MKG20071109024509811/09/07 02:45:31  5-MIN KMKG 090745Z 34003KT 5SM BR CLR M01/M02 A2992 630 92 -1000 340/03 RMK AO2
14840KMKG MKG20071109025011311/09/07 02:50:31  5-MIN KMKG 090750Z 00000KT 5SM BR CLR 01/M01 A2992 630 89 -900 000/00 RMK AO2 SLP137 T00061011
14840KMKG MKG20071109025511311/09/07 02:55:31  5-MIN KMKG 090755Z 35003KT 5SM BR CLR 01/M01 A2992 630 92 -900 350/03 RMK AO2 SLP137 T00061006
14840KMKG MKG20071109030009611/09/07 03:00:31  5-MIN KMKG 090800Z 35003KT 5SM BR CLR 01/M01 A2992 630 89 -900 350/03 RMK AO2
14840KMKG MKG20071109030509711/09/07 03:05:31  5-MIN KMKG 090805Z 33003KT 5SM BR CLR 00/M01 A2992 630 92 -1000 340/03 RMK AO2
14840KMKG MKG20071109031009711/09/07 03:10:31  5-MIN KMKG 090810Z 00000KT 5SM BR CLR 00/M02 A2992 630 88 -1000 000/00 RMK AO2
14840KMKG MKG20071109031509611/09/07 03:15:31  5-MIN KMKG 090815Z 35003KT 5SM BR CLR 01/M01 A2992 630 89 -900 350/03 RMK AO2
14840KMKG MKG20071109032009711/09/07 03:20:31  5-MIN KMKG 090820Z 35004KT 5SM BR CLR 00/M02 A2992 630 88 -1000 360/04 RMK AO2
14840KMKG MKG20071109032509711/09/07 03:25:31  5-MIN KMKG 090825Z 35003KT 5SM BR CLR 00/M02 A2992 630 88 -1000 350/03 RMK AO2
14840KMKG MKG20071109033010011/09/07 03:30:31  5-MIN KMKG 090830Z 35003KT 6SM BR FEW049 00/M01 A2993 630 92 -1000 350/03 RMK AO2
14840KMKG MKG20071109033509911/09/07 03:35:31  5-MIN KMKG 090835Z 34003KT 6SM BR FEW049 01/M01 A2993 630 89 -900 340/03 RMK AO2
14840KMKG MKG20071109034009911/09/07 03:40:31  5-MIN KMKG 090840Z 36003KT 6SM BR SCT049 01/M01 A2992 630 89 -900 360/03 RMK AO2
14840KMKG MKG20071109034509911/09/07 03:45:31  5-MIN KMKG 090845Z 36003KT 6SM BR BKN049 01/M01 A2992 630 89 -900 360/03 RMK AO2
14840KMKG MKG20071109035012211/09/07 03:50:31  5-MIN KMKG 090850Z 00000KT 6SM BR BKN049 01/M01 A2992 630 92 -900 000/00 RMK AO2 SLP138 T00061006 58003
14840KMKG MKG20071109035512211/09/07 03:55:31  5-MIN KMKG 090855Z 00000KT 6SM BR BKN049 01/M01 A2992 630 92 -900 000/00 RMK AO2 SLP138 T00061006 53003
14840KMKG MKG20071109040009911/09/07 04:00:31  5-MIN KMKG 090900Z 00000KT 6SM BR OVC049 01/M01 A2992 630 89 -800 000/00 RMK AO2
14840KMKG MKG20071109040509911/09/07 04:05:31  5-MIN KMKG 090905Z 00000KT 6SM BR OVC049 01/M01 A2992 630 89 -800 000/00 RMK AO2
14840KMKG MKG20071109041009911/09/07 04:10:31  5-MIN KMKG 090910Z 00000KT 5SM BR OVC049 01/M01 A2992 630 89 -900 000/00 RMK AO2
14840KMKG MKG20071109041510011/09/07 04:15:31  5-MIN KMKG 090915Z 06003KT 5SM BR OVC049 00/M01 A2992 630 92 -1000 060/03 RMK AO2
14840KMKG MKG20071109042010011/09/07 04:20:31  5-MIN KMKG 090920Z 05003KT 5SM BR OVC049 00/M01 A2992 630 92 -1000 050/03 RMK AO2
14840KMKG MKG20071109042509911/09/07 04:25:31  5-MIN KMKG 090925Z 00000KT 5SM BR BKN049 01/M02 A2992 630 85 -900 000/00 RMK AO2
14840KMKG MKG20071109043009911/09/07 04:30:31  5-MIN KMKG 090930Z 00000KT 5SM BR BKN049 01/M01 A2992 630 85 -800 000/00 RMK AO2
14840KMKG MKG20071109043509911/09/07 04:35:31  5-MIN KMKG 090935Z 00000KT 6SM BR SCT049 01/M01 A2992 630 85 -800 000/00 RMK AO2
14840KMKG MKG20071109044009911/09/07 04:40:31  5-MIN KMKG 090940Z 00000KT 6SM BR FEW049 01/M01 A2992 630 85 -800 000/00 RMK AO2
14840KMKG MKG20071109044509911/09/07 04:45:31  5-MIN KMKG 090945Z 00000KT 6SM BR FEW049 01/M01 A2992 630 89 -800 000/00 RMK AO2
14840KMKG MKG20071109045011611/09/07 04:50:31  5-MIN KMKG 090950Z 00000KT 6SM BR FEW049 01/M01 A2992 630 89 -800 000/00 RMK AO2 SLP139 T00111006
14840KMKG MKG20071109045511611/09/07 04:55:31  5-MIN KMKG 090955Z 00000KT 6SM BR FEW049 01/M01 A2992 630 89 -800 000/00 RMK AO2 SLP139 T00111006
14840KMKG MKG20071109050009911/09/07 05:00:31  5-MIN KMKG 091000Z 00000KT 6SM BR SCT049 01/M01 A2993 630 89 -900 000/00 RMK AO2
14840KMKG MKG20071109050509911/09/07 05:05:31  5-MIN KMKG 091005Z 00000KT 6SM BR BKN049 01/M01 A2993 620 89 -800 000/00 RMK AO2
14840KMKG MKG20071109051009911/09/07 05:10:31  5-MIN KMKG 091010Z 00000KT 6SM BR BKN049 01/M01 A2993 620 89 -800 000/00 RMK AO2
14840KMKG MKG20071109051510011/09/07 05:15:31  5-MIN KMKG 091015Z 00000KT 5SM BR BKN049 00/M01 A2993 620 92 -1000 000/00 RMK AO2
14840KMKG MKG20071109052009911/09/07 05:20:31  5-MIN KMKG 091020Z 00000KT 5SM BR BKN049 01/M01 A2993 620 89 -900 000/00 RMK AO2
14840KMKG MKG20071109052510611/09/07 05:25:31  5-MIN KMKG 091025Z 00000KT 5SM BR BKN049 OVC055 01/M01 A2993 630 89 -900 000/00 RMK AO2
14840KMKG MKG20071109053009911/09/07 05:30:31  5-MIN KMKG 091030Z 00000KT 6SM BR BKN049 01/M01 A2993 630 89 -900 000/00 RMK AO2
14840KMKG MKG20071109053510711/09/07 05:35:31  5-MIN KMKG 091035Z 00000KT 5SM BR BKN049 BKN055 00/M01 A2993 620 92 -1000 000/00 RMK AO2
14840KMKG MKG20071109054009911/09/07 05:40:31  5-MIN KMKG 091040Z 00000KT 5SM BR BKN055 01/M02 A2993 620 85 -900 000/00 RMK AO2
14840KMKG MKG20071109054510711/09/07 05:45:31  5-MIN KMKG 091045Z 00000KT 5SM BR SCT050 BKN065 00/M02 A2993 620 88 -1000 000/00 RMK AO2
14840KMKG MKG20071109055011711/09/07 05:50:31  5-MIN KMKG 091050Z 00000KT 5SM BR SCT060 00/M02 A2993 620 88 -1000 000/00 RMK AO2 SLP140 T00001017
14840KMKG MKG20071109055511711/09/07 05:55:31  5-MIN KMKG 091055Z 00000KT 5SM BR FEW060 00/M02 A2992 630 88 -1000 000/00 RMK AO2 SLP139 T00001017
14840KMKG MKG20071109060010111/09/07 06:00:31  5-MIN KMKG 091100Z 00000KT 5SM BR SCT060 M01/M02 A2993 630 92 -1000 000/00 RMK AO2
14840KMKG MKG20071109060510111/09/07 06:05:31  5-MIN KMKG 091105Z 00000KT 4SM BR BKN060 M01/M02 A2993 620 92 -1100 000/00 RMK AO2
14840KMKG MKG20071109061010111/09/07 06:10:31  5-MIN KMKG 091110Z 00000KT 4SM BR BKN060 M01/M02 A2993 630 88 -1000 000/00 RMK AO2
14840KMKG MKG20071109061510011/09/07 06:15:31  5-MIN KMKG 091115Z 00000KT 4SM BR BKN060 00/M02 A2993 620 88 -1000 000/00 RMK AO2
14840KMKG MKG20071109062010111/09/07 06:20:31  5-MIN KMKG 091120Z 00000KT 4SM BR BKN060 M01/M02 A2993 620 92 -1000 000/00 RMK AO2
14840KMKG MKG20071109062510011/09/07 06:25:31  5-MIN KMKG 091125Z 00000KT 4SM BR OVC060 00/M02 A2993 620 88 -1000 000/00 RMK AO2
14840KMKG MKG20071109063010011/09/07 06:30:31  5-MIN KMKG 091130Z 00000KT 5SM BR OVC060 00/M02 A2993 620 88 -1000 000/00 RMK AO2
14840KMKG MKG20071109063509911/09/07 06:35:31  5-MIN KMKG 091135Z 00000KT 4SM BR OVC060 01/M01 A2993 620 89 -900 000/00 RMK AO2
14840KMKG MKG20071109064009911/09/07 06:40:31  5-MIN KMKG 091140Z 33003KT 4SM BR OVC065 01/M01 A2993 620 89 -800 330/03 RMK AO2
14840KMKG MKG20071109064509911/09/07 06:45:31  5-MIN KMKG 091145Z 00000KT 4SM BR OVC065 01/M01 A2993 620 92 -900 000/00 RMK AO2
14840KMKG MKG20071109065013411/09/07 06:50:31  5-MIN KMKG 091150Z 00000KT 4SM BR OVC065 01/M01 A2993 620 89 -800 000/00 RMK AO2 SLP141 T00111006 10011 21011 53003
14840KMKG MKG20071109065513411/09/07 06:55:31  5-MIN KMKG 091155Z 00000KT 5SM BR OVC060 01/M01 A2993 620 89 -800 000/00 RMK AO2 SLP141 T00111006 10011 21011 53003
14840KMKG MKG20071109070009911/09/07 07:00:31  5-MIN KMKG 091200Z 00000KT 5SM BR OVC065 01/M01 A2993 620 89 -800 000/00 RMK AO2
14840KMKG MKG20071109070509911/09/07 07:05:31  5-MIN KMKG 091205Z 00000KT 5SM BR OVC065 02/M01 A2993 620 85 -800 000/00 RMK AO2
14840KMKG MKG20071109071009911/09/07 07:10:31  5-MIN KMKG 091210Z 00000KT 5SM BR OVC065 02/M01 A2994 620 85 -800 000/00 RMK AO2
14840KMKG MKG20071109071509911/09/07 07:15:31  5-MIN KMKG 091215Z 00000KT 5SM BR OVC065 02/M01 A2994 620 85 -800 000/00 RMK AO2
14840KMKG MKG20071109072009911/09/07 07:20:31  5-MIN KMKG 091220Z 00000KT 5SM BR BKN065 02/M01 A2994 620 85 -800 000/00 RMK AO2
14840KMKG MKG20071109072509911/09/07 07:25:31  5-MIN KMKG 091225Z 00000KT 5SM BR BKN065 01/M01 A2994 610 89 -800 000/00 RMK AO2
14840KMKG MKG20071109073009911/09/07 07:30:31  5-MIN KMKG 091230Z 36003KT 5SM BR BKN065 02/M01 A2994 610 85 -800 360/03 RMK AO2
14840KMKG MKG20071109073509911/09/07 07:35:31  5-MIN KMKG 091235Z 00000KT 5SM BR BKN065 01/M01 A2994 610 89 -800 000/00 RMK AO2
14840KMKG MKG20071109074009911/09/07 07:40:31  5-MIN KMKG 091240Z 00000KT 5SM BR BKN065 01/M01 A2994 610 89 -800 000/00 RMK AO2
14840KMKG MKG20071109074509911/09/07 07:45:31  5-MIN KMKG 091245Z 00000KT 4SM BR BKN065 02/M01 A2994 610 85 -800 000/00 RMK AO2
14840KMKG MKG20071109075011611/09/07 07:50:31  5-MIN KMKG 091250Z 00000KT 4SM BR BKN065 01/M01 A2994 610 89 -800 000/00 RMK AO2 SLP143 T00111006
14840KMKG MKG20071109075511611/09/07 07:55:31  5-MIN KMKG 091255Z 00000KT 4SM BR BKN065 01/M01 A2994 610 89 -800 000/00 RMK AO2 SLP143 T00111006
14840KMKG MKG20071109080009911/09/07 08:00:31  5-MIN KMKG 091300Z 00000KT 3SM BR OVC065 01/M01 A2994 610 89 -800 000/00 RMK AO2
14840KMKG MKG20071109080509911/09/07 08:05:31  5-MIN KMKG 091305Z 00000KT 3SM BR OVC070 01/M01 A2994 610 89 -800 000/00 RMK AO2
14840KMKG MKG20071109081009911/09/07 08:10:31  5-MIN KMKG 091310Z 00000KT 3SM BR OVC070 02/M01 A2994 610 85 -800 000/00 RMK AO2
14840KMKG MKG20071109081509811/09/07 08:15:31  5-MIN KMKG 091315Z 00000KT 4SM BR OVC065 02/00 A2995 610 89 -800 000/00 RMK AO2
14840KMKG MKG20071109082009811/09/07 08:20:31  5-MIN KMKG 091320Z 00000KT 4SM BR OVC065 02/00 A2995 600 85 -700 000/00 RMK AO2
14840KMKG MKG20071109082509811/09/07 08:25:31  5-MIN KMKG 091325Z 00000KT 4SM BR OVC070 02/00 A2995 600 85 -700 000/00 RMK AO2
14840KMKG MKG20071109083009811/09/07 08:30:31  5-MIN KMKG 091330Z 01003KT 4SM BR OVC070 02/00 A2995 600 85 -700 010/03 RMK AO2
14840KMKG MKG20071109083509911/09/07 08:35:31  5-MIN KMKG 091335Z 00000KT 4SM BR BKN070 02/M01 A2995 600 85 -800 000/00 RMK AO2
14840KMKG MKG20071109084009911/09/07 08:40:31  5-MIN KMKG 091340Z 00000KT 4SM BR SCT065 02/M01 A2995 600 85 -800 000/00 RMK AO2
14840KMKG MKG20071109084509911/09/07 08:45:31  5-MIN KMKG 091345Z 00000KT 4SM BR SCT070 02/M01 A2995 600 85 -800 000/00 RMK AO2
14840KMKG MKG20071109085011611/09/07 08:50:31  5-MIN KMKG 091350Z 00000KT 4SM BR SCT070 02/M01 A2996 600 85 -800 000/00 RMK AO2 SLP150 T00171006
14840KMKG MKG20071109085511611/09/07 08:55:31  5-MIN KMKG 091355Z 00000KT 4SM BR SCT070 02/M01 A2996 600 85 -800 000/00 RMK AO2 SLP151 T00171006
14840KMKG MKG20071109090009611/09/07 09:00:31  5-MIN KMKG 091400Z 00000KT 4SM BR CLR 02/M01 A2996 600 85 -800 000/00 RMK AO2
14840KMKG MKG20071109090509511/09/07 09:05:31  5-MIN KMKG 091405Z 00000KT 4SM BR CLR 02/00 A2996 590 89 -800 000/00 RMK AO2
14840KMKG MKG20071109091009511/09/07 09:10:31  5-MIN KMKG 091410Z 00000KT 4SM BR CLR 03/01 A2996 590 85 -700 000/00 RMK AO2
14840KMKG MKG20071109091509511/09/07 09:15:31  5-MIN KMKG 091415Z 34003KT 4SM HZ CLR 03/01 A2996 590 82 -600 340/03 RMK AO2
14840KMKG MKG20071109103509211/09/07 10:35:31  5-MIN KMKG 091535Z 00000KT 7SM CLR 06/00 A2996 600 65 -200 000/00 RMK AO2
14840KMKG MKG20071109104009211/09/07 10:40:31  5-MIN KMKG 091540Z 33004KT 7SM CLR 06/00 A2995 600 65 -200 330/04 RMK AO2
14840KMKG MKG20071109104509211/09/07 10:45:31  5-MIN KMKG 091545Z 31004KT 7SM CLR 07/00 A2995 600 62 -200 320/04 RMK AO2
14840KMKG MKG20071109105011011/09/07 10:50:31  5-MIN KMKG 091550Z 33005KT 7SM CLR 06/M01 A2995 600 62 -200 330/05 RMK AO2 SLP148 T00611006
14840KMKG MKG20071109105510911/09/07 10:55:31  5-MIN KMKG 091555Z 34004KT 7SM CLR 07/00 A2995 600 62 -200 340/04 RMK AO2 SLP147 T00670000
14840KMKG MKG20071109110009211/09/07 11:00:31  5-MIN KMKG 091600Z 33005KT 7SM CLR 07/00 A2995 600 62 -200 340/05 RMK AO2
14840KMKG MKG20071109110509211/09/07 11:05:31  5-MIN KMKG 091605Z 35004KT 7SM CLR 07/00 A2995 600 60 -100 350/04 RMK AO2
14840KMKG MKG20071109111009211/09/07 11:10:31  5-MIN KMKG 091610Z 33005KT 7SM CLR 07/00 A2995 600 60 -100 340/05 RMK AO2
14840KMKG MKG20071109111509211/09/07 11:15:31  5-MIN KMKG 091615Z 34005KT 7SM CLR 07/00 A2995 600 60 -100 340/05 RMK AO2
14840KMKG MKG20071109112009211/09/07 11:20:31  5-MIN KMKG 091620Z 35004KT 7SM CLR 07/00 A2995 600 60 -100 350/04 RMK AO2
14840KMKG MKG20071109112509211/09/07 11:25:31  5-MIN KMKG 091625Z 33005KT 7SM CLR 07/00 A2995 600 60 -100 340/05 RMK AO2
14840KMKG MKG20071109113009311/09/07 11:30:31  5-MIN KMKG 091630Z 35007KT 8SM CLR 07/M01 A2995 600 57 -100 350/07 RMK AO2
14840KMKG MKG20071109113509011/09/07 11:35:31  5-MIN KMKG 091635Z 35006KT 8SM CLR 08/M01 A2995 600 55 0 350/06 RMK AO2
14840KMKG MKG20071109114009011/09/07 11:40:31  5-MIN KMKG 091640Z 36006KT 8SM CLR 08/M01 A2995 600 55 0 360/06 RMK AO2
14840KMKG MKG20071109114508911/09/07 11:45:31  5-MIN KMKG 091645Z 01006KT 8SM CLR 08/00 A2995 600 58 0 010/06 RMK AO2
14840KMKG MKG20071109115010611/09/07 11:50:31  5-MIN KMKG 091650Z 34005KT 8SM CLR 08/00 A2995 600 55 0 340/05 RMK AO2 SLP148 T00830000
14840KMKG MKG20071109115511711/09/07 11:55:31  5-MIN KMKG 091655Z 34006KT 9SM FEW070 SCT110 08/M01 A2995 600 53 0 340/06 RMK AO2 SLP147 T00831006
14840KMKG MKG20071109120009011/09/07 12:00:31  5-MIN KMKG 091700Z 35005KT 8SM CLR 08/M01 A2995 600 53 0 350/05 RMK AO2
14840KMKG MKG20071109120509011/09/07 12:05:31  5-MIN KMKG 091705Z 33005KT 9SM CLR 08/M01 A2995 610 53 0 330/05 RMK AO2
14840KMKG MKG20071109121009511/09/07 12:10:31  5-MIN KMKG 091710Z 32006KT 9SM FEW033 09/M01 A2995 610 51 100 330/06 RMK AO2
14840KMKG MKG20071109121509511/09/07 12:15:31  5-MIN KMKG 091715Z 31006KT 9SM FEW033 09/M01 A2994 610 51 100 320/06 RMK AO2
14840KMKG MKG20071109122009311/09/07 12:20:31  5-MIN KMKG 091720Z 33008KT 9SM FEW034 08/M01 A2994 610 53 0 330/08 RMK AO2
14840KMKG MKG20071109122509311/09/07 12:25:31  5-MIN KMKG 091725Z 33007KT 9SM FEW034 08/M01 A2994 610 53 0 340/07 RMK AO2
14840KMKG MKG20071109123009911/09/07 12:30:31  5-MIN KMKG 091730Z 29006KT 9SM FEW036 SCT080 08/00 A2994 610 58 0 300/06 RMK AO2
14840KMKG MKG20071109123509911/09/07 12:35:31  5-MIN KMKG 091735Z 31007KT 8SM FEW036 SCT080 08/01 A2994 610 60 0 310/07 RMK AO2
14840KMKG MKG20071109124010511/09/07 12:40:31  5-MIN KMKG 091740Z 30007G14KT 8SM SCT034 SCT080 08/00 A2994 610 58 0 300/07G14 RMK AO2
14840KMKG MKG20071109124510211/09/07 12:45:31  5-MIN KMKG 091745Z 29009KT 8SM SCT034 SCT080 07/00 A2994 610 60 -100 300/09 RMK AO2
14840KMKG MKG20071109125013711/09/07 12:50:31  5-MIN KMKG 091750Z 29010KT 8SM SCT034 SCT080 07/00 A2994 610 60 -100 300/10 RMK AO2 SLP143 T00720000 10089 20011 51009
14840KMKG MKG20071109125514011/09/07 12:55:31  5-MIN KMKG 091755Z 30009G17KT 8SM SCT034 BKN080 08/01 A2994 610 58 0 300/09G17 RMK AO2 SLP142 T00830006 10089 20011 58007
14840KMKG MKG20071109130009811/09/07 13:00:31  5-MIN KMKG 091800Z 31010G16KT 9SM FEW034 08/01 A2994 610 62 0 320/10G16 RMK AO2
14840KMKG MKG20071109130509911/09/07 13:05:31  5-MIN KMKG 091805Z 33014G18KT 10SM FEW032 08/02 A2994 610 63 0 330/14G18 RMK AO2
14840KMKG MKG20071109131009911/09/07 13:10:31  5-MIN KMKG 091810Z 30013G18KT 10SM FEW032 08/02 A2994 610 65 0 300/13G18 RMK AO2
14840KMKG MKG20071109131509911/09/07 13:15:31  5-MIN KMKG 091815Z 30012G18KT 10SM CLR 07/02 A2994 610 68 -100 310/12G18 RMK AO2
14840KMKG MKG20071109132009911/09/07 13:20:31  5-MIN KMKG 091820Z 30012G18KT 10SM CLR 07/02 A2994 610 68 -100 310/12G18 RMK AO2
14840KMKG MKG20071109132509911/09/07 13:25:31  5-MIN KMKG 091825Z 31011G20KT 10SM CLR 07/02 A2994 610 68 -100 320/11G20 RMK AO2
14840KMKG MKG20071109133009611/09/07 13:30:31  5-MIN KMKG 091830Z 32014G20KT 10SM CLR 08/02 A2994 610 65 0 320/14G20 RMK AO2
14840KMKG MKG20071109133509911/09/07 13:35:31  5-MIN KMKG 091835Z 32012G18KT 10SM CLR 07/02 A2994 610 68 -100 320/12G18 RMK AO2
14840KMKG MKG20071109134009911/09/07 13:40:31  5-MIN KMKG 091840Z 29011G18KT 10SM CLR 07/02 A2994 610 68 -100 300/11G18 RMK AO2
14840KMKG MKG20071109134510911/09/07 13:45:31  5-MIN KMKG 091845Z 30010G18KT 10SM FEW022 SCT060 07/02 A2994 610 68 -100 300/10G18 RMK AO2
14840KMKG MKG20071109135012011/09/07 13:50:31  5-MIN KMKG 091850Z 31012KT 10SM FEW022 SCT060 07/02 A2994 610 70 -200 310/12 RMK AO2 SLP145 T00670017
14840KMKG MKG20071109135512611/09/07 13:55:31  5-MIN KMKG 091855Z 32014G19KT 10SM FEW022 SCT060 07/02 A2994 610 70 -200 320/14G19 RMK AO2 SLP145 T00670017
14840KMKG MKG20071109140010311/09/07 14:00:31  5-MIN KMKG 091900Z 31013KT 10SM FEW022 SCT060 07/02 A2994 610 70 -200 320/13 RMK AO2
14840KMKG MKG20071109140510911/09/07 14:05:31  5-MIN KMKG 091905Z 30010G20KT 10SM FEW022 SCT060 07/02 A2994 610 68 -100 310/10G20 RMK AO2
14840KMKG MKG20071109141010911/09/07 14:10:31  5-MIN KMKG 091910Z 30013G20KT 10SM FEW022 SCT060 07/02 A2994 610 70 -100 310/13G20 RMK AO2
14840KMKG MKG20071109141510911/09/07 14:15:31  5-MIN KMKG 091915Z 32013G19KT 10SM FEW022 SCT060 07/02 A2994 610 70 -100 320/13G19 RMK AO2
14840KMKG MKG20071109142010911/09/07 14:20:31  5-MIN KMKG 091920Z 31012G20KT 10SM FEW022 SCT060 07/02 A2995 610 68 -100 320/12G20 RMK AO2
14840KMKG MKG20071109142510611/09/07 14:25:31  5-MIN KMKG 091925Z 31009G20KT 10SM FEW022 SCT060 08/02 A2994 610 68 0 310/09G20 RMK AO2
14840KMKG MKG20071109143011611/09/07 14:30:31  5-MIN KMKG 091930Z 32012G19KT 10SM FEW022 SCT040 SCT085 07/02 A2995 610 70 -100 330/12G19 RMK AO2
14840KMKG MKG20071109143511611/09/07 14:35:31  5-MIN KMKG 091935Z 32012G19KT 10SM FEW022 SCT040 SCT085 07/02 A2995 600 73 -200 320/12G19 RMK AO2
14840KMKG MKG20071109144011611/09/07 14:40:31  5-MIN KMKG 091940Z 32013G18KT 10SM SCT019 SCT060 BKN085 07/02 A2995 600 70 -200 320/13G18 RMK AO2
14840KMKG MKG20071109144513111/09/07 14:45:31  5-MIN KMKG 091945Z 32015G19KT 10SM SCT019 SCT023 BKN085 07/02 A2995 600 73 -200 320/15G19 RMK AO2 CIG 055 RWY 14
14840KMKG MKG20071109145010811/09/07 14:50:31  5-MIN KMKG 091950Z 32012G20KT 8SM BKN019 BKN085 07/02 A2996 600 73 -200 320/12G20 RMK AO2
14840KMKG MKG20071109145513411/09/07 14:55:31  5-MIN KMKG 091955Z 31010G20KT 5SM -RA OVC019 06/03 A2996 600 79 -200 310/10G20 RMK AO2 RAB51 SLP150 P0000 T00610028
14840KMKG MKG20071109150011211/09/07 15:00:31  5-MIN KMKG 092000Z 32011KT 6SM -RA BKN019 BKN028 06/03 A2996 600 79 -200 320/11 RMK AO2 P0000
14840KMKG MKG20071109150511211/09/07 15:05:31  5-MIN KMKG 092005Z 32011KT 9SM -RA BKN021 BKN029 06/03 A2996 590 79 -200 330/11 RMK AO2 P0000
14840KMKG MKG20071109151013411/09/07 15:10:31  5-MIN KMKG 092010Z 32012KT 9SM -RA SCT018 SCT022 BKN029 06/03 A2996 590 79 -200 320/12 RMK AO2 CIG 019 RWY 14 P0000
14840KMKG MKG20071109151511511/09/07 15:15:31  5-MIN KMKG 092015Z 31011KT 10SM BKN022 BKN030 06/02 A2996 590 76 -200 310/11 RMK AO2 RAE14 P0000
14840KMKG MKG20071109152012211/09/07 15:20:31  5-MIN KMKG 092020Z 32013KT 10SM BKN022 BKN028 BKN034 06/02 A2996 590 76 -200 320/13 RMK AO2 RAE14 P0000
14840KMKG MKG20071109152512811/09/07 15:25:31  5-MIN KMKG 092025Z 32012G18KT 10SM BKN020 BKN028 BKN033 06/02 A2996 590 76 -200 320/12G18 RMK AO2 RAE14 P0000
14840KMKG MKG20071109153012111/09/07 15:30:31  5-MIN KMKG 092030Z 31012G18KT 10SM BKN020 OVC028 07/02 A2996 590 73 -200 320/12G18 RMK AO2 RAE14 P0000
14840KMKG MKG20071109153511511/09/07 15:35:31  5-MIN KMKG 092035Z 32010KT 10SM BKN020 BKN026 06/02 A2996 590 76 -200 320/10 RMK AO2 RAE14 P0000
14840KMKG MKG20071109154011511/09/07 15:40:31  5-MIN KMKG 092040Z 34008KT 10SM BKN018 OVC026 07/03 A2997 590 76 -200 350/08 RMK AO2 RAE14 P0000
14840KMKG MKG20071109154511511/09/07 15:45:31  5-MIN KMKG 092045Z 35009KT 10SM BKN018 OVC026 07/03 A2997 580 76 -200 350/09 RMK AO2 RAE14 P0000
14840KMKG MKG20071109155013711/09/07 15:50:31  5-MIN KMKG 092050Z 34007KT 10SM OVC018 07/03 A2997 580 76 -200 350/07 RMK AO2 RAE14 SLP155 P0000 60000 T00670028 58007
14840KMKG MKG20071109155514411/09/07 15:55:31  5-MIN KMKG 092055Z 35007KT 10SM BKN018 OVC023 07/03 A2997 580 76 -200 350/07 RMK AO2 RAE14 SLP155 P0000 60000 T00670028 53011
14840KMKG MKG20071109160010311/09/07 16:00:31  5-MIN KMKG 092100Z 36005KT 10SM BKN018 OVC022 07/03 A2997 580 76 -200 360/05 RMK AO2
14840KMKG MKG20071109160509611/09/07 16:05:31  5-MIN KMKG 092105Z 36007KT 10SM OVC018 07/03 A2998 580 76 -200 360/07 RMK AO2
14840KMKG MKG20071109161009611/09/07 16:10:31  5-MIN KMKG 092110Z 35009KT 10SM OVC018 07/03 A2998 580 76 -200 350/09 RMK AO2
14840KMKG MKG20071109161509611/09/07 16:15:31  5-MIN KMKG 092115Z 35006KT 10SM OVC018 07/03 A2998 580 76 -200 350/06 RMK AO2
14840KMKG MKG20071109162009611/09/07 16:20:31  5-MIN KMKG 092120Z 36008KT 10SM OVC018 07/03 A2998 570 76 -200 360/08 RMK AO2
14840KMKG MKG20071109162511211/09/07 16:25:31  5-MIN KMKG 092125Z 36008KT 10SM -RA OVC018 07/03 A2998 570 76 -200 360/08 RMK AO2 RAB24 P0000
14840KMKG MKG20071109163012611/09/07 16:30:31  5-MIN KMKG 092130Z 34007KT 10SM -RA BKN018 BKN023 OVC055 06/03 A2999 570 79 -300 350/07 RMK AO2 RAB24 P0000
14840KMKG MKG20071109163512611/09/07 16:35:31  5-MIN KMKG 092135Z 33011KT 10SM -RA BKN018 BKN023 OVC040 06/03 A2998 570 79 -300 340/11 RMK AO2 RAB24 P0000
14840KMKG MKG20071109164012511/09/07 16:40:31  5-MIN KMKG 092140Z 33009KT 10SM BKN018 BKN033 OVC060 06/03 A2999 570 79 -300 330/09 RMK AO2 RAB24E38 P0000
14840KMKG MKG20071109164511811/09/07 16:45:31  5-MIN KMKG 092145Z 34009KT 10SM BKN018 OVC035 06/03 A2999 570 79 -300 340/09 RMK AO2 RAB24E38 P0000
14840KMKG MKG20071109165011811/09/07 16:50:31  5-MIN KMKG 092150Z 34009KT 10SM SCT020 BKN035 06/03 A2999 560 79 -300 340/09 RMK AO2 RAB24E38 P0000
14840KMKG MKG20071109165514211/09/07 16:55:31  5-MIN KMKG 092155Z 34008KT 10SM FEW021 BKN035 BKN060 06/02 A2999 560 76 -300 340/08 RMK AO2 RAB24E38 SLP163 P0000 T00610022
14840KMKG MKG20071109170011011/09/07 17:00:31  5-MIN KMKG 092200Z 33011KT 10SM FEW021 SCT035 BKN060 06/02 A2999 560 76 -400 330/11 RMK AO2
14840KMKG MKG20071109170509611/09/07 17:05:31  5-MIN KMKG 092205Z 33007KT 10SM FEW035 06/02 A3000 560 76 -400 340/07 RMK AO2
14840KMKG MKG20071109171009611/09/07 17:10:31  5-MIN KMKG 092210Z 34007KT 10SM FEW035 05/02 A3000 560 79 -400 340/07 RMK AO2
14840KMKG MKG20071109171509611/09/07 17:15:31  5-MIN KMKG 092215Z 34005KT 10SM FEW035 05/02 A3000 560 79 -400 340/05 RMK AO2
14840KMKG MKG20071109172009611/09/07 17:20:31  5-MIN KMKG 092220Z 33006KT 10SM FEW065 05/02 A3000 560 79 -400 330/06 RMK AO2
14840KMKG MKG20071109172509611/09/07 17:25:31  5-MIN KMKG 092225Z 33006KT 10SM FEW065 05/02 A3000 560 79 -400 330/06 RMK AO2
14840KMKG MKG20071109173009611/09/07 17:30:31  5-MIN KMKG 092230Z 30005KT 10SM SCT065 05/02 A3000 560 79 -400 310/05 RMK AO2
14840KMKG MKG20071109173509611/09/07 17:35:31  5-MIN KMKG 092235Z 32006KT 10SM SCT065 05/02 A3000 560 79 -400 320/06 RMK AO2
14840KMKG MKG20071109174009611/09/07 17:40:31  5-MIN KMKG 092240Z 32006KT 10SM SCT065 05/02 A3000 550 79 -400 320/06 RMK AO2
14840KMKG MKG20071109174509611/09/07 17:45:31  5-MIN KMKG 092245Z 32006KT 10SM FEW065 05/02 A3000 550 79 -400 330/06 RMK AO2
14840KMKG MKG20071109175012011/09/07 17:50:31  5-MIN KMKG 092250Z 33007KT 10SM FEW035 SCT065 05/02 A3001 550 79 -400 340/07 RMK AO2 SLP167 T00500017
14840KMKG MKG20071109175512011/09/07 17:55:31  5-MIN KMKG 092255Z 34006KT 10SM FEW035 SCT065 05/02 A3001 550 79 -400 340/06 RMK AO2 SLP168 T00500017
14840KMKG MKG20071109180009311/09/07 18:00:31  5-MIN KMKG 092300Z 33006KT 10SM CLR 04/02 A3001 550 82 -500 330/06 RMK AO2
14840KMKG MKG20071109180509311/09/07 18:05:31  5-MIN KMKG 092305Z 33007KT 10SM CLR 04/02 A3001 540 85 -500 330/07 RMK AO2
14840KMKG MKG20071109181009311/09/07 18:10:31  5-MIN KMKG 092310Z 32007KT 10SM CLR 05/02 A3002 540 82 -400 330/07 RMK AO2
14840KMKG MKG20071109181509311/09/07 18:15:31  5-MIN KMKG 092315Z 32007KT 10SM CLR 05/02 A3002 540 82 -500 330/07 RMK AO2
14840KMKG MKG20071109182009611/09/07 18:20:31  5-MIN KMKG 092320Z 33007KT 10SM SCT060 05/02 A3002 540 82 -500 330/07 RMK AO2
14840KMKG MKG20071109182509611/09/07 18:25:31  5-MIN KMKG 092325Z 33007KT 10SM FEW060 04/02 A3002 530 85 -500 340/07 RMK AO2
14840KMKG MKG20071109183009611/09/07 18:30:31  5-MIN KMKG 092330Z 33008KT 10SM FEW060 04/02 A3003 530 85 -500 340/08 RMK AO2
14840KMKG MKG20071109183509611/09/07 18:35:31  5-MIN KMKG 092335Z 34009KT 10SM FEW060 04/02 A3003 530 85 -500 350/09 RMK AO2
14840KMKG MKG20071109184009611/09/07 18:40:31  5-MIN KMKG 092340Z 34007KT 10SM FEW060 04/02 A3003 530 82 -500 340/07 RMK AO2
14840KMKG MKG20071109184509511/09/07 18:45:31  5-MIN KMKG 092345Z 34008KT 9SM FEW060 04/02 A3003 530 82 -500 340/08 RMK AO2
14840KMKG MKG20071109185013611/09/07 18:50:31  5-MIN KMKG 092350Z 35008KT 9SM FEW060 04/02 A3004 520 82 -500 350/08 RMK AO2 SLP177 60000 T00440017 10083 20044 53011
14840KMKG MKG20071109185513611/09/07 18:55:31  5-MIN KMKG 092355Z 34008KT 9SM FEW060 05/02 A3004 520 79 -500 350/08 RMK AO2 SLP177 60000 T00500017 10083 20044 53021
14840KMKG MKG20071109190010711/09/07 19:00:31  5-MIN KMKG 100000Z 34008KT 9SM CLR 04/02 A3004 520 82 -500 350/08 RMK AO2 CIG 060 RWY 14
14840KMKG MKG20071109190509211/09/07 19:05:31  5-MIN KMKG 100005Z 35007KT 9SM CLR 05/02 A3004 520 79 -500 350/07 RMK AO2
14840KMKG MKG20071109191009211/09/07 19:10:31  5-MIN KMKG 100010Z 34007KT 9SM CLR 04/02 A3004 520 82 -500 350/07 RMK AO2
14840KMKG MKG20071109191509211/09/07 19:15:31  5-MIN KMKG 100015Z 34009KT 8SM CLR 04/02 A3004 520 82 -500 350/09 RMK AO2
14840KMKG MKG20071109192009211/09/07 19:20:31  5-MIN KMKG 100020Z 34007KT 8SM CLR 04/02 A3005 510 82 -500 350/07 RMK AO2
14840KMKG MKG20071109192509211/09/07 19:25:31  5-MIN KMKG 100025Z 34008KT 8SM CLR 04/02 A3005 510 82 -600 350/08 RMK AO2
14840KMKG MKG20071109193009211/09/07 19:30:31  5-MIN KMKG 100030Z 34007KT 8SM CLR 04/02 A3005 510 82 -600 350/07 RMK AO2
14840KMKG MKG20071109193509211/09/07 19:35:31  5-MIN KMKG 100035Z 35007KT 8SM CLR 04/02 A3005 510 82 -600 350/07 RMK AO2
14840KMKG MKG20071109194009211/09/07 19:40:31  5-MIN KMKG 100040Z 35006KT 8SM CLR 04/02 A3005 510 82 -600 360/06 RMK AO2
14840KMKG MKG20071109194509211/09/07 19:45:31  5-MIN KMKG 100045Z 34009KT 8SM CLR 04/02 A3005 510 82 -600 350/09 RMK AO2
14840KMKG MKG20071109195010911/09/07 19:50:31  5-MIN KMKG 100050Z 35008KT 8SM CLR 04/02 A3005 510 82 -600 350/08 RMK AO2 SLP182 T00440017
14840KMKG MKG20071109195510911/09/07 19:55:31  5-MIN KMKG 100055Z 35007KT 8SM CLR 04/02 A3005 510 82 -600 350/07 RMK AO2 SLP183 T00440017
14840KMKG MKG20071109200009211/09/07 20:00:31  5-MIN KMKG 100100Z 35006KT 8SM CLR 04/02 A3006 510 82 -600 360/06 RMK AO2
14840KMKG MKG20071109200509211/09/07 20:05:31  5-MIN KMKG 100105Z 35007KT 8SM CLR 04/02 A3006 500 85 -600 350/07 RMK AO2
14840KMKG MKG20071109201009211/09/07 20:10:31  5-MIN KMKG 100110Z 35008KT 8SM CLR 04/02 A3006 500 82 -600 360/08 RMK AO2
14840KMKG MKG20071109201509211/09/07 20:15:31  5-MIN KMKG 100115Z 35007KT 8SM CLR 04/01 A3006 500 79 -600 360/07 RMK AO2
14840KMKG MKG20071109202009211/09/07 20:20:31  5-MIN KMKG 100120Z 35006KT 8SM CLR 04/01 A3006 500 79 -600 360/06 RMK AO2
14840KMKG MKG20071109202509211/09/07 20:25:31  5-MIN KMKG 100125Z 36006KT 8SM CLR 04/01 A3006 500 82 -600 360/06 RMK AO2
14840KMKG MKG20071109203009211/09/07 20:30:31  5-MIN KMKG 100130Z 36005KT 8SM CLR 04/01 A3006 500 82 -600 010/05 RMK AO2
14840KMKG MKG20071109203509211/09/07 20:35:31  5-MIN KMKG 100135Z 36006KT 8SM CLR 04/01 A3006 500 79 -600 010/06 RMK AO2
14840KMKG MKG20071109204009211/09/07 20:40:31  5-MIN KMKG 100140Z 01006KT 7SM CLR 04/01 A3007 500 79 -600 010/06 RMK AO2
14840KMKG MKG20071109204509511/09/07 20:45:31  5-MIN KMKG 100145Z 36005KT 7SM FEW070 04/01 A3007 500 82 -600 360/05 RMK AO2
14840KMKG MKG20071109205011211/09/07 20:50:31  5-MIN KMKG 100150Z 36005KT 7SM FEW070 03/01 A3007 490 82 -700 360/05 RMK AO2 SLP187 T00330006
14840KMKG MKG20071109205511211/09/07 20:55:31  5-MIN KMKG 100155Z 36006KT 7SM FEW070 03/01 A3007 490 82 -700 360/06 RMK AO2 SLP188 T00330006
14840KMKG MKG20071109210009511/09/07 21:00:31  5-MIN KMKG 100200Z 35006KT 7SM FEW070 03/01 A3007 490 82 -700 350/06 RMK AO2
14840KMKG MKG20071109210509511/09/07 21:05:31  5-MIN KMKG 100205Z 35006KT 7SM FEW070 03/01 A3008 490 82 -700 350/06 RMK AO2
14840KMKG MKG20071109211009511/09/07 21:10:31  5-MIN KMKG 100210Z 35006KT 7SM FEW070 03/01 A3008 490 82 -700 350/06 RMK AO2
14840KMKG MKG20071109211509211/09/07 21:15:31  5-MIN KMKG 100215Z 35005KT 7SM CLR 03/01 A3008 480 82 -700 360/05 RMK AO2
14840KMKG MKG20071109212009211/09/07 21:20:31  5-MIN KMKG 100220Z 35004KT 7SM CLR 03/01 A3008 480 85 -800 360/04 RMK AO2
14840KMKG MKG20071109212509211/09/07 21:25:31  5-MIN KMKG 100225Z 35004KT 7SM CLR 03/01 A3008 480 85 -800 350/04 RMK AO2
14840KMKG MKG20071109213009211/09/07 21:30:31  5-MIN KMKG 100230Z 35004KT 7SM CLR 03/00 A3008 480 82 -800 350/04 RMK AO2
14840KMKG MKG20071109213509211/09/07 21:35:31  5-MIN KMKG 100235Z 34004KT 7SM CLR 03/01 A3008 480 85 -800 340/04 RMK AO2
14840KMKG MKG20071109214009511/09/07 21:40:31  5-MIN KMKG 100240Z 34005KT 6SM BR CLR 02/00 A3009 480 85 -900 350/05 RMK AO2
14840KMKG MKG20071109214509511/09/07 21:45:31  5-MIN KMKG 100245Z 35005KT 6SM BR CLR 02/00 A3008 480 85 -900 350/05 RMK AO2
14840KMKG MKG20071109215011811/09/07 21:50:31  5-MIN KMKG 100250Z 34005KT 6SM BR CLR 02/00 A3008 480 85 -900 350/05 RMK AO2 SLP193 T00220000 53021
14840KMKG MKG20071109215511811/09/07 21:55:31  5-MIN KMKG 100255Z 35004KT 6SM BR CLR 02/00 A3008 480 85 -900 350/04 RMK AO2 SLP193 T00220000 51016
14840KMKG MKG20071109220009511/09/07 22:00:31  5-MIN KMKG 100300Z 35005KT 6SM BR CLR 02/00 A3009 480 85 -900 350/05 RMK AO2
14840KMKG MKG20071109220509511/09/07 22:05:31  5-MIN KMKG 100305Z 35005KT 6SM HZ CLR 03/00 A3009 480 82 -800 360/05 RMK AO2
14840KMKG MKG20071109221009511/09/07 22:10:31  5-MIN KMKG 100310Z 34004KT 6SM HZ CLR 03/00 A3009 470 82 -800 350/04 RMK AO2
14840KMKG MKG20071109221509511/09/07 22:15:31  5-MIN KMKG 100315Z 34004KT 6SM HZ CLR 03/00 A3009 470 82 -800 340/04 RMK AO2
14840KMKG MKG20071109222009511/09/07 22:20:31  5-MIN KMKG 100320Z 35004KT 6SM BR CLR 03/01 A3010 470 85 -800 350/04 RMK AO2
14840KMKG MKG20071109222509511/09/07 22:25:31  5-MIN KMKG 100325Z 35004KT 6SM BR CLR 02/00 A3010 470 85 -900 350/04 RMK AO2
14840KMKG MKG20071109223009511/09/07 22:30:31  5-MIN KMKG 100330Z 34004KT 6SM BR CLR 02/00 A3010 470 85 -900 350/04 RMK AO2
14840KMKG MKG20071109223509511/09/07 22:35:31  5-MIN KMKG 100335Z 34005KT 6SM BR CLR 02/00 A3010 460 85 -900 340/05 RMK AO2
14840KMKG MKG20071109224009511/09/07 22:40:31  5-MIN KMKG 100340Z 34005KT 6SM HZ CLR 03/00 A3010 460 82 -800 340/05 RMK AO2
14840KMKG MKG20071109224509511/09/07 22:45:31  5-MIN KMKG 100345Z 34005KT 6SM BR CLR 02/00 A3010 460 85 -900 340/05 RMK AO2
14840KMKG MKG20071109225011211/09/07 22:50:31  5-MIN KMKG 100350Z 35004KT 6SM HZ CLR 03/00 A3010 460 82 -800 350/04 RMK AO2 SLP199 T00280000
14840KMKG MKG20071109225511211/09/07 22:55:31  5-MIN KMKG 100355Z 34005KT 6SM BR CLR 03/01 A3010 460 85 -800 350/05 RMK AO2 SLP198 T00280006
14840KMKG MKG20071109230009211/09/07 23:00:31  5-MIN KMKG 100400Z 34005KT 7SM CLR 03/01 A3010 460 85 -800 350/05 RMK AO2
14840KMKG MKG20071109230509211/09/07 23:05:31  5-MIN KMKG 100405Z 34005KT 7SM CLR 02/01 A3010 460 89 -900 340/05 RMK AO2
14840KMKG MKG20071109231009211/09/07 23:10:31  5-MIN KMKG 100410Z 35004KT 7SM CLR 03/01 A3011 460 85 -800 350/04 RMK AO2
14840KMKG MKG20071109231509211/09/07 23:15:31  5-MIN KMKG 100415Z 36004KT 7SM CLR 03/01 A3011 460 85 -800 010/04 RMK AO2
14840KMKG MKG20071109232009211/09/07 23:20:31  5-MIN KMKG 100420Z 02004KT 7SM CLR 03/01 A3011 460 85 -800 020/04 RMK AO2
14840KMKG MKG20071109232509211/09/07 23:25:31  5-MIN KMKG 100425Z 03003KT 7SM CLR 03/01 A3011 450 85 -800 030/03 RMK AO2
14840KMKG MKG20071109233009211/09/07 23:30:31  5-MIN KMKG 100430Z 00000KT 7SM CLR 03/01 A3011 450 85 -800 000/00 RMK AO2
14840KMKG MKG20071109233509211/09/07 23:35:31  5-MIN KMKG 100435Z 00000KT 7SM CLR 03/01 A3011 450 85 -800 000/00 RMK AO2
14840KMKG MKG20071109234009211/09/07 23:40:31  5-MIN KMKG 100440Z 01003KT 7SM CLR 03/01 A3011 450 85 -800 010/03 RMK AO2
14840KMKG MKG20071109234509211/09/07 23:45:31  5-MIN KMKG 100445Z 36004KT 7SM CLR 02/00 A3011 450 85 -900 010/04 RMK AO2
14840KMKG MKG20071109235011911/09/07 23:50:31  5-MIN KMKG 100450Z 36004KT 7SM CLR 02/00 A3011 450 85 -900 360/04 RMK AO2 SLP202 T00220000 400891011
14840KMKG MKG20071109235511911/09/07 23:55:31  5-MIN KMKG 100455Z 35004KT 7SM CLR 02/00 A3012 450 85 -900 350/04 RMK AO2 SLP203 T00220000 400891011
14840KMKG MKG20071110000009211/10/07 00:00:32  5-MIN KMKG 100500Z 34003KT 7SM CLR 02/00 A3011 450 85 -900 340/03 RMK AO2
14840KMKG MKG20071110000509511/10/07 00:05:31  5-MIN KMKG 100505Z 00000KT 6SM BR CLR 02/00 A3011 450 85 -900 000/00 RMK AO2
14840KMKG MKG20071110001009511/10/07 00:10:31  5-MIN KMKG 100510Z 35004KT 6SM BR CLR 02/01 A3012 450 89 -900 360/04 RMK AO2
14840KMKG MKG20071110001509611/10/07 00:15:31  5-MIN KMKG 100515Z 36003KT 6SM BR CLR 02/00 A3012 450 89 -1000 360/03 RMK AO2
14840KMKG MKG20071110002009511/10/07 00:20:31  5-MIN KMKG 100520Z 36003KT 6SM BR CLR 02/01 A3012 450 89 -900 360/03 RMK AO2
14840KMKG MKG20071110002509611/10/07 00:25:31  5-MIN KMKG 100525Z 01003KT 6SM BR CLR 02/00 A3012 450 89 -1000 020/03 RMK AO2
14840KMKG MKG20071110003009611/10/07 00:30:31  5-MIN KMKG 100530Z 02003KT 6SM BR CLR 02/00 A3012 450 89 -1000 020/03 RMK AO2
14840KMKG MKG20071110003509611/10/07 00:35:31  5-MIN KMKG 100535Z 36003KT 6SM BR CLR 02/00 A3012 450 89 -1000 010/03 RMK AO2
14840KMKG MKG20071110004009611/10/07 00:40:31  5-MIN KMKG 100540Z 36004KT 5SM BR CLR 01/00 A3012 450 92 -1000 010/04 RMK AO2
14840KMKG MKG20071110004509611/10/07 00:45:31  5-MIN KMKG 100545Z 36004KT 6SM BR CLR 01/00 A3012 440 92 -1100 360/04 RMK AO2
14840KMKG MKG20071110005013111/10/07 00:50:31  5-MIN KMKG 100550Z 36004KT 6SM BR CLR 01/00 A3012 440 92 -1100 360/04 RMK AO2 SLP207 T00110000 10050 20011 51016
14840KMKG MKG20071110005513111/10/07 00:55:31  5-MIN KMKG 100555Z 36004KT 6SM BR CLR 01/00 A3012 440 92 -1100 010/04 RMK AO2 SLP206 T00110000 10050 20011 51013
14840KMKG MKG20071110010009611/10/07 01:00:31  5-MIN KMKG 100600Z 35003KT 5SM BR CLR 01/00 A3013 440 92 -1100 360/03 RMK AO2
14840KMKG MKG20071110010509611/10/07 01:05:31  5-MIN KMKG 100605Z 36004KT 5SM BR CLR 01/00 A3013 440 92 -1100 360/04 RMK AO2
14840KMKG MKG20071110011009711/10/07 01:10:31  5-MIN KMKG 100610Z 36003KT 5SM BR CLR 01/M01 A3013 440 92 -1100 360/03 RMK AO2
14840KMKG MKG20071110011509711/10/07 01:15:31  5-MIN KMKG 100615Z 36004KT 5SM BR CLR 01/M01 A3013 440 89 -1100 360/04 RMK AO2
14840KMKG MKG20071110012009611/10/07 01:20:31  5-MIN KMKG 100620Z 36003KT 5SM BR CLR 01/00 A3013 440 92 -1100 360/03 RMK AO2
14840KMKG MKG20071110012509711/10/07 01:25:31  5-MIN KMKG 100625Z 35003KT 5SM BR CLR 01/M01 A3013 440 92 -1100 350/03 RMK AO2
14840KMKG MKG20071110013009711/10/07 01:30:31  5-MIN KMKG 100630Z 35003KT 4SM BR CLR 01/M01 A3013 430 92 -1100 350/03 RMK AO2
14840KMKG MKG20071110013509611/10/07 01:35:31  5-MIN KMKG 100635Z 00000KT 4SM BR CLR 01/00 A3013 430 92 -1100 000/00 RMK AO2
14840KMKG MKG20071110014009711/10/07 01:40:31  5-MIN KMKG 100640Z 00000KT 4SM BR CLR 01/M01 A3013 430 92 -1100 000/00 RMK AO2
14840KMKG MKG20071110014509811/10/07 01:45:31  5-MIN KMKG 100645Z 00000KT 4SM BR CLR M01/M01 A3013 430 96 -1300 000/00 RMK AO2
14840KMKG MKG20071110015011511/10/07 01:50:31  5-MIN KMKG 100650Z 00000KT 3SM BR CLR M01/M02 A3013 440 92 -1300 000/00 RMK AO2 SLP209 T10061017
14840KMKG MKG20071110015511511/10/07 01:55:31  5-MIN KMKG 100655Z 00000KT 2SM BR CLR M01/M02 A3013 430 92 -1300 000/00 RMK AO2 SLP210 T10061017
14840KMKG MKG20071110020010211/10/07 02:00:31  5-MIN KMKG 100700Z 00000KT 2 1/2SM BR CLR M01/M02 A3014 430 92 -1300 000/00 RMK AO2
14840KMKG MKG20071110020509811/10/07 02:05:31  5-MIN KMKG 100705Z 02004KT 3SM BR CLR M01/M02 A3014 430 92 -1300 020/04 RMK AO2
14840KMKG MKG20071110021009811/10/07 02:10:31  5-MIN KMKG 100710Z 00000KT 4SM BR CLR M01/M02 A3014 430 92 -1300 000/00 RMK AO2
14840KMKG MKG20071110021509811/10/07 02:15:31  5-MIN KMKG 100715Z 00000KT 4SM BR CLR M01/M02 A3014 430 92 -1300 000/00 RMK AO2
14840KMKG MKG20071110022010211/10/07 02:20:31  5-MIN KMKG 100720Z 00000KT 2 1/2SM BR CLR M01/M02 A3014 430 92 -1400 000/00 RMK AO2
14840KMKG MKG20071110022509711/10/07 02:25:31  5-MIN KMKG 100725Z 00000KT 2SM BR CLR 00/M02 A3014 420 88 -1200 000/00 RMK AO2
14840KMKG MKG20071110023010111/10/07 02:30:31  5-MIN KMKG 100730Z 00000KT 2 1/2SM BR CLR 00/M01 A3015 420 92 -1200 000/00 RMK AO2
14840KMKG MKG20071110023509811/10/07 02:35:31  5-MIN KMKG 100735Z 00000KT 2SM BR CLR M01/M02 A3015 420 92 -1300 000/00 RMK AO2
14840KMKG MKG20071110024009811/10/07 02:40:31  5-MIN KMKG 100740Z 00000KT 2SM BR CLR M01/M02 A3015 420 96 -1400 000/00 RMK AO2
14840KMKG MKG20071110024510211/10/07 02:45:31  5-MIN KMKG 100745Z 00000KT 2 1/2SM BR CLR M01/M02 A3016 410 92 -1300 000/00 RMK AO2
14840KMKG MKG20071110025011511/10/07 02:50:31  5-MIN KMKG 100750Z 00000KT 2SM BR CLR M01/M02 A3016 410 96 -1400 000/00 RMK AO2 SLP218 T10111017
14840KMKG MKG20071110025511911/10/07 02:55:31  5-MIN KMKG 100755Z 00000KT 1 3/4SM BR CLR M02/M02 A3016 410 96 -1400 000/00 RMK AO2 SLP219 T10171022
14840KMKG MKG20071110030010211/10/07 03:00:31  5-MIN KMKG 100800Z 00000KT 1 3/4SM BR CLR M02/M02 A3016 410 96 -1400 000/00 RMK AO2
14840KMKG MKG20071110030509811/10/07 03:05:31  5-MIN KMKG 100805Z 00000KT 2SM BR CLR M02/M03 A3016 410 92 -1400 000/00 RMK AO2
14840KMKG MKG20071110031009811/10/07 03:10:31  5-MIN KMKG 100810Z 00000KT 2SM BR CLR M02/M03 A3017 400 92 -1500 000/00 RMK AO2
14840KMKG MKG20071110031510211/10/07 03:15:31  5-MIN KMKG 100815Z 00000KT 1 1/4SM BR CLR M02/M03 A3017 400 92 -1500 000/00 RMK AO2
14840KMKG MKG20071110032010211/10/07 03:20:31  5-MIN KMKG 100820Z 00000KT 1 1/4SM BR CLR M01/M03 A3017 400 88 -1400 000/00 RMK AO2
14840KMKG MKG20071110032510211/10/07 03:25:31  5-MIN KMKG 100825Z 00000KT 1 3/4SM BR CLR M01/M02 A3017 400 92 -1300 000/00 RMK AO2
14840KMKG MKG20071110033009711/10/07 03:30:31  5-MIN KMKG 100830Z 01003KT 3SM BR CLR 00/M02 A3017 400 88 -1200 010/03 RMK AO2
14840KMKG MKG20071110033509811/10/07 03:35:31  5-MIN KMKG 100835Z 36003KT 3SM BR CLR M01/M02 A3017 400 88 -1300 010/03 RMK AO2
14840KMKG MKG20071110034009811/10/07 03:40:31  5-MIN KMKG 100840Z 36004KT 3SM BR CLR M01/M02 A3017 400 92 -1400 360/04 RMK AO2
14840KMKG MKG20071110034509811/10/07 03:45:31  5-MIN KMKG 100845Z 01004KT 3SM BR CLR M01/M03 A3017 400 88 -1400 010/04 RMK AO2
14840KMKG MKG20071110035012111/10/07 03:50:31  5-MIN KMKG 100850Z 03003KT 3SM BR CLR M01/M03 A3017 400 88 -1400 030/03 RMK AO2 SLP221 T10111028 51013
14840KMKG MKG20071110035512511/10/07 03:55:31  5-MIN KMKG 100855Z 00000KT 2 1/2SM BR CLR M01/M02 A3017 400 92 -1400 000/00 RMK AO2 SLP221 T10111022 52014
14840KMKG MKG20071110040009811/10/07 04:00:31  5-MIN KMKG 100900Z 00000KT 2SM BR CLR M01/M02 A3017 400 92 -1400 000/00 RMK AO2
14840KMKG MKG20071110040509811/10/07 04:05:31  5-MIN KMKG 100905Z 00000KT 2SM BR CLR M01/M02 A3017 400 88 -1300 000/00 RMK AO2
14840KMKG MKG20071110041010111/10/07 04:10:31  5-MIN KMKG 100910Z 00000KT 2 1/2SM BR CLR 00/M02 A3017 400 88 -1200 000/00 RMK AO2
14840KMKG MKG20071110041509711/10/07 04:15:31  5-MIN KMKG 100915Z 00000KT 3SM BR CLR 00/M02 A3017 400 88 -1200 000/00 RMK AO2
14840KMKG MKG20071110042010211/10/07 04:20:31  5-MIN KMKG 100920Z 00000KT 2 1/2SM BR CLR M01/M02 A3017 400 92 -1300 000/00 RMK AO2
14840KMKG MKG20071110042509811/10/07 04:25:31  5-MIN KMKG 100925Z 00000KT 3SM BR CLR M01/M02 A3017 400 92 -1300 000/00 RMK AO2
14840KMKG MKG20071110043009811/10/07 04:30:31  5-MIN KMKG 100930Z 00000KT 3SM BR CLR M01/M02 A3017 400 88 -1300 000/00 RMK AO2
14840KMKG MKG20071110043509811/10/07 04:35:31  5-MIN KMKG 100935Z 00000KT 3SM BR CLR M01/M02 A3018 390 92 -1300 000/00 RMK AO2
14840KMKG MKG20071110044009811/10/07 04:40:31  5-MIN KMKG 100940Z 00000KT 3SM BR CLR M01/M02 A3018 390 92 -1300 000/00 RMK AO2
14840KMKG MKG20071110044509811/10/07 04:45:31  5-MIN KMKG 100945Z 00000KT 3SM BR CLR M01/M02 A3018 390 92 -1300 000/00 RMK AO2
14840KMKG MKG20071110045010211/10/07 04:50:31  5-MIN KMKG 100950Z 00000KT 1 1/2SM BR CLR M01/M02 A3018 390 92 -1400 000/00 RMK AO2
14840KMKG MKG20071110045511511/10/07 04:55:31  5-MIN KMKG 100955Z 00000KT 1SM BR CLR M01/M02 A3018 390 92 -1400 000/00 RMK AO2 SLP225 T10111022
14840KMKG MKG20071110050010011/10/07 05:00:31  5-MIN KMKG 101000Z 00000KT 3/4SM BR CLR M01/M02 A3018 390 92 -1400 000/00 RMK AO2
14840KMKG MKG20071110050509811/10/07 05:05:31  5-MIN KMKG 101005Z 00000KT 1SM BR CLR M01/M02 A3019 380 92 -1300 000/00 RMK AO2
14840KMKG MKG20071110051010211/10/07 05:10:31  5-MIN KMKG 101010Z 00000KT 1 1/4SM BR CLR M01/M02 A3019 380 92 -1300 000/00 RMK AO2
14840KMKG MKG20071110051510211/10/07 05:15:31  5-MIN KMKG 101015Z 00000KT 1 1/2SM BR CLR M01/M02 A3019 380 92 -1300 000/00 RMK AO2
14840KMKG MKG20071110052009811/10/07 05:20:31  5-MIN KMKG 101020Z 00000KT 2SM BR CLR M01/M02 A3019 380 92 -1300 000/00 RMK AO2
14840KMKG MKG20071110052510211/10/07 05:25:31  5-MIN KMKG 101025Z 00000KT 2 1/2SM BR CLR M01/M02 A3019 380 92 -1400 000/00 RMK AO2
14840KMKG MKG20071110053010211/10/07 05:30:31  5-MIN KMKG 101030Z 00000KT 2 1/2SM BR CLR M01/M02 A3019 380 92 -1400 000/00 RMK AO2
14840KMKG MKG20071110053510211/10/07 05:35:31  5-MIN KMKG 101035Z 00000KT 2 1/2SM BR CLR M01/M02 A3019 380 92 -1400 000/00 RMK AO2
14840KMKG MKG20071110054010211/10/07 05:40:31  5-MIN KMKG 101040Z 00000KT 2 1/2SM BR CLR M01/M02 A3020 380 88 -1300 000/00 RMK AO2
14840KMKG MKG20071110054509811/10/07 05:45:31  5-MIN KMKG 101045Z 00000KT 3SM BR CLR M01/M02 A3020 370 92 -1400 000/00 RMK AO2
14840KMKG MKG20071110055011511/10/07 05:50:31  5-MIN KMKG 101050Z 00000KT 3SM BR CLR M01/M02 A3020 370 92 -1400 000/00 RMK AO2 SLP233 T10061017
14840KMKG MKG20071110055511511/10/07 05:55:31  5-MIN KMKG 101055Z 00000KT 3SM BR CLR M01/M02 A3020 370 92 -1400 000/00 RMK AO2 SLP234 T10061017
14840KMKG MKG20071110060009811/10/07 06:00:31  5-MIN KMKG 101100Z 00000KT 4SM BR CLR M01/M02 A3020 370 92 -1400 000/00 RMK AO2
14840KMKG MKG20071110060509811/10/07 06:05:31  5-MIN KMKG 101105Z 00000KT 3SM BR CLR M01/M02 A3021 370 92 -1400 000/00 RMK AO2
14840KMKG MKG20071110061009811/10/07 06:10:31  5-MIN KMKG 101110Z 00000KT 3SM BR CLR M01/M02 A3021 370 92 -1400 000/00 RMK AO2
14840KMKG MKG20071110061509811/10/07 06:15:31  5-MIN KMKG 101115Z 00000KT 3SM BR CLR M01/M02 A3020 370 88 -1400 000/00 RMK AO2
14840KMKG MKG20071110062010211/10/07 06:20:31  5-MIN KMKG 101120Z 00000KT 2 1/2SM BR CLR M01/M02 A3020 370 92 -1400 000/00 RMK AO2
14840KMKG MKG20071110062509811/10/07 06:25:31  5-MIN KMKG 101125Z 00000KT 2SM BR CLR M01/M02 A3020 370 92 -1400 000/00 RMK AO2
14840KMKG MKG20071110063010211/10/07 06:30:31  5-MIN KMKG 101130Z 00000KT 1 1/4SM BR CLR M02/M02 A3020 370 96 -1500 000/00 RMK AO2
14840KMKG MKG20071110063509811/10/07 06:35:31  5-MIN KMKG 101135Z 00000KT 1SM BR CLR M01/M02 A3020 370 92 -1400 000/00 RMK AO2
14840KMKG MKG20071110064010011/10/07 06:40:31  5-MIN KMKG 101140Z 00000KT 3/4SM BR CLR M01/M03 A3020 370 88 -1400 000/00 RMK AO2
14840KMKG MKG20071110064510211/10/07 06:45:31  5-MIN KMKG 101145Z 00000KT 1/2SM FZFG CLR M02/M03 A3020 370 92 -1500 000/00 RMK AO2
14840KMKG MKG20071110065010211/10/07 06:50:31  5-MIN KMKG 101150Z 00000KT 1/4SM FZFG CLR M02/M03 A3021 370 92 -1500 000/00 RMK AO2
14840KMKG MKG20071110065513711/10/07 06:55:31  5-MIN KMKG 101155Z 00000KT 1/4SM FZFG CLR M02/M03 A3021 360 92 -1500 000/00 RMK AO2 SLP238 T10171028 10011 21017 51011
14840KMKG MKG20071110070010211/10/07 07:00:31  5-MIN KMKG 101200Z 00000KT 1/2SM FZFG CLR M01/M03 A3022 360 88 -1400 000/00 RMK AO2
14840KMKG MKG20071110070510211/10/07 07:05:31  5-MIN KMKG 101205Z 00000KT 1 3/4SM BR CLR M01/M02 A3022 350 92 -1400 000/00 RMK AO2
14840KMKG MKG20071110071010211/10/07 07:10:31  5-MIN KMKG 101210Z 00000KT 2 1/2SM BR CLR M01/M02 A3023 350 92 -1500 000/00 RMK AO2
14840KMKG MKG20071110071511111/10/07 07:15:31  5-MIN KMKG 101215Z 00000KT 3SM BR CLR M02/M02 A3023 350 96 -1500 000/00 RMK AO2 VIS 2 RWY 14
14840KMKG MKG20071110072010211/10/07 07:20:31  5-MIN KMKG 101220Z 00000KT 2 1/2SM BR CLR M02/M03 A3023 340 92 -1500 000/00 RMK AO2
14840KMKG MKG20071110072510211/10/07 07:25:31  5-MIN KMKG 101225Z 00000KT 1/2SM FZFG CLR M02/M03 A3023 340 92 -1600 000/00 RMK AO2
14840KMKG MKG20071110073010211/10/07 07:30:31  5-MIN KMKG 101230Z 00000KT 1/4SM FZFG CLR M02/M03 A3023 340 92 -1600 000/00 RMK AO2
14840KMKG MKG20071110073510211/10/07 07:35:31  5-MIN KMKG 101235Z 00000KT 1/4SM FZFG CLR M02/M03 A3023 340 92 -1600 000/00 RMK AO2
14840KMKG MKG20071110074010211/10/07 07:40:31  5-MIN KMKG 101240Z 00000KT 1/4SM FZFG CLR M02/M03 A3023 340 92 -1600 000/00 RMK AO2
14840KMKG MKG20071110074510211/10/07 07:45:31  5-MIN KMKG 101245Z 00000KT 1/4SM FZFG CLR M03/M04 A3023 340 92 -1700 000/00 RMK AO2
14840KMKG MKG20071110075011911/10/07 07:50:31  5-MIN KMKG 101250Z 00000KT 1/4SM FZFG CLR M03/M04 A3024 340 92 -1700 000/00 RMK AO2 SLP246 T10281039
14840KMKG MKG20071110075511911/10/07 07:55:31  5-MIN KMKG 101255Z 00000KT 1/2SM FZFG CLR M03/M03 A3024 340 96 -1700 000/00 RMK AO2 SLP247 T10281033
14840KMKG MKG20071110080010211/10/07 08:00:31  5-MIN KMKG 101300Z 00000KT 1 1/4SM BR CLR M03/M04 A3024 330 92 -1700 000/00 RMK AO2
14840KMKG MKG20071110080510511/10/07 08:05:31  5-MIN KMKG 101305Z 07003KT 1 3/4SM BR FEW004 M02/M04 A3024 330 88 -1600 080/03 RMK AO2
14840KMKG MKG20071110081010111/10/07 08:10:31  5-MIN KMKG 101310Z 07003KT 2SM BR SCT004 M02/M03 A3025 330 92 -1600 080/03 RMK AO2
14840KMKG MKG20071110081510511/10/07 08:15:31  5-MIN KMKG 101315Z 07003KT 2 1/2SM BR BKN004 M02/M03 A3024 330 92 -1500 070/03 RMK AO2
14840KMKG MKG20071110082012211/10/07 08:20:31  5-MIN KMKG 101320Z 08003KT 2 1/2SM BR BKN002 M01/M02 A3025 330 92 -1500 080/03 RMK AO2 VIS 1 3/4 RWY 14
14840KMKG MKG20071110082511711/10/07 08:25:31  5-MIN KMKG 101325Z 08005KT 1/2SM BR BKN002 M01/M02 A3025 330 92 -1500 080/05 RMK AO2 SFC VIS 1 1/4
14840KMKG MKG20071110083010511/10/07 08:30:31  5-MIN KMKG 101330Z 08006KT 1/4SM FZFG OVC002 M01/M02 A3025 330 92 -1400 080/06 RMK AO2
14840KMKG MKG20071110083511711/10/07 08:35:31  5-MIN KMKG 101335Z 08006KT 1/4SM FZFG OVC002 M01/M02 A3025 330 92 -1400 080/06 RMK AO2 TWR VIS 1/4
14840KMKG MKG20071110084010511/10/07 08:40:31  5-MIN KMKG 101340Z 08005KT M1/4SM FZFG VV001 M01/M01 A3025 330 96 -1400 090/05 RMK AO2
14840KMKG MKG20071110084510411/10/07 08:45:31  5-MIN KMKG 101345Z 09003KT 1/4SM FZFG VV001 M01/M01 A3025 320 96 -1400 090/03 RMK AO2
14840KMKG MKG20071110085012111/10/07 08:50:31  5-MIN KMKG 101350Z 00000KT 1/4SM FZFG VV001 M01/M01 A3026 320 96 -1400 000/00 RMK AO2 SLP252 T10061011
14840KMKG MKG20071110085512111/10/07 08:55:31  5-MIN KMKG 101355Z 00000KT 1/4SM FZFG VV001 M01/M01 A3026 320 96 -1400 000/00 RMK AO2 SLP253 T10061011
14840KMKG MKG20071110090010411/10/07 09:00:31  5-MIN KMKG 101400Z 10003KT 1/4SM FZFG VV001 M01/M01 A3026 320 96 -1400 110/03 RMK AO2
14840KMKG MKG20071110090510411/10/07 09:05:31  5-MIN KMKG 101405Z 12003KT 1/4SM FZFG VV001 M01/M01 A3026 310 96 -1400 120/03 RMK AO2
14840KMKG MKG20071110091010511/10/07 09:10:31  5-MIN KMKG 101410Z 12004KT 1/4SM FZFG OVC001 M01/M01 A3027 310 96 -1400 120/04 RMK AO2
14840KMKG MKG20071110091510511/10/07 09:15:31  5-MIN KMKG 101415Z 13003KT 1/4SM FZFG OVC001 M01/M01 A3027 310 96 -1400 130/03 RMK AO2
14840KMKG MKG20071110092010411/10/07 09:20:31  5-MIN KMKG 101420Z 12004KT 1/4SM FZFG VV001 M01/M01 A3027 310 96 -1400 130/04 RMK AO2
14840KMKG MKG20071110092510511/10/07 09:25:31  5-MIN KMKG 101425Z 13003KT 1/4SM FZFG OVC001 M01/M01 A3027 310 96 -1400 130/03 RMK AO2
14840KMKG MKG20071110093010211/10/07 09:30:31  5-MIN KMKG 101430Z 12005KT 1/4SM FG OVC001 00/M01 A3027 310 92 -1400 120/05 RMK AO2
14840KMKG MKG20071110093510211/10/07 09:35:31  5-MIN KMKG 101435Z 11004KT 1/4SM FG OVC001 00/M01 A3027 310 92 -1400 110/04 RMK AO2
14840KMKG MKG20071110094010211/10/07 09:40:31  5-MIN KMKG 101440Z 12005KT 1/4SM FG OVC001 00/M01 A3027 310 96 -1400 120/05 RMK AO2
14840KMKG MKG20071110094510211/10/07 09:45:31  5-MIN KMKG 101445Z 12004KT 1/2SM FG OVC001 00/M01 A3027 310 96 -1400 120/04 RMK AO2
14840KMKG MKG20071110095012511/10/07 09:50:31  5-MIN KMKG 101450Z 12003KT 3/4SM BR OVC001 01/M01 A3027 310 92 -1300 120/03 RMK AO2 SLP258 T00061006 51011
14840KMKG MKG20071110095512211/10/07 09:55:31  5-MIN KMKG 101455Z 11003KT 1SM BR OVC001 01/00 A3027 310 96 -1300 110/03 RMK AO2 SLP258 T00060000 51020
14840KMKG MKG20071110100011011/10/07 10:00:31  5-MIN KMKG 101500Z 11004KT 1 1/2SM BR BKN001 OVC008 01/00 A3027 310 96 -1300 110/04 RMK AO2
14840KMKG MKG20071110100511011/10/07 10:05:31  5-MIN KMKG 101505Z 11004KT 2 1/2SM BR BKN001 OVC008 01/00 A3027 310 92 -1200 120/04 RMK AO2
14840KMKG MKG20071110101010611/10/07 10:10:31  5-MIN KMKG 101510Z 11004KT 3SM BR SCT001 OVC008 01/01 A3027 310 96 -1200 110/04 RMK AO2
14840KMKG MKG20071110101510611/10/07 10:15:31  5-MIN KMKG 101515Z 12004KT 3SM BR FEW001 OVC006 01/01 A3027 310 96 -1200 120/04 RMK AO2
14840KMKG MKG20071110102011111/10/07 10:20:31  5-MIN KMKG 101520Z 11005KT 3SM BR OVC006 02/01 A3027 310 92 -1200 110/05 RMK AO2 CIG 002V008
14840KMKG MKG20071110102509911/10/07 10:25:31  5-MIN KMKG 101525Z 11005KT 4SM BR OVC006 02/01 A3027 310 92 -1100 110/05 RMK AO2
14840KMKG MKG20071110103009911/10/07 10:30:31  5-MIN KMKG 101530Z 11005KT 4SM BR OVC006 02/01 A3027 310 92 -1100 120/05 RMK AO2
14840KMKG MKG20071110103509911/10/07 10:35:31  5-MIN KMKG 101535Z 12005KT 4SM BR OVC006 02/01 A3027 310 92 -1100 120/05 RMK AO2
14840KMKG MKG20071110104009911/10/07 10:40:31  5-MIN KMKG 101540Z 11005KT 4SM BR OVC006 03/01 A3027 310 89 -1000 120/05 RMK AO2
14840KMKG MKG20071110104509911/10/07 10:45:31  5-MIN KMKG 101545Z 12005KT 5SM BR OVC006 03/02 A3027 310 92 -1000 130/05 RMK AO2
14840KMKG MKG20071110105011611/10/07 10:50:31  5-MIN KMKG 101550Z 13007KT 5SM BR OVC006 03/02 A3026 310 92 -1000 130/07 RMK AO2 SLP254 T00280017
14840KMKG MKG20071110105511611/10/07 10:55:31  5-MIN KMKG 101555Z 12009KT 6SM BR OVC006 03/02 A3026 310 92 -1000 120/09 RMK AO2 SLP254 T00280017
14840KMKG MKG20071110110009611/10/07 11:00:31  5-MIN KMKG 101600Z 12007KT 7SM OVC006 03/02 A3026 320 92 -1000 130/07 RMK AO2
14840KMKG MKG20071110110509511/10/07 11:05:31  5-MIN KMKG 101605Z 12007KT 7SM OVC006 03/02 A3027 310 89 -900 120/07 RMK AO2
14840KMKG MKG20071110111009611/10/07 11:10:31  5-MIN KMKG 101610Z 11008KT 7SM BKN008 03/02 A3027 310 92 -1000 110/08 RMK AO2
14840KMKG MKG20071110111509511/10/07 11:15:31  5-MIN KMKG 101615Z 12006KT 7SM BKN008 03/02 A3027 310 89 -900 130/06 RMK AO2
14840KMKG MKG20071110112009511/10/07 11:20:31  5-MIN KMKG 101620Z 13007KT 7SM OVC008 03/02 A3027 310 89 -900 130/07 RMK AO2
14840KMKG MKG20071110112509511/10/07 11:25:31  5-MIN KMKG 101625Z 13005KT 7SM OVC008 04/02 A3027 310 85 -900 140/05 RMK AO2
14840KMKG MKG20071110113009511/10/07 11:30:31  5-MIN KMKG 101630Z 14006KT 7SM OVC008 04/02 A3027 310 85 -900 140/06 RMK AO2
14840KMKG MKG20071110113509511/10/07 11:35:31  5-MIN KMKG 101635Z 15005KT 7SM OVC008 04/02 A3027 310 85 -900 150/05 RMK AO2
14840KMKG MKG20071110114009511/10/07 11:40:31  5-MIN KMKG 101640Z 13003KT 7SM OVC008 04/02 A3027 310 85 -900 130/03 RMK AO2
14840KMKG MKG20071110114509511/10/07 11:45:31  5-MIN KMKG 101645Z 18003KT 7SM OVC008 04/02 A3027 310 85 -900 180/03 RMK AO2
14840KMKG MKG20071110115011211/10/07 11:50:31  5-MIN KMKG 101650Z 13004KT 7SM OVC008 04/02 A3026 310 85 -900 130/04 RMK AO2 SLP255 T00390017
14840KMKG MKG20071110115511211/10/07 11:55:31  5-MIN KMKG 101655Z 16006KT 7SM OVC008 04/02 A3026 310 82 -800 160/06 RMK AO2 SLP254 T00440017
14840KMKG MKG20071110120009511/10/07 12:00:31  5-MIN KMKG 101700Z VRB03KT 7SM OVC008 04/02 A3026 310 85 -900 VRB/03 RMK AO2
14840KMKG MKG20071110120509511/10/07 12:05:31  5-MIN KMKG 101705Z 00000KT 7SM OVC008 04/02 A3026 320 82 -800 000/00 RMK AO2
14840KMKG MKG20071110121009511/10/07 12:10:31  5-MIN KMKG 101710Z 00000KT 7SM OVC008 04/02 A3026 320 82 -800 000/00 RMK AO2
14840KMKG MKG20071110121509511/10/07 12:15:31  5-MIN KMKG 101715Z 16005KT 7SM OVC008 04/02 A3026 320 82 -800 160/05 RMK AO2
14840KMKG MKG20071110122009511/10/07 12:20:31  5-MIN KMKG 101720Z 15004KT 7SM OVC010 04/01 A3026 320 82 -900 160/04 RMK AO2
14840KMKG MKG20071110122509511/10/07 12:25:31  5-MIN KMKG 101725Z 18003KT 7SM OVC010 04/01 A3026 320 82 -900 190/03 RMK AO2
14840KMKG MKG20071110123009511/10/07 12:30:31  5-MIN KMKG 101730Z VRB04KT 7SM OVC010 04/02 A3026 320 82 -800 VRB/04 RMK AO2
14840KMKG MKG20071110123509511/10/07 12:35:31  5-MIN KMKG 101735Z 14004KT 7SM OVC010 04/02 A3025 330 82 -800 150/04 RMK AO2
14840KMKG MKG20071110124009511/10/07 12:40:31  5-MIN KMKG 101740Z 20003KT 7SM OVC010 04/02 A3025 330 82 -800 200/03 RMK AO2
14840KMKG MKG20071110124509511/10/07 12:45:31  5-MIN KMKG 101745Z 00000KT 7SM OVC010 04/02 A3024 330 82 -800 000/00 RMK AO2
14840KMKG MKG20071110125013011/10/07 12:50:31  5-MIN KMKG 101750Z 00000KT 7SM OVC010 04/02 A3024 330 82 -800 000/00 RMK AO2 SLP246 T00440017 10044 21028 51020
14840KMKG MKG20071110125513011/10/07 12:55:31  5-MIN KMKG 101755Z 00000KT 7SM OVC010 04/02 A3024 340 82 -800 000/00 RMK AO2 SLP246 T00440017 10044 21028 58010
14840KMKG MKG20071110130009511/10/07 13:00:31  5-MIN KMKG 101800Z 00000KT 7SM OVC010 04/02 A3024 340 82 -800 000/00 RMK AO2
14840KMKG MKG20071110130509511/10/07 13:05:31  5-MIN KMKG 101805Z 00000KT 7SM OVC010 04/02 A3024 340 82 -800 000/00 RMK AO2
14840KMKG MKG20071110131009511/10/07 13:10:31  5-MIN KMKG 101810Z 00000KT 7SM OVC010 05/02 A3024 340 79 -700 000/00 RMK AO2
14840KMKG MKG20071110131509511/10/07 13:15:31  5-MIN KMKG 101815Z 00000KT 7SM OVC010 05/02 A3023 340 79 -700 000/00 RMK AO2
14840KMKG MKG20071110132009511/10/07 13:20:31  5-MIN KMKG 101820Z 00000KT 7SM OVC010 05/02 A3023 340 79 -700 000/00 RMK AO2
14840KMKG MKG20071110132509511/10/07 13:25:31  5-MIN KMKG 101825Z 00000KT 7SM OVC012 05/02 A3023 340 79 -700 000/00 RMK AO2
14840KMKG MKG20071110133009511/10/07 13:30:31  5-MIN KMKG 101830Z 00000KT 7SM OVC012 05/02 A3023 350 79 -700 000/00 RMK AO2
14840KMKG MKG20071110133509511/10/07 13:35:31  5-MIN KMKG 101835Z 00000KT 8SM OVC012 06/02 A3023 350 76 -600 000/00 RMK AO2
14840KMKG MKG20071110134009511/10/07 13:40:31  5-MIN KMKG 101840Z 00000KT 8SM OVC012 06/02 A3022 350 76 -600 000/00 RMK AO2
14840KMKG MKG20071110134509511/10/07 13:45:31  5-MIN KMKG 101845Z 00000KT 8SM OVC012 06/02 A3022 350 79 -600 000/00 RMK AO2
14840KMKG MKG20071110135011211/10/07 13:50:31  5-MIN KMKG 101850Z 22003KT 9SM BKN012 06/02 A3022 350 76 -600 220/03 RMK AO2 SLP240 T00560017
14840KMKG MKG20071110135511911/10/07 13:55:31  5-MIN KMKG 101855Z 17005KT 9SM SCT012 BKN015 07/02 A3022 350 73 -500 180/05 RMK AO2 SLP240 T00670022
14840KMKG MKG20071110140009511/10/07 14:00:31  5-MIN KMKG 101900Z 17005KT 9SM BKN015 06/02 A3022 360 73 -500 170/05 RMK AO2
14840KMKG MKG20071110140509511/10/07 14:05:31  5-MIN KMKG 101905Z 19003KT 8SM BKN015 06/02 A3022 360 76 -600 190/03 RMK AO2
14840KMKG MKG20071110141009511/10/07 14:10:31  5-MIN KMKG 101910Z 00000KT 8SM BKN015 06/02 A3022 360 73 -500 000/00 RMK AO2
14840KMKG MKG20071110141509511/10/07 14:15:31  5-MIN KMKG 101915Z 00000KT 8SM BKN015 06/02 A3021 360 73 -500 000/00 RMK AO2
14840KMKG MKG20071110142009511/10/07 14:20:31  5-MIN KMKG 101920Z 00000KT 8SM BKN015 06/02 A3021 360 73 -500 000/00 RMK AO2
14840KMKG MKG20071110142509511/10/07 14:25:31  5-MIN KMKG 101925Z 17003KT 7SM BKN015 06/02 A3021 370 73 -500 170/03 RMK AO2
14840KMKG MKG20071110143009511/10/07 14:30:31  5-MIN KMKG 101930Z 00000KT 7SM BKN015 06/02 A3021 370 73 -500 000/00 RMK AO2
14840KMKG MKG20071110143509511/10/07 14:35:31  5-MIN KMKG 101935Z 17005KT 7SM BKN015 06/02 A3020 370 73 -500 180/05 RMK AO2
14840KMKG MKG20071110144009511/10/07 14:40:31  5-MIN KMKG 101940Z 18003KT 7SM BKN015 06/02 A3020 370 73 -500 180/03 RMK AO2
14840KMKG MKG20071110144509511/10/07 14:45:31  5-MIN KMKG 101945Z 00000KT 7SM BKN015 06/02 A3020 370 73 -500 000/00 RMK AO2
14840KMKG MKG20071110145009511/10/07 14:50:31  5-MIN KMKG 101950Z 13003KT 7SM SCT017 07/02 A3019 380 70 -400 140/03 RMK AO2
14840KMKG MKG20071110145511211/10/07 14:55:31  5-MIN KMKG 101955Z 15005KT 7SM SCT017 07/02 A3019 380 70 -400 150/05 RMK AO2 SLP230 T00670017
14840KMKG MKG20071110150009211/10/07 15:00:31  5-MIN KMKG 102000Z 14003KT 7SM CLR 07/02 A3019 380 70 -400 140/03 RMK AO2
14840KMKG MKG20071110150509511/10/07 15:05:31  5-MIN KMKG 102005Z 18003KT 7SM FEW017 07/02 A3019 380 70 -400 180/03 RMK AO2
14840KMKG MKG20071110151009511/10/07 15:10:31  5-MIN KMKG 102010Z 14003KT 7SM FEW020 07/02 A3020 380 70 -400 140/03 RMK AO2
14840KMKG MKG20071110151509511/10/07 15:15:31  5-MIN KMKG 102015Z 20003KT 7SM FEW020 07/02 A3019 380 70 -400 200/03 RMK AO2
14840KMKG MKG20071110152009511/10/07 15:20:31  5-MIN KMKG 102020Z 22004KT 7SM FEW020 07/02 A3020 380 70 -400 230/04 RMK AO2
14840KMKG MKG20071110152509511/10/07 15:25:31  5-MIN KMKG 102025Z 23003KT 7SM FEW020 07/02 A3020 380 73 -400 240/03 RMK AO2
14840KMKG MKG20071110153009511/10/07 15:30:31  5-MIN KMKG 102030Z 21005KT 7SM FEW020 07/02 A3020 380 73 -400 210/05 RMK AO2
14840KMKG MKG20071110153509511/10/07 15:35:31  5-MIN KMKG 102035Z 23004KT 7SM FEW020 07/02 A3019 380 73 -400 230/04 RMK AO2
14840KMKG MKG20071110154009511/10/07 15:40:31  5-MIN KMKG 102040Z 21005KT 7SM FEW020 06/02 A3019 380 76 -500 210/05 RMK AO2
14840KMKG MKG20071110154509811/10/07 15:45:31  5-MIN KMKG 102045Z 21005KT 6SM HZ FEW020 06/02 A3020 380 76 -500 220/05 RMK AO2
14840KMKG MKG20071110155012111/10/07 15:50:31  5-MIN KMKG 102050Z 20006KT 6SM HZ FEW020 06/03 A3020 380 79 -500 200/06 RMK AO2 SLP231 T00610028 58010
14840KMKG MKG20071110155512111/10/07 15:55:31  5-MIN KMKG 102055Z 20005KT 6SM HZ FEW020 06/02 A3020 380 76 -500 200/05 RMK AO2 SLP231 T00610022 55008
14840KMKG MKG20071110160009511/10/07 16:00:31  5-MIN KMKG 102100Z 18005KT 5SM HZ CLR 06/02 A3019 380 76 -500 180/05 RMK AO2
14840KMKG MKG20071110160509511/10/07 16:05:31  5-MIN KMKG 102105Z 19005KT 5SM HZ CLR 06/02 A3019 380 76 -500 190/05 RMK AO2
14840KMKG MKG20071110161009511/10/07 16:10:31  5-MIN KMKG 102110Z 19005KT 5SM HZ CLR 06/02 A3019 380 76 -500 190/05 RMK AO2
14840KMKG MKG20071110161509511/10/07 16:15:31  5-MIN KMKG 102115Z 18004KT 5SM HZ CLR 06/02 A3019 380 76 -500 190/04 RMK AO2
14840KMKG MKG20071110162009511/10/07 16:20:31  5-MIN KMKG 102120Z 18005KT 5SM HZ CLR 06/03 A3019 380 79 -500 190/05 RMK AO2
14840KMKG MKG20071110162509511/10/07 16:25:31  5-MIN KMKG 102125Z 18005KT 5SM HZ CLR 06/02 A3019 380 76 -500 190/05 RMK AO2
14840KMKG MKG20071110163009511/10/07 16:30:31  5-MIN KMKG 102130Z 17003KT 5SM HZ CLR 06/02 A3019 390 76 -500 180/03 RMK AO2
14840KMKG MKG20071110163509511/10/07 16:35:31  5-MIN KMKG 102135Z 18005KT 5SM HZ CLR 06/02 A3018 390 76 -500 180/05 RMK AO2
14840KMKG MKG20071110164009511/10/07 16:40:31  5-MIN KMKG 102140Z 17004KT 5SM HZ CLR 06/02 A3018 390 76 -500 170/04 RMK AO2
14840KMKG MKG20071110164509511/10/07 16:45:31  5-MIN KMKG 102145Z 17003KT 5SM HZ CLR 06/02 A3018 390 76 -500 170/03 RMK AO2
14840KMKG MKG20071110165011211/10/07 16:50:31  5-MIN KMKG 102150Z 16005KT 5SM HZ CLR 06/02 A3018 390 76 -500 170/05 RMK AO2 SLP227 T00610022
14840KMKG MKG20071110165511211/10/07 16:55:31  5-MIN KMKG 102155Z 15006KT 5SM HZ CLR 06/02 A3018 390 73 -500 160/06 RMK AO2 SLP226 T00610017
14840KMKG MKG20071110170009511/10/07 17:00:31  5-MIN KMKG 102200Z 14007KT 5SM HZ CLR 06/02 A3018 390 76 -600 150/07 RMK AO2
14840KMKG MKG20071110170509511/10/07 17:05:31  5-MIN KMKG 102205Z 14007KT 5SM HZ CLR 06/02 A3017 400 76 -600 140/07 RMK AO2
14840KMKG MKG20071110171009511/10/07 17:10:31  5-MIN KMKG 102210Z 15008KT 5SM HZ CLR 06/02 A3018 390 76 -600 150/08 RMK AO2
14840KMKG MKG20071110171509511/10/07 17:15:31  5-MIN KMKG 102215Z 15007KT 5SM HZ CLR 06/01 A3018 390 73 -600 160/07 RMK AO2
14840KMKG MKG20071110172009511/10/07 17:20:31  5-MIN KMKG 102220Z 14006KT 5SM HZ CLR 06/02 A3018 390 76 -600 140/06 RMK AO2
14840KMKG MKG20071110172509511/10/07 17:25:31  5-MIN KMKG 102225Z 14006KT 5SM HZ CLR 05/01 A3018 400 76 -600 140/06 RMK AO2
14840KMKG MKG20071110173009511/10/07 17:30:31  5-MIN KMKG 102230Z 15008KT 5SM HZ CLR 05/01 A3017 400 76 -600 150/08 RMK AO2
14840KMKG MKG20071110173509511/10/07 17:35:31  5-MIN KMKG 102235Z 15008KT 5SM HZ CLR 05/01 A3017 400 76 -600 150/08 RMK AO2
14840KMKG MKG20071110174009811/10/07 17:40:31  5-MIN KMKG 102240Z 15006KT 6SM HZ FEW120 05/01 A3017 400 76 -600 160/06 RMK AO2
14840KMKG MKG20071110174509811/10/07 17:45:31  5-MIN KMKG 102245Z 14005KT 6SM HZ SCT120 05/02 A3017 400 79 -600 150/05 RMK AO2
14840KMKG MKG20071110175012211/10/07 17:50:31  5-MIN KMKG 102250Z 14004KT 6SM HZ SCT065 BKN120 05/02 A3017 400 79 -600 150/04 RMK AO2 SLP224 T00500017
14840KMKG MKG20071110175512211/10/07 17:55:31  5-MIN KMKG 102255Z 15004KT 6SM HZ SCT065 BKN120 05/02 A3017 400 79 -600 150/04 RMK AO2 SLP225 T00500017
14840KMKG MKG20071110180009811/10/07 18:00:31  5-MIN KMKG 102300Z 14004KT 6SM HZ SCT120 05/02 A3018 390 79 -600 150/04 RMK AO2
14840KMKG MKG20071110180509811/10/07 18:05:31  5-MIN KMKG 102305Z 14005KT 6SM HZ FEW120 04/02 A3017 400 82 -700 140/05 RMK AO2
14840KMKG MKG20071110181009811/10/07 18:10:31  5-MIN KMKG 102310Z 13005KT 6SM HZ FEW120 04/02 A3017 400 82 -700 140/05 RMK AO2
14840KMKG MKG20071110181509811/10/07 18:15:31  5-MIN KMKG 102315Z 14006KT 5SM HZ FEW120 04/02 A3017 400 82 -700 140/06 RMK AO2
14840KMKG MKG20071110182011011/10/07 18:20:31  5-MIN KMKG 102320Z 13007KT 5SM HZ CLR 05/02 A3017 400 79 -600 140/07 RMK AO2 CIG 110 RWY 14
14840KMKG MKG20071110182511011/10/07 18:25:31  5-MIN KMKG 102325Z 13008KT 5SM HZ CLR 05/02 A3016 410 79 -600 140/08 RMK AO2 CIG 100 RWY 14
14840KMKG MKG20071110183009811/10/07 18:30:31  5-MIN KMKG 102330Z 13006KT 5SM HZ FEW110 04/02 A3016 410 82 -700 140/06 RMK AO2
14840KMKG MKG20071110183509811/10/07 18:35:31  5-MIN KMKG 102335Z 15007KT 5SM HZ FEW110 04/02 A3017 400 82 -700 150/07 RMK AO2
14840KMKG MKG20071110184009811/10/07 18:40:31  5-MIN KMKG 102340Z 14008KT 6SM HZ FEW120 05/02 A3016 410 79 -600 140/08 RMK AO2
14840KMKG MKG20071110184509811/10/07 18:45:31  5-MIN KMKG 102345Z 14006KT 6SM HZ FEW110 04/02 A3016 410 82 -700 140/06 RMK AO2
14840KMKG MKG20071110185014011/10/07 18:50:31  5-MIN KMKG 102350Z 13007KT 6SM HZ FEW090 SCT110 04/02 A3016 410 82 -700 140/07 RMK AO2 SLP218 T00440017 10067 20044 55008
14840KMKG MKG20071110185514011/10/07 18:55:31  5-MIN KMKG 102355Z 13007KT 6SM HZ FEW090 SCT110 04/02 A3015 420 82 -700 130/07 RMK AO2 SLP217 T00440017 10067 20044 58015
14840KMKG MKG20071110190009511/10/07 19:00:31  5-MIN KMKG 110000Z 13006KT 5SM HZ CLR 04/02 A3015 420 82 -700 140/06 RMK AO2
14840KMKG MKG20071110190509811/10/07 19:05:31  5-MIN KMKG 110005Z 14007KT 5SM HZ FEW085 04/02 A3015 420 82 -700 140/07 RMK AO2
14840KMKG MKG20071110191009811/10/07 19:10:31  5-MIN KMKG 110010Z 14007KT 5SM HZ FEW085 05/02 A3015 420 79 -600 140/07 RMK AO2
14840KMKG MKG20071110191509811/10/07 19:15:31  5-MIN KMKG 110015Z 14008KT 6SM HZ FEW080 04/02 A3015 420 82 -700 140/08 RMK AO2
14840KMKG MKG20071110192009811/10/07 19:20:31  5-MIN KMKG 110020Z 14008KT 6SM HZ FEW085 04/02 A3014 420 82 -700 140/08 RMK AO2
14840KMKG MKG20071110192509811/10/07 19:25:31  5-MIN KMKG 110025Z 13009KT 6SM HZ FEW085 05/02 A3014 430 79 -600 140/09 RMK AO2
14840KMKG MKG20071110193009811/10/07 19:30:31  5-MIN KMKG 110030Z 14008KT 6SM HZ FEW085 05/02 A3014 430 79 -600 140/08 RMK AO2
14840KMKG MKG20071110193511011/10/07 19:35:31  5-MIN KMKG 110035Z 14007KT 6SM HZ CLR 05/02 A3014 430 79 -600 140/07 RMK AO2 CIG 095 RWY 14
14840KMKG MKG20071110194009511/10/07 19:40:31  5-MIN KMKG 110040Z 14008KT 6SM HZ CLR 05/02 A3014 430 79 -600 140/08 RMK AO2
14840KMKG MKG20071110194510511/10/07 19:45:31  5-MIN KMKG 110045Z 14008KT 6SM HZ FEW075 SCT110 05/02 A3013 430 79 -600 140/08 RMK AO2
14840KMKG MKG20071110195012211/10/07 19:50:31  5-MIN KMKG 110050Z 14008KT 6SM HZ FEW075 SCT110 05/02 A3014 430 79 -600 140/08 RMK AO2 SLP212 T00500017
14840KMKG MKG20071110195512211/10/07 19:55:31  5-MIN KMKG 110055Z 13007KT 6SM HZ FEW075 SCT090 05/02 A3014 430 79 -600 140/07 RMK AO2 SLP213 T00500017
14840KMKG MKG20071110200009811/10/07 20:00:31  5-MIN KMKG 110100Z 13007KT 6SM HZ BKN090 05/02 A3014 420 79 -600 140/07 RMK AO2
14840KMKG MKG20071110200509811/10/07 20:05:31  5-MIN KMKG 110105Z 14007KT 6SM HZ BKN090 05/02 A3014 430 79 -600 140/07 RMK AO2
14840KMKG MKG20071110201009811/10/07 20:10:31  5-MIN KMKG 110110Z 13007KT 6SM HZ BKN090 05/02 A3014 420 79 -600 130/07 RMK AO2
14840KMKG MKG20071110201509811/10/07 20:15:31  5-MIN KMKG 110115Z 13007KT 6SM HZ OVC095 05/02 A3015 420 79 -600 140/07 RMK AO2
14840KMKG MKG20071110202009811/10/07 20:20:31  5-MIN KMKG 110120Z 13006KT 6SM HZ OVC095 05/02 A3015 420 79 -600 140/06 RMK AO2
14840KMKG MKG20071110202509811/10/07 20:25:31  5-MIN KMKG 110125Z 15004KT 6SM HZ OVC095 05/02 A3016 410 79 -600 150/04 RMK AO2
14840KMKG MKG20071110203010511/10/07 20:30:31  5-MIN KMKG 110130Z 14005KT 6SM HZ BKN100 05/02 A3016 400 79 -600 150/05 RMK AO2 PRESRR
14840KMKG MKG20071110203511211/10/07 20:35:31  5-MIN KMKG 110135Z 15004KT 6SM HZ BKN100 BKN120 05/01 A3017 400 76 -600 150/04 RMK AO2 PRESRR
14840KMKG MKG20071110204010511/10/07 20:40:31  5-MIN KMKG 110140Z 14003KT 6SM HZ BKN100 BKN120 04/01 A3017 400 79 -700 140/03 RMK AO2
14840KMKG MKG20071110204509811/10/07 20:45:31  5-MIN KMKG 110145Z 13006KT 6SM HZ BKN100 04/01 A3017 400 79 -700 130/06 RMK AO2
14840KMKG MKG20071110205011511/10/07 20:50:31  5-MIN KMKG 110150Z 12006KT 6SM HZ BKN100 04/01 A3016 410 79 -700 120/06 RMK AO2 SLP220 T00440011
14840KMKG MKG20071110205511511/10/07 20:55:31  5-MIN KMKG 110155Z 12006KT 6SM HZ BKN110 04/01 A3016 410 79 -700 120/06 RMK AO2 SLP220 T00440011
14840KMKG MKG20071110210009811/10/07 21:00:31  5-MIN KMKG 110200Z 12006KT 5SM HZ BKN110 04/01 A3016 410 79 -700 120/06 RMK AO2
14840KMKG MKG20071110210509811/10/07 21:05:31  5-MIN KMKG 110205Z 11006KT 5SM HZ BKN100 04/01 A3016 410 79 -700 110/06 RMK AO2
14840KMKG MKG20071110211009811/10/07 21:10:31  5-MIN KMKG 110210Z 11007KT 5SM HZ OVC100 04/01 A3015 420 79 -700 110/07 RMK AO2
14840KMKG MKG20071110211509811/10/07 21:15:31  5-MIN KMKG 110215Z 10007KT 5SM HZ OVC100 04/01 A3015 420 79 -700 110/07 RMK AO2
14840KMKG MKG20071110212009811/10/07 21:20:31  5-MIN KMKG 110220Z 10007KT 5SM HZ OVC100 04/01 A3015 420 79 -700 110/07 RMK AO2
14840KMKG MKG20071110212509811/10/07 21:25:31  5-MIN KMKG 110225Z 11008KT 5SM HZ OVC110 04/01 A3015 420 79 -700 110/08 RMK AO2
14840KMKG MKG20071110213009811/10/07 21:30:31  5-MIN KMKG 110230Z 11006KT 5SM HZ OVC110 04/01 A3015 420 79 -700 110/06 RMK AO2
14840KMKG MKG20071110213509811/10/07 21:35:31  5-MIN KMKG 110235Z 12006KT 5SM HZ BKN110 04/01 A3015 420 79 -700 130/06 RMK AO2
14840KMKG MKG20071110214009811/10/07 21:40:31  5-MIN KMKG 110240Z 11006KT 5SM HZ BKN110 04/01 A3015 420 82 -700 120/06 RMK AO2
14840KMKG MKG20071110214509811/10/07 21:45:31  5-MIN KMKG 110245Z 11006KT 5SM HZ BKN110 04/01 A3015 420 82 -700 110/06 RMK AO2
14840KMKG MKG20071110215012111/10/07 21:50:31  5-MIN KMKG 110250Z 11005KT 5SM HZ BKN100 04/01 A3015 410 82 -700 120/05 RMK AO2 SLP218 T00390011 58015
14840KMKG MKG20071110215512111/10/07 21:55:31  5-MIN KMKG 110255Z 10005KT 5SM HZ BKN100 03/01 A3015 410 82 -800 110/05 RMK AO2 SLP218 T00330006 53001
14840KMKG MKG20071110220009811/10/07 22:00:31  5-MIN KMKG 110300Z 10005KT 5SM HZ SCT100 03/01 A3015 420 82 -800 110/05 RMK AO2
14840KMKG MKG20071110220509811/10/07 22:05:31  5-MIN KMKG 110305Z 11005KT 5SM HZ FEW100 03/01 A3015 410 82 -800 110/05 RMK AO2
14840KMKG MKG20071110221009811/10/07 22:10:31  5-MIN KMKG 110310Z 11006KT 5SM HZ SCT100 03/01 A3015 410 82 -800 120/06 RMK AO2
14840KMKG MKG20071110221509811/10/07 22:15:31  5-MIN KMKG 110315Z 11005KT 5SM BR SCT100 03/01 A3015 420 85 -800 120/05 RMK AO2
14840KMKG MKG20071110222009811/10/07 22:20:31  5-MIN KMKG 110320Z 11007KT 4SM HZ SCT100 04/01 A3015 420 82 -700 110/07 RMK AO2
14840KMKG MKG20071110222509811/10/07 22:25:31  5-MIN KMKG 110325Z 12006KT 4SM BR SCT095 03/01 A3015 410 85 -800 120/06 RMK AO2
14840KMKG MKG20071110223009811/10/07 22:30:31  5-MIN KMKG 110330Z 11006KT 4SM HZ BKN095 04/01 A3016 410 82 -700 110/06 RMK AO2
14840KMKG MKG20071110223509811/10/07 22:35:31  5-MIN KMKG 110335Z 11007KT 4SM HZ BKN095 04/01 A3015 420 82 -700 120/07 RMK AO2
14840KMKG MKG20071110224009811/10/07 22:40:31  5-MIN KMKG 110340Z 12007KT 4SM HZ BKN095 04/01 A3015 420 82 -700 120/07 RMK AO2
14840KMKG MKG20071110224509811/10/07 22:45:31  5-MIN KMKG 110345Z 12007KT 4SM HZ BKN095 04/01 A3015 420 82 -700 120/07 RMK AO2
14840KMKG MKG20071110225011511/10/07 22:50:31  5-MIN KMKG 110350Z 12007KT 4SM HZ BKN095 04/01 A3015 420 82 -700 120/07 RMK AO2 SLP215 T00390011
14840KMKG MKG20071110225511511/10/07 22:55:31  5-MIN KMKG 110355Z 12007KT 4SM HZ BKN095 04/01 A3015 420 82 -700 120/07 RMK AO2 SLP216 T00390011
14840KMKG MKG20071110230009811/10/07 23:00:31  5-MIN KMKG 110400Z 12007KT 5SM HZ OVC095 04/01 A3015 420 82 -700 120/07 RMK AO2
14840KMKG MKG20071110230509811/10/07 23:05:31  5-MIN KMKG 110405Z 12006KT 5SM HZ BKN095 04/01 A3015 420 82 -700 120/06 RMK AO2
14840KMKG MKG20071110231009811/10/07 23:10:31  5-MIN KMKG 110410Z 12008KT 5SM HZ BKN090 04/01 A3015 420 79 -700 130/08 RMK AO2
14840KMKG MKG20071110231509811/10/07 23:15:31  5-MIN KMKG 110415Z 12007KT 5SM HZ OVC090 04/01 A3015 420 79 -700 130/07 RMK AO2
14840KMKG MKG20071110232009811/10/07 23:20:31  5-MIN KMKG 110420Z 12007KT 5SM HZ OVC095 04/01 A3015 420 79 -700 120/07 RMK AO2
14840KMKG MKG20071110232509811/10/07 23:25:31  5-MIN KMKG 110425Z 12007KT 5SM HZ OVC095 04/01 A3015 420 79 -700 130/07 RMK AO2
14840KMKG MKG20071110233009811/10/07 23:30:31  5-MIN KMKG 110430Z 12006KT 5SM HZ OVC095 04/01 A3015 420 79 -700 120/06 RMK AO2
14840KMKG MKG20071110233509811/10/07 23:35:31  5-MIN KMKG 110435Z 11007KT 5SM HZ OVC095 04/01 A3015 420 79 -700 120/07 RMK AO2
14840KMKG MKG20071110234009811/10/07 23:40:31  5-MIN KMKG 110440Z 12005KT 5SM HZ BKN100 04/01 A3015 420 79 -700 120/05 RMK AO2
14840KMKG MKG20071110234509811/10/07 23:45:31  5-MIN KMKG 110445Z 12006KT 5SM HZ BKN100 04/01 A3015 420 79 -700 130/06 RMK AO2
14840KMKG MKG20071110235012511/10/07 23:50:31  5-MIN KMKG 110450Z 12007KT 5SM HZ SCT100 04/01 A3015 420 79 -700 130/07 RMK AO2 SLP214 T00440011 400671028
14840KMKG MKG20071110235512511/10/07 23:55:31  5-MIN KMKG 110455Z 12008KT 5SM HZ SCT100 04/01 A3014 430 79 -700 130/08 RMK AO2 SLP212 T00440011 400671028
14840KMKG MKG20071111000009811/11/07 00:00:32  5-MIN KMKG 110500Z 12009KT 5SM HZ FEW100 04/01 A3013 440 79 -600 130/09 RMK AO2
14840KMKG MKG20071111000510211/11/07 00:05:31  5-MIN KMKG 110505Z 13010KT 5SM HZ CLR 04/01 A3012 440 79 -600 130/10 RMK AO2 PRESFR
14840KMKG MKG20071111001009511/11/07 00:10:31  5-MIN KMKG 110510Z 13009KT 5SM HZ CLR 04/01 A3013 440 79 -600 140/09 RMK AO2
14840KMKG MKG20071111001509511/11/07 00:15:31  5-MIN KMKG 110515Z 13008KT 5SM HZ CLR 04/01 A3013 440 79 -600 140/08 RMK AO2
14840KMKG MKG20071111002009511/11/07 00:20:31  5-MIN KMKG 110520Z 13008KT 6SM HZ CLR 05/01 A3013 440 76 -600 140/08 RMK AO2
14840KMKG MKG20071111002509811/11/07 00:25:31  5-MIN KMKG 110525Z 14009KT 6SM HZ FEW110 05/01 A3012 440 76 -600 140/09 RMK AO2
14840KMKG MKG20071111003009811/11/07 00:30:31  5-MIN KMKG 110530Z 14009KT 6SM HZ FEW100 06/01 A3013 440 73 -500 150/09 RMK AO2
14840KMKG MKG20071111003509811/11/07 00:35:31  5-MIN KMKG 110535Z 14010KT 6SM HZ FEW110 06/01 A3012 440 73 -500 140/10 RMK AO2
14840KMKG MKG20071111004009811/11/07 00:40:31  5-MIN KMKG 110540Z 14010KT 6SM HZ FEW110 06/01 A3012 440 73 -500 140/10 RMK AO2
14840KMKG MKG20071111004509811/11/07 00:45:31  5-MIN KMKG 110545Z 14010KT 6SM HZ FEW100 06/01 A3012 440 73 -500 150/10 RMK AO2
14840KMKG MKG20071111005014011/11/07 00:50:31  5-MIN KMKG 110550Z 14011KT 6SM HZ SCT080 SCT100 06/01 A3013 440 73 -500 140/11 RMK AO2 SLP206 T00560011 10056 20033 53001
14840KMKG MKG20071111005513311/11/07 00:55:31  5-MIN KMKG 110555Z 14013KT 6SM HZ SCT075 06/01 A3011 450 73 -500 140/13 RMK AO2 SLP202 T00560011 10056 20033 58014
14840KMKG MKG20071111010009511/11/07 01:00:31  5-MIN KMKG 110600Z 14013KT 7SM FEW080 06/01 A3011 460 73 -500 150/13 RMK AO2
14840KMKG MKG20071111010509511/11/07 01:05:31  5-MIN KMKG 110605Z 14012KT 7SM FEW080 06/01 A3010 460 70 -500 150/12 RMK AO2
14840KMKG MKG20071111011009511/11/07 01:10:31  5-MIN KMKG 110610Z 15011KT 7SM FEW080 06/01 A3011 460 70 -500 150/11 RMK AO2
14840KMKG MKG20071111011510111/11/07 01:15:31  5-MIN KMKG 110615Z 14013G20KT 7SM FEW075 06/01 A3010 460 70 -500 150/13G20 RMK AO2
14840KMKG MKG20071111012009811/11/07 01:20:31  5-MIN KMKG 110620Z 14011G20KT 7SM CLR 06/01 A3009 470 70 -500 150/11G20 RMK AO2
14840KMKG MKG20071111012509211/11/07 01:25:31  5-MIN KMKG 110625Z 14012KT 7SM CLR 06/01 A3009 470 70 -500 150/12 RMK AO2
14840KMKG MKG20071111013009811/11/07 01:30:31  5-MIN KMKG 110630Z 14012G19KT 7SM CLR 06/01 A3009 470 70 -500 150/12G19 RMK AO2
14840KMKG MKG20071111013509811/11/07 01:35:31  5-MIN KMKG 110635Z 14012G19KT 7SM CLR 06/01 A3009 470 70 -500 150/12G19 RMK AO2
14840KMKG MKG20071111014009811/11/07 01:40:31  5-MIN KMKG 110640Z 15012G17KT 7SM CLR 06/01 A3009 470 70 -500 150/12G17 RMK AO2
14840KMKG MKG20071111014509811/11/07 01:45:31  5-MIN KMKG 110645Z 15010G18KT 7SM CLR 06/01 A3009 470 70 -500 150/10G18 RMK AO2
14840KMKG MKG20071111015011811/11/07 01:50:31  5-MIN KMKG 110650Z 15012G18KT 7SM FEW095 06/01 A3009 480 70 -500 150/12G18 RMK AO2 SLP193 T00560006
14840KMKG MKG20071111015511211/11/07 01:55:31  5-MIN KMKG 110655Z 15011KT 7SM SCT095 06/01 A3009 480 70 -500 160/11 RMK AO2 SLP193 T00560006
14840KMKG MKG20071111020009511/11/07 02:00:31  5-MIN KMKG 110700Z 15013KT 7SM SCT100 06/01 A3008 480 70 -500 150/13 RMK AO2
14840KMKG MKG20071111020509511/11/07 02:05:31  5-MIN KMKG 110705Z 15013KT 7SM SCT100 06/01 A3007 490 67 -400 150/13 RMK AO2
14840KMKG MKG20071111021010211/11/07 02:10:31  5-MIN KMKG 110710Z 14014KT 7SM SCT095 06/01 A3006 500 67 -400 150/14 RMK AO2 PRESFR
14840KMKG MKG20071111021510811/11/07 02:15:31  5-MIN KMKG 110715Z 15011G19KT 7SM SCT095 SCT120 06/01 A3007 490 67 -400 150/11G19 RMK AO2
14840KMKG MKG20071111022011711/11/07 02:20:31  5-MIN KMKG 110720Z 16011KT 7SM SCT095 BKN120 06/01 A3008 490 67 -400 160/11 RMK AO2 CIG 100 RWY 14
14840KMKG MKG20071111022510811/11/07 02:25:31  5-MIN KMKG 110725Z 15012G18KT 7SM SCT095 SCT120 06/01 A3008 490 67 -400 160/12G18 RMK AO2
14840KMKG MKG20071111023010811/11/07 02:30:31  5-MIN KMKG 110730Z 15012G18KT 7SM FEW100 SCT120 06/01 A3007 490 67 -400 160/12G18 RMK AO2
14840KMKG MKG20071111023509511/11/07 02:35:31  5-MIN KMKG 110735Z 15010KT 7SM FEW095 06/01 A3008 490 67 -400 160/10 RMK AO2
14840KMKG MKG20071111024010111/11/07 02:40:31  5-MIN KMKG 110740Z 16009G17KT 7SM FEW095 06/01 A3009 480 67 -400 170/09G17 RMK AO2
14840KMKG MKG20071111024510111/11/07 02:45:31  5-MIN KMKG 110745Z 16008G17KT 7SM FEW095 06/01 A3009 470 67 -400 160/08G17 RMK AO2
14840KMKG MKG20071111025011211/11/07 02:50:31  5-MIN KMKG 110750Z 16011KT 7SM SCT090 06/01 A3009 480 67 -400 160/11 RMK AO2 SLP192 T00610006
14840KMKG MKG20071111025511211/11/07 02:55:31  5-MIN KMKG 110755Z 16010KT 7SM FEW090 06/01 A3009 480 67 -400 170/10 RMK AO2 SLP192 T00610006
14840KMKG MKG20071111030009511/11/07 03:00:31  5-MIN KMKG 110800Z 15011KT 7SM FEW090 06/01 A3008 480 70 -500 160/11 RMK AO2
14840KMKG MKG20071111030509511/11/07 03:05:31  5-MIN KMKG 110805Z 16009KT 7SM FEW095 06/01 A3008 480 70 -500 160/09 RMK AO2
14840KMKG MKG20071111031009511/11/07 03:10:31  5-MIN KMKG 110810Z 16010KT 7SM SCT095 06/01 A3008 480 70 -500 160/10 RMK AO2
14840KMKG MKG20071111031509511/11/07 03:15:31  5-MIN KMKG 110815Z 15010KT 7SM SCT090 06/01 A3008 480 70 -500 160/10 RMK AO2
14840KMKG MKG20071111032010211/11/07 03:20:31  5-MIN KMKG 110820Z 15010KT 7SM FEW070 SCT095 06/01 A3008 480 70 -500 160/10 RMK AO2
14840KMKG MKG20071111032510211/11/07 03:25:31  5-MIN KMKG 110825Z 15010KT 7SM FEW070 SCT100 06/01 A3008 490 70 -400 160/10 RMK AO2
14840KMKG MKG20071111033010211/11/07 03:30:31  5-MIN KMKG 110830Z 16009KT 7SM FEW070 BKN095 06/01 A3008 490 70 -400 160/09 RMK AO2
14840KMKG MKG20071111033510211/11/07 03:35:31  5-MIN KMKG 110835Z 15011KT 7SM FEW070 BKN095 06/01 A3007 490 70 -400 160/11 RMK AO2
14840KMKG MKG20071111034010211/11/07 03:40:31  5-MIN KMKG 110840Z 16009KT 7SM FEW070 BKN090 06/01 A3007 490 70 -400 160/09 RMK AO2
14840KMKG MKG20071111034510211/11/07 03:45:31  5-MIN KMKG 110845Z 16011KT 7SM FEW070 BKN090 06/01 A3007 490 70 -400 170/11 RMK AO2
14840KMKG MKG20071111035011811/11/07 03:50:31  5-MIN KMKG 110850Z 16011KT 7SM BKN090 06/01 A3007 490 70 -400 160/11 RMK AO2 SLP187 T00560006 58014
14840KMKG MKG20071111035511811/11/07 03:55:31  5-MIN KMKG 110855Z 16010KT 7SM OVC090 06/01 A3007 490 70 -400 160/10 RMK AO2 SLP188 T00560006 56014
14840KMKG MKG20071111040009511/11/07 04:00:31  5-MIN KMKG 110900Z 15010KT 7SM OVC090 06/01 A3007 490 70 -400 160/10 RMK AO2
14840KMKG MKG20071111040509511/11/07 04:05:31  5-MIN KMKG 110905Z 15009KT 7SM OVC085 06/01 A3007 490 70 -400 160/09 RMK AO2
14840KMKG MKG20071111041010811/11/07 04:10:31  5-MIN KMKG 110910Z 16011G15KT 7SM SCT060 OVC085 06/01 A3008 490 70 -400 160/11G15 RMK AO2
14840KMKG MKG20071111041510211/11/07 04:15:31  5-MIN KMKG 110915Z 15008KT 7SM BKN060 OVC090 06/01 A3007 490 70 -400 160/08 RMK AO2
14840KMKG MKG20071111042011711/11/07 04:20:31  5-MIN KMKG 110920Z 15010KT 7SM SCT060 OVC080 06/01 A3006 500 70 -400 160/10 RMK AO2 CIG 060 RWY 14
14840KMKG MKG20071111042510211/11/07 04:25:31  5-MIN KMKG 110925Z 15011KT 7SM SCT065 OVC080 06/01 A3006 500 70 -400 150/11 RMK AO2
14840KMKG MKG20071111043010911/11/07 04:30:31  5-MIN KMKG 110930Z 15011KT 7SM SCT060 OVC080 06/01 A3005 510 70 -400 160/11 RMK AO2 PRESFR
14840KMKG MKG20071111043510211/11/07 04:35:31  5-MIN KMKG 110935Z 15010KT 7SM SCT060 OVC080 06/01 A3005 510 70 -400 160/10 RMK AO2
14840KMKG MKG20071111044009511/11/07 04:40:31  5-MIN KMKG 110940Z 15009KT 7SM OVC075 06/01 A3005 510 70 -400 160/09 RMK AO2
14840KMKG MKG20071111044509511/11/07 04:45:31  5-MIN KMKG 110945Z 15008KT 7SM OVC075 06/01 A3005 510 70 -400 150/08 RMK AO2
14840KMKG MKG20071111045011211/11/07 04:50:31  5-MIN KMKG 110950Z 16011KT 7SM OVC075 06/01 A3005 510 70 -400 160/11 RMK AO2 SLP181 T00560006
14840KMKG MKG20071111045511211/11/07 04:55:31  5-MIN KMKG 110955Z 16011KT 7SM OVC075 06/01 A3005 510 70 -400 170/11 RMK AO2 SLP181 T00560006
14840KMKG MKG20071111050011311/11/07 05:00:31  5-MIN KMKG 111000Z 15011KT 7SM -RA OVC070 06/01 A3005 510 70 -400 160/11 RMK AO2 RAB0956 P0000
14840KMKG MKG20071111050511311/11/07 05:05:31  5-MIN KMKG 111005Z 15009KT 7SM -RA OVC070 06/01 A3005 510 73 -400 160/09 RMK AO2 RAB0956 P0000
14840KMKG MKG20071111051011311/11/07 05:10:31  5-MIN KMKG 111010Z 16011KT 6SM -RA OVC070 06/01 A3004 520 73 -400 160/11 RMK AO2 RAB0956 P0000
14840KMKG MKG20071111051511311/11/07 05:15:31  5-MIN KMKG 111015Z 15010KT 6SM -RA OVC070 05/01 A3004 520 76 -500 160/10 RMK AO2 RAB0956 P0000
14840KMKG MKG20071111052011311/11/07 05:20:31  5-MIN KMKG 111020Z 15009KT 6SM -RA OVC070 05/01 A3004 520 76 -500 160/09 RMK AO2 RAB0956 P0000
14840KMKG MKG20071111052511311/11/07 05:25:31  5-MIN KMKG 111025Z 15009KT 7SM -RA OVC065 05/01 A3004 520 76 -500 150/09 RMK AO2 RAB0956 P0000
14840KMKG MKG20071111053011311/11/07 05:30:31  5-MIN KMKG 111030Z 16009KT 7SM -RA OVC065 05/01 A3004 520 76 -500 160/09 RMK AO2 RAB0956 P0000
14840KMKG MKG20071111053511211/11/07 05:35:31  5-MIN KMKG 111035Z 15009KT 7SM OVC065 06/01 A3004 520 73 -400 150/09 RMK AO2 RAB0956E31 P0000
14840KMKG MKG20071111054011211/11/07 05:40:31  5-MIN KMKG 111040Z 16008KT 7SM OVC060 06/01 A3004 520 73 -400 160/08 RMK AO2 RAB0956E31 P0000
14840KMKG MKG20071111054511211/11/07 05:45:31  5-MIN KMKG 111045Z 15010KT 7SM OVC060 06/01 A3004 520 73 -400 160/10 RMK AO2 RAB0956E31 P0000
14840KMKG MKG20071111055012911/11/07 05:50:31  5-MIN KMKG 111050Z 15010KT 7SM OVC060 06/01 A3004 520 73 -400 150/10 RMK AO2 RAB0956E31 SLP176 P0000 T00560011
14840KMKG MKG20071111055512911/11/07 05:55:31  5-MIN KMKG 111055Z 15010KT 7SM OVC060 06/01 A3004 520 73 -400 150/10 RMK AO2 RAB0956E31 SLP177 P0000 T00560011
14840KMKG MKG20071111060009511/11/07 06:00:31  5-MIN KMKG 111100Z 15008KT 7SM OVC055 06/01 A3004 520 73 -400 150/08 RMK AO2
14840KMKG MKG20071111060509511/11/07 06:05:31  5-MIN KMKG 111105Z 15008KT 7SM OVC055 06/01 A3004 520 73 -400 150/08 RMK AO2
14840KMKG MKG20071111061009511/11/07 06:10:31  5-MIN KMKG 111110Z 15009KT 7SM OVC055 06/01 A3004 520 73 -400 150/09 RMK AO2
14840KMKG MKG20071111061509511/11/07 06:15:31  5-MIN KMKG 111115Z 16009KT 7SM OVC055 06/01 A3004 520 73 -400 160/09 RMK AO2
14840KMKG MKG20071111062009511/11/07 06:20:31  5-MIN KMKG 111120Z 15011KT 7SM OVC050 06/01 A3004 520 73 -400 150/11 RMK AO2
14840KMKG MKG20071111062510211/11/07 06:25:31  5-MIN KMKG 111125Z 15009KT 7SM BKN045 OVC055 06/01 A3004 520 73 -400 160/09 RMK AO2
14840KMKG MKG20071111063010211/11/07 06:30:31  5-MIN KMKG 111130Z 15011KT 7SM BKN045 OVC055 06/01 A3004 520 73 -400 160/11 RMK AO2
14840KMKG MKG20071111063510211/11/07 06:35:31  5-MIN KMKG 111135Z 16011KT 7SM BKN045 OVC055 06/01 A3004 520 73 -400 160/11 RMK AO2
14840KMKG MKG20071111064010211/11/07 06:40:31  5-MIN KMKG 111140Z 16012KT 7SM BKN041 OVC049 06/01 A3003 530 70 -300 160/12 RMK AO2
14840KMKG MKG20071111064509511/11/07 06:45:31  5-MIN KMKG 111145Z 16010KT 8SM OVC041 06/01 A3004 520 70 -300 160/10 RMK AO2
14840KMKG MKG20071111065013611/11/07 06:50:31  5-MIN KMKG 111150Z 16013KT 8SM OVC040 06/01 A3003 530 70 -300 160/13 RMK AO2 SLP175 60000 T00610011 10061 20050 56014
14840KMKG MKG20071111065513611/11/07 06:55:31  5-MIN KMKG 111155Z 16014KT 8SM OVC040 06/01 A3003 530 70 -300 160/14 RMK AO2 SLP175 60000 T00610011 10061 20050 56012
14840KMKG MKG20071111070010811/11/07 07:00:31  5-MIN KMKG 111200Z 16012G19KT 9SM BKN040 OVC046 06/02 A3003 530 73 -300 160/12G19 RMK AO2
14840KMKG MKG20071111070510111/11/07 07:05:31  5-MIN KMKG 111205Z 17013G19KT 9SM OVC040 06/02 A3003 530 73 -300 170/13G19 RMK AO2
14840KMKG MKG20071111071009511/11/07 07:10:31  5-MIN KMKG 111210Z 16009KT 9SM OVC038 06/02 A3003 530 73 -300 160/09 RMK AO2
14840KMKG MKG20071111071509511/11/07 07:15:31  5-MIN KMKG 111215Z 15009KT 9SM OVC038 06/02 A3003 530 73 -300 150/09 RMK AO2
14840KMKG MKG20071111072009511/11/07 07:20:31  5-MIN KMKG 111220Z 15012KT 9SM OVC038 06/02 A3002 540 73 -300 160/12 RMK AO2
14840KMKG MKG20071111072509511/11/07 07:25:31  5-MIN KMKG 111225Z 16012KT 9SM OVC040 06/02 A3003 530 73 -300 170/12 RMK AO2
14840KMKG MKG20071111073011711/11/07 07:30:31  5-MIN KMKG 111230Z 17010G16KT 140V200 9SM OVC040 06/02 A3003 530 73 -300 170/10G16 140V200 RMK AO2
14840KMKG MKG20071111073510211/11/07 07:35:31  5-MIN KMKG 111235Z 16012G19KT 10SM OVC040 06/02 A3003 530 73 -300 160/12G19 RMK AO2
14840KMKG MKG20071111074010211/11/07 07:40:31  5-MIN KMKG 111240Z 16009G19KT 10SM OVC040 06/02 A3003 530 73 -300 160/09G19 RMK AO2
14840KMKG MKG20071111074510211/11/07 07:45:31  5-MIN KMKG 111245Z 16011KT 9SM FEW035 OVC043 06/02 A3002 530 73 -300 160/11 RMK AO2
14840KMKG MKG20071111075011911/11/07 07:50:31  5-MIN KMKG 111250Z 15011KT 8SM FEW034 OVC043 06/02 A3003 530 73 -300 160/11 RMK AO2 SLP172 T00610017
14840KMKG MKG20071111075511211/11/07 07:55:31  5-MIN KMKG 111255Z 16012KT 8SM OVC041 06/02 A3003 530 73 -300 160/12 RMK AO2 SLP172 T00610017
14840KMKG MKG20071111080010111/11/07 08:00:31  5-MIN KMKG 111300Z 16011G18KT 8SM OVC041 06/02 A3003 530 73 -300 160/11G18 RMK AO2
14840KMKG MKG20071111080510211/11/07 08:05:31  5-MIN KMKG 111305Z 16011KT 8SM FEW027 OVC041 06/02 A3002 530 73 -300 160/11 RMK AO2
14840KMKG MKG20071111081010211/11/07 08:10:31  5-MIN KMKG 111310Z 15010KT 8SM BKN027 OVC041 06/02 A3002 540 73 -300 160/10 RMK AO2
14840KMKG MKG20071111081510811/11/07 08:15:31  5-MIN KMKG 111315Z 15010G17KT 7SM BKN029 OVC041 06/02 A3002 540 73 -300 150/10G17 RMK AO2
14840KMKG MKG20071111082010911/11/07 08:20:31  5-MIN KMKG 111320Z 16010KT 7SM BKN027 BKN032 OVC041 06/02 A3002 540 73 -300 170/10 RMK AO2
14840KMKG MKG20071111082510211/11/07 08:25:31  5-MIN KMKG 111325Z 15011KT 7SM BKN025 OVC030 06/02 A3002 540 73 -300 160/11 RMK AO2
14840KMKG MKG20071111083010811/11/07 08:30:31  5-MIN KMKG 111330Z 15012G18KT 7SM BKN023 OVC030 06/02 A3002 540 73 -300 160/12G18 RMK AO2
14840KMKG MKG20071111083510811/11/07 08:35:31  5-MIN KMKG 111335Z 16012G18KT 7SM BKN021 OVC027 06/02 A3002 540 73 -300 160/12G18 RMK AO2
14840KMKG MKG20071111084010811/11/07 08:40:31  5-MIN KMKG 111340Z 16009G18KT 7SM BKN021 OVC029 06/02 A3002 540 73 -300 160/09G18 RMK AO2
14840KMKG MKG20071111084509511/11/07 08:45:31  5-MIN KMKG 111345Z 16010KT 7SM OVC021 06/02 A3002 540 73 -300 170/10 RMK AO2
14840KMKG MKG20071111085011811/11/07 08:50:31  5-MIN KMKG 111350Z 17011G17KT 7SM OVC019 06/02 A3002 540 73 -300 170/11G17 RMK AO2 SLP170 T00610017
14840KMKG MKG20071111085511211/11/07 08:55:31  5-MIN KMKG 111355Z 16012KT 8SM OVC019 06/02 A3002 540 73 -300 160/12 RMK AO2 SLP170 T00610017
14840KMKG MKG20071111090010111/11/07 09:00:31  5-MIN KMKG 111400Z 16009G16KT 8SM OVC019 06/02 A3002 540 73 -300 170/09G16 RMK AO2
14840KMKG MKG20071111090509511/11/07 09:05:31  5-MIN KMKG 111405Z 16012KT 8SM OVC019 06/02 A3002 540 73 -300 170/12 RMK AO2
14840KMKG MKG20071111091009511/11/07 09:10:31  5-MIN KMKG 111410Z 16012KT 8SM OVC019 06/02 A3002 540 73 -300 160/12 RMK AO2
14840KMKG MKG20071111091510111/11/07 09:15:31  5-MIN KMKG 111415Z 16008G16KT 8SM OVC017 06/02 A3002 540 73 -300 170/08G16 RMK AO2
14840KMKG MKG20071111092010111/11/07 09:20:31  5-MIN KMKG 111420Z 16012G17KT 7SM OVC017 06/02 A3002 540 73 -300 160/12G17 RMK AO2
14840KMKG MKG20071111092510111/11/07 09:25:31  5-MIN KMKG 111425Z 16008G17KT 7SM OVC017 06/02 A3002 540 76 -300 170/08G17 RMK AO2
14840KMKG MKG20071111093010411/11/07 09:30:31  5-MIN KMKG 111430Z 16013G17KT 6SM HZ OVC017 06/02 A3002 540 76 -300 160/13G17 RMK AO2
14840KMKG MKG20071111093510411/11/07 09:35:31  5-MIN KMKG 111435Z 15012G17KT 5SM HZ OVC017 06/02 A3002 540 76 -300 160/12G17 RMK AO2
14840KMKG MKG20071111094009811/11/07 09:40:31  5-MIN KMKG 111440Z 17008KT 4SM HZ OVC015 06/02 A3002 540 79 -400 180/08 RMK AO2
14840KMKG MKG20071111094509811/11/07 09:45:31  5-MIN KMKG 111445Z 15012KT 4SM HZ OVC015 06/02 A3001 540 79 -400 160/12 RMK AO2
14840KMKG MKG20071111095012111/11/07 09:50:31  5-MIN KMKG 111450Z 15010KT 3SM HZ OVC015 06/03 A3001 540 82 -400 160/10 RMK AO2 SLP168 T00560028 56012
14840KMKG MKG20071111095512111/11/07 09:55:31  5-MIN KMKG 111455Z 15010KT 3SM HZ OVC015 06/03 A3001 550 82 -400 150/10 RMK AO2 SLP168 T00560028 56007
14840KMKG MKG20071111100009811/11/07 10:00:31  5-MIN KMKG 111500Z 16007KT 3SM HZ OVC015 06/03 A3001 550 82 -400 170/07 RMK AO2
14840KMKG MKG20071111100511111/11/07 10:05:31  5-MIN KMKG 111505Z 15008KT 3SM -RA OVC015 06/03 A3001 550 82 -400 160/08 RMK AO2 RAB02 P0000
14840KMKG MKG20071111101011111/11/07 10:10:31  5-MIN KMKG 111510Z 16007KT 3SM -RA OVC013 06/03 A3001 550 82 -400 170/07 RMK AO2 RAB02 P0000
14840KMKG MKG20071111101511311/11/07 10:15:31  5-MIN KMKG 111515Z 15007KT 3SM HZ OVC013 06/03 A3001 550 82 -400 160/07 RMK AO2 RAB02E13 P0000
14840KMKG MKG20071111102011311/11/07 10:20:31  5-MIN KMKG 111520Z 15008KT 3SM HZ OVC013 06/03 A3001 550 82 -400 160/08 RMK AO2 RAB02E13 P0000
14840KMKG MKG20071111102512311/11/07 10:25:31  5-MIN KMKG 111525Z 15007KT 2 1/2SM -DZ OVC013 06/03 A3001 550 85 -400 150/07 RMK AO2 RAB02E13DZB25 P0000
14840KMKG MKG20071111103012311/11/07 10:30:31  5-MIN KMKG 111530Z 15009KT 2 1/2SM -DZ OVC013 06/03 A3001 550 85 -400 150/09 RMK AO2 RAB02E13DZB25 P0000
14840KMKG MKG20071111103514011/11/07 10:35:31  5-MIN KMKG 111535Z 15007KT 2 1/2SM -DZ OVC013 06/03 A3001 550 85 -400 150/07 RMK AO2 VIS 1 3/4 RWY 14 RAB02E13DZB25 P0000
14840KMKG MKG20071111104014011/11/07 10:40:31  5-MIN KMKG 111540Z 15007KT 2 1/2SM -DZ OVC013 06/03 A3001 550 85 -400 160/07 RMK AO2 VIS 1 3/4 RWY 14 RAB02E13DZB25 P0000
14840KMKG MKG20071111104514011/11/07 10:45:31  5-MIN KMKG 111545Z 15007KT 2 1/2SM -DZ OVC013 06/03 A3001 550 85 -400 160/07 RMK AO2 VIS 1 3/4 RWY 14 RAB02E13DZB25 P0000
14840KMKG MKG20071111105014011/11/07 10:50:31  5-MIN KMKG 111550Z 15007KT 2 1/2SM -DZ OVC013 06/03 A3001 550 85 -400 150/07 RMK AO2 RAB02E13DZB25 SLP166 P0000 T00560033
14840KMKG MKG20071111105514011/11/07 10:55:31  5-MIN KMKG 111555Z 15007KT 2 1/2SM -DZ OVC013 06/03 A3000 550 85 -400 150/07 RMK AO2 RAB02E13DZB25 SLP165 P0000 T00560033
14840KMKG MKG20071111110010911/11/07 11:00:31  5-MIN KMKG 111600Z 14007KT 2 1/2SM -DZ OVC013 06/03 A3000 560 85 -400 150/07 RMK AO2 P0000
14840KMKG MKG20071111110510911/11/07 11:05:31  5-MIN KMKG 111605Z 14007KT 2 1/2SM -DZ OVC013 06/03 A3000 560 85 -400 140/07 RMK AO2 P0000
14840KMKG MKG20071111111010911/11/07 11:10:31  5-MIN KMKG 111610Z 15006KT 2 1/2SM -DZ OVC013 06/03 A3000 550 85 -400 150/06 RMK AO2 P0000
14840KMKG MKG20071111111510911/11/07 11:15:31  5-MIN KMKG 111615Z 14006KT 2 1/2SM -DZ OVC013 06/04 A3000 560 89 -400 150/06 RMK AO2 P0000
14840KMKG MKG20071111112010511/11/07 11:20:31  5-MIN KMKG 111620Z 15007KT 2SM -DZ OVC013 06/04 A3000 560 89 -400 150/07 RMK AO2 P0000
14840KMKG MKG20071111112510511/11/07 11:25:31  5-MIN KMKG 111625Z 15008KT 2SM -DZ OVC013 06/04 A3000 560 89 -400 150/08 RMK AO2 P0000
14840KMKG MKG20071111113010511/11/07 11:30:31  5-MIN KMKG 111630Z 16008KT 2SM -DZ OVC013 06/04 A3000 560 89 -400 160/08 RMK AO2 P0000
14840KMKG MKG20071111113510511/11/07 11:35:31  5-MIN KMKG 111635Z 15007KT 2SM -DZ OVC013 06/04 A3000 560 89 -400 160/07 RMK AO2 P0000
14840KMKG MKG20071111114010511/11/07 11:40:31  5-MIN KMKG 111640Z 15007KT 2SM -DZ OVC013 06/04 A3000 560 89 -400 160/07 RMK AO2 P0000
14840KMKG MKG20071111114510511/11/07 11:45:31  5-MIN KMKG 111645Z 15006KT 2SM -DZ OVC013 06/04 A3000 560 89 -400 160/06 RMK AO2 P0000
14840KMKG MKG20071111115012211/11/07 11:50:31  5-MIN KMKG 111650Z 14006KT 2SM -DZ OVC013 06/04 A3000 560 89 -400 150/06 RMK AO2 SLP162 P0000 T00560039
14840KMKG MKG20071111115512611/11/07 11:55:31  5-MIN KMKG 111655Z 14006KT 1 3/4SM -DZ OVC013 06/04 A2999 560 89 -400 150/06 RMK AO2 SLP161 P0000 T00560039
14840KMKG MKG20071111120010511/11/07 12:00:31  5-MIN KMKG 111700Z 15007KT 2SM -DZ OVC013 06/04 A2999 560 86 -300 160/07 RMK AO2 P0000
14840KMKG MKG20071111120510511/11/07 12:05:31  5-MIN KMKG 111705Z 15008KT 2SM -DZ OVC013 06/04 A2999 570 86 -300 150/08 RMK AO2 P0000
14840KMKG MKG20071111121010511/11/07 12:10:31  5-MIN KMKG 111710Z 15006KT 2SM -DZ OVC013 06/04 A2999 570 86 -300 150/06 RMK AO2 P0000
14840KMKG MKG20071111121510511/11/07 12:15:31  5-MIN KMKG 111715Z 15007KT 2SM -DZ OVC013 06/04 A2999 570 86 -300 150/07 RMK AO2 P0000
14840KMKG MKG20071111122010911/11/07 12:20:31  5-MIN KMKG 111720Z 15006KT 2 1/2SM -DZ OVC013 06/04 A2999 570 86 -300 160/06 RMK AO2 P0000
14840KMKG MKG20071111122510511/11/07 12:25:31  5-MIN KMKG 111725Z 15008KT 3SM -DZ OVC013 06/04 A2998 570 86 -300 150/08 RMK AO2 P0000
14840KMKG MKG20071111123012211/11/07 12:30:31  5-MIN KMKG 111730Z 15007KT 3SM -DZ OVC013 06/04 A2998 580 86 -300 160/07 RMK AO2 VIS 2 1/2 RWY 14 P0000
14840KMKG MKG20071111123510511/11/07 12:35:31  5-MIN KMKG 111735Z 14007KT 4SM -DZ OVC013 06/04 A2997 580 86 -300 150/07 RMK AO2 P0000
14840KMKG MKG20071111124010511/11/07 12:40:31  5-MIN KMKG 111740Z 16006KT 4SM -DZ OVC013 06/04 A2997 580 86 -300 160/06 RMK AO2 P0000
14840KMKG MKG20071111124510511/11/07 12:45:31  5-MIN KMKG 111745Z 16009KT 4SM -DZ OVC013 06/04 A2997 580 86 -300 160/09 RMK AO2 P0000
14840KMKG MKG20071111125014611/11/07 12:50:31  5-MIN KMKG 111750Z 15008KT 5SM -DZ OVC013 06/04 A2997 580 86 -300 150/08 RMK AO2 SLP154 P0000 60000 T00610039 10061 20056 56007
14840KMKG MKG20071111125514611/11/07 12:55:31  5-MIN KMKG 111755Z 15008KT 5SM -DZ OVC013 06/04 A2997 590 86 -300 160/08 RMK AO2 SLP152 P0000 60000 T00610039 10061 20056 58015
14840KMKG MKG20071111130010511/11/07 13:00:31  5-MIN KMKG 111800Z 15010KT 5SM -DZ OVC013 06/04 A2996 590 86 -300 150/10 RMK AO2 P0000
14840KMKG MKG20071111130510511/11/07 13:05:31  5-MIN KMKG 111805Z 15007KT 5SM -DZ OVC013 07/04 A2996 600 82 -200 160/07 RMK AO2 P0000
14840KMKG MKG20071111131010511/11/07 13:10:31  5-MIN KMKG 111810Z 15008KT 5SM -DZ OVC013 07/04 A2996 590 82 -200 160/08 RMK AO2 P0000
14840KMKG MKG20071111131510511/11/07 13:15:31  5-MIN KMKG 111815Z 16008KT 5SM -DZ OVC013 07/04 A2996 600 82 -200 160/08 RMK AO2 P0000
14840KMKG MKG20071111132010511/11/07 13:20:31  5-MIN KMKG 111820Z 16008KT 5SM -DZ OVC013 07/04 A2995 600 82 -200 160/08 RMK AO2 P0000
14840KMKG MKG20071111132510511/11/07 13:25:31  5-MIN KMKG 111825Z 15011KT 5SM -DZ OVC013 07/04 A2995 600 82 -200 150/11 RMK AO2 P0000
14840KMKG MKG20071111133011011/11/07 13:30:31  5-MIN KMKG 111830Z 15011KT 5SM HZ OVC013 07/04 A2995 610 82 -200 160/11 RMK AO2 DZE29 P0000
14840KMKG MKG20071111133511011/11/07 13:35:31  5-MIN KMKG 111835Z 15008KT 5SM HZ OVC013 07/04 A2995 610 82 -200 160/08 RMK AO2 DZE29 P0000
14840KMKG MKG20071111134011011/11/07 13:40:31  5-MIN KMKG 111840Z 15009KT 5SM HZ OVC013 07/04 A2994 610 82 -200 150/09 RMK AO2 DZE29 P0000
14840KMKG MKG20071111134511011/11/07 13:45:31  5-MIN KMKG 111845Z 16008KT 6SM HZ OVC013 07/04 A2994 610 82 -200 160/08 RMK AO2 DZE29 P0000
14840KMKG MKG20071111135012711/11/07 13:50:31  5-MIN KMKG 111850Z 16008KT 6SM HZ OVC013 07/04 A2994 610 82 -200 170/08 RMK AO2 DZE29 SLP144 P0000 T00670039
14840KMKG MKG20071111135512711/11/07 13:55:31  5-MIN KMKG 111855Z 16008KT 6SM HZ OVC013 07/04 A2994 610 82 -200 160/08 RMK AO2 DZE29 SLP143 P0000 T00670039
14840KMKG MKG20071111140009811/11/07 14:00:31  5-MIN KMKG 111900Z 15008KT 6SM HZ OVC013 07/04 A2994 610 82 -200 160/08 RMK AO2
14840KMKG MKG20071111140509811/11/07 14:05:31  5-MIN KMKG 111905Z 15010KT 6SM HZ OVC013 07/04 A2993 620 82 -100 160/10 RMK AO2
14840KMKG MKG20071111141009811/11/07 14:10:31  5-MIN KMKG 111910Z 15011KT 6SM HZ OVC013 07/04 A2993 620 82 -100 160/11 RMK AO2
14840KMKG MKG20071111141509811/11/07 14:15:31  5-MIN KMKG 111915Z 16009KT 6SM HZ OVC013 07/04 A2993 620 82 -100 160/09 RMK AO2
14840KMKG MKG20071111142009811/11/07 14:20:31  5-MIN KMKG 111920Z 17009KT 6SM HZ OVC013 07/04 A2993 620 79 -100 170/09 RMK AO2
14840KMKG MKG20071111142509811/11/07 14:25:31  5-MIN KMKG 111925Z 16009KT 6SM HZ OVC013 07/04 A2993 620 79 -100 170/09 RMK AO2
14840KMKG MKG20071111143009811/11/07 14:30:31  5-MIN KMKG 111930Z 17008KT 6SM HZ OVC013 07/04 A2993 620 79 -100 170/08 RMK AO2
14840KMKG MKG20071111143509811/11/07 14:35:31  5-MIN KMKG 111935Z 16009KT 6SM HZ OVC013 07/04 A2993 620 79 -100 160/09 RMK AO2
14840KMKG MKG20071111144009811/11/07 14:40:31  5-MIN KMKG 111940Z 17009KT 6SM HZ OVC013 07/04 A2993 620 79 -100 170/09 RMK AO2
14840KMKG MKG20071111144509811/11/07 14:45:31  5-MIN KMKG 111945Z 16008KT 6SM HZ OVC013 07/04 A2993 630 79 -100 160/08 RMK AO2
14840KMKG MKG20071111145011511/11/07 14:50:31  5-MIN KMKG 111950Z 17007KT 6SM HZ OVC013 07/04 A2993 630 79 -100 180/07 RMK AO2 SLP137 T00720039
14840KMKG MKG20071111145511511/11/07 14:55:31  5-MIN KMKG 111955Z 17009KT 6SM HZ OVC013 07/04 A2993 620 79 -100 170/09 RMK AO2 SLP138 T00720039
14840KMKG MKG20071111150009811/11/07 15:00:31  5-MIN KMKG 112000Z 17009KT 6SM HZ OVC013 07/04 A2993 620 79 -100 170/09 RMK AO2
14840KMKG MKG20071111150509811/11/07 15:05:31  5-MIN KMKG 112005Z 17010KT 6SM HZ OVC013 07/04 A2993 620 79 -100 180/10 RMK AO2
14840KMKG MKG20071111151009811/11/07 15:10:31  5-MIN KMKG 112010Z 17010KT 6SM HZ OVC013 07/04 A2993 620 79 -100 180/10 RMK AO2
14840KMKG MKG20071111151509811/11/07 15:15:31  5-MIN KMKG 112015Z 17008KT 6SM HZ OVC013 07/04 A2993 630 79 -100 170/08 RMK AO2
14840KMKG MKG20071111152009811/11/07 15:20:31  5-MIN KMKG 112020Z 17006KT 6SM HZ OVC013 07/04 A2993 620 79 -100 170/06 RMK AO2
14840KMKG MKG20071111152509811/11/07 15:25:31  5-MIN KMKG 112025Z 16008KT 6SM HZ OVC013 07/04 A2993 620 79 -100 170/08 RMK AO2
14840KMKG MKG20071111153009811/11/07 15:30:31  5-MIN KMKG 112030Z 17011KT 6SM HZ OVC013 07/04 A2993 620 79 -100 170/11 RMK AO2
14840KMKG MKG20071111153509811/11/07 15:35:31  5-MIN KMKG 112035Z 17010KT 6SM HZ OVC013 07/04 A2993 620 79 -100 170/10 RMK AO2
14840KMKG MKG20071111154009811/11/07 15:40:31  5-MIN KMKG 112040Z 17009KT 6SM HZ OVC013 07/04 A2993 620 79 -100 170/09 RMK AO2
14840KMKG MKG20071111154509811/11/07 15:45:31  5-MIN KMKG 112045Z 18006KT 6SM HZ OVC013 07/04 A2993 620 79 -100 180/06 RMK AO2
14840KMKG MKG20071111155012711/11/07 15:50:31  5-MIN KMKG 112050Z 18008KT 6SM HZ OVC013 07/04 A2993 620 79 -100 180/08 RMK AO2 SLP140 60000 T00720039 58015
14840KMKG MKG20071111155512711/11/07 15:55:31  5-MIN KMKG 112055Z 17007KT 6SM HZ OVC013 07/04 A2994 620 79 -100 180/07 RMK AO2 SLP141 60000 T00720039 55011
14840KMKG MKG20071111160009811/11/07 16:00:31  5-MIN KMKG 112100Z 16006KT 6SM HZ OVC013 07/04 A2993 620 79 -100 160/06 RMK AO2
14840KMKG MKG20071111160509811/11/07 16:05:31  5-MIN KMKG 112105Z 16008KT 6SM HZ OVC013 07/04 A2994 620 79 -100 170/08 RMK AO2
14840KMKG MKG20071111161009811/11/07 16:10:31  5-MIN KMKG 112110Z 16007KT 6SM HZ OVC013 07/04 A2993 620 79 -100 160/07 RMK AO2
14840KMKG MKG20071111161509811/11/07 16:15:31  5-MIN KMKG 112115Z 16009KT 6SM HZ OVC013 07/04 A2993 620 79 -100 170/09 RMK AO2
14840KMKG MKG20071111162009811/11/07 16:20:31  5-MIN KMKG 112120Z 16009KT 5SM HZ OVC013 07/04 A2993 620 79 -100 160/09 RMK AO2
14840KMKG MKG20071111162509511/11/07 16:25:31  5-MIN KMKG 112125Z 16009KT 5SM HZ OVC013 08/04 A2993 620 79 0 160/09 RMK AO2
14840KMKG MKG20071111163009511/11/07 16:30:31  5-MIN KMKG 112130Z 16010KT 5SM HZ OVC013 08/04 A2993 620 76 0 160/10 RMK AO2
14840KMKG MKG20071111163509511/11/07 16:35:31  5-MIN KMKG 112135Z 16010KT 5SM HZ BKN013 08/04 A2993 620 79 0 170/10 RMK AO2
14840KMKG MKG20071111164009511/11/07 16:40:31  5-MIN KMKG 112140Z 15007KT 5SM HZ BKN013 08/04 A2993 620 79 0 160/07 RMK AO2
14840KMKG MKG20071111164509511/11/07 16:45:31  5-MIN KMKG 112145Z 15006KT 5SM HZ BKN013 08/04 A2993 620 79 0 160/06 RMK AO2
14840KMKG MKG20071111165011211/11/07 16:50:31  5-MIN KMKG 112150Z 15008KT 5SM HZ OVC013 08/04 A2993 620 79 0 160/08 RMK AO2 SLP139 T00780044
14840KMKG MKG20071111165511211/11/07 16:55:31  5-MIN KMKG 112155Z 16006KT 5SM HZ OVC013 08/04 A2994 620 76 0 160/06 RMK AO2 SLP141 T00780039
14840KMKG MKG20071111170009511/11/07 17:00:31  5-MIN KMKG 112200Z 15005KT 5SM HZ OVC013 08/04 A2994 610 76 0 150/05 RMK AO2
14840KMKG MKG20071111170509811/11/07 17:05:31  5-MIN KMKG 112205Z 15006KT 5SM HZ OVC013 07/04 A2994 620 79 -100 160/06 RMK AO2
14840KMKG MKG20071111171009811/11/07 17:10:31  5-MIN KMKG 112210Z 15006KT 5SM HZ OVC013 07/04 A2993 620 79 -100 150/06 RMK AO2
14840KMKG MKG20071111171509811/11/07 17:15:31  5-MIN KMKG 112215Z 15005KT 6SM HZ OVC013 07/04 A2994 620 79 -100 150/05 RMK AO2
14840KMKG MKG20071111172009811/11/07 17:20:31  5-MIN KMKG 112220Z 14005KT 6SM HZ OVC013 07/04 A2994 620 79 -100 150/05 RMK AO2
14840KMKG MKG20071111172509811/11/07 17:25:31  5-MIN KMKG 112225Z 15006KT 6SM HZ OVC013 07/04 A2994 610 79 -100 150/06 RMK AO2
14840KMKG MKG20071111173009511/11/07 17:30:31  5-MIN KMKG 112230Z 15005KT 7SM OVC013 07/04 A2994 610 79 -100 150/05 RMK AO2
14840KMKG MKG20071111173509511/11/07 17:35:31  5-MIN KMKG 112235Z 14005KT 7SM OVC013 07/04 A2995 610 79 -100 150/05 RMK AO2
14840KMKG MKG20071111174009511/11/07 17:40:31  5-MIN KMKG 112240Z 15004KT 7SM OVC013 07/04 A2995 610 79 -100 160/04 RMK AO2
14840KMKG MKG20071111174509511/11/07 17:45:31  5-MIN KMKG 112245Z 14005KT 7SM OVC013 07/04 A2995 610 79 -100 140/05 RMK AO2
14840KMKG MKG20071111175011211/11/07 17:50:31  5-MIN KMKG 112250Z 14005KT 7SM OVC013 07/04 A2994 610 82 -100 140/05 RMK AO2 SLP144 T00720044
14840KMKG MKG20071111175511211/11/07 17:55:31  5-MIN KMKG 112255Z 13006KT 7SM OVC013 07/04 A2994 610 79 -100 140/06 RMK AO2 SLP143 T00720039
14840KMKG MKG20071111180009511/11/07 18:00:31  5-MIN KMKG 112300Z 13007KT 7SM OVC013 07/04 A2994 610 82 -100 140/07 RMK AO2
14840KMKG MKG20071111180509511/11/07 18:05:31  5-MIN KMKG 112305Z 14008KT 7SM OVC013 07/04 A2994 610 79 -100 140/08 RMK AO2
14840KMKG MKG20071111181009511/11/07 18:10:31  5-MIN KMKG 112310Z 14007KT 7SM OVC013 07/04 A2994 610 79 -100 140/07 RMK AO2
14840KMKG MKG20071111181509511/11/07 18:15:31  5-MIN KMKG 112315Z 14009KT 7SM OVC013 07/04 A2994 610 79 -100 150/09 RMK AO2
14840KMKG MKG20071111182009511/11/07 18:20:31  5-MIN KMKG 112320Z 14008KT 7SM OVC013 07/04 A2994 610 79 -100 150/08 RMK AO2
14840KMKG MKG20071111182509511/11/07 18:25:31  5-MIN KMKG 112325Z 15008KT 7SM OVC013 07/04 A2994 610 82 -100 150/08 RMK AO2
14840KMKG MKG20071111183009511/11/07 18:30:31  5-MIN KMKG 112330Z 15007KT 7SM OVC013 07/04 A2994 610 82 -100 150/07 RMK AO2
14840KMKG MKG20071111183509811/11/07 18:35:31  5-MIN KMKG 112335Z 14009KT 6SM HZ OVC013 07/04 A2994 610 82 -100 150/09 RMK AO2
14840KMKG MKG20071111184009811/11/07 18:40:31  5-MIN KMKG 112340Z 15008KT 6SM HZ OVC013 07/04 A2994 610 82 -100 160/08 RMK AO2
14840KMKG MKG20071111184509511/11/07 18:45:31  5-MIN KMKG 112345Z 15008KT 6SM HZ OVC013 08/04 A2994 610 79 0 150/08 RMK AO2
14840KMKG MKG20071111185013911/11/07 18:50:31  5-MIN KMKG 112350Z 15008KT 6SM HZ BKN013 07/04 A2994 610 82 -100 150/08 RMK AO2 SLP142 60000 T00720044 10078 20061 55011
14840KMKG MKG20071111185513911/11/07 18:55:31  5-MIN KMKG 112355Z 15007KT 6SM HZ BKN013 07/04 A2994 610 82 -100 160/07 RMK AO2 SLP143 60000 T00720044 10078 20061 52002
14840KMKG MKG20071111190009811/11/07 19:00:31  5-MIN KMKG 120000Z 15007KT 6SM HZ BKN013 07/04 A2994 610 82 -100 160/07 RMK AO2
14840KMKG MKG20071111190509511/11/07 19:05:31  5-MIN KMKG 120005Z 15008KT 6SM HZ BKN013 08/04 A2994 610 79 0 160/08 RMK AO2
14840KMKG MKG20071111191009511/11/07 19:10:31  5-MIN KMKG 120010Z 15007KT 6SM HZ SCT013 08/04 A2995 600 79 0 160/07 RMK AO2
14840KMKG MKG20071111191509511/11/07 19:15:31  5-MIN KMKG 120015Z 16007KT 6SM HZ SCT013 08/04 A2995 600 79 0 160/07 RMK AO2
14840KMKG MKG20071111192009511/11/07 19:20:31  5-MIN KMKG 120020Z 15007KT 6SM HZ FEW013 08/04 A2995 600 79 0 160/07 RMK AO2
14840KMKG MKG20071111192509511/11/07 19:25:31  5-MIN KMKG 120025Z 16009KT 6SM HZ FEW013 08/04 A2995 600 79 0 160/09 RMK AO2
14840KMKG MKG20071111193009511/11/07 19:30:31  5-MIN KMKG 120030Z 16008KT 6SM HZ FEW013 08/04 A2995 600 79 0 160/08 RMK AO2
14840KMKG MKG20071111193510711/11/07 19:35:31  5-MIN KMKG 120035Z 16007KT 6SM HZ CLR 08/04 A2995 600 79 0 160/07 RMK AO2 CIG 015 RWY 14
14840KMKG MKG20071111194009511/11/07 19:40:31  5-MIN KMKG 120040Z 16008KT 6SM HZ FEW017 08/04 A2995 600 79 0 160/08 RMK AO2
14840KMKG MKG20071111194509511/11/07 19:45:31  5-MIN KMKG 120045Z 15007KT 6SM HZ FEW017 08/04 A2995 600 79 0 150/07 RMK AO2
14840KMKG MKG20071111195011211/11/07 19:50:31  5-MIN KMKG 120050Z 15007KT 6SM HZ FEW017 08/04 A2995 600 79 0 160/07 RMK AO2 SLP147 T00780044
14840KMKG MKG20071111195511211/11/07 19:55:31  5-MIN KMKG 120055Z 15008KT 6SM HZ SCT017 08/04 A2996 600 79 0 160/08 RMK AO2 SLP147 T00780044
14840KMKG MKG20071111200009511/11/07 20:00:31  5-MIN KMKG 120100Z 16007KT 6SM HZ SCT019 08/04 A2996 600 79 0 160/07 RMK AO2
14840KMKG MKG20071111200509511/11/07 20:05:31  5-MIN KMKG 120105Z 15008KT 6SM HZ BKN019 08/04 A2996 590 79 0 160/08 RMK AO2
14840KMKG MKG20071111201009511/11/07 20:10:31  5-MIN KMKG 120110Z 15008KT 6SM HZ BKN019 08/04 A2996 600 79 0 160/08 RMK AO2
14840KMKG MKG20071111201509511/11/07 20:15:31  5-MIN KMKG 120115Z 15008KT 6SM HZ OVC019 08/04 A2995 600 79 0 150/08 RMK AO2
14840KMKG MKG20071111202009511/11/07 20:20:31  5-MIN KMKG 120120Z 15009KT 6SM HZ OVC019 08/04 A2995 600 79 0 150/09 RMK AO2
14840KMKG MKG20071111202509511/11/07 20:25:31  5-MIN KMKG 120125Z 16009KT 6SM HZ OVC017 08/04 A2995 600 79 0 160/09 RMK AO2
14840KMKG MKG20071111203009511/11/07 20:30:31  5-MIN KMKG 120130Z 16009KT 6SM HZ BKN017 08/04 A2995 600 79 0 170/09 RMK AO2
14840KMKG MKG20071111203509511/11/07 20:35:31  5-MIN KMKG 120135Z 17009KT 6SM HZ BKN017 08/04 A2996 600 76 0 170/09 RMK AO2
14840KMKG MKG20071111204009511/11/07 20:40:31  5-MIN KMKG 120140Z 17008KT 6SM HZ SCT017 08/05 A2996 590 79 0 170/08 RMK AO2
14840KMKG MKG20071111204509511/11/07 20:45:31  5-MIN KMKG 120145Z 17008KT 6SM HZ BKN017 08/05 A2996 590 79 0 170/08 RMK AO2
14840KMKG MKG20071111205011211/11/07 20:50:31  5-MIN KMKG 120150Z 17008KT 6SM HZ BKN015 08/05 A2996 590 79 0 180/08 RMK AO2 SLP150 T00830050
14840KMKG MKG20071111205511211/11/07 20:55:31  5-MIN KMKG 120155Z 17008KT 6SM HZ BKN015 08/05 A2996 590 79 0 170/08 RMK AO2 SLP150 T00830050
14840KMKG MKG20071111210009511/11/07 21:00:31  5-MIN KMKG 120200Z 17008KT 6SM HZ BKN015 08/05 A2996 590 79 0 170/08 RMK AO2
14840KMKG MKG20071111210509511/11/07 21:05:31  5-MIN KMKG 120205Z 17009KT 6SM HZ OVC015 08/05 A2996 590 79 0 170/09 RMK AO2
14840KMKG MKG20071111211009511/11/07 21:10:31  5-MIN KMKG 120210Z 17009KT 6SM HZ OVC015 08/05 A2996 590 79 0 170/09 RMK AO2
14840KMKG MKG20071111211509511/11/07 21:15:31  5-MIN KMKG 120215Z 17009KT 6SM HZ OVC015 08/05 A2996 590 79 0 170/09 RMK AO2
14840KMKG MKG20071111212009511/11/07 21:20:31  5-MIN KMKG 120220Z 17009KT 6SM HZ OVC015 08/05 A2996 590 79 0 170/09 RMK AO2
14840KMKG MKG20071111212509511/11/07 21:25:31  5-MIN KMKG 120225Z 17008KT 6SM HZ OVC015 08/05 A2996 590 79 0 170/08 RMK AO2
14840KMKG MKG20071111213009511/11/07 21:30:31  5-MIN KMKG 120230Z 17010KT 6SM HZ OVC015 08/05 A2996 590 79 0 170/10 RMK AO2
14840KMKG MKG20071111213509511/11/07 21:35:31  5-MIN KMKG 120235Z 16009KT 6SM HZ OVC015 08/05 A2996 590 79 0 170/09 RMK AO2
14840KMKG MKG20071111214009511/11/07 21:40:31  5-MIN KMKG 120240Z 16008KT 6SM HZ OVC015 08/05 A2996 590 79 0 170/08 RMK AO2
14840KMKG MKG20071111214509511/11/07 21:45:31  5-MIN KMKG 120245Z 17008KT 6SM HZ OVC015 08/05 A2997 590 79 0 170/08 RMK AO2
14840KMKG MKG20071111215011811/11/07 21:50:31  5-MIN KMKG 120250Z 16009KT 6SM HZ OVC015 09/06 A2996 590 79 0 170/09 RMK AO2 SLP150 T00890056 52002
14840KMKG MKG20071111215511811/11/07 21:55:31  5-MIN KMKG 120255Z 16009KT 6SM HZ OVC017 09/06 A2996 590 79 0 170/09 RMK AO2 SLP150 T00890056 51007
14840KMKG MKG20071111220009511/11/07 22:00:31  5-MIN KMKG 120300Z 16008KT 6SM HZ OVC020 09/06 A2996 590 79 0 160/08 RMK AO2
14840KMKG MKG20071111220509511/11/07 22:05:31  5-MIN KMKG 120305Z 16009KT 6SM HZ OVC020 09/06 A2996 590 79 0 170/09 RMK AO2
14840KMKG MKG20071111221009511/11/07 22:10:31  5-MIN KMKG 120310Z 16009KT 6SM HZ OVC020 09/06 A2996 590 79 0 170/09 RMK AO2
14840KMKG MKG20071111221509511/11/07 22:15:31  5-MIN KMKG 120315Z 16009KT 6SM HZ OVC020 09/06 A2996 590 79 0 170/09 RMK AO2
14840KMKG MKG20071111222009511/11/07 22:20:31  5-MIN KMKG 120320Z 17011KT 6SM HZ OVC022 09/06 A2996 590 79 0 170/11 RMK AO2
14840KMKG MKG20071111222509511/11/07 22:25:31  5-MIN KMKG 120325Z 16007KT 6SM HZ OVC022 09/06 A2996 590 79 0 170/07 RMK AO2
14840KMKG MKG20071111223009511/11/07 22:30:31  5-MIN KMKG 120330Z 16007KT 6SM HZ OVC022 09/06 A2996 590 79 0 160/07 RMK AO2
14840KMKG MKG20071111223509711/11/07 22:35:31  5-MIN KMKG 120335Z 16010KT 6SM HZ OVC022 09/06 A2996 590 76 100 160/10 RMK AO2
14840KMKG MKG20071111224009711/11/07 22:40:31  5-MIN KMKG 120340Z 16010KT 6SM HZ OVC022 09/06 A2996 590 76 100 170/10 RMK AO2
14840KMKG MKG20071111224509711/11/07 22:45:31  5-MIN KMKG 120345Z 16008KT 6SM HZ BKN022 09/06 A2996 590 76 100 160/08 RMK AO2
14840KMKG MKG20071111225011411/11/07 22:50:31  5-MIN KMKG 120350Z 16008KT 6SM HZ BKN022 09/06 A2996 590 76 100 160/08 RMK AO2 SLP149 T00940056
14840KMKG MKG20071111225511411/11/07 22:55:31  5-MIN KMKG 120355Z 16009KT 6SM HZ BKN024 09/06 A2996 590 76 100 170/09 RMK AO2 SLP150 T00940056
14840KMKG MKG20071111230009711/11/07 23:00:31  5-MIN KMKG 120400Z 17007KT 6SM HZ BKN024 09/06 A2996 590 76 100 170/07 RMK AO2
14840KMKG MKG20071111230509711/11/07 23:05:31  5-MIN KMKG 120405Z 16008KT 6SM HZ SCT024 09/06 A2996 590 76 100 160/08 RMK AO2
14840KMKG MKG20071111231009711/11/07 23:10:31  5-MIN KMKG 120410Z 16008KT 6SM HZ BKN024 09/06 A2996 590 79 100 160/08 RMK AO2
14840KMKG MKG20071111231509711/11/07 23:15:31  5-MIN KMKG 120415Z 15009KT 6SM HZ BKN024 09/06 A2996 590 79 100 160/09 RMK AO2
14840KMKG MKG20071111232009711/11/07 23:20:31  5-MIN KMKG 120420Z 17008KT 6SM HZ BKN024 09/06 A2996 590 79 100 170/08 RMK AO2
14840KMKG MKG20071111232509711/11/07 23:25:31  5-MIN KMKG 120425Z 16008KT 6SM HZ BKN024 09/06 A2996 590 79 100 160/08 RMK AO2
14840KMKG MKG20071111233009711/11/07 23:30:31  5-MIN KMKG 120430Z 16006KT 6SM HZ BKN024 09/06 A2996 590 79 100 160/06 RMK AO2
14840KMKG MKG20071111233510411/11/07 23:35:31  5-MIN KMKG 120435Z 15007KT 6SM HZ BKN024 BKN028 09/06 A2996 590 79 100 160/07 RMK AO2
14840KMKG MKG20071111234009711/11/07 23:40:31  5-MIN KMKG 120440Z 16007KT 6SM HZ BKN024 09/06 A2996 590 79 100 160/07 RMK AO2
14840KMKG MKG20071111234509711/11/07 23:45:31  5-MIN KMKG 120445Z 16007KT 6SM HZ BKN026 09/06 A2996 590 79 100 160/07 RMK AO2
14840KMKG MKG20071111235010711/11/07 23:50:31  5-MIN KMKG 120450Z 15006KT 6SM HZ SCT026 09/06 A2996 590 79 100 150/06 RMK AO2 400940044
14840KMKG MKG20071111235512411/11/07 23:55:31  5-MIN KMKG 120455Z 15005KT 6SM HZ SCT026 09/06 A2996 590 79 100 160/05 RMK AO2 SLP150 T00940061 400940044
14840KMKG MKG20071112000010411/12/07 00:00:32  5-MIN KMKG 120500Z 16006KT 6SM HZ FEW013 SCT028 09/06 A2996 590 79 100 160/06 RMK AO2
14840KMKG MKG20071112000509711/12/07 00:05:31  5-MIN KMKG 120505Z 17008KT 6SM HZ FEW013 09/07 A2996 590 83 100 170/08 RMK AO2
14840KMKG MKG20071112001009711/12/07 00:10:31  5-MIN KMKG 120510Z 16007KT 6SM HZ FEW013 09/07 A2996 600 83 100 160/07 RMK AO2
14840KMKG MKG20071112001509711/12/07 00:15:31  5-MIN KMKG 120515Z 16006KT 6SM HZ FEW026 09/07 A2996 590 83 100 160/06 RMK AO2
14840KMKG MKG20071112002009711/12/07 00:20:31  5-MIN KMKG 120520Z 15007KT 6SM HZ FEW026 09/07 A2996 600 83 100 160/07 RMK AO2
14840KMKG MKG20071112002510911/12/07 00:25:31  5-MIN KMKG 120525Z 15007KT 6SM HZ CLR 09/07 A2995 600 83 100 160/07 RMK AO2 CIG 026 RWY 14
14840KMKG MKG20071112003010911/12/07 00:30:31  5-MIN KMKG 120530Z 16005KT 6SM HZ CLR 09/07 A2996 600 83 100 160/05 RMK AO2 CIG 026 RWY 14
14840KMKG MKG20071112003510911/12/07 00:35:31  5-MIN KMKG 120535Z 16006KT 6SM HZ CLR 09/07 A2996 600 83 100 160/06 RMK AO2 CIG 026 RWY 14
14840KMKG MKG20071112004010911/12/07 00:40:31  5-MIN KMKG 120540Z 17005KT 6SM HZ CLR 09/07 A2996 590 83 100 170/05 RMK AO2 CIG 026 RWY 14
14840KMKG MKG20071112004510911/12/07 00:45:31  5-MIN KMKG 120545Z 15007KT 6SM HZ CLR 09/07 A2996 600 83 100 150/07 RMK AO2 CIG 026 RWY 14
14840KMKG MKG20071112005015011/12/07 00:50:31  5-MIN KMKG 120550Z 16011G15KT 6SM HZ CLR 10/07 A2996 600 83 200 160/11G15 RMK AO2 CIG 024 RWY 14 SLP148 T01000072 10100 20072 51007
14840KMKG MKG20071112005515011/12/07 00:55:31  5-MIN KMKG 120555Z 16006G15KT 6SM HZ CLR 10/07 A2995 600 83 200 160/06G15 RMK AO2 CIG 022 RWY 14 SLP146 T01000072 10100 20072 58003
14840KMKG MKG20071112010009711/12/07 01:00:31  5-MIN KMKG 120600Z 14007KT 6SM HZ FEW012 10/07 A2995 600 83 200 150/07 RMK AO2
14840KMKG MKG20071112010509711/12/07 01:05:31  5-MIN KMKG 120605Z 15006KT 5SM HZ FEW012 10/07 A2995 600 83 200 160/06 RMK AO2
14840KMKG MKG20071112011009711/12/07 01:10:31  5-MIN KMKG 120610Z 16006KT 5SM HZ FEW012 10/07 A2995 600 83 200 160/06 RMK AO2
14840KMKG MKG20071112011509711/12/07 01:15:31  5-MIN KMKG 120615Z 16007KT 5SM HZ FEW019 10/07 A2995 600 83 200 170/07 RMK AO2
14840KMKG MKG20071112012009711/12/07 01:20:31  5-MIN KMKG 120620Z 17006KT 5SM HZ FEW019 10/07 A2995 600 83 200 170/06 RMK AO2
14840KMKG MKG20071112012509711/12/07 01:25:31  5-MIN KMKG 120625Z 16006KT 5SM HZ FEW012 10/07 A2995 600 83 200 170/06 RMK AO2
14840KMKG MKG20071112013009711/12/07 01:30:31  5-MIN KMKG 120630Z 16006KT 5SM HZ FEW014 10/07 A2995 600 83 200 170/06 RMK AO2
14840KMKG MKG20071112013509711/12/07 01:35:31  5-MIN KMKG 120635Z 16006KT 5SM HZ SCT016 10/07 A2995 600 83 200 160/06 RMK AO2
14840KMKG MKG20071112014009711/12/07 01:40:31  5-MIN KMKG 120640Z 16006KT 5SM HZ SCT014 10/07 A2995 600 83 200 170/06 RMK AO2
14840KMKG MKG20071112014509711/12/07 01:45:31  5-MIN KMKG 120645Z 17007KT 6SM BR SCT014 10/08 A2995 600 86 200 170/07 RMK AO2
14840KMKG MKG20071112015011411/12/07 01:50:31  5-MIN KMKG 120650Z 17007KT 6SM HZ SCT014 11/08 A2995 600 83 300 170/07 RMK AO2 SLP145 T01060078
14840KMKG MKG20071112015511411/12/07 01:55:31  5-MIN KMKG 120655Z 18008KT 6SM HZ SCT014 11/08 A2995 600 83 300 180/08 RMK AO2 SLP145 T01060078
14840KMKG MKG20071112020009711/12/07 02:00:31  5-MIN KMKG 120700Z 17009KT 6SM HZ SCT014 11/08 A2995 600 83 300 180/09 RMK AO2
14840KMKG MKG20071112020509711/12/07 02:05:31  5-MIN KMKG 120705Z 17008KT 6SM HZ SCT014 11/08 A2995 610 83 300 170/08 RMK AO2
14840KMKG MKG20071112021009711/12/07 02:10:31  5-MIN KMKG 120710Z 17009KT 6SM HZ FEW014 11/08 A2995 610 83 300 180/09 RMK AO2
14840KMKG MKG20071112021509711/12/07 02:15:31  5-MIN KMKG 120715Z 17009KT 6SM HZ FEW016 11/08 A2994 610 83 300 180/09 RMK AO2
14840KMKG MKG20071112022009711/12/07 02:20:31  5-MIN KMKG 120720Z 18010KT 6SM HZ SCT016 11/08 A2995 610 83 300 190/10 RMK AO2
14840KMKG MKG20071112022509711/12/07 02:25:31  5-MIN KMKG 120725Z 17009KT 6SM HZ SCT016 11/08 A2994 610 83 300 180/09 RMK AO2
14840KMKG MKG20071112023010411/12/07 02:30:31  5-MIN KMKG 120730Z 18008KT 6SM HZ FEW012 SCT017 11/08 A2995 600 83 300 180/08 RMK AO2
14840KMKG MKG20071112023511911/12/07 02:35:31  5-MIN KMKG 120735Z 18010KT 6SM HZ SCT012 BKN017 11/08 A2995 610 83 300 190/10 RMK AO2 CIG 012 RWY 14
14840KMKG MKG20071112024010411/12/07 02:40:31  5-MIN KMKG 120740Z 18010KT 6SM HZ BKN012 BKN017 11/08 A2994 610 83 300 190/10 RMK AO2
14840KMKG MKG20071112024511011/12/07 02:45:31  5-MIN KMKG 120745Z 18009KT 6SM BR BKN012 BKN017 11/09 A2994 610 86 300 190/09 RMK AO2 P0001
14840KMKG MKG20071112025012611/12/07 02:50:31  5-MIN KMKG 120750Z 18009KT 6SM BR BKN010 11/09 A2994 610 86 300 190/09 RMK AO2 CIG 009V013 SLP142 T01110089
14840KMKG MKG20071112025512611/12/07 02:55:31  5-MIN KMKG 120755Z 19009KT 6SM BR OVC010 11/09 A2994 610 86 300 190/09 RMK AO2 CIG 008V012 SLP141 T01110089
14840KMKG MKG20071112030010911/12/07 03:00:31  5-MIN KMKG 120800Z 19010KT 6SM BR OVC010 11/09 A2994 610 86 300 190/10 RMK AO2 CIG 008V012
14840KMKG MKG20071112030509711/12/07 03:05:31  5-MIN KMKG 120805Z 19010KT 5SM BR OVC008 11/09 A2994 610 89 300 190/10 RMK AO2
14840KMKG MKG20071112031009711/12/07 03:10:31  5-MIN KMKG 120810Z 19009KT 5SM BR OVC008 11/09 A2994 610 89 300 190/09 RMK AO2
14840KMKG MKG20071112031509711/12/07 03:15:31  5-MIN KMKG 120815Z 19009KT 5SM BR BKN008 12/09 A2994 610 86 400 200/09 RMK AO2
14840KMKG MKG20071112032009711/12/07 03:20:31  5-MIN KMKG 120820Z 19011KT 5SM BR BKN008 12/09 A2994 610 86 400 190/11 RMK AO2
14840KMKG MKG20071112032509711/12/07 03:25:31  5-MIN KMKG 120825Z 19011KT 5SM BR SCT008 12/09 A2993 620 86 400 200/11 RMK AO2
14840KMKG MKG20071112033010411/12/07 03:30:31  5-MIN KMKG 120830Z 20013KT 5SM BR FEW008 SCT018 12/09 A2993 620 86 400 200/13 RMK AO2
14840KMKG MKG20071112033510411/12/07 03:35:31  5-MIN KMKG 120835Z 19011KT 5SM BR FEW008 SCT018 12/09 A2993 620 86 400 200/11 RMK AO2
14840KMKG MKG20071112034009711/12/07 03:40:31  5-MIN KMKG 120840Z 19010KT 5SM BR FEW018 12/09 A2993 620 86 400 200/10 RMK AO2
14840KMKG MKG20071112034509711/12/07 03:45:31  5-MIN KMKG 120845Z 20012KT 5SM BR FEW018 12/09 A2993 620 86 400 200/12 RMK AO2
14840KMKG MKG20071112035012611/12/07 03:50:31  5-MIN KMKG 120850Z 19010KT 5SM BR SCT018 12/09 A2993 630 86 400 190/10 RMK AO2 SLP136 60001 T01170094 58003
14840KMKG MKG20071112035512611/12/07 03:55:31  5-MIN KMKG 120855Z 19010KT 5SM BR SCT020 12/09 A2992 630 86 400 200/10 RMK AO2 SLP135 60001 T01170094 58010
14840KMKG MKG20071112040012011/12/07 04:00:31  5-MIN KMKG 120900Z 19011KT 5SM -RA BR FEW020 SCT033 12/09 A2993 630 86 400 200/11 RMK AO2 RAB00 P0000
14840KMKG MKG20071112040512011/12/07 04:05:31  5-MIN KMKG 120905Z 19012KT 5SM -RA BR FEW020 SCT033 12/10 A2993 630 89 400 200/12 RMK AO2 RAB00 P0000
14840KMKG MKG20071112041012011/12/07 04:10:31  5-MIN KMKG 120910Z 19014KT 5SM -RA BR FEW020 BKN033 12/10 A2993 620 89 400 200/14 RMK AO2 RAB00 P0000
14840KMKG MKG20071112041512511/12/07 04:15:31  5-MIN KMKG 120915Z 19012G19KT 4SM RA BR FEW020 BKN033 12/10 A2993 620 89 400 190/12G19 RMK AO2 RAB00 P0000
14840KMKG MKG20071112042011311/12/07 04:20:31  5-MIN KMKG 120920Z 19011KT 3SM -RA BR BKN033 12/10 A2993 620 89 400 190/11 RMK AO2 RAB00 P0001
14840KMKG MKG20071112042511311/12/07 04:25:31  5-MIN KMKG 120925Z 18010KT 4SM -RA BR BKN033 12/10 A2993 620 89 400 190/10 RMK AO2 RAB00 P0001
14840KMKG MKG20071112043012011/12/07 04:30:31  5-MIN KMKG 120930Z 19010KT 4SM -RA BR BKN033 OVC047 12/10 A2993 630 89 400 190/10 RMK AO2 RAB00 P0001
14840KMKG MKG20071112043512611/12/07 04:35:31  5-MIN KMKG 120935Z 18011G17KT 4SM -RA BR BKN033 BKN047 12/10 A2992 630 89 400 190/11G17 RMK AO2 RAB00 P0001
14840KMKG MKG20071112044011911/12/07 04:40:31  5-MIN KMKG 120940Z 19009G17KT 5SM -RA BR BKN033 12/10 A2993 620 89 400 190/09G17 RMK AO2 RAB00 P0001
14840KMKG MKG20071112044511211/12/07 04:45:31  5-MIN KMKG 120945Z 18010KT 5SM BR SCT033 12/10 A2993 620 89 400 190/10 RMK AO2 RAB00E42 P0001
14840KMKG MKG20071112045012911/12/07 04:50:31  5-MIN KMKG 120950Z 18011KT 4SM BR SCT031 12/10 A2993 620 89 400 190/11 RMK AO2 RAB00E42 SLP137 P0001 T01170100
14840KMKG MKG20071112045513011/12/07 04:55:31  5-MIN KMKG 120955Z 19008KT 4SM -RA BR BKN031 12/10 A2993 620 89 400 200/08 RMK AO2 RAB00 SLP138 P0002 T01170100
14840KMKG MKG20071112050010711/12/07 05:00:31  5-MIN KMKG 121000Z 20009KT 4SM -RA BR BKN031 12/10 A2994 610 89 400 200/09 RMK AO2 P0000
14840KMKG MKG20071112050513111/12/07 05:05:31  5-MIN KMKG 121005Z 21010KT 4SM -RA BR FEW009 BKN031 12/10 A2994 610 89 400 210/10 RMK AO2 VIS 2 1/2 RWY 14 P0000
14840KMKG MKG20071112051011411/12/07 05:10:31  5-MIN KMKG 121010Z 20009KT 4SM -RA BR FEW009 BKN029 12/10 A2994 610 89 400 200/09 RMK AO2 P0000
14840KMKG MKG20071112051511411/12/07 05:15:31  5-MIN KMKG 121015Z 20009KT 4SM -RA BR FEW009 BKN029 12/10 A2994 610 89 400 200/09 RMK AO2 P0000
14840KMKG MKG20071112052012111/12/07 05:20:31  5-MIN KMKG 121020Z 20010KT 4SM -RA BR FEW009 SCT025 OVC031 12/10 A2994 610 89 400 200/10 RMK AO2 P0000
14840KMKG MKG20071112052512111/12/07 05:25:31  5-MIN KMKG 121025Z 20009KT 3SM -RA BR FEW009 BKN025 OVC031 12/10 A2994 610 89 400 210/09 RMK AO2 P0000
14840KMKG MKG20071112053012111/12/07 05:30:31  5-MIN KMKG 121030Z 20010KT 4SM -RA BR FEW009 SCT025 BKN031 12/10 A2994 610 89 400 200/10 RMK AO2 P0001
14840KMKG MKG20071112053511411/12/07 05:35:31  5-MIN KMKG 121035Z 20008KT 4SM -RA BR SCT025 BKN031 12/10 A2994 610 89 400 200/08 RMK AO2 P0001
14840KMKG MKG20071112054011411/12/07 05:40:31  5-MIN KMKG 121040Z 19009KT 4SM -RA BR BKN025 BKN031 12/10 A2994 610 89 400 200/09 RMK AO2 P0001
14840KMKG MKG20071112054511411/12/07 05:45:31  5-MIN KMKG 121045Z 20011KT 4SM -RA BR BKN025 BKN031 12/10 A2994 610 89 400 200/11 RMK AO2 P0001
14840KMKG MKG20071112055013111/12/07 05:50:31  5-MIN KMKG 121050Z 19010KT 5SM BR SCT025 BKN031 12/10 A2994 610 89 400 190/10 RMK AO2 RAE50 CIG 025 RWY 14 P0001
14840KMKG MKG20071112055514811/12/07 05:55:31  5-MIN KMKG 121055Z 19011KT 4SM BR SCT025 BKN031 12/10 A2993 620 89 400 190/11 RMK AO2 RAE50 CIG 025 RWY 14 SLP139 P0002 T01170100
14840KMKG MKG20071112060009711/12/07 06:00:31  5-MIN KMKG 121100Z 18009KT 4SM BR SCT025 12/10 A2993 620 89 400 190/09 RMK AO2
14840KMKG MKG20071112060509711/12/07 06:05:31  5-MIN KMKG 121105Z 19010KT 4SM BR SCT025 12/10 A2993 620 89 400 190/10 RMK AO2
14840KMKG MKG20071112061009711/12/07 06:10:31  5-MIN KMKG 121110Z 20010KT 4SM BR SCT025 12/10 A2993 620 89 400 200/10 RMK AO2
14840KMKG MKG20071112061509711/12/07 06:15:31  5-MIN KMKG 121115Z 19012KT 4SM BR FEW025 12/10 A2993 620 89 400 190/12 RMK AO2
14840KMKG MKG20071112062009711/12/07 06:20:31  5-MIN KMKG 121120Z 20010KT 4SM BR FEW008 12/10 A2994 620 89 400 200/10 RMK AO2
14840KMKG MKG20071112062509711/12/07 06:25:31  5-MIN KMKG 121125Z 19010KT 4SM BR FEW008 12/10 A2994 620 89 400 200/10 RMK AO2
14840KMKG MKG20071112063009711/12/07 06:30:31  5-MIN KMKG 121130Z 19010KT 4SM BR FEW008 12/10 A2994 620 89 400 190/10 RMK AO2
14840KMKG MKG20071112063509711/12/07 06:35:31  5-MIN KMKG 121135Z 20010KT 4SM BR FEW008 12/10 A2993 620 89 400 200/10 RMK AO2
14840KMKG MKG20071112064009711/12/07 06:40:31  5-MIN KMKG 121140Z 22009KT 4SM BR FEW008 12/10 A2993 620 89 400 220/09 RMK AO2
14840KMKG MKG20071112064509711/12/07 06:45:31  5-MIN KMKG 121145Z 20010KT 4SM BR SCT008 12/10 A2994 620 89 400 200/10 RMK AO2
14840KMKG MKG20071112065015811/12/07 06:50:31  5-MIN KMKG 121150Z 19012KT 4SM BR FEW008 SCT013 SCT020 12/10 A2993 620 89 400 190/12 RMK AO2 SLP139 60005 70005 T01170100 10117 20100 58010
14840KMKG MKG20071112065515811/12/07 06:55:31  5-MIN KMKG 121155Z 21009KT 4SM BR SCT009 SCT013 BKN020 12/10 A2994 620 89 400 210/09 RMK AO2 SLP139 60005 70005 T01170100 10117 20100 51001
14840KMKG MKG20071112070010411/12/07 07:00:31  5-MIN KMKG 121200Z 19009KT 4SM BR SCT009 SCT013 12/10 A2993 620 89 400 200/09 RMK AO2
14840KMKG MKG20071112070511111/12/07 07:05:31  5-MIN KMKG 121205Z 19007KT 4SM BR SCT009 SCT013 SCT020 12/10 A2993 620 89 400 190/07 RMK AO2
14840KMKG MKG20071112071011111/12/07 07:10:31  5-MIN KMKG 121210Z 20007KT 4SM BR SCT009 SCT013 BKN020 12/10 A2993 620 89 400 210/07 RMK AO2
14840KMKG MKG20071112071511111/12/07 07:15:31  5-MIN KMKG 121215Z 19008KT 4SM BR SCT009 SCT013 BKN020 12/10 A2993 620 89 400 200/08 RMK AO2
14840KMKG MKG20071112072009711/12/07 07:20:31  5-MIN KMKG 121220Z 19008KT 4SM BR SCT009 12/10 A2993 620 89 400 190/08 RMK AO2
14840KMKG MKG20071112072509711/12/07 07:25:31  5-MIN KMKG 121225Z 19008KT 4SM BR SCT009 12/10 A2993 620 89 400 190/08 RMK AO2
14840KMKG MKG20071112073009711/12/07 07:30:31  5-MIN KMKG 121230Z 20008KT 4SM BR SCT009 12/10 A2993 620 89 400 200/08 RMK AO2
14840KMKG MKG20071112073509711/12/07 07:35:31  5-MIN KMKG 121235Z 19009KT 4SM BR SCT009 12/10 A2993 620 89 400 200/09 RMK AO2
14840KMKG MKG20071112074009711/12/07 07:40:31  5-MIN KMKG 121240Z 19008KT 4SM BR FEW009 12/10 A2994 620 89 400 200/08 RMK AO2
14840KMKG MKG20071112074509711/12/07 07:45:31  5-MIN KMKG 121245Z 20008KT 4SM BR SCT009 12/10 A2994 610 89 400 200/08 RMK AO2
14840KMKG MKG20071112075011411/12/07 07:50:31  5-MIN KMKG 121250Z 20008KT 4SM BR SCT009 12/10 A2994 610 89 400 210/08 RMK AO2 SLP142 T01170100
14840KMKG MKG20071112075512011/12/07 07:55:31  5-MIN KMKG 121255Z 20011G16KT 4SM BR SCT009 12/10 A2995 610 89 400 210/11G16 RMK AO2 SLP143 T01170100
14840KMKG MKG20071112080010911/12/07 08:00:31  5-MIN KMKG 121300Z 20010KT 4SM BR BKN009 12/10 A2994 610 89 400 200/10 RMK AO2 CIG 007V012
14840KMKG MKG20071112080510911/12/07 08:05:31  5-MIN KMKG 121305Z 20009KT 4SM BR BKN009 12/10 A2994 610 89 400 200/09 RMK AO2 CIG 007V012
14840KMKG MKG20071112081009711/12/07 08:10:31  5-MIN KMKG 121310Z 20009KT 4SM BR SCT009 12/10 A2994 610 89 400 200/09 RMK AO2
14840KMKG MKG20071112081509711/12/07 08:15:31  5-MIN KMKG 121315Z 20008KT 4SM BR BKN009 12/10 A2995 610 89 400 210/08 RMK AO2
14840KMKG MKG20071112082010411/12/07 08:20:31  5-MIN KMKG 121320Z 20008KT 4SM BR SCT009 BKN018 12/10 A2995 600 89 400 210/08 RMK AO2
14840KMKG MKG20071112082510411/12/07 08:25:31  5-MIN KMKG 121325Z 21008KT 4SM BR SCT009 OVC018 12/10 A2995 600 89 400 210/08 RMK AO2
14840KMKG MKG20071112083010411/12/07 08:30:31  5-MIN KMKG 121330Z 20008KT 4SM BR SCT009 OVC018 12/10 A2995 600 89 400 200/08 RMK AO2
14840KMKG MKG20071112083510411/12/07 08:35:31  5-MIN KMKG 121335Z 20008KT 3SM BR SCT009 OVC018 12/10 A2995 600 89 400 210/08 RMK AO2
14840KMKG MKG20071112084010411/12/07 08:40:31  5-MIN KMKG 121340Z 22008KT 3SM BR SCT009 OVC018 12/10 A2995 600 89 400 220/08 RMK AO2
14840KMKG MKG20071112084510411/12/07 08:45:31  5-MIN KMKG 121345Z 20007KT 3SM BR SCT009 OVC018 12/10 A2995 600 89 400 210/07 RMK AO2
14840KMKG MKG20071112085012111/12/07 08:50:31  5-MIN KMKG 121350Z 21008KT 4SM BR SCT009 OVC018 12/10 A2996 600 89 400 210/08 RMK AO2 SLP147 T01170100
14840KMKG MKG20071112085512111/12/07 08:55:31  5-MIN KMKG 121355Z 21007KT 4SM BR SCT009 OVC018 12/10 A2996 600 89 400 210/07 RMK AO2 SLP147 T01170100
14840KMKG MKG20071112090010411/12/07 09:00:31  5-MIN KMKG 121400Z 21009KT 3SM BR SCT009 OVC018 12/10 A2996 600 89 400 210/09 RMK AO2
14840KMKG MKG20071112090510411/12/07 09:05:31  5-MIN KMKG 121405Z 22007KT 3SM BR SCT009 OVC018 12/10 A2996 600 89 400 220/07 RMK AO2
14840KMKG MKG20071112091010411/12/07 09:10:31  5-MIN KMKG 121410Z 21007KT 3SM BR SCT009 OVC018 12/10 A2996 600 89 400 220/07 RMK AO2
14840KMKG MKG20071112091510411/12/07 09:15:31  5-MIN KMKG 121415Z 22008KT 3SM BR FEW009 BKN014 12/10 A2996 590 89 400 220/08 RMK AO2
14840KMKG MKG20071112092010411/12/07 09:20:31  5-MIN KMKG 121420Z 22008KT 3SM BR FEW009 OVC014 12/10 A2996 600 89 400 230/08 RMK AO2
14840KMKG MKG20071112092510411/12/07 09:25:31  5-MIN KMKG 121425Z 22009KT 3SM BR FEW009 OVC014 12/10 A2996 590 89 400 230/09 RMK AO2
14840KMKG MKG20071112093010411/12/07 09:30:31  5-MIN KMKG 121430Z 23008KT 3SM BR FEW009 OVC014 12/10 A2996 590 89 400 240/08 RMK AO2
14840KMKG MKG20071112093510411/12/07 09:35:31  5-MIN KMKG 121435Z 23009KT 3SM BR FEW009 OVC014 12/10 A2996 590 89 400 240/09 RMK AO2
14840KMKG MKG20071112094011011/12/07 09:40:31  5-MIN KMKG 121440Z 23011G17KT 3SM BR FEW009 OVC014 12/10 A2996 590 89 400 230/11G17 RMK AO2
14840KMKG MKG20071112094511011/12/07 09:45:31  5-MIN KMKG 121445Z 23010G17KT 3SM BR FEW009 OVC014 12/10 A2996 590 89 400 240/10G17 RMK AO2
14840KMKG MKG20071112095012711/12/07 09:50:31  5-MIN KMKG 121450Z 23010KT 3SM BR FEW009 OVC014 12/10 A2996 590 89 400 240/10 RMK AO2 SLP148 T01170100 51001
14840KMKG MKG20071112095512711/12/07 09:55:31  5-MIN KMKG 121455Z 24008KT 3SM BR FEW009 OVC014 12/10 A2996 590 89 400 250/08 RMK AO2 SLP148 T01170100 51008
14840KMKG MKG20071112100010411/12/07 10:00:31  5-MIN KMKG 121500Z 24009KT 3SM BR FEW009 OVC014 12/10 A2996 590 89 400 240/09 RMK AO2
14840KMKG MKG20071112100510411/12/07 10:05:31  5-MIN KMKG 121505Z 25008KT 3SM BR FEW009 OVC014 12/10 A2996 590 89 400 250/08 RMK AO2
14840KMKG MKG20071112101010411/12/07 10:10:31  5-MIN KMKG 121510Z 23007KT 3SM BR FEW009 OVC014 12/10 A2997 590 89 400 240/07 RMK AO2
14840KMKG MKG20071112101510411/12/07 10:15:31  5-MIN KMKG 121515Z 24007KT 3SM BR FEW009 OVC014 12/10 A2997 590 89 400 240/07 RMK AO2
14840KMKG MKG20071112102010411/12/07 10:20:31  5-MIN KMKG 121520Z 24007KT 3SM BR FEW009 OVC014 12/10 A2997 580 89 400 250/07 RMK AO2
14840KMKG MKG20071112102510411/12/07 10:25:31  5-MIN KMKG 121525Z 25008KT 3SM BR FEW009 OVC014 12/10 A2997 580 89 400 250/08 RMK AO2
14840KMKG MKG20071112103010911/12/07 10:30:31  5-MIN KMKG 121530Z 24008KT 3SM BR BKN009 12/10 A2997 580 89 400 250/08 RMK AO2 CIG 007V013
14840KMKG MKG20071112103510411/12/07 10:35:31  5-MIN KMKG 121535Z 26007KT 3SM BR BKN009 BKN012 12/10 A2997 580 89 400 260/07 RMK AO2
14840KMKG MKG20071112104010411/12/07 10:40:31  5-MIN KMKG 121540Z 26008KT 3SM BR BKN009 BKN012 12/10 A2997 580 89 400 260/08 RMK AO2
14840KMKG MKG20071112104511611/12/07 10:45:31  5-MIN KMKG 121545Z 27007KT 3SM BR BKN007 OVC012 12/10 A2997 580 89 400 270/07 RMK AO2 CIG 006V010
14840KMKG MKG20071112105012611/12/07 10:50:31  5-MIN KMKG 121550Z 27006KT 3SM BR OVC007 12/10 A2998 580 89 400 270/06 RMK AO2 CIG 006V011 SLP153 T01170100
14840KMKG MKG20071112105512611/12/07 10:55:31  5-MIN KMKG 121555Z 28007KT 3SM BR OVC007 12/10 A2998 580 86 400 280/07 RMK AO2 CIG 006V010 SLP153 T01220100
14840KMKG MKG20071112110009711/12/07 11:00:31  5-MIN KMKG 121600Z 28008KT 3SM BR OVC007 12/11 A2998 580 89 400 280/08 RMK AO2
14840KMKG MKG20071112110509711/12/07 11:05:31  5-MIN KMKG 121605Z 28006KT 3SM BR OVC007 12/11 A2998 580 89 400 290/06 RMK AO2
14840KMKG MKG20071112111009711/12/07 11:10:31  5-MIN KMKG 121610Z 29005KT 3SM BR OVC007 12/11 A2998 580 89 400 290/05 RMK AO2
14840KMKG MKG20071112111509711/12/07 11:15:31  5-MIN KMKG 121615Z 29007KT 3SM BR OVC007 12/11 A2998 580 89 400 300/07 RMK AO2
14840KMKG MKG20071112112009711/12/07 11:20:31  5-MIN KMKG 121620Z 29006KT 3SM BR OVC007 13/11 A2998 580 86 500 300/06 RMK AO2
14840KMKG MKG20071112112509711/12/07 11:25:31  5-MIN KMKG 121625Z 30006KT 3SM BR OVC007 12/11 A2998 580 89 400 300/06 RMK AO2
14840KMKG MKG20071112113010111/12/07 11:30:31  5-MIN KMKG 121630Z 29008KT 2 1/2SM BR OVC007 12/11 A2998 570 89 400 300/08 RMK AO2
14840KMKG MKG20071112113510111/12/07 11:35:31  5-MIN KMKG 121635Z 30007KT 2 1/2SM BR OVC007 12/11 A2998 580 89 400 300/07 RMK AO2
14840KMKG MKG20071112114010111/12/07 11:40:31  5-MIN KMKG 121640Z 31004KT 2 1/2SM BR OVC007 13/11 A2998 580 86 500 310/04 RMK AO2
14840KMKG MKG20071112114509711/12/07 11:45:31  5-MIN KMKG 121645Z 30005KT 3SM BR BKN007 13/11 A2997 580 86 500 310/05 RMK AO2
14840KMKG MKG20071112115012111/12/07 11:50:31  5-MIN KMKG 121650Z 32006KT 3SM HZ BKN007 BKN040 13/10 A2997 580 80 600 320/06 RMK AO2 SLP151 T01330100
14840KMKG MKG20071112115512111/12/07 11:55:31  5-MIN KMKG 121655Z 31007KT 3SM HZ BKN007 BKN040 13/10 A2997 580 83 500 310/07 RMK AO2 SLP151 T01280100
14840KMKG MKG20071112120010411/12/07 12:00:31  5-MIN KMKG 121700Z 31008KT 3SM HZ FEW007 SCT040 13/10 A2997 580 80 600 310/08 RMK AO2
14840KMKG MKG20071112120510411/12/07 12:05:31  5-MIN KMKG 121705Z VRB05KT 4SM HZ FEW007 SCT040 13/10 A2997 580 80 600 VRB/05 RMK AO2
14840KMKG MKG20071112121010411/12/07 12:10:31  5-MIN KMKG 121710Z 31007KT 4SM HZ FEW007 SCT040 13/10 A2997 580 80 600 320/07 RMK AO2
14840KMKG MKG20071112121510411/12/07 12:15:31  5-MIN KMKG 121715Z 31009KT 4SM HZ FEW007 SCT040 13/10 A2997 580 80 600 320/09 RMK AO2
14840KMKG MKG20071112122010411/12/07 12:20:31  5-MIN KMKG 121720Z 31006KT 4SM HZ FEW009 SCT040 13/09 A2997 580 77 600 310/06 RMK AO2
14840KMKG MKG20071112122511011/12/07 12:25:31  5-MIN KMKG 121725Z 31010G15KT 4SM HZ FEW009 SCT040 13/09 A2997 580 77 600 320/10G15 RMK AO2
14840KMKG MKG20071112123011011/12/07 12:30:31  5-MIN KMKG 121730Z 31007G15KT 4SM HZ FEW009 SCT040 13/09 A2997 580 77 600 320/07G15 RMK AO2
14840KMKG MKG20071112123510411/12/07 12:35:31  5-MIN KMKG 121735Z 31006KT 4SM HZ FEW009 SCT040 13/09 A2997 590 77 600 310/06 RMK AO2
14840KMKG MKG20071112124009711/12/07 12:40:31  5-MIN KMKG 121740Z 31005KT 4SM HZ FEW012 13/09 A2997 590 77 600 310/05 RMK AO2
14840KMKG MKG20071112124509711/12/07 12:45:31  5-MIN KMKG 121745Z 30008KT 4SM HZ FEW012 14/09 A2997 590 74 600 310/08 RMK AO2
14840KMKG MKG20071112125013211/12/07 12:50:31  5-MIN KMKG 121750Z 30007KT 4SM HZ FEW012 13/09 A2997 580 77 600 300/07 RMK AO2 SLP150 T01330094 10139 20117 51008
14840KMKG MKG20071112125513211/12/07 12:55:31  5-MIN KMKG 121755Z 31007KT 4SM HZ FEW012 14/09 A2997 590 74 600 310/07 RMK AO2 SLP150 T01390094 10139 20117 50003
14840KMKG MKG20071112130009711/12/07 13:00:31  5-MIN KMKG 121800Z 32007KT 4SM HZ FEW012 14/09 A2997 590 74 600 320/07 RMK AO2
14840KMKG MKG20071112130509711/12/07 13:05:31  5-MIN KMKG 121805Z 30007KT 4SM HZ FEW012 13/09 A2997 590 77 600 300/07 RMK AO2
14840KMKG MKG20071112131009711/12/07 13:10:31  5-MIN KMKG 121810Z 31005KT 4SM HZ FEW012 14/09 A2997 590 74 600 320/05 RMK AO2
14840KMKG MKG20071112131509711/12/07 13:15:31  5-MIN KMKG 121815Z 29009KT 4SM HZ FEW012 13/09 A2997 590 74 600 290/09 RMK AO2
14840KMKG MKG20071112132009711/12/07 13:20:31  5-MIN KMKG 121820Z 29008KT 4SM HZ FEW012 13/09 A2996 590 74 600 290/08 RMK AO2
14840KMKG MKG20071112132510311/12/07 13:25:31  5-MIN KMKG 121825Z 29008G14KT 4SM HZ FEW012 13/09 A2996 590 74 600 300/08G14 RMK AO2
14840KMKG MKG20071112133010311/12/07 13:30:31  5-MIN KMKG 121830Z 30008G14KT 4SM HZ FEW012 14/09 A2996 590 71 600 310/08G14 RMK AO2
14840KMKG MKG20071112133509711/12/07 13:35:31  5-MIN KMKG 121835Z 31009KT 4SM HZ FEW012 13/09 A2996 590 74 600 310/09 RMK AO2
14840KMKG MKG20071112134010311/12/07 13:40:31  5-MIN KMKG 121840Z 30011G17KT 4SM HZ FEW012 13/08 A2996 590 74 500 310/11G17 RMK AO2
14840KMKG MKG20071112134510311/12/07 13:45:31  5-MIN KMKG 121845Z 30011G18KT 4SM HZ FEW012 13/08 A2996 590 74 500 300/11G18 RMK AO2
14840KMKG MKG20071112135012011/12/07 13:50:31  5-MIN KMKG 121850Z 30009G18KT 4SM HZ FEW012 13/08 A2996 590 71 600 300/09G18 RMK AO2 SLP147 T01330083
14840KMKG MKG20071112135512011/12/07 13:55:31  5-MIN KMKG 121855Z 31009G16KT 4SM HZ FEW012 13/08 A2996 590 74 500 310/09G16 RMK AO2 SLP147 T01280083
14840KMKG MKG20071112140010311/12/07 14:00:31  5-MIN KMKG 121900Z 31009G16KT 4SM HZ FEW012 13/08 A2996 590 69 600 310/09G16 RMK AO2
14840KMKG MKG20071112140510311/12/07 14:05:31  5-MIN KMKG 121905Z 30008G16KT 4SM HZ FEW012 13/08 A2996 590 69 600 310/08G16 RMK AO2
14840KMKG MKG20071112141010311/12/07 14:10:31  5-MIN KMKG 121910Z 31010G14KT 4SM HZ FEW012 13/07 A2996 590 66 600 320/10G14 RMK AO2
14840KMKG MKG20071112141510311/12/07 14:15:31  5-MIN KMKG 121915Z 31008G14KT 5SM HZ FEW012 13/07 A2996 590 69 500 310/08G14 RMK AO2
14840KMKG MKG20071112142009711/12/07 14:20:31  5-MIN KMKG 121920Z 31008KT 5SM HZ FEW012 13/07 A2996 590 69 500 310/08 RMK AO2
14840KMKG MKG20071112142509711/12/07 14:25:31  5-MIN KMKG 121925Z VRB05KT 5SM HZ FEW012 13/07 A2996 590 69 500 VRB/05 RMK AO2
14840KMKG MKG20071112143009711/12/07 14:30:31  5-MIN KMKG 121930Z 31008KT 5SM HZ FEW012 13/07 A2997 590 66 500 310/08 RMK AO2
14840KMKG MKG20071112143509711/12/07 14:35:31  5-MIN KMKG 121935Z 32010KT 5SM HZ FEW012 13/07 A2996 590 66 500 320/10 RMK AO2
14840KMKG MKG20071112144010311/12/07 14:40:31  5-MIN KMKG 121940Z 32012G16KT 5SM HZ FEW012 13/07 A2997 590 64 600 320/12G16 RMK AO2
14840KMKG MKG20071112144510311/12/07 14:45:31  5-MIN KMKG 121945Z 31011G16KT 5SM HZ FEW012 13/07 A2997 590 64 600 320/11G16 RMK AO2
14840KMKG MKG20071112145012011/12/07 14:50:31  5-MIN KMKG 121950Z 31012G16KT 6SM HZ FEW019 13/06 A2996 590 61 600 310/12G16 RMK AO2 SLP148 T01330061
14840KMKG MKG20071112145512011/12/07 14:55:31  5-MIN KMKG 121955Z 30012G17KT 6SM HZ FEW019 13/06 A2996 590 61 600 310/12G17 RMK AO2 SLP147 T01330061
14840KMKG MKG20071112150010011/12/07 15:00:31  5-MIN KMKG 122000Z 31011G17KT 6SM HZ CLR 13/06 A2996 590 59 600 310/11G17 RMK AO2
14840KMKG MKG20071112150509411/12/07 15:05:31  5-MIN KMKG 122005Z 31012KT 6SM HZ CLR 13/06 A2996 590 61 600 320/12 RMK AO2
14840KMKG MKG20071112151009411/12/07 15:10:31  5-MIN KMKG 122010Z 31012KT 6SM HZ CLR 13/06 A2996 600 61 500 320/12 RMK AO2
14840KMKG MKG20071112151509111/12/07 15:15:31  5-MIN KMKG 122015Z 32009KT 7SM CLR 13/06 A2996 600 61 500 320/09 RMK AO2
14840KMKG MKG20071112152009111/12/07 15:20:31  5-MIN KMKG 122020Z 31011KT 7SM CLR 13/05 A2996 590 59 500 310/11 RMK AO2
14840KMKG MKG20071112152509111/12/07 15:25:31  5-MIN KMKG 122025Z 31009KT 7SM CLR 13/05 A2997 590 59 500 320/09 RMK AO2
14840KMKG MKG20071112153009711/12/07 15:30:31  5-MIN KMKG 122030Z 32014G18KT 7SM CLR 13/05 A2997 590 59 500 330/14G18 RMK AO2
14840KMKG MKG20071112153509711/12/07 15:35:31  5-MIN KMKG 122035Z 31011G18KT 8SM CLR 13/05 A2997 580 57 600 320/11G18 RMK AO2
14840KMKG MKG20071112154009711/12/07 15:40:31  5-MIN KMKG 122040Z 32012G17KT 8SM CLR 13/05 A2997 580 59 500 320/12G17 RMK AO2
14840KMKG MKG20071112154509711/12/07 15:45:31  5-MIN KMKG 122045Z 31010G17KT 7SM CLR 13/06 A2998 580 59 600 310/10G17 RMK AO2
14840KMKG MKG20071112155011411/12/07 15:50:31  5-MIN KMKG 122050Z 30010KT 7SM CLR 13/05 A2998 580 59 500 310/10 RMK AO2 SLP153 T01280050 50003
14840KMKG MKG20071112155511411/12/07 15:55:31  5-MIN KMKG 122055Z 31012KT 7SM CLR 13/05 A2998 580 59 500 310/12 RMK AO2 SLP153 T01280050 53003
14840KMKG MKG20071112160009111/12/07 16:00:31  5-MIN KMKG 122100Z 32010KT 8SM CLR 13/05 A2998 570 59 500 320/10 RMK AO2
14840KMKG MKG20071112160509711/12/07 16:05:31  5-MIN KMKG 122105Z 31013G17KT 8SM CLR 12/04 A2998 570 59 400 320/13G17 RMK AO2
14840KMKG MKG20071112161009711/12/07 16:10:31  5-MIN KMKG 122110Z 31010G17KT 8SM CLR 12/04 A2998 570 59 400 320/10G17 RMK AO2
14840KMKG MKG20071112161509111/12/07 16:15:31  5-MIN KMKG 122115Z 32011KT 8SM CLR 12/04 A2999 570 59 400 320/11 RMK AO2
14840KMKG MKG20071112162009711/12/07 16:20:31  5-MIN KMKG 122120Z 33011G19KT 9SM CLR 12/04 A2999 560 59 400 330/11G19 RMK AO2
14840KMKG MKG20071112162509711/12/07 16:25:31  5-MIN KMKG 122125Z 32014G19KT 9SM CLR 12/04 A2999 560 59 400 330/14G19 RMK AO2
14840KMKG MKG20071112163009111/12/07 16:30:31  5-MIN KMKG 122130Z 32012KT 9SM CLR 12/04 A2999 560 58 300 320/12 RMK AO2
14840KMKG MKG20071112163509211/12/07 16:35:31  5-MIN KMKG 122135Z 32011KT 10SM CLR 12/04 A3000 560 58 300 330/11 RMK AO2
14840KMKG MKG20071112164009211/12/07 16:40:31  5-MIN KMKG 122140Z 32010KT 10SM CLR 12/04 A3000 560 58 300 320/10 RMK AO2
14840KMKG MKG20071112164509211/12/07 16:45:31  5-MIN KMKG 122145Z 32010KT 10SM CLR 12/04 A3000 560 58 300 320/10 RMK AO2
14840KMKG MKG20071112165010911/12/07 16:50:31  5-MIN KMKG 122150Z 32008KT 10SM CLR 12/04 A3000 560 58 300 330/08 RMK AO2 SLP161 T01170039
14840KMKG MKG20071112165510911/12/07 16:55:31  5-MIN KMKG 122155Z 33007KT 10SM CLR 11/04 A3000 560 61 300 330/07 RMK AO2 SLP161 T01110039
14840KMKG MKG20071112170009211/12/07 17:00:31  5-MIN KMKG 122200Z 32007KT 10SM CLR 11/03 A3000 550 58 300 330/07 RMK AO2
14840KMKG MKG20071112170509211/12/07 17:05:31  5-MIN KMKG 122205Z 32007KT 10SM CLR 11/03 A3001 550 58 300 330/07 RMK AO2
14840KMKG MKG20071112171009211/12/07 17:10:31  5-MIN KMKG 122210Z 33008KT 10SM CLR 11/03 A3001 550 61 200 330/08 RMK AO2
14840KMKG MKG20071112171509211/12/07 17:15:31  5-MIN KMKG 122215Z 32006KT 10SM CLR 11/03 A3001 550 58 200 330/06 RMK AO2
14840KMKG MKG20071112172009211/12/07 17:20:31  5-MIN KMKG 122220Z 32006KT 10SM CLR 11/03 A3001 550 58 200 320/06 RMK AO2
14840KMKG MKG20071112172509211/12/07 17:25:31  5-MIN KMKG 122225Z 31005KT 10SM CLR 11/03 A3001 550 58 200 320/05 RMK AO2
14840KMKG MKG20071112173009211/12/07 17:30:31  5-MIN KMKG 122230Z 31006KT 10SM CLR 11/03 A3001 540 58 200 320/06 RMK AO2
14840KMKG MKG20071112173509211/12/07 17:35:31  5-MIN KMKG 122235Z 30004KT 10SM CLR 11/03 A3001 540 58 200 310/04 RMK AO2
14840KMKG MKG20071112174009211/12/07 17:40:31  5-MIN KMKG 122240Z 31003KT 10SM CLR 10/03 A3002 540 60 100 310/03 RMK AO2
14840KMKG MKG20071112174509211/12/07 17:45:31  5-MIN KMKG 122245Z 30004KT 10SM CLR 11/02 A3002 540 56 200 310/04 RMK AO2
14840KMKG MKG20071112175010911/12/07 17:50:31  5-MIN KMKG 122250Z 31004KT 10SM CLR 10/02 A3002 540 58 100 310/04 RMK AO2 SLP167 T01000022
14840KMKG MKG20071112175510911/12/07 17:55:31  5-MIN KMKG 122255Z 30004KT 10SM CLR 10/02 A3002 540 58 100 300/04 RMK AO2 SLP168 T01000022
14840KMKG MKG20071112180009211/12/07 18:00:31  5-MIN KMKG 122300Z 29003KT 10SM CLR 10/02 A3002 530 58 100 300/03 RMK AO2
14840KMKG MKG20071112180509011/12/07 18:05:31  5-MIN KMKG 122305Z 29004KT 10SM CLR 09/02 A3003 530 60 0 300/04 RMK AO2
14840KMKG MKG20071112181009011/12/07 18:10:31  5-MIN KMKG 122310Z 30004KT 10SM CLR 09/02 A3003 530 63 0 300/04 RMK AO2
14840KMKG MKG20071112181509011/12/07 18:15:31  5-MIN KMKG 122315Z 30004KT 10SM CLR 09/02 A3003 520 60 0 300/04 RMK AO2
14840KMKG MKG20071112182009011/12/07 18:20:31  5-MIN KMKG 122320Z 30003KT 10SM CLR 09/02 A3003 530 60 0 310/03 RMK AO2
14840KMKG MKG20071112182509311/12/07 18:25:31  5-MIN KMKG 122325Z 30003KT 10SM CLR 08/02 A3003 520 65 -100 300/03 RMK AO2
14840KMKG MKG20071112183009311/12/07 18:30:31  5-MIN KMKG 122330Z 30003KT 10SM CLR 08/02 A3003 530 65 -100 310/03 RMK AO2
14840KMKG MKG20071112183509311/12/07 18:35:31  5-MIN KMKG 122335Z 00000KT 10SM CLR 08/02 A3003 530 68 -100 000/00 RMK AO2
14840KMKG MKG20071112184009311/12/07 18:40:31  5-MIN KMKG 122340Z 00000KT 10SM CLR 08/03 A3003 530 68 -100 000/00 RMK AO2
14840KMKG MKG20071112184509311/12/07 18:45:31  5-MIN KMKG 122345Z 00000KT 10SM CLR 08/03 A3003 530 68 -100 000/00 RMK AO2
14840KMKG MKG20071112185012811/12/07 18:50:31  5-MIN KMKG 122350Z 00000KT 10SM CLR 08/03 A3004 520 68 -100 000/00 RMK AO2 SLP173 T00830028 10139 20078 53003
14840KMKG MKG20071112185512811/12/07 18:55:31  5-MIN KMKG 122355Z 00000KT 10SM CLR 08/03 A3004 520 70 -100 000/00 RMK AO2 SLP174 T00780028 10139 20078 51020
14840KMKG MKG20071112190009311/12/07 19:00:31  5-MIN KMKG 130000Z 00000KT 10SM CLR 08/03 A3004 520 70 -100 000/00 RMK AO2
14840KMKG MKG20071112190509311/12/07 19:05:31  5-MIN KMKG 130005Z 00000KT 10SM CLR 08/03 A3004 520 70 -100 000/00 RMK AO2
14840KMKG MKG20071112191009311/12/07 19:10:31  5-MIN KMKG 130010Z 31003KT 10SM CLR 08/03 A3004 520 73 -100 310/03 RMK AO2
14840KMKG MKG20071112191509311/12/07 19:15:31  5-MIN KMKG 130015Z 31004KT 10SM CLR 08/03 A3004 520 70 -100 310/04 RMK AO2
14840KMKG MKG20071112192009311/12/07 19:20:31  5-MIN KMKG 130020Z 30003KT 10SM CLR 08/03 A3004 520 70 -100 300/03 RMK AO2
14840KMKG MKG20071112192509011/12/07 19:25:31  5-MIN KMKG 130025Z 30003KT 10SM CLR 09/03 A3005 510 68 0 300/03 RMK AO2
14840KMKG MKG20071112193009011/12/07 19:30:31  5-MIN KMKG 130030Z 31003KT 10SM CLR 09/04 A3005 510 71 0 320/03 RMK AO2
14840KMKG MKG20071112193509011/12/07 19:35:31  5-MIN KMKG 130035Z 30004KT 10SM CLR 09/04 A3005 510 71 0 300/04 RMK AO2
14840KMKG MKG20071112194009011/12/07 19:40:31  5-MIN KMKG 130040Z 31004KT 10SM CLR 09/04 A3005 510 73 0 310/04 RMK AO2
14840KMKG MKG20071112194509311/12/07 19:45:31  5-MIN KMKG 130045Z 32005KT 10SM FEW110 09/04 A3005 510 73 0 320/05 RMK AO2
14840KMKG MKG20071112195011011/12/07 19:50:31  5-MIN KMKG 130050Z 33005KT 10SM SCT110 09/05 A3005 510 76 0 330/05 RMK AO2 SLP179 T00890050
14840KMKG MKG20071112195511011/12/07 19:55:31  5-MIN KMKG 130055Z 33005KT 10SM SCT110 09/05 A3005 510 76 0 340/05 RMK AO2 SLP179 T00890050
14840KMKG MKG20071112200009311/12/07 20:00:31  5-MIN KMKG 130100Z 33006KT 10SM BKN110 09/05 A3005 510 76 0 330/06 RMK AO2
14840KMKG MKG20071112200509311/12/07 20:05:31  5-MIN KMKG 130105Z 33005KT 10SM BKN110 09/05 A3005 510 76 0 330/05 RMK AO2
14840KMKG MKG20071112201009311/12/07 20:10:31  5-MIN KMKG 130110Z 33005KT 10SM BKN110 09/05 A3005 510 76 0 330/05 RMK AO2
14840KMKG MKG20071112201509311/12/07 20:15:31  5-MIN KMKG 130115Z 34004KT 10SM BKN110 09/05 A3005 510 76 0 340/04 RMK AO2
14840KMKG MKG20071112202009311/12/07 20:20:31  5-MIN KMKG 130120Z 34004KT 10SM BKN110 09/05 A3005 510 76 0 340/04 RMK AO2
14840KMKG MKG20071112202509311/12/07 20:25:31  5-MIN KMKG 130125Z 33004KT 10SM BKN110 09/04 A3005 510 73 0 340/04 RMK AO2
14840KMKG MKG20071112203009311/12/07 20:30:31  5-MIN KMKG 130130Z 34003KT 10SM BKN120 09/04 A3005 510 73 0 340/03 RMK AO2
14840KMKG MKG20071112203509311/12/07 20:35:31  5-MIN KMKG 130135Z 33004KT 10SM BKN120 09/04 A3005 510 73 0 340/04 RMK AO2
14840KMKG MKG20071112204009311/12/07 20:40:31  5-MIN KMKG 130140Z 35004KT 10SM SCT120 09/04 A3005 510 73 0 360/04 RMK AO2
14840KMKG MKG20071112204509311/12/07 20:45:31  5-MIN KMKG 130145Z 34004KT 10SM SCT120 09/04 A3005 510 73 0 350/04 RMK AO2
14840KMKG MKG20071112205011011/12/07 20:50:31  5-MIN KMKG 130150Z 34004KT 10SM SCT120 09/04 A3005 510 73 0 340/04 RMK AO2 SLP179 T00890044
14840KMKG MKG20071112205511011/12/07 20:55:31  5-MIN KMKG 130155Z 35003KT 10SM FEW120 09/04 A3005 510 73 0 350/03 RMK AO2 SLP178 T00890044
14840KMKG MKG20071112210009311/12/07 21:00:31  5-MIN KMKG 130200Z 34003KT 10SM FEW120 09/04 A3005 510 73 0 340/03 RMK AO2
14840KMKG MKG20071112210509311/12/07 21:05:31  5-MIN KMKG 130205Z 34004KT 10SM FEW120 09/04 A3005 510 73 0 340/04 RMK AO2
14840KMKG MKG20071112211009311/12/07 21:10:31  5-MIN KMKG 130210Z 00000KT 10SM FEW120 09/04 A3005 510 73 0 000/00 RMK AO2
14840KMKG MKG20071112211510511/12/07 21:15:31  5-MIN KMKG 130215Z 33003KT 10SM CLR 09/04 A3005 510 73 0 330/03 RMK AO2 CIG 110 RWY 14
14840KMKG MKG20071112212010511/12/07 21:20:31  5-MIN KMKG 130220Z 33003KT 10SM CLR 09/04 A3006 510 73 0 330/03 RMK AO2 CIG 110 RWY 14
14840KMKG MKG20071112212510511/12/07 21:25:31  5-MIN KMKG 130225Z 33005KT 10SM CLR 09/04 A3006 500 73 0 330/05 RMK AO2 CIG 110 RWY 14
14840KMKG MKG20071112213010511/12/07 21:30:31  5-MIN KMKG 130230Z 34005KT 10SM CLR 09/04 A3006 500 71 0 340/05 RMK AO2 CIG 110 RWY 14
14840KMKG MKG20071112213510811/12/07 21:35:31  5-MIN KMKG 130235Z 34005KT 10SM CLR 08/04 A3006 500 76 -100 340/05 RMK AO2 CIG 110 RWY 14
14840KMKG MKG20071112214009311/12/07 21:40:31  5-MIN KMKG 130240Z 34005KT 10SM CLR 08/04 A3007 490 73 -100 340/05 RMK AO2
14840KMKG MKG20071112214509311/12/07 21:45:31  5-MIN KMKG 130245Z 34005KT 10SM CLR 08/04 A3007 500 73 -100 340/05 RMK AO2
14840KMKG MKG20071112215011611/12/07 21:50:31  5-MIN KMKG 130250Z 34006KT 10SM CLR 08/04 A3006 500 73 -100 340/06 RMK AO2 SLP183 T00830039 51020
14840KMKG MKG20071112215511611/12/07 21:55:31  5-MIN KMKG 130255Z 34004KT 10SM CLR 08/04 A3006 500 73 -100 350/04 RMK AO2 SLP183 T00830039 52008
14840KMKG MKG20071112220009311/12/07 22:00:31  5-MIN KMKG 130300Z 36005KT 10SM CLR 08/04 A3006 500 73 -100 360/05 RMK AO2
14840KMKG MKG20071112220509311/12/07 22:05:31  5-MIN KMKG 130305Z 35004KT 10SM CLR 08/04 A3006 500 73 -100 360/04 RMK AO2
14840KMKG MKG20071112221009011/12/07 22:10:31  5-MIN KMKG 130310Z 34005KT 10SM CLR 09/03 A3007 500 68 0 350/05 RMK AO2
14840KMKG MKG20071112221509311/12/07 22:15:31  5-MIN KMKG 130315Z 31003KT 10SM CLR 08/03 A3007 500 70 -100 320/03 RMK AO2
14840KMKG MKG20071112222009011/12/07 22:20:31  5-MIN KMKG 130320Z 00000KT 10SM CLR 09/03 A3007 490 68 0 000/00 RMK AO2
14840KMKG MKG20071112222509011/12/07 22:25:31  5-MIN KMKG 130325Z 00000KT 10SM CLR 09/03 A3007 500 68 0 000/00 RMK AO2
14840KMKG MKG20071112223009311/12/07 22:30:31  5-MIN KMKG 130330Z 00000KT 10SM CLR 08/03 A3007 500 70 -100 000/00 RMK AO2
14840KMKG MKG20071112223509311/12/07 22:35:31  5-MIN KMKG 130335Z 00000KT 10SM CLR 08/03 A3007 490 70 -100 000/00 RMK AO2
14840KMKG MKG20071112224009311/12/07 22:40:31  5-MIN KMKG 130340Z 33003KT 10SM CLR 08/03 A3007 490 70 -100 330/03 RMK AO2
14840KMKG MKG20071112224509311/12/07 22:45:31  5-MIN KMKG 130345Z 35004KT 10SM CLR 08/03 A3007 490 73 -200 350/04 RMK AO2
14840KMKG MKG20071112225011011/12/07 22:50:31  5-MIN KMKG 130350Z 34004KT 10SM CLR 07/03 A3008 490 76 -200 340/04 RMK AO2 SLP188 T00720033
14840KMKG MKG20071112225511011/12/07 22:55:31  5-MIN KMKG 130355Z 34004KT 10SM CLR 07/03 A3008 490 76 -200 340/04 RMK AO2 SLP187 T00720033
14840KMKG MKG20071112230009311/12/07 23:00:31  5-MIN KMKG 130400Z 33003KT 10SM CLR 07/03 A3008 490 73 -200 330/03 RMK AO2
14840KMKG MKG20071112230509311/12/07 23:05:31  5-MIN KMKG 130405Z 33003KT 10SM CLR 07/03 A3008 490 76 -200 330/03 RMK AO2
14840KMKG MKG20071112231009311/12/07 23:10:31  5-MIN KMKG 130410Z 32004KT 10SM CLR 07/03 A3008 480 73 -200 320/04 RMK AO2
14840KMKG MKG20071112231509311/12/07 23:15:31  5-MIN KMKG 130415Z 33004KT 10SM CLR 07/03 A3008 480 76 -300 330/04 RMK AO2
14840KMKG MKG20071112232009311/12/07 23:20:31  5-MIN KMKG 130420Z 33004KT 10SM CLR 07/03 A3008 480 76 -300 340/04 RMK AO2
14840KMKG MKG20071112232509311/12/07 23:25:31  5-MIN KMKG 130425Z 34003KT 10SM CLR 07/03 A3008 480 76 -300 340/03 RMK AO2
14840KMKG MKG20071112233009311/12/07 23:30:31  5-MIN KMKG 130430Z 32003KT 10SM CLR 07/03 A3008 480 76 -200 330/03 RMK AO2
14840KMKG MKG20071112233509311/12/07 23:35:31  5-MIN KMKG 130435Z 00000KT 10SM CLR 07/03 A3008 490 76 -200 000/00 RMK AO2
14840KMKG MKG20071112234009311/12/07 23:40:31  5-MIN KMKG 130440Z 00000KT 10SM CLR 07/03 A3008 480 76 -300 000/00 RMK AO2
14840KMKG MKG20071112234509311/12/07 23:45:31  5-MIN KMKG 130445Z 00000KT 10SM CLR 07/03 A3007 490 76 -300 000/00 RMK AO2
14840KMKG MKG20071112235012011/12/07 23:50:31  5-MIN KMKG 130450Z 00000KT 10SM CLR 07/03 A3007 490 76 -300 000/00 RMK AO2 SLP186 T00670028 401390067
14840KMKG MKG20071112235512011/12/07 23:55:31  5-MIN KMKG 130455Z 00000KT 10SM CLR 07/03 A3007 490 76 -300 000/00 RMK AO2 SLP185 T00670028 401390067
14840KMKG MKG20071113000009311/13/07 00:00:32  5-MIN KMKG 130500Z 00000KT 10SM CLR 07/03 A3007 490 73 -200 000/00 RMK AO2
14840KMKG MKG20071113000509311/13/07 00:05:31  5-MIN KMKG 130505Z 00000KT 10SM CLR 07/03 A3007 490 76 -300 000/00 RMK AO2
14840KMKG MKG20071113001009311/13/07 00:10:31  5-MIN KMKG 130510Z 00000KT 10SM CLR 06/03 A3007 490 82 -400 000/00 RMK AO2
14840KMKG MKG20071113001509311/13/07 00:15:31  5-MIN KMKG 130515Z 00000KT 10SM CLR 06/03 A3007 490 79 -400 000/00 RMK AO2
14840KMKG MKG20071113002009311/13/07 00:20:31  5-MIN KMKG 130520Z 00000KT 10SM CLR 05/03 A3007 490 85 -500 000/00 RMK AO2
14840KMKG MKG20071113002509311/13/07 00:25:31  5-MIN KMKG 130525Z 00000KT 10SM CLR 03/02 A3007 490 92 -800 000/00 RMK AO2
14840KMKG MKG20071113003009311/13/07 00:30:31  5-MIN KMKG 130530Z 00000KT 10SM CLR 03/01 A3007 490 82 -700 000/00 RMK AO2
14840KMKG MKG20071113003509311/13/07 00:35:31  5-MIN KMKG 130535Z 00000KT 10SM CLR 03/02 A3007 490 89 -700 000/00 RMK AO2
14840KMKG MKG20071113004009211/13/07 00:40:31  5-MIN KMKG 130540Z 00000KT 9SM CLR 03/02 A3007 490 89 -700 000/00 RMK AO2
14840KMKG MKG20071113004509311/13/07 00:45:31  5-MIN KMKG 130545Z 00000KT 10SM CLR 03/02 A3007 490 89 -700 000/00 RMK AO2
14840KMKG MKG20071113005012811/13/07 00:50:31  5-MIN KMKG 130550Z 00000KT 10SM CLR 03/02 A3006 500 92 -700 000/00 RMK AO2 SLP185 T00330022 10089 20028 52008
14840KMKG MKG20071113005512811/13/07 00:55:31  5-MIN KMKG 130555Z 00000KT 10SM CLR 04/02 A3006 500 89 -600 000/00 RMK AO2 SLP183 T00390022 10089 20028 50000
14840KMKG MKG20071113010009311/13/07 01:00:31  5-MIN KMKG 130600Z 00000KT 10SM CLR 03/02 A3006 500 92 -700 000/00 RMK AO2
14840KMKG MKG20071113010509311/13/07 01:05:31  5-MIN KMKG 130605Z 00000KT 10SM CLR 03/02 A3007 500 92 -800 000/00 RMK AO2
14840KMKG MKG20071113011009311/13/07 01:10:31  5-MIN KMKG 130610Z 00000KT 10SM CLR 03/02 A3007 500 92 -800 000/00 RMK AO2
14840KMKG MKG20071113011509311/13/07 01:15:31  5-MIN KMKG 130615Z 00000KT 10SM CLR 03/02 A3006 500 92 -800 000/00 RMK AO2
14840KMKG MKG20071113012009211/13/07 01:20:31  5-MIN KMKG 130620Z 00000KT 9SM CLR 03/02 A3006 500 92 -800 000/00 RMK AO2
14840KMKG MKG20071113012509211/13/07 01:25:31  5-MIN KMKG 130625Z 00000KT 9SM CLR 02/01 A3006 500 92 -800 000/00 RMK AO2
14840KMKG MKG20071113013010511/13/07 01:30:31  5-MIN KMKG 130630Z 00000KT 9SM CLR 02/01 A3006 500 92 -800 000/00 RMK AO2 VIS 2 RWY 14
14840KMKG MKG20071113013510811/13/07 01:35:31  5-MIN KMKG 130635Z 00000KT 6SM BR CLR 02/01 A3006 500 92 -900 000/00 RMK AO2 VIS 2 RWY 14
14840KMKG MKG20071113014009611/13/07 01:40:31  5-MIN KMKG 130640Z 00000KT 4SM BR CLR 01/00 A3006 500 92 -1000 000/00 RMK AO2
14840KMKG MKG20071113014509511/13/07 01:45:31  5-MIN KMKG 130645Z 00000KT 4SM BR CLR 02/00 A3006 500 89 -900 000/00 RMK AO2
14840KMKG MKG20071113015011211/13/07 01:50:31  5-MIN KMKG 130650Z 00000KT 5SM BR CLR 02/01 A3006 500 92 -900 000/00 RMK AO2 SLP184 T00170006
14840KMKG MKG20071113015511711/13/07 01:55:31  5-MIN KMKG 130655Z 00000KT 1 1/2SM BR CLR 01/00 A3006 500 92 -1000 000/00 RMK AO2 SLP184 T00110000
14840KMKG MKG20071113020010011/13/07 02:00:31  5-MIN KMKG 130700Z 00000KT 1 1/2SM BR CLR 01/01 A3006 500 96 -1000 000/00 RMK AO2
14840KMKG MKG20071113020511011/13/07 02:05:31  5-MIN KMKG 130705Z 00000KT 7SM CLR 01/00 A3006 500 92 -1000 000/00 RMK AO2 VIS 1 1/2 RWY 14
14840KMKG MKG20071113021010611/13/07 02:10:31  5-MIN KMKG 130710Z 00000KT 8SM CLR 01/00 A3007 500 92 -1000 000/00 RMK AO2 VIS 1 RWY 14
14840KMKG MKG20071113021511411/13/07 02:15:31  5-MIN KMKG 130715Z 00000KT 6SM BR CLR 01/M01 A3006 500 92 -1100 000/00 RMK AO2 VIS 2 1/2 RWY 14
14840KMKG MKG20071113022009311/13/07 02:20:31  5-MIN KMKG 130720Z 00000KT 7SM CLR 01/00 A3006 500 92 -1000 000/00 RMK AO2
14840KMKG MKG20071113022509311/13/07 02:25:31  5-MIN KMKG 130725Z 00000KT 9SM CLR 01/00 A3006 500 92 -1000 000/00 RMK AO2
14840KMKG MKG20071113023009311/13/07 02:30:31  5-MIN KMKG 130730Z 00000KT 10SM CLR 02/00 A3007 500 89 -900 000/00 RMK AO2
14840KMKG MKG20071113023509511/13/07 02:35:31  5-MIN KMKG 130735Z 00000KT 10SM CLR 01/M01 A3007 490 89 -1000 000/00 RMK AO2
14840KMKG MKG20071113024009711/13/07 02:40:31  5-MIN KMKG 130740Z 00000KT 3SM BR CLR 01/M01 A3007 490 92 -1100 000/00 RMK AO2
14840KMKG MKG20071113024510911/13/07 02:45:31  5-MIN KMKG 130745Z 00000KT 2 1/2SM BR CLR 01/M01 A3007 490 89 -1100 000/00 RMK AO2 VIS 1V5
14840KMKG MKG20071113025011411/13/07 02:50:31  5-MIN KMKG 130750Z 00000KT 5SM BR CLR 01/M01 A3007 500 92 -1100 000/00 RMK AO2 SLP185 T00061006
14840KMKG MKG20071113025511411/13/07 02:55:31  5-MIN KMKG 130755Z 00000KT 5SM BR CLR 01/M01 A3007 490 92 -1100 000/00 RMK AO2 SLP186 T00061006
14840KMKG MKG20071113030009711/13/07 03:00:31  5-MIN KMKG 130800Z 00000KT 4SM BR CLR 01/M01 A3007 490 92 -1100 000/00 RMK AO2
14840KMKG MKG20071113030509711/13/07 03:05:31  5-MIN KMKG 130805Z 00000KT 4SM BR CLR 01/M01 A3006 500 92 -1100 000/00 RMK AO2
14840KMKG MKG20071113031009711/13/07 03:10:31  5-MIN KMKG 130810Z 00000KT 5SM BR CLR 01/M01 A3006 500 92 -1100 000/00 RMK AO2
14840KMKG MKG20071113031509711/13/07 03:15:31  5-MIN KMKG 130815Z 00000KT 3SM BR CLR 00/M01 A3006 500 96 -1100 000/00 RMK AO2
14840KMKG MKG20071113032009711/13/07 03:20:31  5-MIN KMKG 130820Z 00000KT 3SM BR CLR 00/M01 A3006 500 92 -1100 000/00 RMK AO2
14840KMKG MKG20071113032509811/13/07 03:25:31  5-MIN KMKG 130825Z 12003KT 5SM BR CLR M01/M02 A3006 500 92 -1200 130/03 RMK AO2
14840KMKG MKG20071113033009511/13/07 03:30:31  5-MIN KMKG 130830Z 13004KT 8SM CLR M01/M02 A3006 500 92 -1200 130/04 RMK AO2
14840KMKG MKG20071113033509511/13/07 03:35:31  5-MIN KMKG 130835Z 13004KT 9SM CLR M01/M02 A3006 500 92 -1300 140/04 RMK AO2
14840KMKG MKG20071113034009511/13/07 03:40:31  5-MIN KMKG 130840Z 00000KT 9SM CLR M01/M02 A3006 500 92 -1200 000/00 RMK AO2
14840KMKG MKG20071113034509511/13/07 03:45:31  5-MIN KMKG 130845Z 00000KT 9SM CLR M01/M02 A3007 490 92 -1300 000/00 RMK AO2
14840KMKG MKG20071113035011711/13/07 03:50:31  5-MIN KMKG 130850Z 00000KT 9SM CLR 00/M01 A3007 490 92 -1100 000/00 RMK AO2 SLP186 T00001011 50000
14840KMKG MKG20071113035511711/13/07 03:55:31  5-MIN KMKG 130855Z 00000KT 9SM CLR 00/M01 A3006 500 92 -1100 000/00 RMK AO2 SLP184 T00001011 50000
14840KMKG MKG20071113040009511/13/07 04:00:31  5-MIN KMKG 130900Z 00000KT 9SM CLR M01/M02 A3006 500 92 -1200 000/00 RMK AO2
14840KMKG MKG20071113040509611/13/07 04:05:31  5-MIN KMKG 130905Z 00000KT 10SM CLR M01/M02 A3006 500 92 -1200 000/00 RMK AO2
14840KMKG MKG20071113041009511/13/07 04:10:31  5-MIN KMKG 130910Z 00000KT 9SM CLR M01/M02 A3006 500 96 -1300 000/00 RMK AO2
14840KMKG MKG20071113041509511/13/07 04:15:31  5-MIN KMKG 130915Z 00000KT 8SM CLR M01/M02 A3006 500 92 -1300 000/00 RMK AO2
14840KMKG MKG20071113042009511/13/07 04:20:31  5-MIN KMKG 130920Z 00000KT 8SM CLR M01/M02 A3006 500 92 -1300 000/00 RMK AO2
14840KMKG MKG20071113042509511/13/07 04:25:31  5-MIN KMKG 130925Z 00000KT 9SM CLR M01/M02 A3006 500 92 -1300 000/00 RMK AO2
14840KMKG MKG20071113043009611/13/07 04:30:31  5-MIN KMKG 130930Z 00000KT 10SM CLR M01/M02 A3006 500 92 -1300 000/00 RMK AO2
14840KMKG MKG20071113043509611/13/07 04:35:31  5-MIN KMKG 130935Z 12003KT 10SM CLR M01/M02 A3006 500 88 -1200 130/03 RMK AO2
14840KMKG MKG20071113044009611/13/07 04:40:31  5-MIN KMKG 130940Z 00000KT 10SM CLR M01/M02 A3006 500 92 -1200 000/00 RMK AO2
14840KMKG MKG20071113044509611/13/07 04:45:31  5-MIN KMKG 130945Z 00000KT 10SM CLR M01/M02 A3005 510 92 -1300 000/00 RMK AO2
14840KMKG MKG20071113045011311/13/07 04:50:31  5-MIN KMKG 130950Z 00000KT 10SM CLR M01/M02 A3005 510 88 -1200 000/00 RMK AO2 SLP182 T10061022
14840KMKG MKG20071113045511311/13/07 04:55:31  5-MIN KMKG 130955Z 00000KT 10SM CLR M01/M02 A3005 510 92 -1200 000/00 RMK AO2 SLP179 T10111022
14840KMKG MKG20071113050009511/13/07 05:00:31  5-MIN KMKG 131000Z 13003KT 9SM CLR M01/M02 A3005 510 92 -1200 130/03 RMK AO2
14840KMKG MKG20071113050509511/13/07 05:05:31  5-MIN KMKG 131005Z 12004KT 9SM CLR M02/M03 A3005 520 92 -1300 130/04 RMK AO2
14840KMKG MKG20071113051009511/13/07 05:10:31  5-MIN KMKG 131010Z 12004KT 9SM CLR M02/M03 A3005 510 92 -1300 130/04 RMK AO2
14840KMKG MKG20071113051509611/13/07 05:15:31  5-MIN KMKG 131015Z 14003KT 10SM CLR M02/M03 A3005 520 88 -1300 150/03 RMK AO2
14840KMKG MKG20071113052009611/13/07 05:20:31  5-MIN KMKG 131020Z 00000KT 10SM CLR M02/M03 A3004 520 88 -1300 000/00 RMK AO2
14840KMKG MKG20071113052509511/13/07 05:25:31  5-MIN KMKG 131025Z 00000KT 9SM CLR M01/M03 A3004 520 88 -1200 000/00 RMK AO2
14840KMKG MKG20071113053009511/13/07 05:30:31  5-MIN KMKG 131030Z 00000KT 9SM CLR M01/M03 A3004 520 88 -1200 000/00 RMK AO2
14840KMKG MKG20071113053509511/13/07 05:35:31  5-MIN KMKG 131035Z 00000KT 9SM CLR M02/M03 A3004 520 92 -1300 000/00 RMK AO2
14840KMKG MKG20071113054009511/13/07 05:40:31  5-MIN KMKG 131040Z 12004KT 9SM CLR M02/M03 A3004 520 88 -1300 130/04 RMK AO2
14840KMKG MKG20071113054509611/13/07 05:45:31  5-MIN KMKG 131045Z 12003KT 10SM CLR M02/M03 A3005 510 88 -1300 120/03 RMK AO2
14840KMKG MKG20071113055011311/13/07 05:50:31  5-MIN KMKG 131050Z 10003KT 10SM CLR M02/M03 A3005 510 88 -1300 110/03 RMK AO2 SLP181 T10171033
14840KMKG MKG20071113055511211/13/07 05:55:31  5-MIN KMKG 131055Z 00000KT 9SM CLR M01/M03 A3005 510 88 -1300 000/00 RMK AO2 SLP182 T10111028
14840KMKG MKG20071113060009511/13/07 06:00:31  5-MIN KMKG 131100Z 00000KT 8SM CLR M01/M02 A3005 510 88 -1200 000/00 RMK AO2
14840KMKG MKG20071113060511211/13/07 06:05:31  5-MIN KMKG 131105Z 00000KT 7SM CLR M01/M02 A3005 510 88 -1200 000/00 RMK AO2 VIS 2 1/2 RWY 14
14840KMKG MKG20071113061011511/13/07 06:10:31  5-MIN KMKG 131110Z 00000KT 6SM BR CLR M01/M02 A3005 510 92 -1200 000/00 RMK AO2 VIS 2 1/2 RWY 14
14840KMKG MKG20071113061510211/13/07 06:15:31  5-MIN KMKG 131115Z 00000KT 2 1/2SM BR CLR M01/M02 A3005 510 88 -1200 000/00 RMK AO2
14840KMKG MKG20071113062009811/13/07 06:20:31  5-MIN KMKG 131120Z 00000KT 5SM BR CLR M01/M02 A3006 500 92 -1300 000/00 RMK AO2
14840KMKG MKG20071113062509811/13/07 06:25:31  5-MIN KMKG 131125Z 00000KT 5SM BR CLR M02/M03 A3005 510 92 -1300 000/00 RMK AO2
14840KMKG MKG20071113063009811/13/07 06:30:31  5-MIN KMKG 131130Z 00000KT 5SM BR CLR M02/M03 A3005 510 92 -1300 000/00 RMK AO2
14840KMKG MKG20071113063509811/13/07 06:35:31  5-MIN KMKG 131135Z 00000KT 5SM BR CLR M02/M03 A3006 510 92 -1300 000/00 RMK AO2
14840KMKG MKG20071113064011211/13/07 06:40:31  5-MIN KMKG 131140Z 00000KT 7SM CLR M01/M03 A3006 500 88 -1300 000/00 RMK AO2 VIS 2 1/2 RWY 14
14840KMKG MKG20071113064509511/13/07 06:45:31  5-MIN KMKG 131145Z 00000KT 7SM CLR M02/M03 A3006 500 92 -1300 000/00 RMK AO2
14840KMKG MKG20071113065013011/13/07 06:50:31  5-MIN KMKG 131150Z 00000KT 7SM CLR M01/M03 A3006 500 88 -1300 000/00 RMK AO2 SLP185 T10111028 10039 21017 50000
14840KMKG MKG20071113065513011/13/07 06:55:31  5-MIN KMKG 131155Z 00000KT 7SM CLR M01/M03 A3006 500 88 -1300 000/00 RMK AO2 SLP184 T10111028 10039 21017 55002
14840KMKG MKG20071113070009811/13/07 07:00:31  5-MIN KMKG 131200Z 00000KT 6SM BR CLR M02/M03 A3006 500 92 -1400 000/00 RMK AO2
14840KMKG MKG20071113070509811/13/07 07:05:31  5-MIN KMKG 131205Z 00000KT 6SM BR CLR M02/M03 A3006 500 88 -1300 000/00 RMK AO2
14840KMKG MKG20071113071009811/13/07 07:10:31  5-MIN KMKG 131210Z 00000KT 6SM BR CLR M02/M03 A3006 500 92 -1300 000/00 RMK AO2
14840KMKG MKG20071113071509511/13/07 07:15:31  5-MIN KMKG 131215Z 13003KT 7SM CLR M02/M03 A3006 500 88 -1300 130/03 RMK AO2
14840KMKG MKG20071113072009511/13/07 07:20:31  5-MIN KMKG 131220Z 13004KT 7SM CLR M02/M03 A3006 500 88 -1300 140/04 RMK AO2
14840KMKG MKG20071113072509511/13/07 07:25:31  5-MIN KMKG 131225Z 13004KT 8SM CLR M02/M03 A3006 500 88 -1300 140/04 RMK AO2
14840KMKG MKG20071113073009511/13/07 07:30:31  5-MIN KMKG 131230Z 13004KT 7SM CLR M02/M03 A3006 500 88 -1300 130/04 RMK AO2
14840KMKG MKG20071113073509511/13/07 07:35:31  5-MIN KMKG 131235Z 12003KT 7SM CLR M02/M03 A3007 490 88 -1300 120/03 RMK AO2
14840KMKG MKG20071113074009511/13/07 07:40:31  5-MIN KMKG 131240Z 12004KT 7SM CLR M02/M04 A3007 500 88 -1400 120/04 RMK AO2
14840KMKG MKG20071113074509511/13/07 07:45:31  5-MIN KMKG 131245Z 13003KT 7SM CLR M02/M03 A3007 490 88 -1300 130/03 RMK AO2
14840KMKG MKG20071113075011211/13/07 07:50:31  5-MIN KMKG 131250Z 12003KT 7SM CLR M02/M03 A3007 490 92 -1300 120/03 RMK AO2 SLP188 T10171028
14840KMKG MKG20071113075511511/13/07 07:55:31  5-MIN KMKG 131255Z 13004KT 6SM BR CLR M02/M03 A3006 500 88 -1300 130/04 RMK AO2 SLP185 T10171033
14840KMKG MKG20071113080009811/13/07 08:00:31  5-MIN KMKG 131300Z 12005KT 6SM BR CLR M02/M03 A3006 510 88 -1300 130/05 RMK AO2
14840KMKG MKG20071113080509811/13/07 08:05:31  5-MIN KMKG 131305Z 13005KT 6SM BR CLR M02/M03 A3006 510 92 -1300 140/05 RMK AO2
14840KMKG MKG20071113081009811/13/07 08:10:31  5-MIN KMKG 131310Z 14004KT 6SM BR CLR M01/M02 A3006 500 92 -1300 140/04 RMK AO2
14840KMKG MKG20071113081509811/13/07 08:15:31  5-MIN KMKG 131315Z 00000KT 6SM BR CLR M01/M02 A3006 500 88 -1200 000/00 RMK AO2
14840KMKG MKG20071113082009711/13/07 08:20:31  5-MIN KMKG 131320Z 00000KT 6SM BR CLR 00/M02 A3007 500 88 -1100 000/00 RMK AO2
14840KMKG MKG20071113082509411/13/07 08:25:31  5-MIN KMKG 131325Z 13003KT 7SM CLR 00/M02 A3006 500 88 -1100 130/03 RMK AO2
14840KMKG MKG20071113083009411/13/07 08:30:31  5-MIN KMKG 131330Z 11003KT 7SM CLR 00/M01 A3006 500 92 -1100 110/03 RMK AO2
14840KMKG MKG20071113083509711/13/07 08:35:31  5-MIN KMKG 131335Z 13005KT 6SM BR CLR 01/M01 A3006 500 89 -1000 140/05 RMK AO2
14840KMKG MKG20071113084009711/13/07 08:40:31  5-MIN KMKG 131340Z 15004KT 6SM BR CLR 01/M01 A3006 500 89 -1000 160/04 RMK AO2
14840KMKG MKG20071113084509211/13/07 08:45:31  5-MIN KMKG 131345Z 00000KT 7SM CLR 02/00 A3006 500 89 -900 000/00 RMK AO2
14840KMKG MKG20071113085010911/13/07 08:50:31  5-MIN KMKG 131350Z 00000KT 7SM CLR 02/01 A3006 500 89 -800 000/00 RMK AO2 SLP184 T00220006
14840KMKG MKG20071113085510911/13/07 08:55:31  5-MIN KMKG 131355Z 15005KT 7SM CLR 03/01 A3005 510 89 -800 150/05 RMK AO2 SLP182 T00280011
14840KMKG MKG20071113090009211/13/07 09:00:31  5-MIN KMKG 131400Z 15005KT 7SM CLR 03/01 A3005 510 89 -800 150/05 RMK AO2
14840KMKG MKG20071113090509211/13/07 09:05:31  5-MIN KMKG 131405Z 14004KT 8SM CLR 03/02 A3005 510 89 -700 140/04 RMK AO2
14840KMKG MKG20071113091009211/13/07 09:10:31  5-MIN KMKG 131410Z 14003KT 9SM CLR 04/02 A3006 500 89 -600 150/03 RMK AO2
14840KMKG MKG20071113091509211/13/07 09:15:31  5-MIN KMKG 131415Z 15004KT 9SM CLR 05/02 A3006 500 82 -500 150/04 RMK AO2
14840KMKG MKG20071113092009311/13/07 09:20:31  5-MIN KMKG 131420Z 16005KT 10SM CLR 05/02 A3006 500 82 -500 160/05 RMK AO2
14840KMKG MKG20071113092509311/13/07 09:25:31  5-MIN KMKG 131425Z 16005KT 10SM CLR 06/02 A3006 500 79 -400 160/05 RMK AO2
14840KMKG MKG20071113093009311/13/07 09:30:31  5-MIN KMKG 131430Z 16005KT 10SM CLR 06/02 A3006 500 79 -400 160/05 RMK AO2
14840KMKG MKG20071113093509311/13/07 09:35:31  5-MIN KMKG 131435Z 16006KT 10SM CLR 06/02 A3006 500 76 -400 160/06 RMK AO2
14840KMKG MKG20071113094009311/13/07 09:40:31  5-MIN KMKG 131440Z 16005KT 10SM CLR 07/02 A3006 500 73 -300 160/05 RMK AO2
14840KMKG MKG20071113094509311/13/07 09:45:31  5-MIN KMKG 131445Z 17005KT 10SM CLR 07/02 A3006 500 70 -200 180/05 RMK AO2
14840KMKG MKG20071113095011611/13/07 09:50:31  5-MIN KMKG 131450Z 17005KT 10SM CLR 07/02 A3006 500 70 -200 180/05 RMK AO2 SLP183 T00720022 55002
14840KMKG MKG20071113095511611/13/07 09:55:31  5-MIN KMKG 131455Z 18005KT 10SM CLR 08/02 A3006 500 68 -200 180/05 RMK AO2 SLP184 T00780022 53002
14840KMKG MKG20071113100009311/13/07 10:00:31  5-MIN KMKG 131500Z 19004KT 10SM CLR 08/02 A3006 500 68 -200 190/04 RMK AO2
14840KMKG MKG20071113100509311/13/07 10:05:31  5-MIN KMKG 131505Z 18005KT 10SM CLR 08/02 A3006 500 68 -200 190/05 RMK AO2
14840KMKG MKG20071113101009311/13/07 10:10:31  5-MIN KMKG 131510Z 17005KT 10SM CLR 08/02 A3006 500 63 -100 180/05 RMK AO2
14840KMKG MKG20071113101509011/13/07 10:15:31  5-MIN KMKG 131515Z 16004KT 10SM CLR 09/02 A3006 500 60 0 170/04 RMK AO2
14840KMKG MKG20071113102009011/13/07 10:20:31  5-MIN KMKG 131520Z 16006KT 10SM CLR 09/02 A3005 510 60 0 170/06 RMK AO2
14840KMKG MKG20071113102509011/13/07 10:25:31  5-MIN KMKG 131525Z 17006KT 10SM CLR 09/02 A3005 510 58 0 170/06 RMK AO2
14840KMKG MKG20071113103009011/13/07 10:30:31  5-MIN KMKG 131530Z 17006KT 10SM CLR 09/02 A3005 510 58 0 180/06 RMK AO2
14840KMKG MKG20071113103509011/13/07 10:35:31  5-MIN KMKG 131535Z 17008KT 10SM CLR 09/01 A3005 510 56 0 170/08 RMK AO2
14840KMKG MKG20071113104009011/13/07 10:40:31  5-MIN KMKG 131540Z 16008KT 10SM CLR 09/01 A3005 510 56 0 170/08 RMK AO2
14840KMKG MKG20071113104509011/13/07 10:45:31  5-MIN KMKG 131545Z 17006KT 10SM CLR 09/01 A3005 510 56 0 170/06 RMK AO2
14840KMKG MKG20071113105010911/13/07 10:50:31  5-MIN KMKG 131550Z 18009KT 10SM CLR 10/02 A3005 510 56 100 190/09 RMK AO2 SLP178 T01000017
14840KMKG MKG20071113105510911/13/07 10:55:31  5-MIN KMKG 131555Z 18010KT 10SM CLR 11/01 A3004 520 52 100 180/10 RMK AO2 SLP177 T01060011
14840KMKG MKG20071113110009211/13/07 11:00:31  5-MIN KMKG 131600Z 18009KT 10SM CLR 11/01 A3004 520 52 100 180/09 RMK AO2
14840KMKG MKG20071113110509211/13/07 11:05:31  5-MIN KMKG 131605Z 18009KT 10SM CLR 11/01 A3004 520 50 200 180/09 RMK AO2
14840KMKG MKG20071113111009211/13/07 11:10:31  5-MIN KMKG 131610Z 20010KT 10SM CLR 11/02 A3004 520 52 200 200/10 RMK AO2
14840KMKG MKG20071113111509211/13/07 11:15:31  5-MIN KMKG 131615Z 21011KT 10SM CLR 11/02 A3004 520 54 100 210/11 RMK AO2
14840KMKG MKG20071113112009211/13/07 11:20:31  5-MIN KMKG 131620Z 19011KT 10SM CLR 11/02 A3004 520 54 200 200/11 RMK AO2
14840KMKG MKG20071113112509211/13/07 11:25:31  5-MIN KMKG 131625Z 19012KT 10SM CLR 10/02 A3004 520 56 100 190/12 RMK AO2
14840KMKG MKG20071113113009211/13/07 11:30:31  5-MIN KMKG 131630Z 19012KT 10SM CLR 10/02 A3004 520 56 100 200/12 RMK AO2
14840KMKG MKG20071113113509211/13/07 11:35:31  5-MIN KMKG 131635Z 19012KT 10SM CLR 11/02 A3003 520 54 200 200/12 RMK AO2
14840KMKG MKG20071113114009211/13/07 11:40:31  5-MIN KMKG 131640Z 19011KT 10SM CLR 11/02 A3003 530 56 200 190/11 RMK AO2
14840KMKG MKG20071113114509211/13/07 11:45:31  5-MIN KMKG 131645Z 19010KT 10SM CLR 10/02 A3002 540 56 100 190/10 RMK AO2
14840KMKG MKG20071113115012211/13/07 11:50:31  5-MIN KMKG 131650Z 19013G17KT 10SM CLR 10/02 A3001 550 56 100 190/13G17 RMK AO2 PRESFR SLP165 T01000017
14840KMKG MKG20071113115511511/13/07 11:55:31  5-MIN KMKG 131655Z 18009G17KT 10SM CLR 11/02 A3001 550 54 200 180/09G17 RMK AO2 SLP164 T01060017
14840KMKG MKG20071113120009811/13/07 12:00:31  5-MIN KMKG 131700Z 18013G17KT 10SM CLR 11/02 A3001 550 54 200 180/13G17 RMK AO2
14840KMKG MKG20071113120509811/13/07 12:05:31  5-MIN KMKG 131705Z 18012G17KT 10SM CLR 11/02 A3001 550 52 300 190/12G17 RMK AO2
14840KMKG MKG20071113121009811/13/07 12:10:31  5-MIN KMKG 131710Z 19012G17KT 10SM CLR 11/02 A3000 560 52 300 200/12G17 RMK AO2
14840KMKG MKG20071113121509811/13/07 12:15:31  5-MIN KMKG 131715Z 19010G17KT 10SM CLR 11/02 A3000 560 54 300 200/10G17 RMK AO2
14840KMKG MKG20071113122009211/13/07 12:20:31  5-MIN KMKG 131720Z 19010KT 10SM CLR 11/02 A3000 560 52 300 200/10 RMK AO2
14840KMKG MKG20071113122509211/13/07 12:25:31  5-MIN KMKG 131725Z 19011KT 10SM CLR 11/02 A2999 560 52 300 200/11 RMK AO2
14840KMKG MKG20071113123009211/13/07 12:30:31  5-MIN KMKG 131730Z 19010KT 10SM CLR 12/02 A2999 560 52 300 200/10 RMK AO2
14840KMKG MKG20071113123509211/13/07 12:35:31  5-MIN KMKG 131735Z 20011KT 10SM CLR 12/02 A2999 570 50 300 200/11 RMK AO2
14840KMKG MKG20071113124009211/13/07 12:40:31  5-MIN KMKG 131740Z 19012KT 10SM CLR 12/02 A2999 570 52 300 190/12 RMK AO2
14840KMKG MKG20071113124509811/13/07 12:45:31  5-MIN KMKG 131745Z 19010G17KT 10SM CLR 12/03 A2999 570 54 300 190/10G17 RMK AO2
14840KMKG MKG20071113125012711/13/07 12:50:31  5-MIN KMKG 131750Z 19009KT 10SM CLR 11/03 A2999 560 56 300 200/09 RMK AO2 SLP159 T01110028 10117 21022 53002
14840KMKG MKG20071113125513311/13/07 12:55:31  5-MIN KMKG 131755Z 19011G17KT 10SM CLR 12/03 A2999 570 56 300 200/11G17 RMK AO2 SLP158 T01170033 10117 21022 58025
14840KMKG MKG20071113130009811/13/07 13:00:31  5-MIN KMKG 131800Z 19011G17KT 10SM CLR 12/03 A2998 570 56 400 200/11G17 RMK AO2
14840KMKG MKG20071113130509211/13/07 13:05:31  5-MIN KMKG 131805Z 19009KT 10SM CLR 12/03 A2998 570 56 400 190/09 RMK AO2
14840KMKG MKG20071113131009211/13/07 13:10:31  5-MIN KMKG 131810Z 19011KT 10SM CLR 12/03 A2998 580 56 400 200/11 RMK AO2
14840KMKG MKG20071113131509211/13/07 13:15:31  5-MIN KMKG 131815Z 18009KT 10SM CLR 11/04 A2998 580 61 300 190/09 RMK AO2
14840KMKG MKG20071113132009211/13/07 13:20:31  5-MIN KMKG 131820Z 19008KT 10SM CLR 12/04 A2998 580 56 400 190/08 RMK AO2
14840KMKG MKG20071113132509211/13/07 13:25:31  5-MIN KMKG 131825Z 21011KT 10SM CLR 12/04 A2997 580 58 400 210/11 RMK AO2
14840KMKG MKG20071113133009211/13/07 13:30:31  5-MIN KMKG 131830Z 20012KT 10SM CLR 12/04 A2997 590 58 400 200/12 RMK AO2
14840KMKG MKG20071113133509211/13/07 13:35:31  5-MIN KMKG 131835Z 20011KT 10SM CLR 12/04 A2997 590 58 400 210/11 RMK AO2
14840KMKG MKG20071113134009211/13/07 13:40:31  5-MIN KMKG 131840Z 20013KT 10SM CLR 12/04 A2996 590 58 400 200/13 RMK AO2
14840KMKG MKG20071113134509211/13/07 13:45:31  5-MIN KMKG 131845Z 21012KT 10SM CLR 11/04 A2996 590 61 300 210/12 RMK AO2
14840KMKG MKG20071113135010911/13/07 13:50:31  5-MIN KMKG 131850Z 20013KT 10SM CLR 11/04 A2995 600 61 300 200/13 RMK AO2 SLP147 T01110039
14840KMKG MKG20071113135511511/13/07 13:55:31  5-MIN KMKG 131855Z 20011G17KT 10SM CLR 11/04 A2995 610 63 300 210/11G17 RMK AO2 SLP145 T01060039
14840KMKG MKG20071113140009211/13/07 14:00:31  5-MIN KMKG 131900Z 20010KT 10SM CLR 11/04 A2994 610 63 300 200/10 RMK AO2
14840KMKG MKG20071113140509211/13/07 14:05:31  5-MIN KMKG 131905Z 19010KT 10SM CLR 12/04 A2994 610 61 400 190/10 RMK AO2
14840KMKG MKG20071113141009811/13/07 14:10:31  5-MIN KMKG 131910Z 19012G17KT 10SM CLR 12/04 A2994 610 61 400 190/12G17 RMK AO2
14840KMKG MKG20071113141509211/13/07 14:15:31  5-MIN KMKG 131915Z 18010KT 10SM CLR 11/04 A2993 620 63 300 180/10 RMK AO2
14840KMKG MKG20071113142009211/13/07 14:20:31  5-MIN KMKG 131920Z 19011KT 10SM CLR 12/04 A2993 620 61 400 190/11 RMK AO2
14840KMKG MKG20071113142509211/13/07 14:25:31  5-MIN KMKG 131925Z 18011KT 10SM CLR 12/04 A2993 620 61 400 190/11 RMK AO2
14840KMKG MKG20071113143009811/13/07 14:30:31  5-MIN KMKG 131930Z 18008G17KT 10SM CLR 11/04 A2993 630 63 300 190/08G17 RMK AO2
14840KMKG MKG20071113143509811/13/07 14:35:31  5-MIN KMKG 131935Z 19012G16KT 10SM CLR 12/04 A2992 630 61 400 190/12G16 RMK AO2
14840KMKG MKG20071113144009811/13/07 14:40:31  5-MIN KMKG 131940Z 19012G17KT 10SM CLR 12/04 A2991 640 61 400 190/12G17 RMK AO2
14840KMKG MKG20071113144509211/13/07 14:45:31  5-MIN KMKG 131945Z 18013KT 10SM CLR 11/04 A2991 640 63 400 190/13 RMK AO2
14840KMKG MKG20071113145010911/13/07 14:50:31  5-MIN KMKG 131950Z 20010KT 10SM CLR 11/04 A2991 640 63 400 200/10 RMK AO2 SLP132 T01110044
14840KMKG MKG20071113145510911/13/07 14:55:31  5-MIN KMKG 131955Z 19010KT 10SM CLR 11/04 A2991 640 66 300 200/10 RMK AO2 SLP132 T01060044
14840KMKG MKG20071113150009211/13/07 15:00:31  5-MIN KMKG 132000Z 19011KT 10SM CLR 11/04 A2991 640 63 400 190/11 RMK AO2
14840KMKG MKG20071113150509211/13/07 15:05:31  5-MIN KMKG 132005Z 19009KT 10SM CLR 11/04 A2990 650 63 400 190/09 RMK AO2
14840KMKG MKG20071113151009211/13/07 15:10:31  5-MIN KMKG 132010Z 20010KT 10SM CLR 12/04 A2990 650 61 400 200/10 RMK AO2
14840KMKG MKG20071113151509211/13/07 15:15:31  5-MIN KMKG 132015Z 18009KT 10SM CLR 12/04 A2989 650 58 500 190/09 RMK AO2
14840KMKG MKG20071113152009211/13/07 15:20:31  5-MIN KMKG 132020Z 18011KT 10SM CLR 12/04 A2989 660 58 500 190/11 RMK AO2
14840KMKG MKG20071113152509911/13/07 15:25:31  5-MIN KMKG 132025Z 19012KT 10SM CLR 12/03 A2988 670 56 500 190/12 RMK AO2 PRESFR
14840KMKG MKG20071113153009211/13/07 15:30:31  5-MIN KMKG 132030Z 19013KT 10SM CLR 11/03 A2988 670 58 400 190/13 RMK AO2
14840KMKG MKG20071113153509211/13/07 15:35:31  5-MIN KMKG 132035Z 19009KT 10SM CLR 11/03 A2988 670 58 400 190/09 RMK AO2
14840KMKG MKG20071113154009211/13/07 15:40:31  5-MIN KMKG 132040Z 19011KT 10SM CLR 11/04 A2988 670 61 400 190/11 RMK AO2
14840KMKG MKG20071113154509211/13/07 15:45:31  5-MIN KMKG 132045Z 19008KT 10SM CLR 11/04 A2987 670 61 400 200/08 RMK AO2
14840KMKG MKG20071113155011511/13/07 15:50:31  5-MIN KMKG 132050Z 19009KT 10SM CLR 11/04 A2988 670 61 400 200/09 RMK AO2 SLP121 T01110039 58025
14840KMKG MKG20071113155511511/13/07 15:55:31  5-MIN KMKG 132055Z 19008KT 10SM CLR 11/04 A2987 670 63 300 200/08 RMK AO2 SLP120 T01060039 56038
14840KMKG MKG20071113160009211/13/07 16:00:31  5-MIN KMKG 132100Z 18008KT 10SM CLR 11/04 A2987 680 61 400 180/08 RMK AO2
14840KMKG MKG20071113160509211/13/07 16:05:31  5-MIN KMKG 132105Z 19009KT 10SM CLR 11/04 A2987 680 61 400 190/09 RMK AO2
14840KMKG MKG20071113161009211/13/07 16:10:31  5-MIN KMKG 132110Z 18009KT 10SM CLR 11/04 A2987 680 63 400 190/09 RMK AO2
14840KMKG MKG20071113161509211/13/07 16:15:31  5-MIN KMKG 132115Z 18009KT 10SM CLR 11/04 A2986 690 66 400 190/09 RMK AO2
14840KMKG MKG20071113162009211/13/07 16:20:31  5-MIN KMKG 132120Z 18009KT 10SM CLR 11/04 A2985 690 66 400 180/09 RMK AO2
14840KMKG MKG20071113162509211/13/07 16:25:31  5-MIN KMKG 132125Z 19009KT 10SM CLR 11/04 A2985 700 66 400 190/09 RMK AO2
14840KMKG MKG20071113163009211/13/07 16:30:31  5-MIN KMKG 132130Z 19008KT 10SM CLR 11/04 A2985 700 66 400 190/08 RMK AO2
14840KMKG MKG20071113163509211/13/07 16:35:31  5-MIN KMKG 132135Z 20008KT 10SM CLR 11/04 A2985 700 66 400 200/08 RMK AO2
14840KMKG MKG20071113164009211/13/07 16:40:31  5-MIN KMKG 132140Z 20006KT 10SM CLR 10/04 A2985 700 68 300 200/06 RMK AO2
14840KMKG MKG20071113164509211/13/07 16:45:31  5-MIN KMKG 132145Z 20006KT 10SM CLR 10/05 A2985 700 71 300 200/06 RMK AO2
14840KMKG MKG20071113165010911/13/07 16:50:31  5-MIN KMKG 132150Z 21006KT 10SM CLR 10/05 A2984 700 71 300 210/06 RMK AO2 SLP110 T01000050
14840KMKG MKG20071113165510911/13/07 16:55:31  5-MIN KMKG 132155Z 19006KT 10SM CLR 10/05 A2984 710 71 300 190/06 RMK AO2 SLP110 T01000050
14840KMKG MKG20071113170009211/13/07 17:00:31  5-MIN KMKG 132200Z 20007KT 10SM CLR 10/05 A2983 710 71 300 200/07 RMK AO2
14840KMKG MKG20071113170509211/13/07 17:05:31  5-MIN KMKG 132205Z 20006KT 10SM CLR 10/05 A2984 710 71 300 210/06 RMK AO2
14840KMKG MKG20071113171009211/13/07 17:10:31  5-MIN KMKG 132210Z 20006KT 10SM CLR 10/05 A2983 710 71 300 200/06 RMK AO2
14840KMKG MKG20071113171509211/13/07 17:15:31  5-MIN KMKG 132215Z 21008KT 10SM CLR 10/05 A2983 710 71 300 210/08 RMK AO2
14840KMKG MKG20071113172009211/13/07 17:20:31  5-MIN KMKG 132220Z 20007KT 10SM CLR 09/05 A2983 720 74 300 210/07 RMK AO2
14840KMKG MKG20071113172509211/13/07 17:25:31  5-MIN KMKG 132225Z 19005KT 10SM CLR 09/05 A2982 720 74 300 200/05 RMK AO2
14840KMKG MKG20071113173009211/13/07 17:30:31  5-MIN KMKG 132230Z 20006KT 10SM CLR 09/05 A2982 720 74 300 200/06 RMK AO2
14840KMKG MKG20071113173509211/13/07 17:35:31  5-MIN KMKG 132235Z 19005KT 10SM CLR 09/05 A2981 730 76 200 190/05 RMK AO2
14840KMKG MKG20071113174009211/13/07 17:40:31  5-MIN KMKG 132240Z 19007KT 10SM CLR 09/06 A2981 730 76 300 190/07 RMK AO2
14840KMKG MKG20071113174509211/13/07 17:45:31  5-MIN KMKG 132245Z 20007KT 10SM CLR 09/06 A2981 730 76 300 200/07 RMK AO2
14840KMKG MKG20071113175010911/13/07 17:50:31  5-MIN KMKG 132250Z 21007KT 10SM CLR 09/06 A2981 730 76 300 210/07 RMK AO2 SLP100 T00940056
14840KMKG MKG20071113175510911/13/07 17:55:31  5-MIN KMKG 132255Z 20007KT 10SM CLR 09/06 A2981 730 79 200 210/07 RMK AO2 SLP099 T00890056
14840KMKG MKG20071113180009211/13/07 18:00:31  5-MIN KMKG 132300Z 20007KT 10SM CLR 09/06 A2981 740 79 200 210/07 RMK AO2
14840KMKG MKG20071113180509211/13/07 18:05:31  5-MIN KMKG 132305Z 21006KT 10SM CLR 09/06 A2981 740 76 300 210/06 RMK AO2
14840KMKG MKG20071113181009211/13/07 18:10:31  5-MIN KMKG 132310Z 20006KT 10SM CLR 09/06 A2980 740 79 200 200/06 RMK AO2
14840KMKG MKG20071113181509211/13/07 18:15:31  5-MIN KMKG 132315Z 19007KT 10SM CLR 09/06 A2980 740 76 300 190/07 RMK AO2
14840KMKG MKG20071113182009211/13/07 18:20:31  5-MIN KMKG 132320Z 19007KT 10SM CLR 09/06 A2980 740 76 300 190/07 RMK AO2
14840KMKG MKG20071113182509211/13/07 18:25:31  5-MIN KMKG 132325Z 18007KT 10SM CLR 09/06 A2980 740 76 300 190/07 RMK AO2
14840KMKG MKG20071113183009211/13/07 18:30:31  5-MIN KMKG 132330Z 17007KT 10SM CLR 09/06 A2979 750 79 300 170/07 RMK AO2
14840KMKG MKG20071113183509211/13/07 18:35:31  5-MIN KMKG 132335Z 17008KT 10SM CLR 10/06 A2979 750 77 400 180/08 RMK AO2
14840KMKG MKG20071113184009211/13/07 18:40:31  5-MIN KMKG 132340Z 17007KT 10SM CLR 09/06 A2978 760 79 300 170/07 RMK AO2
14840KMKG MKG20071113184509211/13/07 18:45:31  5-MIN KMKG 132345Z 16009KT 10SM CLR 09/06 A2978 760 79 300 170/09 RMK AO2
14840KMKG MKG20071113185012711/13/07 18:50:31  5-MIN KMKG 132350Z 17008KT 10SM CLR 10/06 A2977 770 77 400 170/08 RMK AO2 SLP087 T01000061 10122 20089 56038
14840KMKG MKG20071113185512711/13/07 18:55:31  5-MIN KMKG 132355Z 17009KT 10SM CLR 10/06 A2977 770 74 400 180/09 RMK AO2 SLP087 T01000056 10122 20089 58033
14840KMKG MKG20071113190009211/13/07 19:00:31  5-MIN KMKG 140000Z 17010KT 10SM CLR 10/06 A2977 770 74 400 180/10 RMK AO2
14840KMKG MKG20071113190509211/13/07 19:05:31  5-MIN KMKG 140005Z 17009KT 10SM CLR 10/06 A2976 780 74 400 170/09 RMK AO2
14840KMKG MKG20071113191009811/13/07 19:10:31  5-MIN KMKG 140010Z 17008G16KT 10SM CLR 10/06 A2976 780 74 400 170/08G16 RMK AO2
14840KMKG MKG20071113191509811/13/07 19:15:31  5-MIN KMKG 140015Z 17008G16KT 10SM CLR 10/06 A2976 780 74 400 180/08G16 RMK AO2
14840KMKG MKG20071113192009211/13/07 19:20:31  5-MIN KMKG 140020Z 17008KT 10SM CLR 10/06 A2975 790 74 400 170/08 RMK AO2
14840KMKG MKG20071113192509211/13/07 19:25:31  5-MIN KMKG 140025Z 17009KT 10SM CLR 10/06 A2975 790 74 400 170/09 RMK AO2
14840KMKG MKG20071113193009211/13/07 19:30:31  5-MIN KMKG 140030Z 17006KT 10SM CLR 10/06 A2975 790 74 400 170/06 RMK AO2
14840KMKG MKG20071113193509211/13/07 19:35:31  5-MIN KMKG 140035Z 16005KT 10SM CLR 10/06 A2975 790 74 400 160/05 RMK AO2
14840KMKG MKG20071113194009211/13/07 19:40:31  5-MIN KMKG 140040Z 16006KT 10SM CLR 10/06 A2975 790 74 400 160/06 RMK AO2
14840KMKG MKG20071113194509211/13/07 19:45:31  5-MIN KMKG 140045Z 16006KT 10SM CLR 09/06 A2974 790 76 400 170/06 RMK AO2
14840KMKG MKG20071113195010911/13/07 19:50:31  5-MIN KMKG 140050Z 16006KT 10SM CLR 10/06 A2974 790 74 400 170/06 RMK AO2 SLP077 T01000056
14840KMKG MKG20071113195510911/13/07 19:55:31  5-MIN KMKG 140055Z 17006KT 10SM CLR 10/06 A2974 800 74 400 180/06 RMK AO2 SLP077 T01000056
14840KMKG MKG20071113200009211/13/07 20:00:31  5-MIN KMKG 140100Z 17007KT 10SM CLR 10/06 A2975 790 74 400 170/07 RMK AO2
14840KMKG MKG20071113200509211/13/07 20:05:31  5-MIN KMKG 140105Z 16007KT 10SM CLR 10/06 A2975 790 74 400 170/07 RMK AO2
14840KMKG MKG20071113201009211/13/07 20:10:31  5-MIN KMKG 140110Z 21008KT 10SM CLR 11/06 A2976 780 71 500 210/08 RMK AO2
14840KMKG MKG20071113201509911/13/07 20:15:31  5-MIN KMKG 140115Z 22012KT 10SM CLR 11/05 A2977 770 66 500 220/12 RMK AO2 PRESRR
14840KMKG MKG20071113202009211/13/07 20:20:31  5-MIN KMKG 140120Z 21012KT 10SM CLR 11/05 A2977 770 66 500 210/12 RMK AO2
14840KMKG MKG20071113202509211/13/07 20:25:31  5-MIN KMKG 140125Z 21010KT 10SM CLR 11/06 A2977 770 68 500 220/10 RMK AO2
14840KMKG MKG20071113203009211/13/07 20:30:31  5-MIN KMKG 140130Z 22010KT 10SM CLR 11/06 A2978 760 71 500 220/10 RMK AO2
14840KMKG MKG20071113203509211/13/07 20:35:31  5-MIN KMKG 140135Z 21010KT 10SM CLR 11/06 A2977 770 74 500 220/10 RMK AO2
14840KMKG MKG20071113204009211/13/07 20:40:31  5-MIN KMKG 140140Z 21009KT 10SM CLR 11/06 A2977 770 74 500 210/09 RMK AO2
14840KMKG MKG20071113204509211/13/07 20:45:31  5-MIN KMKG 140145Z 20009KT 10SM CLR 11/07 A2977 770 77 500 210/09 RMK AO2
14840KMKG MKG20071113205010911/13/07 20:50:31  5-MIN KMKG 140150Z 20010KT 10SM CLR 11/07 A2976 780 77 500 200/10 RMK AO2 SLP081 T01060067
14840KMKG MKG20071113205510911/13/07 20:55:31  5-MIN KMKG 140155Z 19010KT 10SM CLR 11/07 A2975 790 80 500 190/10 RMK AO2 SLP078 T01060072
14840KMKG MKG20071113210009911/13/07 21:00:31  5-MIN KMKG 140200Z 18010KT 10SM CLR 11/07 A2975 790 77 600 190/10 RMK AO2 PRESFR
14840KMKG MKG20071113210509211/13/07 21:05:31  5-MIN KMKG 140205Z 20009KT 10SM CLR 11/07 A2975 790 77 600 200/09 RMK AO2
14840KMKG MKG20071113211009211/13/07 21:10:31  5-MIN KMKG 140210Z 20010KT 10SM CLR 11/07 A2975 790 77 600 200/10 RMK AO2
14840KMKG MKG20071113211509811/13/07 21:15:31  5-MIN KMKG 140215Z 19011G18KT 10SM CLR 11/07 A2974 800 77 600 200/11G18 RMK AO2
14840KMKG MKG20071113212009811/13/07 21:20:31  5-MIN KMKG 140220Z 19012G19KT 10SM CLR 12/07 A2973 800 71 600 190/12G19 RMK AO2
14840KMKG MKG20071113212509811/13/07 21:25:31  5-MIN KMKG 140225Z 19012G19KT 10SM CLR 12/07 A2973 810 71 600 200/12G19 RMK AO2
14840KMKG MKG20071113213009811/13/07 21:30:31  5-MIN KMKG 140230Z 19012G18KT 10SM CLR 12/07 A2973 810 71 600 200/12G18 RMK AO2
14840KMKG MKG20071113213509211/13/07 21:35:31  5-MIN KMKG 140235Z 20013KT 10SM CLR 12/07 A2973 800 71 600 200/13 RMK AO2
14840KMKG MKG20071113214009811/13/07 21:40:31  5-MIN KMKG 140240Z 20014G20KT 10SM CLR 11/07 A2974 800 74 600 200/14G20 RMK AO2
14840KMKG MKG20071113214509811/13/07 21:45:31  5-MIN KMKG 140245Z 20012G20KT 10SM CLR 12/07 A2974 800 71 600 200/12G20 RMK AO2
14840KMKG MKG20071113215012111/13/07 21:50:31  5-MIN KMKG 140250Z 18013G20KT 10SM CLR 12/07 A2973 810 71 600 190/13G20 RMK AO2 SLP068 T01170067 58033
14840KMKG MKG20071113215512111/13/07 21:55:31  5-MIN KMKG 140255Z 19012G20KT 10SM CLR 11/07 A2972 810 74 600 190/12G20 RMK AO2 SLP067 T01110067 57017
14840KMKG MKG20071113220009211/13/07 22:00:31  5-MIN KMKG 140300Z 19012KT 10SM CLR 11/07 A2972 820 74 600 190/12 RMK AO2
14840KMKG MKG20071113220509811/13/07 22:05:31  5-MIN KMKG 140305Z 19012G18KT 10SM CLR 11/07 A2972 820 74 600 190/12G18 RMK AO2
14840KMKG MKG20071113221009811/13/07 22:10:31  5-MIN KMKG 140310Z 19014G23KT 10SM CLR 11/07 A2971 820 74 600 190/14G23 RMK AO2
14840KMKG MKG20071113221509811/13/07 22:15:31  5-MIN KMKG 140315Z 18013G23KT 10SM CLR 11/07 A2970 830 74 600 190/13G23 RMK AO2
14840KMKG MKG20071113222009211/13/07 22:20:31  5-MIN KMKG 140320Z 19012KT 10SM CLR 11/07 A2970 830 74 600 190/12 RMK AO2
14840KMKG MKG20071113222509211/13/07 22:25:31  5-MIN KMKG 140325Z 19012KT 10SM CLR 11/07 A2971 830 74 600 200/12 RMK AO2
14840KMKG MKG20071113223009811/13/07 22:30:31  5-MIN KMKG 140330Z 19011G21KT 10SM CLR 11/07 A2971 830 74 600 200/11G21 RMK AO2
14840KMKG MKG20071113223509811/13/07 22:35:31  5-MIN KMKG 140335Z 19011G21KT 10SM CLR 11/07 A2970 840 74 600 190/11G21 RMK AO2
14840KMKG MKG20071113224009811/13/07 22:40:31  5-MIN KMKG 140340Z 18012G17KT 10SM CLR 12/07 A2970 840 71 700 190/12G17 RMK AO2
14840KMKG MKG20071113224509811/13/07 22:45:31  5-MIN KMKG 140345Z 18012G20KT 10SM CLR 11/07 A2969 850 74 600 190/12G20 RMK AO2
14840KMKG MKG20071113225011411/13/07 22:50:31  5-MIN KMKG 140350Z 19013G20KT 9SM CLR 11/07 A2969 840 74 600 190/13G20 RMK AO2 SLP056 T01110067
14840KMKG MKG20071113225511411/13/07 22:55:31  5-MIN KMKG 140355Z 19013G20KT 9SM CLR 12/07 A2969 850 71 700 190/13G20 RMK AO2 SLP054 T01170067
14840KMKG MKG20071113230009711/13/07 23:00:31  5-MIN KMKG 140400Z 18013G20KT 9SM CLR 12/07 A2968 860 71 700 190/13G20 RMK AO2
14840KMKG MKG20071113230509711/13/07 23:05:31  5-MIN KMKG 140405Z 19015G22KT 9SM CLR 12/07 A2968 860 71 700 190/15G22 RMK AO2
14840KMKG MKG20071113231009711/13/07 23:10:31  5-MIN KMKG 140410Z 19015G22KT 9SM CLR 12/07 A2968 860 71 700 190/15G22 RMK AO2
14840KMKG MKG20071113231509711/13/07 23:15:31  5-MIN KMKG 140415Z 19013G19KT 9SM CLR 12/07 A2968 860 74 700 190/13G19 RMK AO2
14840KMKG MKG20071113232009711/13/07 23:20:31  5-MIN KMKG 140420Z 18015G19KT 9SM CLR 11/07 A2967 860 77 600 190/15G19 RMK AO2
14840KMKG MKG20071113232509111/13/07 23:25:31  5-MIN KMKG 140425Z 19012KT 9SM CLR 11/07 A2967 870 77 600 190/12 RMK AO2
14840KMKG MKG20071113233009711/13/07 23:30:31  5-MIN KMKG 140430Z 19011G19KT 8SM CLR 11/07 A2967 870 77 600 200/11G19 RMK AO2
14840KMKG MKG20071113233510011/13/07 23:35:31  5-MIN KMKG 140435Z 19009G19KT 8SM FEW017 11/07 A2967 870 77 600 190/09G19 RMK AO2
14840KMKG MKG20071113234009411/13/07 23:40:31  5-MIN KMKG 140440Z 20011KT 8SM FEW017 11/07 A2968 860 77 600 210/11 RMK AO2
14840KMKG MKG20071113234510011/13/07 23:45:31  5-MIN KMKG 140445Z 21010G18KT 8SM FEW017 11/07 A2968 850 77 600 210/10G18 RMK AO2
14840KMKG MKG20071113235012711/13/07 23:50:31  5-MIN KMKG 140450Z 20011G18KT 8SM FEW017 11/07 A2968 850 77 600 200/11G18 RMK AO2 SLP053 T01110072 401221022
14840KMKG MKG20071113235512111/13/07 23:55:31  5-MIN KMKG 140455Z 20011KT 7SM FEW017 11/07 A2968 860 77 600 210/11 RMK AO2 SLP051 T01110072 401221022
14840KMKG MKG20071114000009111/14/07 00:00:32  5-MIN KMKG 140500Z 20011KT 7SM CLR 11/07 A2967 860 80 600 200/11 RMK AO2
14840KMKG MKG20071114000509111/14/07 00:05:31  5-MIN KMKG 140505Z 21011KT 7SM CLR 11/07 A2967 860 80 600 210/11 RMK AO2
14840KMKG MKG20071114001009111/14/07 00:10:31  5-MIN KMKG 140510Z 20010KT 7SM CLR 11/07 A2967 860 80 600 210/10 RMK AO2
14840KMKG MKG20071114001509111/14/07 00:15:31  5-MIN KMKG 140515Z 21010KT 7SM CLR 11/07 A2967 860 80 600 210/10 RMK AO2
14840KMKG MKG20071114002009111/14/07 00:20:31  5-MIN KMKG 140520Z 21011KT 7SM CLR 11/07 A2967 860 80 600 210/11 RMK AO2
14840KMKG MKG20071114002509111/14/07 00:25:31  5-MIN KMKG 140525Z 21009KT 7SM CLR 11/07 A2967 860 80 600 210/09 RMK AO2
14840KMKG MKG20071114003009111/14/07 00:30:31  5-MIN KMKG 140530Z 20012KT 7SM CLR 11/07 A2966 870 80 600 200/12 RMK AO2
14840KMKG MKG20071114003509111/14/07 00:35:31  5-MIN KMKG 140535Z 20011KT 7SM CLR 11/07 A2966 870 80 600 200/11 RMK AO2
14840KMKG MKG20071114004009111/14/07 00:40:31  5-MIN KMKG 140540Z 20011KT 7SM CLR 11/08 A2965 880 80 700 210/11 RMK AO2
14840KMKG MKG20071114004509111/14/07 00:45:31  5-MIN KMKG 140545Z 20010KT 7SM CLR 11/08 A2965 880 83 600 200/10 RMK AO2
14840KMKG MKG20071114005012611/14/07 00:50:31  5-MIN KMKG 140550Z 20011KT 7SM CLR 11/08 A2965 880 83 600 210/11 RMK AO2 SLP040 T01060078 10117 20094 57017
14840KMKG MKG20071114005512611/14/07 00:55:31  5-MIN KMKG 140555Z 20012KT 7SM CLR 11/08 A2964 890 80 700 210/12 RMK AO2 SLP038 T01110078 10117 20094 56027
14840KMKG MKG20071114010011511/14/07 01:00:31  5-MIN KMKG 140600Z 21015G22KT 6SM HZ CLR 11/08 A2964 890 80 700 210/15G22 RMK AO2 CIG 060 RWY 14
14840KMKG MKG20071114010511511/14/07 01:05:31  5-MIN KMKG 140605Z 21015G22KT 6SM HZ CLR 11/08 A2965 890 83 700 210/15G22 RMK AO2 CIG 060 RWY 14
14840KMKG MKG20071114011011511/14/07 01:10:31  5-MIN KMKG 140610Z 20016G21KT 6SM HZ CLR 11/08 A2964 890 83 700 210/16G21 RMK AO2 CIG 060 RWY 14
14840KMKG MKG20071114011510311/14/07 01:15:31  5-MIN KMKG 140615Z 20015G22KT 6SM HZ FEW012 11/08 A2964 890 83 700 210/15G22 RMK AO2
14840KMKG MKG20071114012010311/14/07 01:20:31  5-MIN KMKG 140620Z 20013G22KT 5SM HZ SCT012 11/08 A2963 900 83 700 200/13G22 RMK AO2
14840KMKG MKG20071114015012011/14/07 01:50:31  5-MIN KMKG 140650Z 20014G23KT 4SM BR BKN008 11/09 A2961 920 86 700 210/14G23 RMK AO2 SLP028 T01110089
14840KMKG MKG20071114015512011/14/07 01:55:31  5-MIN KMKG 140655Z 20016G23KT 4SM BR BKN008 11/09 A2960 920 86 700 200/16G23 RMK AO2 SLP026 T01110089
14840KMKG MKG20071114020010311/14/07 02:00:31  5-MIN KMKG 140700Z 20015G21KT 4SM BR BKN008 11/09 A2960 920 86 700 200/15G21 RMK AO2
14840KMKG MKG20071114020509711/14/07 02:05:31  5-MIN KMKG 140705Z 20013KT 4SM BR BKN008 11/09 A2960 930 86 700 210/13 RMK AO2
14840KMKG MKG20071114021009711/14/07 02:10:31  5-MIN KMKG 140710Z 21014KT 4SM BR BKN008 11/09 A2960 930 86 700 210/14 RMK AO2
14840KMKG MKG20071114021510311/14/07 02:15:31  5-MIN KMKG 140715Z 21015G20KT 4SM BR BKN008 11/09 A2960 930 86 700 210/15G20 RMK AO2
14840KMKG MKG20071114022010311/14/07 02:20:31  5-MIN KMKG 140720Z 21014G21KT 4SM BR OVC008 11/09 A2960 930 86 700 210/14G21 RMK AO2
14840KMKG MKG20071114022510311/14/07 02:25:31  5-MIN KMKG 140725Z 21017G23KT 4SM BR OVC008 11/09 A2960 930 86 700 210/17G23 RMK AO2
14840KMKG MKG20071114023010311/14/07 02:30:31  5-MIN KMKG 140730Z 21015G23KT 4SM BR OVC008 11/09 A2960 930 86 700 220/15G23 RMK AO2
14840KMKG MKG20071114023510311/14/07 02:35:31  5-MIN KMKG 140735Z 21015G24KT 4SM BR OVC008 11/09 A2959 940 86 700 210/15G24 RMK AO2
14840KMKG MKG20071114024010311/14/07 02:40:31  5-MIN KMKG 140740Z 21014G24KT 4SM BR OVC008 11/09 A2959 940 89 700 210/14G24 RMK AO2
14840KMKG MKG20071114024511511/14/07 02:45:31  5-MIN KMKG 140745Z 21017G24KT 4SM BR OVC008 11/09 A2959 940 89 700 210/17G24 RMK AO2 CIG 007V012
14840KMKG MKG20071114025013211/14/07 02:50:31  5-MIN KMKG 140750Z 21015G24KT 4SM BR OVC008 11/09 A2959 930 89 700 220/15G24 RMK AO2 CIG 006V012 SLP022 T01110094
14840KMKG MKG20071114025513211/14/07 02:55:31  5-MIN KMKG 140755Z 22015G22KT 4SM BR OVC008 11/09 A2959 940 89 700 220/15G22 RMK AO2 CIG 006V012 SLP021 T01110094
14840KMKG MKG20071114030011511/14/07 03:00:31  5-MIN KMKG 140800Z 21014G22KT 4SM BR OVC008 11/09 A2959 940 89 700 220/14G22 RMK AO2 CIG 006V012
14840KMKG MKG20071114030510311/14/07 03:05:31  5-MIN KMKG 140805Z 22014G20KT 4SM BR OVC006 11/09 A2959 940 89 700 220/14G20 RMK AO2
14840KMKG MKG20071114031011511/14/07 03:10:31  5-MIN KMKG 140810Z 21016G23KT 3SM BR OVC006 11/09 A2959 940 89 700 220/16G23 RMK AO2 CIG 005V009
14840KMKG MKG20071114031510311/14/07 03:15:31  5-MIN KMKG 140815Z 21015G23KT 3SM BR OVC006 11/09 A2958 940 89 700 220/15G23 RMK AO2
14840KMKG MKG20071114032010311/14/07 03:20:31  5-MIN KMKG 140820Z 22017G21KT 3SM BR OVC006 11/09 A2958 940 89 700 220/17G21 RMK AO2
14840KMKG MKG20071114032510311/14/07 03:25:31  5-MIN KMKG 140825Z 22015G23KT 3SM BR OVC006 11/09 A2958 950 89 700 220/15G23 RMK AO2
14840KMKG MKG20071114033010311/14/07 03:30:31  5-MIN KMKG 140830Z 23015G23KT 3SM BR OVC006 11/09 A2958 950 89 700 230/15G23 RMK AO2
14840KMKG MKG20071114033510311/14/07 03:35:31  5-MIN KMKG 140835Z 22017G23KT 3SM BR OVC006 11/09 A2958 950 89 700 230/17G23 RMK AO2
14840KMKG MKG20071114034010311/14/07 03:40:31  5-MIN KMKG 140840Z 22019G25KT 3SM BR OVC006 11/09 A2958 950 89 700 230/19G25 RMK AO2
14840KMKG MKG20071114034510311/14/07 03:45:31  5-MIN KMKG 140845Z 23016G25KT 3SM BR OVC004 11/09 A2958 950 89 700 230/16G25 RMK AO2
14840KMKG MKG20071114035012611/14/07 03:50:31  5-MIN KMKG 140850Z 23016G23KT 3SM BR OVC004 11/09 A2958 940 89 700 240/16G23 RMK AO2 SLP018 T01110094 56027
14840KMKG MKG20071114035512611/14/07 03:55:31  5-MIN KMKG 140855Z 23018G24KT 3SM BR OVC004 11/09 A2958 950 89 700 230/18G24 RMK AO2 SLP017 T01110094 56021
14840KMKG MKG20071114040010311/14/07 04:00:31  5-MIN KMKG 140900Z 23015G24KT 3SM BR OVC004 11/09 A2958 950 89 700 240/15G24 RMK AO2
14840KMKG MKG20071114040512111/14/07 04:05:31  5-MIN KMKG 140905Z 23017G26KT 3SM BR OVC004 11/09 A2958 950 89 700 230/17G26 RMK AO2 PK WND 22026/0905
14840KMKG MKG20071114041012111/14/07 04:10:31  5-MIN KMKG 140910Z 24017G26KT 3SM BR OVC004 11/09 A2958 950 89 800 240/17G26 RMK AO2 PK WND 22026/0905
14840KMKG MKG20071114041512111/14/07 04:15:31  5-MIN KMKG 140915Z 24013G22KT 3SM BR OVC004 11/09 A2958 950 89 800 240/13G22 RMK AO2 PK WND 22026/0905
14840KMKG MKG20071114042012111/14/07 04:20:31  5-MIN KMKG 140920Z 24015G22KT 3SM BR OVC004 11/09 A2958 950 93 700 240/15G22 RMK AO2 PK WND 22026/0905
14840KMKG MKG20071114042512111/14/07 04:25:31  5-MIN KMKG 140925Z 23016G22KT 3SM BR OVC004 11/09 A2957 950 93 700 240/16G22 RMK AO2 PK WND 22026/0905
14840KMKG MKG20071114043012111/14/07 04:30:31  5-MIN KMKG 140930Z 23015G21KT 3SM BR OVC004 11/09 A2958 950 89 700 240/15G21 RMK AO2 PK WND 22026/0905
14840KMKG MKG20071114043512111/14/07 04:35:31  5-MIN KMKG 140935Z 24015G21KT 3SM BR BKN004 11/09 A2958 950 89 700 240/15G21 RMK AO2 PK WND 22026/0905
14840KMKG MKG20071114044012111/14/07 04:40:31  5-MIN KMKG 140940Z 23013G21KT 3SM BR BKN004 11/09 A2958 950 89 700 240/13G21 RMK AO2 PK WND 22026/0905
14840KMKG MKG20071114044511511/14/07 04:45:31  5-MIN KMKG 140945Z 23015KT 3SM BR BKN004 11/09 A2958 950 89 700 240/15 RMK AO2 PK WND 22026/0905
14840KMKG MKG20071114045012111/14/07 04:50:31  5-MIN KMKG 140950Z 23014G20KT 4SM BR SCT004 11/09 A2958 950 89 700 240/14G20 RMK AO2 PK WND 22026/0905
14840KMKG MKG20071114045513811/14/07 04:55:31  5-MIN KMKG 140955Z 24014G20KT 4SM BR FEW004 11/09 A2957 950 89 700 240/14G20 RMK AO2 PK WND 22026/0905 SLP016 T01060089
14840KMKG MKG20071114050010311/14/07 05:00:31  5-MIN KMKG 141000Z 24012G20KT 4SM BR FEW004 11/08 A2957 950 86 700 240/12G20 RMK AO2
14840KMKG MKG20071114050509411/14/07 05:05:31  5-MIN KMKG 141005Z 24010KT 4SM BR CLR 11/08 A2957 960 86 700 240/10 RMK AO2
14840KMKG MKG20071114051009411/14/07 05:10:31  5-MIN KMKG 141010Z 25012KT 4SM BR CLR 11/08 A2958 950 86 700 250/12 RMK AO2
14840KMKG MKG20071114051510011/14/07 05:15:31  5-MIN KMKG 141015Z 25012G19KT 5SM BR CLR 11/08 A2958 940 86 700 250/12G19 RMK AO2
14840KMKG MKG20071114052010011/14/07 05:20:31  5-MIN KMKG 141020Z 25012G19KT 5SM BR CLR 11/08 A2959 940 86 700 260/12G19 RMK AO2
14840KMKG MKG20071114052510011/14/07 05:25:31  5-MIN KMKG 141025Z 26015G20KT 5SM HZ CLR 11/08 A2959 930 83 700 260/15G20 RMK AO2
14840KMKG MKG20071114053010011/14/07 05:30:31  5-MIN KMKG 141030Z 26016G20KT 5SM HZ CLR 11/08 A2959 940 83 700 260/16G20 RMK AO2
14840KMKG MKG20071114053510011/14/07 05:35:31  5-MIN KMKG 141035Z 26013G20KT 6SM HZ CLR 11/07 A2959 940 80 700 260/13G20 RMK AO2
14840KMKG MKG20071114054010011/14/07 05:40:31  5-MIN KMKG 141040Z 26013G19KT 6SM HZ CLR 11/07 A2959 940 80 700 270/13G19 RMK AO2
14840KMKG MKG20071114054509711/14/07 05:45:31  5-MIN KMKG 141045Z 27014G21KT 7SM CLR 11/07 A2959 940 77 700 270/14G21 RMK AO2
14840KMKG MKG20071114055011411/14/07 05:50:31  5-MIN KMKG 141050Z 26012G21KT 8SM CLR 11/07 A2959 940 77 700 270/12G21 RMK AO2 SLP023 T01060067
14840KMKG MKG20071114055511411/14/07 05:55:31  5-MIN KMKG 141055Z 27012G19KT 8SM CLR 11/06 A2959 930 74 700 270/12G19 RMK AO2 SLP023 T01060061
14840KMKG MKG20071114060009711/14/07 06:00:31  5-MIN KMKG 141100Z 28015G22KT 9SM CLR 11/06 A2959 940 71 700 280/15G22 RMK AO2
14840KMKG MKG20071114060509711/14/07 06:05:31  5-MIN KMKG 141105Z 26012G22KT 9SM CLR 10/05 A2959 940 71 600 270/12G22 RMK AO2
14840KMKG MKG20071114061009811/14/07 06:10:31  5-MIN KMKG 141110Z 27013G19KT 10SM CLR 10/05 A2960 930 71 600 270/13G19 RMK AO2
14840KMKG MKG20071114061509811/14/07 06:15:31  5-MIN KMKG 141115Z 28015G19KT 10SM CLR 10/04 A2960 930 68 600 280/15G19 RMK AO2
14840KMKG MKG20071114062009811/14/07 06:20:31  5-MIN KMKG 141120Z 27012G19KT 10SM CLR 10/04 A2960 930 68 600 280/12G19 RMK AO2
14840KMKG MKG20071114062509211/14/07 06:25:31  5-MIN KMKG 141125Z 27012KT 10SM CLR 10/04 A2960 930 68 600 270/12 RMK AO2
14840KMKG MKG20071114063009811/14/07 06:30:31  5-MIN KMKG 141130Z 27013G18KT 10SM CLR 10/04 A2960 930 68 600 280/13G18 RMK AO2
14840KMKG MKG20071114063509811/14/07 06:35:31  5-MIN KMKG 141135Z 27010G18KT 10SM CLR 10/04 A2960 920 68 600 270/10G18 RMK AO2
14840KMKG MKG20071114064009211/14/07 06:40:31  5-MIN KMKG 141140Z 27010KT 10SM CLR 10/04 A2960 930 68 600 280/10 RMK AO2
14840KMKG MKG20071114064509211/14/07 06:45:31  5-MIN KMKG 141145Z 27010KT 10SM CLR 10/04 A2960 930 65 600 270/10 RMK AO2
14840KMKG MKG20071114065012711/14/07 06:50:31  5-MIN KMKG 141150Z 27010KT 10SM CLR 10/04 A2960 930 65 600 270/10 RMK AO2 SLP026 T01000039 10111 20094 56021
14840KMKG MKG20071114065513311/14/07 06:55:31  5-MIN KMKG 141155Z 27010G17KT 10SM CLR 09/04 A2960 930 68 500 270/10G17 RMK AO2 SLP025 T00940039 10111 20094 53008
14840KMKG MKG20071114070009811/14/07 07:00:31  5-MIN KMKG 141200Z 27010G17KT 10SM CLR 09/04 A2960 930 68 500 270/10G17 RMK AO2
14840KMKG MKG20071114070509211/14/07 07:05:31  5-MIN KMKG 141205Z 27009KT 10SM CLR 09/04 A2960 930 68 500 270/09 RMK AO2
14840KMKG MKG20071114071009811/14/07 07:10:31  5-MIN KMKG 141210Z 27011G16KT 10SM CLR 09/03 A2960 920 65 500 280/11G16 RMK AO2
14840KMKG MKG20071114071509811/14/07 07:15:31  5-MIN KMKG 141215Z 27010G16KT 10SM CLR 09/03 A2960 920 65 500 280/10G16 RMK AO2
14840KMKG MKG20071114072009211/14/07 07:20:31  5-MIN KMKG 141220Z 27011KT 10SM CLR 09/03 A2960 920 65 500 280/11 RMK AO2
14840KMKG MKG20071114072509211/14/07 07:25:31  5-MIN KMKG 141225Z 27011KT 10SM CLR 09/03 A2961 920 65 500 280/11 RMK AO2
14840KMKG MKG20071114073009811/14/07 07:30:31  5-MIN KMKG 141230Z 27011G17KT 10SM CLR 09/03 A2961 920 65 500 280/11G17 RMK AO2
14840KMKG MKG20071114073509211/14/07 07:35:31  5-MIN KMKG 141235Z 27010KT 10SM CLR 09/03 A2961 920 65 500 280/10 RMK AO2
14840KMKG MKG20071114074009211/14/07 07:40:31  5-MIN KMKG 141240Z 27012KT 10SM CLR 09/03 A2961 920 63 500 270/12 RMK AO2
14840KMKG MKG20071114074509211/14/07 07:45:31  5-MIN KMKG 141245Z 27011KT 10SM CLR 09/03 A2962 910 63 500 280/11 RMK AO2
14840KMKG MKG20071114075010911/14/07 07:50:31  5-MIN KMKG 141250Z 27012KT 10SM CLR 09/03 A2962 910 63 500 270/12 RMK AO2 SLP032 T00940028
14840KMKG MKG20071114075511511/14/07 07:55:31  5-MIN KMKG 141255Z 27011G17KT 10SM CLR 09/03 A2962 910 65 500 270/11G17 RMK AO2 SLP033 T00940033
14840KMKG MKG20071114080009211/14/07 08:00:31  5-MIN KMKG 141300Z 27010KT 10SM CLR 09/03 A2962 910 65 500 270/10 RMK AO2
14840KMKG MKG20071114080509211/14/07 08:05:31  5-MIN KMKG 141305Z 28011KT 10SM CLR 09/03 A2963 900 63 500 280/11 RMK AO2
14840KMKG MKG20071114081009211/14/07 08:10:31  5-MIN KMKG 141310Z 27009KT 10SM CLR 09/03 A2963 900 63 500 280/09 RMK AO2
14840KMKG MKG20071114081509211/14/07 08:15:31  5-MIN KMKG 141315Z 27011KT 10SM CLR 10/03 A2963 900 60 600 270/11 RMK AO2
14840KMKG MKG20071114082009211/14/07 08:20:31  5-MIN KMKG 141320Z 27011KT 10SM CLR 10/03 A2963 900 60 600 280/11 RMK AO2
14840KMKG MKG20071114082509211/14/07 08:25:31  5-MIN KMKG 141325Z 26011KT 10SM CLR 10/03 A2963 900 60 600 270/11 RMK AO2
14840KMKG MKG20071114083009211/14/07 08:30:31  5-MIN KMKG 141330Z 27011KT 10SM CLR 10/02 A2963 900 58 600 270/11 RMK AO2
14840KMKG MKG20071114083509211/14/07 08:35:31  5-MIN KMKG 141335Z 26011KT 10SM CLR 10/02 A2963 900 58 600 260/11 RMK AO2
14840KMKG MKG20071114084009211/14/07 08:40:31  5-MIN KMKG 141340Z 26012KT 10SM CLR 10/02 A2963 900 58 600 270/12 RMK AO2
14840KMKG MKG20071114084509811/14/07 08:45:31  5-MIN KMKG 141345Z 26011G17KT 10SM CLR 10/03 A2964 890 60 500 260/11G17 RMK AO2
14840KMKG MKG20071114085011511/14/07 08:50:31  5-MIN KMKG 141350Z 26012G16KT 10SM CLR 10/03 A2964 890 60 500 270/12G16 RMK AO2 SLP038 T01000028
14840KMKG MKG20071114085511511/14/07 08:55:31  5-MIN KMKG 141355Z 27012G19KT 10SM CLR 10/03 A2964 890 60 500 280/12G19 RMK AO2 SLP038 T01000028
14840KMKG MKG20071114090009811/14/07 09:00:31  5-MIN KMKG 141400Z 27010G19KT 10SM CLR 10/02 A2964 890 58 500 270/10G19 RMK AO2
14840KMKG MKG20071114090509811/14/07 09:05:31  5-MIN KMKG 141405Z 26010G17KT 10SM CLR 10/02 A2964 890 58 500 270/10G17 RMK AO2
14840KMKG MKG20071114091009811/14/07 09:10:31  5-MIN KMKG 141410Z 27012G17KT 10SM CLR 10/02 A2964 890 58 500 270/12G17 RMK AO2
14840KMKG MKG20071114091509811/14/07 09:15:31  5-MIN KMKG 141415Z 27010G18KT 10SM CLR 10/03 A2964 890 60 500 270/10G18 RMK AO2
14840KMKG MKG20071114092009811/14/07 09:20:31  5-MIN KMKG 141420Z 26012G18KT 10SM CLR 10/03 A2964 890 60 500 260/12G18 RMK AO2
14840KMKG MKG20071114092509811/14/07 09:25:31  5-MIN KMKG 141425Z 26011G17KT 10SM CLR 11/02 A2964 890 56 600 260/11G17 RMK AO2
14840KMKG MKG20071114093009811/14/07 09:30:31  5-MIN KMKG 141430Z 26011G17KT 10SM CLR 11/02 A2964 890 56 600 260/11G17 RMK AO2
14840KMKG MKG20071114093509811/14/07 09:35:31  5-MIN KMKG 141435Z 26010G18KT 10SM CLR 11/02 A2964 890 54 600 270/10G18 RMK AO2
14840KMKG MKG20071114094009811/14/07 09:40:31  5-MIN KMKG 141440Z 25014G19KT 10SM CLR 11/02 A2964 890 54 600 260/14G19 RMK AO2
14840KMKG MKG20071114094509811/14/07 09:45:31  5-MIN KMKG 141445Z 25010G19KT 10SM CLR 11/02 A2965 890 54 700 260/10G19 RMK AO2
14840KMKG MKG20071114095012111/14/07 09:50:31  5-MIN KMKG 141450Z 25016G20KT 10SM CLR 11/02 A2965 880 54 700 260/16G20 RMK AO2 SLP042 T01110022 53008
14840KMKG MKG20071114095512111/14/07 09:55:31  5-MIN KMKG 141455Z 25013G20KT 10SM CLR 11/03 A2965 880 56 700 260/13G20 RMK AO2 SLP043 T01110028 51018
14840KMKG MKG20071114100009811/14/07 10:00:31  5-MIN KMKG 141500Z 25013G19KT 10SM CLR 11/03 A2966 870 56 700 250/13G19 RMK AO2
14840KMKG MKG20071114100509811/14/07 10:05:31  5-MIN KMKG 141505Z 25011G19KT 10SM CLR 11/02 A2966 870 56 600 260/11G19 RMK AO2
14840KMKG MKG20071114101009811/14/07 10:10:31  5-MIN KMKG 141510Z 25014G21KT 10SM CLR 11/02 A2966 870 54 700 260/14G21 RMK AO2
14840KMKG MKG20071114101509811/14/07 10:15:31  5-MIN KMKG 141515Z 25014G23KT 10SM CLR 11/02 A2966 870 54 700 250/14G23 RMK AO2
14840KMKG MKG20071114102009811/14/07 10:20:31  5-MIN KMKG 141520Z 25011G23KT 10SM CLR 11/03 A2966 870 58 600 260/11G23 RMK AO2
14840KMKG MKG20071114102509811/14/07 10:25:31  5-MIN KMKG 141525Z 24012G19KT 10SM CLR 11/02 A2965 880 56 600 250/12G19 RMK AO2
14840KMKG MKG20071114103009811/14/07 10:30:31  5-MIN KMKG 141530Z 25012G19KT 10SM CLR 11/02 A2965 880 54 700 260/12G19 RMK AO2
14840KMKG MKG20071114103509811/14/07 10:35:31  5-MIN KMKG 141535Z 24011G17KT 10SM CLR 11/03 A2965 880 56 700 240/11G17 RMK AO2
14840KMKG MKG20071114104009811/14/07 10:40:31  5-MIN KMKG 141540Z 26011G18KT 10SM CLR 11/03 A2964 890 61 600 260/11G18 RMK AO2
14840KMKG MKG20071114104509811/14/07 10:45:31  5-MIN KMKG 141545Z 25011G18KT 10SM CLR 11/03 A2965 880 58 600 260/11G18 RMK AO2
14840KMKG MKG20071114105010911/14/07 10:50:31  5-MIN KMKG 141550Z 25011KT 10SM CLR 11/03 A2965 880 58 600 260/11 RMK AO2 SLP042 T01060028
14840KMKG MKG20071114105511511/14/07 10:55:31  5-MIN KMKG 141555Z 25014G19KT 10SM CLR 11/02 A2966 870 56 600 250/14G19 RMK AO2 SLP044 T01060022
14840KMKG MKG20071114110009211/14/07 11:00:31  5-MIN KMKG 141600Z 25013KT 10SM CLR 11/02 A2966 870 54 700 250/13 RMK AO2
14840KMKG MKG20071114110509811/14/07 11:05:31  5-MIN KMKG 141605Z 25014G23KT 10SM CLR 11/02 A2966 870 54 700 250/14G23 RMK AO2
14840KMKG MKG20071114111009811/14/07 11:10:31  5-MIN KMKG 141610Z 24013G23KT 10SM CLR 11/02 A2966 870 54 700 250/13G23 RMK AO2
14840KMKG MKG20071114111509811/14/07 11:15:31  5-MIN KMKG 141615Z 24013G20KT 10SM CLR 11/02 A2966 870 54 700 250/13G20 RMK AO2
14840KMKG MKG20071114112009811/14/07 11:20:31  5-MIN KMKG 141620Z 25012G20KT 10SM CLR 11/02 A2967 870 56 600 260/12G20 RMK AO2
14840KMKG MKG20071114112509811/14/07 11:25:31  5-MIN KMKG 141625Z 24013G19KT 10SM CLR 10/02 A2967 860 58 500 250/13G19 RMK AO2
14840KMKG MKG20071114113009811/14/07 11:30:31  5-MIN KMKG 141630Z 25014G23KT 10SM CLR 10/03 A2967 860 60 500 250/14G23 RMK AO2
14840KMKG MKG20071114113509811/14/07 11:35:31  5-MIN KMKG 141635Z 25013G23KT 10SM CLR 10/03 A2967 860 60 500 250/13G23 RMK AO2
14840KMKG MKG20071114114009811/14/07 11:40:31  5-MIN KMKG 141640Z 24014G20KT 10SM CLR 10/03 A2967 860 60 500 250/14G20 RMK AO2
14840KMKG MKG20071114114509811/14/07 11:45:31  5-MIN KMKG 141645Z 25013G20KT 10SM CLR 10/03 A2967 860 60 500 250/13G20 RMK AO2
14840KMKG MKG20071114115011511/14/07 11:50:31  5-MIN KMKG 141650Z 25014G19KT 10SM CLR 10/02 A2967 870 58 500 250/14G19 RMK AO2 SLP048 T01000022
14840KMKG MKG20071114115511511/14/07 11:55:31  5-MIN KMKG 141655Z 25012G19KT 10SM CLR 10/02 A2967 870 58 500 260/12G19 RMK AO2 SLP048 T01000022
14840KMKG MKG20071114120009811/14/07 12:00:31  5-MIN KMKG 141700Z 25012G19KT 10SM CLR 12/03 A2967 860 54 700 260/12G19 RMK AO2
14840KMKG MKG20071114120509811/14/07 12:05:31  5-MIN KMKG 141705Z 25013G21KT 10SM CLR 11/02 A2967 860 52 600 250/13G21 RMK AO2
14840KMKG MKG20071114121009811/14/07 12:10:31  5-MIN KMKG 141710Z 26014G22KT 10SM CLR 11/01 A2967 870 52 600 260/14G22 RMK AO2
14840KMKG MKG20071114121509811/14/07 12:15:31  5-MIN KMKG 141715Z 25014G22KT 10SM CLR 11/01 A2967 860 52 600 250/14G22 RMK AO2
14840KMKG MKG20071114122009811/14/07 12:20:31  5-MIN KMKG 141720Z 24013G20KT 10SM CLR 11/02 A2967 870 54 600 250/13G20 RMK AO2
14840KMKG MKG20071114122509811/14/07 12:25:31  5-MIN KMKG 141725Z 24014G19KT 10SM CLR 11/02 A2966 870 54 600 240/14G19 RMK AO2
14840KMKG MKG20071114123009811/14/07 12:30:31  5-MIN KMKG 141730Z 25010G21KT 10SM CLR 11/02 A2966 870 54 600 250/10G21 RMK AO2
14840KMKG MKG20071114123509811/14/07 12:35:31  5-MIN KMKG 141735Z 24010G21KT 10SM CLR 11/02 A2966 870 54 600 240/10G21 RMK AO2
14840KMKG MKG20071114124009811/14/07 12:40:31  5-MIN KMKG 141740Z 24012G18KT 10SM CLR 11/02 A2966 870 54 600 240/12G18 RMK AO2
14840KMKG MKG20071114124509811/14/07 12:45:31  5-MIN KMKG 141745Z 24011G18KT 10SM CLR 11/02 A2966 870 56 600 250/11G18 RMK AO2
14840KMKG MKG20071114125013611/14/07 12:50:31  5-MIN KMKG 141750Z 25013G20KT 10SM FEW090 11/02 A2966 870 56 600 250/13G20 RMK AO2 SLP047 T01060022 10117 20094 51018
14840KMKG MKG20071114125513611/14/07 12:55:31  5-MIN KMKG 141755Z 24010G20KT 10SM SCT090 11/02 A2967 870 56 600 250/10G20 RMK AO2 SLP047 T01060022 10117 20094 51004
14840KMKG MKG20071114130009811/14/07 13:00:31  5-MIN KMKG 141800Z 25013G19KT 10SM CLR 11/02 A2966 870 56 600 250/13G19 RMK AO2
14840KMKG MKG20071114130509811/14/07 13:05:31  5-MIN KMKG 141805Z 25011G19KT 10SM CLR 10/02 A2966 870 56 500 250/11G19 RMK AO2
14840KMKG MKG20071114131009211/14/07 13:10:31  5-MIN KMKG 141810Z 24011KT 10SM CLR 10/02 A2966 870 56 500 240/11 RMK AO2
14840KMKG MKG20071114131509811/14/07 13:15:31  5-MIN KMKG 141815Z 23012G19KT 10SM CLR 10/02 A2966 880 58 500 240/12G19 RMK AO2
14840KMKG MKG20071114132009811/14/07 13:20:31  5-MIN KMKG 141820Z 25013G19KT 10SM CLR 10/02 A2965 880 58 500 250/13G19 RMK AO2
14840KMKG MKG20071114132509211/14/07 13:25:31  5-MIN KMKG 141825Z 23011KT 10SM CLR 10/02 A2965 880 58 500 240/11 RMK AO2
14840KMKG MKG20071114133009211/14/07 13:30:31  5-MIN KMKG 141830Z 24011KT 10SM CLR 10/02 A2966 880 56 500 240/11 RMK AO2
14840KMKG MKG20071114133509811/14/07 13:35:31  5-MIN KMKG 141835Z 24009G18KT 10SM CLR 10/02 A2965 880 58 500 250/09G18 RMK AO2
14840KMKG MKG20071114134009811/14/07 13:40:31  5-MIN KMKG 141840Z 24010G18KT 10SM CLR 10/02 A2966 880 58 500 250/10G18 RMK AO2
14840KMKG MKG20071114134509211/14/07 13:45:31  5-MIN KMKG 141845Z 24012KT 10SM CLR 10/02 A2966 880 58 500 240/12 RMK AO2
14840KMKG MKG20071114135011211/14/07 13:50:31  5-MIN KMKG 141850Z 24010KT 10SM SCT090 10/02 A2965 880 58 500 240/10 RMK AO2 SLP044 T01000022
14840KMKG MKG20071114135511211/14/07 13:55:31  5-MIN KMKG 141855Z 24012KT 10SM SCT090 10/02 A2965 880 58 500 240/12 RMK AO2 SLP042 T01000022
14840KMKG MKG20071114140009211/14/07 14:00:31  5-MIN KMKG 141900Z 24011KT 10SM CLR 10/02 A2965 880 56 500 250/11 RMK AO2
14840KMKG MKG20071114140509811/14/07 14:05:31  5-MIN KMKG 141905Z 24012G18KT 10SM CLR 10/02 A2965 880 56 500 250/12G18 RMK AO2
14840KMKG MKG20071114141009811/14/07 14:10:31  5-MIN KMKG 141910Z 24013G18KT 10SM CLR 10/01 A2965 880 54 500 250/13G18 RMK AO2
14840KMKG MKG20071114141509811/14/07 14:15:31  5-MIN KMKG 141915Z 24010G18KT 10SM CLR 10/02 A2965 880 56 500 240/10G18 RMK AO2
14840KMKG MKG20071114142009811/14/07 14:20:31  5-MIN KMKG 141920Z 24012G18KT 10SM CLR 10/02 A2965 880 58 500 250/12G18 RMK AO2
14840KMKG MKG20071114142509811/14/07 14:25:31  5-MIN KMKG 141925Z 24010G20KT 10SM CLR 10/02 A2965 880 58 500 250/10G20 RMK AO2
14840KMKG MKG20071114143009811/14/07 14:30:31  5-MIN KMKG 141930Z 24010G20KT 10SM CLR 10/02 A2965 880 58 500 250/10G20 RMK AO2
14840KMKG MKG20071114143509211/14/07 14:35:31  5-MIN KMKG 141935Z 25011KT 10SM CLR 10/03 A2965 880 60 500 250/11 RMK AO2
14840KMKG MKG20071114144009511/14/07 14:40:31  5-MIN KMKG 141940Z 24008KT 10SM BKN090 10/03 A2965 880 60 500 250/08 RMK AO2
14840KMKG MKG20071114144509511/14/07 14:45:31  5-MIN KMKG 141945Z 25008KT 10SM BKN090 10/03 A2965 880 60 500 250/08 RMK AO2
14840KMKG MKG20071114145011811/14/07 14:50:31  5-MIN KMKG 141950Z 27013G18KT 10SM BKN090 10/02 A2965 880 56 500 270/13G18 RMK AO2 SLP043 T01000017
14840KMKG MKG20071114145511811/14/07 14:55:31  5-MIN KMKG 141955Z 26014G18KT 10SM BKN090 10/01 A2965 880 52 500 270/14G18 RMK AO2 SLP044 T01000006
14840KMKG MKG20071114150009811/14/07 15:00:31  5-MIN KMKG 142000Z 27010G18KT 10SM CLR 11/00 A2965 880 48 600 270/10G18 RMK AO2
14840KMKG MKG20071114150509211/14/07 15:05:31  5-MIN KMKG 142005Z 26010KT 10SM CLR 11/00 A2965 880 48 600 270/10 RMK AO2
14840KMKG MKG20071114151009911/14/07 15:10:31  5-MIN KMKG 142010Z 27014G18KT 10SM CLR 10/M01 A2966 870 47 500 270/14G18 RMK AO2
14840KMKG MKG20071114151509911/14/07 15:15:31  5-MIN KMKG 142015Z 27015G21KT 10SM CLR 10/M01 A2966 870 46 500 280/15G21 RMK AO2
14840KMKG MKG20071114152009911/14/07 15:20:31  5-MIN KMKG 142020Z 27013G21KT 10SM CLR 10/M02 A2966 870 44 500 280/13G21 RMK AO2
14840KMKG MKG20071114152509911/14/07 15:25:31  5-MIN KMKG 142025Z 28013G21KT 10SM CLR 10/M02 A2966 870 44 500 280/13G21 RMK AO2
14840KMKG MKG20071114153009911/14/07 15:30:31  5-MIN KMKG 142030Z 28017G23KT 10SM CLR 10/M02 A2967 870 44 500 290/17G23 RMK AO2
14840KMKG MKG20071114153509911/14/07 15:35:31  5-MIN KMKG 142035Z 28013G23KT 10SM CLR 10/M02 A2967 860 44 500 280/13G23 RMK AO2
14840KMKG MKG20071114154009911/14/07 15:40:31  5-MIN KMKG 142040Z 29012G23KT 10SM CLR 10/M02 A2967 860 44 500 290/12G23 RMK AO2
14840KMKG MKG20071114154509911/14/07 15:45:31  5-MIN KMKG 142045Z 28015G24KT 10SM CLR 10/M03 A2967 860 40 500 280/15G24 RMK AO2
14840KMKG MKG20071114155012211/14/07 15:50:31  5-MIN KMKG 142050Z 28015G24KT 10SM CLR 09/M02 A2967 860 44 400 280/15G24 RMK AO2 SLP051 T00941022 51004
14840KMKG MKG20071114155512211/14/07 15:55:31  5-MIN KMKG 142055Z 27014G22KT 10SM CLR 09/M02 A2968 860 44 400 280/14G22 RMK AO2 SLP051 T00941022 53003
14840KMKG MKG20071114160009911/14/07 16:00:31  5-MIN KMKG 142100Z 27012G20KT 10SM CLR 09/M02 A2968 860 44 400 270/12G20 RMK AO2
14840KMKG MKG20071114160510211/14/07 16:05:31  5-MIN KMKG 142105Z 27015G23KT 10SM FEW055 09/M02 A2968 860 44 400 280/15G23 RMK AO2
14840KMKG MKG20071114161010211/14/07 16:10:31  5-MIN KMKG 142110Z 27012G23KT 10SM FEW055 09/M02 A2968 850 44 400 280/12G23 RMK AO2
14840KMKG MKG20071114161510211/14/07 16:15:31  5-MIN KMKG 142115Z 28013G22KT 10SM FEW055 09/M03 A2968 850 42 400 290/13G22 RMK AO2
14840KMKG MKG20071114162010211/14/07 16:20:31  5-MIN KMKG 142120Z 28014G22KT 10SM FEW055 09/M03 A2968 860 40 400 280/14G22 RMK AO2
14840KMKG MKG20071114162510211/14/07 16:25:31  5-MIN KMKG 142125Z 27015G23KT 10SM FEW055 09/M03 A2967 860 40 400 280/15G23 RMK AO2
14840KMKG MKG20071114163010211/14/07 16:30:31  5-MIN KMKG 142130Z 28016G23KT 10SM FEW055 09/M03 A2968 860 42 400 280/16G23 RMK AO2
14840KMKG MKG20071114163510211/14/07 16:35:31  5-MIN KMKG 142135Z 27014G23KT 10SM FEW055 09/M03 A2968 850 40 400 280/14G23 RMK AO2
14840KMKG MKG20071114164010211/14/07 16:40:31  5-MIN KMKG 142140Z 27015G21KT 10SM FEW055 09/M03 A2968 860 40 400 280/15G21 RMK AO2
14840KMKG MKG20071114164510211/14/07 16:45:31  5-MIN KMKG 142145Z 27014G19KT 10SM FEW055 09/M03 A2968 850 42 400 270/14G19 RMK AO2
14840KMKG MKG20071114165011911/14/07 16:50:31  5-MIN KMKG 142150Z 27014G19KT 10SM FEW065 09/M02 A2968 850 44 400 270/14G19 RMK AO2 SLP054 T00941022
14840KMKG MKG20071114165512611/14/07 16:55:31  5-MIN KMKG 142155Z 27012G19KT 10SM FEW048 SCT060 09/M02 A2968 850 47 400 270/12G19 RMK AO2 SLP054 T00891017
14840KMKG MKG20071114170010911/14/07 17:00:31  5-MIN KMKG 142200Z 30015G22KT 10SM SCT050 BKN065 09/M02 A2968 850 47 400 300/15G22 RMK AO2
14840KMKG MKG20071114170510911/14/07 17:05:31  5-MIN KMKG 142205Z 28018G24KT 10SM SCT050 BKN065 09/M02 A2969 850 45 400 290/18G24 RMK AO2
14840KMKG MKG20071114171010911/14/07 17:10:31  5-MIN KMKG 142210Z 29013G24KT 10SM FEW050 BKN060 09/M03 A2969 840 43 400 290/13G24 RMK AO2
14840KMKG MKG20071114171510911/14/07 17:15:31  5-MIN KMKG 142215Z 29017G23KT 10SM FEW050 BKN060 09/M02 A2969 840 45 400 290/17G23 RMK AO2
14840KMKG MKG20071114172010911/14/07 17:20:31  5-MIN KMKG 142220Z 30011G23KT 10SM FEW050 OVC060 09/M02 A2969 840 45 400 300/11G23 RMK AO2
14840KMKG MKG20071114172510911/14/07 17:25:31  5-MIN KMKG 142225Z 29014G20KT 10SM FEW050 OVC065 08/M02 A2969 840 47 300 290/14G20 RMK AO2
14840KMKG MKG20071114173010211/14/07 17:30:31  5-MIN KMKG 142230Z 28015G23KT 10SM OVC060 09/M02 A2969 840 45 300 290/15G23 RMK AO2
14840KMKG MKG20071114173510211/14/07 17:35:31  5-MIN KMKG 142235Z 29013G23KT 10SM OVC060 08/M02 A2970 840 47 300 290/13G23 RMK AO2
14840KMKG MKG20071114174010211/14/07 17:40:31  5-MIN KMKG 142240Z 29017G25KT 10SM OVC060 08/M02 A2969 840 47 300 300/17G25 RMK AO2
14840KMKG MKG20071114174510211/14/07 17:45:31  5-MIN KMKG 142245Z 29011G25KT 10SM OVC060 08/M03 A2969 840 45 300 300/11G25 RMK AO2
14840KMKG MKG20071114175011911/14/07 17:50:31  5-MIN KMKG 142250Z 29012G23KT 10SM OVC060 08/M02 A2970 840 47 300 300/12G23 RMK AO2 SLP059 T00831022
14840KMKG MKG20071114175513711/14/07 17:55:31  5-MIN KMKG 142255Z 30016G26KT 10SM OVC060 08/M02 A2970 830 47 300 300/16G26 RMK AO2 PK WND 30026/2254 SLP060 T00831022
14840KMKG MKG20071114180010211/14/07 18:00:31  5-MIN KMKG 142300Z 29013G26KT 10SM OVC060 08/M02 A2971 830 47 300 290/13G26 RMK AO2
14840KMKG MKG20071114180510211/14/07 18:05:31  5-MIN KMKG 142305Z 29015G25KT 10SM OVC060 08/M03 A2970 830 45 300 290/15G25 RMK AO2
14840KMKG MKG20071114181010211/14/07 18:10:31  5-MIN KMKG 142310Z 29017G25KT 10SM OVC060 08/M03 A2970 830 45 300 290/17G25 RMK AO2
14840KMKG MKG20071114181512011/14/07 18:15:31  5-MIN KMKG 142315Z 29019G26KT 10SM OVC060 08/M03 A2970 830 43 300 290/19G26 RMK AO2 PK WND 28026/2313
14840KMKG MKG20071114182012011/14/07 18:20:31  5-MIN KMKG 142320Z 29013G26KT 10SM OVC060 08/M03 A2971 830 43 300 300/13G26 RMK AO2 PK WND 28026/2313
14840KMKG MKG20071114182512011/14/07 18:25:31  5-MIN KMKG 142325Z 30010G23KT 10SM OVC060 08/M03 A2971 830 45 300 300/10G23 RMK AO2 PK WND 28026/2313
14840KMKG MKG20071114183012011/14/07 18:30:31  5-MIN KMKG 142330Z 30011G23KT 10SM OVC060 08/M03 A2971 830 43 300 310/11G23 RMK AO2 PK WND 28026/2313
14840KMKG MKG20071114183512011/14/07 18:35:31  5-MIN KMKG 142335Z 30012G22KT 10SM OVC060 08/M03 A2971 830 43 300 300/12G22 RMK AO2 PK WND 28026/2313
14840KMKG MKG20071114184012011/14/07 18:40:31  5-MIN KMKG 142340Z 30013G27KT 10SM OVC060 08/M03 A2971 820 43 300 300/13G27 RMK AO2 PK WND 30027/2338
14840KMKG MKG20071114184512011/14/07 18:45:31  5-MIN KMKG 142345Z 30011G27KT 10SM OVC060 08/M04 A2971 820 42 300 310/11G27 RMK AO2 PK WND 30027/2338
14840KMKG MKG20071114185015511/14/07 18:50:31  5-MIN KMKG 142350Z 29015G22KT 10SM OVC060 08/M04 A2972 820 42 300 290/15G22 RMK AO2 PK WND 30027/2338 SLP066 T00831039 10106 20083 53003
14840KMKG MKG20071114185515511/14/07 18:55:31  5-MIN KMKG 142355Z 29014G22KT 10SM OVC055 08/M03 A2972 820 43 300 300/14G22 RMK AO2 PK WND 30027/2338 SLP066 T00831033 10106 20083 53014
14840KMKG MKG20071114190010911/14/07 19:00:31  5-MIN KMKG 150000Z 27016G22KT 10SM BKN050 OVC060 08/M03 A2972 820 45 300 280/16G22 RMK AO2
14840KMKG MKG20071114190512011/14/07 19:05:31  5-MIN KMKG 150005Z 29019G26KT 10SM OVC050 08/M03 A2972 810 45 200 290/19G26 RMK AO2 PK WND 28026/0005
14840KMKG MKG20071114191012011/14/07 19:10:31  5-MIN KMKG 150010Z 27016G26KT 10SM OVC050 08/M03 A2972 820 43 300 280/16G26 RMK AO2 PK WND 28026/0005
14840KMKG MKG20071114191512011/14/07 19:15:31  5-MIN KMKG 150015Z 28015G24KT 10SM OVC050 08/M03 A2972 810 43 200 290/15G24 RMK AO2 PK WND 28026/0005
14840KMKG MKG20071114192012011/14/07 19:20:31  5-MIN KMKG 150020Z 29012G24KT 10SM OVC050 08/M03 A2972 820 47 200 290/12G24 RMK AO2 PK WND 28026/0005
14840KMKG MKG20071114192512011/14/07 19:25:31  5-MIN KMKG 150025Z 29014G24KT 10SM OVC055 08/M03 A2972 810 47 200 290/14G24 RMK AO2 PK WND 28026/0005
14840KMKG MKG20071114193012011/14/07 19:30:31  5-MIN KMKG 150030Z 28013G24KT 10SM OVC055 08/M03 A2972 810 47 200 280/13G24 RMK AO2 PK WND 28026/0005
14840KMKG MKG20071114193512011/14/07 19:35:31  5-MIN KMKG 150035Z 29013G20KT 10SM OVC055 08/M03 A2972 810 47 200 290/13G20 RMK AO2 PK WND 28026/0005
14840KMKG MKG20071114194012011/14/07 19:40:31  5-MIN KMKG 150040Z 29012G24KT 10SM OVC055 08/M03 A2972 810 47 200 290/12G24 RMK AO2 PK WND 28026/0005
14840KMKG MKG20071114194514311/14/07 19:45:31  5-MIN KMKG 150045Z 29013G24KT 10SM -RA FEW042 OVC055 08/M03 A2972 810 47 200 290/13G24 RMK AO2 PK WND 28026/0005 RAB45 P0000
14840KMKG MKG20071114195016011/14/07 19:50:31  5-MIN KMKG 150050Z 29013G21KT 10SM -RA SCT042 OVC055 07/M02 A2973 810 53 100 290/13G21 RMK AO2 PK WND 28026/0005 RAB45 SLP069 P0000 T00721017
14840KMKG MKG20071114195515811/14/07 19:55:31  5-MIN KMKG 150055Z 29014G22KT 10SM -RA BKN042 OVC055 07/M02 A2972 810 55 0 300/14G22 RMK AO2 PK WND 28026/0005 RAB45 SLP069 P0000 T00671017
14840KMKG MKG20071114200011711/14/07 20:00:31  5-MIN KMKG 150100Z 29017G22KT 10SM -RA SCT042 OVC050 07/M02 A2973 810 55 0 300/17G22 RMK AO2 P0000
14840KMKG MKG20071114200511911/14/07 20:05:31  5-MIN KMKG 150105Z 29016G22KT 10SM -RA SCT042 OVC050 07/M02 A2973 810 51 100 290/16G22 RMK AO2 P0000
14840KMKG MKG20071114201012111/14/07 20:10:31  5-MIN KMKG 150110Z 30014G23KT 10SM SCT042 OVC050 07/M02 A2973 810 51 100 310/14G23 RMK AO2 RAE09 P0000
14840KMKG MKG20071114201511211/14/07 20:15:31  5-MIN KMKG 150115Z 29013G23KT 10SM -RA OVC047 07/M02 A2972 810 53 100 300/13G23 RMK AO2 P0000
14840KMKG MKG20071114202011211/14/07 20:20:31  5-MIN KMKG 150120Z 29014G22KT 10SM -RA OVC047 07/M02 A2973 810 51 100 290/14G22 RMK AO2 P0000
14840KMKG MKG20071114202511711/14/07 20:25:31  5-MIN KMKG 150125Z 28010G22KT 10SM -RA SCT043 OVC050 07/M02 A2973 810 55 0 290/10G22 RMK AO2 P0000
14840KMKG MKG20071114203011211/14/07 20:30:31  5-MIN KMKG 150130Z 29016G23KT 10SM -RA OVC048 07/M02 A2973 810 51 100 290/16G23 RMK AO2 P0000
14840KMKG MKG20071114203511411/14/07 20:35:31  5-MIN KMKG 150135Z 29016G24KT 10SM OVC048 07/M02 A2972 810 51 100 290/16G24 RMK AO2 RAE33 P0000
14840KMKG MKG20071114204013711/14/07 20:40:31  5-MIN KMKG 150140Z 29015G27KT 10SM BKN043 OVC050 07/M02 A2973 810 53 0 290/15G27 RMK AO2 PK WND 29027/0137 RAE33 P0000
14840KMKG MKG20071114204513711/14/07 20:45:31  5-MIN KMKG 150145Z 30016G27KT 10SM SCT041 OVC050 07/M02 A2972 810 55 0 300/16G27 RMK AO2 PK WND 29027/0137 RAE33 P0000
14840KMKG MKG20071114205015411/14/07 20:50:31  5-MIN KMKG 150150Z 30015G22KT 10SM FEW041 OVC055 07/M02 A2973 810 53 0 300/15G22 RMK AO2 PK WND 29027/0137 RAE33 SLP070 P0000 T00671022
14840KMKG MKG20071114205515411/14/07 20:55:31  5-MIN KMKG 150155Z 29016G24KT 10SM FEW041 OVC055 07/M02 A2973 810 53 0 290/16G24 RMK AO2 PK WND 29027/0137 RAE33 SLP069 P0000 T00671022
14840KMKG MKG20071114210010711/14/07 21:00:31  5-MIN KMKG 150200Z 29013G24KT 10SM FEW041 OVC055 07/M03 A2973 810 51 0 290/13G24 RMK AO2
14840KMKG MKG20071114210511811/14/07 21:05:31  5-MIN KMKG 150205Z 30015G27KT 10SM OVC055 07/M03 A2973 800 51 0 300/15G27 RMK AO2 PK WND 29027/0203
14840KMKG MKG20071114211011811/14/07 21:10:31  5-MIN KMKG 150210Z 30016G27KT 10SM OVC055 07/M03 A2973 800 51 0 300/16G27 RMK AO2 PK WND 29027/0203
14840KMKG MKG20071114211511811/14/07 21:15:31  5-MIN KMKG 150215Z 29012G24KT 10SM OVC055 07/M03 A2973 810 51 0 300/12G24 RMK AO2 PK WND 29027/0203
14840KMKG MKG20071114212011811/14/07 21:20:31  5-MIN KMKG 150220Z 29016G23KT 10SM OVC055 07/M03 A2973 810 49 0 290/16G23 RMK AO2 PK WND 29027/0203
14840KMKG MKG20071114212511811/14/07 21:25:31  5-MIN KMKG 150225Z 30013G23KT 10SM OVC060 07/M03 A2973 810 49 0 300/13G23 RMK AO2 PK WND 29027/0203
14840KMKG MKG20071114213011811/14/07 21:30:31  5-MIN KMKG 150230Z 29016G23KT 10SM OVC060 07/M03 A2973 800 51 0 300/16G23 RMK AO2 PK WND 29027/0203
14840KMKG MKG20071114213511811/14/07 21:35:31  5-MIN KMKG 150235Z 29011G23KT 10SM OVC060 07/M03 A2974 800 51 0 300/11G23 RMK AO2 PK WND 29027/0203
14840KMKG MKG20071114214011811/14/07 21:40:31  5-MIN KMKG 150240Z 29015G24KT 10SM OVC060 07/M03 A2974 800 51 0 300/15G24 RMK AO2 PK WND 29027/0203
14840KMKG MKG20071114214512511/14/07 21:45:31  5-MIN KMKG 150245Z 29015G25KT 10SM FEW041 OVC060 07/M03 A2973 800 51 0 290/15G25 RMK AO2 PK WND 29027/0203
14840KMKG MKG20071114215015411/14/07 21:50:31  5-MIN KMKG 150250Z 30014G25KT 10SM FEW039 OVC060 07/M03 A2974 800 51 0 300/14G25 RMK AO2 PK WND 29027/0203 SLP072 60000 T00671028 53014
14840KMKG MKG20071114215515411/14/07 21:55:31  5-MIN KMKG 150255Z 29018G25KT 10SM FEW039 OVC060 07/M03 A2974 800 51 0 300/18G25 RMK AO2 PK WND 29027/0203 SLP072 60000 T00671028 53006
14840KMKG MKG20071114220010711/14/07 22:00:31  5-MIN KMKG 150300Z 28013G25KT 10SM FEW041 OVC060 07/M03 A2974 800 51 0 290/13G25 RMK AO2
14840KMKG MKG20071114220510711/14/07 22:05:31  5-MIN KMKG 150305Z 29014G24KT 10SM FEW041 OVC060 07/M03 A2974 800 51 0 290/14G24 RMK AO2
14840KMKG MKG20071114221010011/14/07 22:10:31  5-MIN KMKG 150310Z 29015G21KT 10SM OVC055 07/M03 A2974 800 49 0 290/15G21 RMK AO2
14840KMKG MKG20071114221510011/14/07 22:15:31  5-MIN KMKG 150315Z 29011G21KT 10SM OVC055 07/M03 A2974 790 51 0 300/11G21 RMK AO2
14840KMKG MKG20071114222010711/14/07 22:20:31  5-MIN KMKG 150320Z 29014G20KT 10SM FEW046 OVC055 07/M03 A2974 800 49 0 290/14G20 RMK AO2
14840KMKG MKG20071114222510711/14/07 22:25:31  5-MIN KMKG 150325Z 30013G22KT 10SM FEW046 OVC055 07/M04 A2974 800 47 0 310/13G22 RMK AO2
14840KMKG MKG20071114223010711/14/07 22:30:31  5-MIN KMKG 150330Z 29012G22KT 10SM FEW046 OVC055 07/M04 A2974 790 47 0 290/12G22 RMK AO2
14840KMKG MKG20071114223510711/14/07 22:35:31  5-MIN KMKG 150335Z 29009G19KT 10SM SCT046 OVC055 07/M04 A2974 800 47 0 300/09G19 RMK AO2
14840KMKG MKG20071114224010711/14/07 22:40:31  5-MIN KMKG 150340Z 28014G19KT 10SM SCT046 OVC055 06/M04 A2974 800 48 0 290/14G19 RMK AO2
14840KMKG MKG20071114224510711/14/07 22:45:31  5-MIN KMKG 150345Z 28012G20KT 10SM FEW046 OVC055 06/M04 A2974 800 48 0 280/12G20 RMK AO2
14840KMKG MKG20071114225012411/14/07 22:50:31  5-MIN KMKG 150350Z 28011G19KT 10SM SCT046 OVC055 06/M04 A2974 800 48 0 290/11G19 RMK AO2 SLP074 T00611039
14840KMKG MKG20071114225512411/14/07 22:55:31  5-MIN KMKG 150355Z 28015G24KT 10SM SCT046 OVC060 06/M03 A2974 800 51 0 290/15G24 RMK AO2 SLP074 T00611033
14840KMKG MKG20071114230010711/14/07 23:00:31  5-MIN KMKG 150400Z 28011G24KT 10SM SCT046 OVC060 06/M03 A2974 800 51 0 290/11G24 RMK AO2
14840KMKG MKG20071114230510711/14/07 23:05:31  5-MIN KMKG 150405Z 30013G23KT 10SM SCT046 OVC060 06/M03 A2974 800 53 0 300/13G23 RMK AO2
14840KMKG MKG20071114231010711/14/07 23:10:31  5-MIN KMKG 150410Z 29015G22KT 10SM SCT046 OVC055 06/M03 A2974 800 51 0 290/15G22 RMK AO2
14840KMKG MKG20071114231510711/14/07 23:15:31  5-MIN KMKG 150415Z 29011G22KT 10SM SCT044 OVC055 06/M03 A2974 790 51 0 300/11G22 RMK AO2
14840KMKG MKG20071114232010711/14/07 23:20:31  5-MIN KMKG 150420Z 29013G23KT 10SM SCT044 OVC055 06/M03 A2974 800 51 0 300/13G23 RMK AO2
14840KMKG MKG20071114232510711/14/07 23:25:31  5-MIN KMKG 150425Z 29014G23KT 10SM FEW046 OVC055 06/M03 A2974 800 51 0 300/14G23 RMK AO2
14840KMKG MKG20071114233012311/14/07 23:30:31  5-MIN KMKG 150430Z 29012G23KT 10SM -RA FEW044 OVC055 06/M03 A2974 790 51 0 300/12G23 RMK AO2 RAB30 P0000
14840KMKG MKG20071114233512611/14/07 23:35:31  5-MIN KMKG 150435Z 30010G21KT 10SM -RA SCT046 OVC055 06/M03 A2975 790 55 -100 300/10G21 RMK AO2 RAB30 P0000
14840KMKG MKG20071114234012311/14/07 23:40:31  5-MIN KMKG 150440Z 29015G22KT 10SM -RA FEW046 OVC055 06/M03 A2974 800 51 0 300/15G22 RMK AO2 RAB30 P0000
14840KMKG MKG20071114234513011/14/07 23:45:31  5-MIN KMKG 150445Z 30011G22KT 10SM -RA FEW039 SCT046 OVC055 06/M03 A2974 800 53 0 300/11G22 RMK AO2 RAB30 P0000
14840KMKG MKG20071114235017211/14/07 23:50:31  5-MIN KMKG 150450Z 31011G20KT 10SM -RA SCT041 SCT048 OVC055 06/M02 A2974 800 55 0 310/11G20 RMK AO2 RAB30 CIG 047 RWY 14 SLP074 P0000 T00611022 401170056
14840KMKG MKG20071114235515911/14/07 23:55:31  5-MIN KMKG 150455Z 30012G20KT 10SM SCT039 BKN046 OVC055 06/M02 A2974 800 57 -100 310/12G20 RMK AO2 RAB30E54 SLP075 P0000 T00561022 401170056
14840KMKG MKG20071115000011711/15/07 00:00:32  5-MIN KMKG 150500Z 31016G22KT 10SM SCT039 BKN048 OVC060 06/M02 A2974 800 57 -100 310/16G22 RMK AO2
14840KMKG MKG20071115000511711/15/07 00:05:31  5-MIN KMKG 150505Z 30009G22KT 10SM FEW039 SCT048 OVC060 06/M02 A2974 790 59 -100 310/09G22 RMK AO2
14840KMKG MKG20071115001011711/15/07 00:10:31  5-MIN KMKG 150510Z 30014G21KT 10SM FEW039 SCT048 OVC060 06/M02 A2974 790 59 -100 300/14G21 RMK AO2
14840KMKG MKG20071115001513311/15/07 00:15:31  5-MIN KMKG 150515Z 30010G21KT 10SM -RA FEW039 SCT048 OVC060 06/M03 A2975 790 55 -100 310/10G21 RMK AO2 RAB13 P0000
14840KMKG MKG20071115002014811/15/07 00:20:31  5-MIN KMKG 150520Z 29014G20KT 10SM -RA FEW039 SCT048 OVC060 06/M03 A2975 790 55 -100 300/14G20 RMK AO2 RAB13 CIG 048 RWY 14 P0000
14840KMKG MKG20071115002513311/15/07 00:25:31  5-MIN KMKG 150525Z 30015G23KT 10SM -RA SCT037 BKN048 OVC060 06/M03 A2974 790 55 -100 300/15G23 RMK AO2 RAB13 P0000
14840KMKG MKG20071115003013311/15/07 00:30:31  5-MIN KMKG 150530Z 28015G23KT 10SM -RA BKN035 BKN046 OVC060 06/M02 A2975 790 57 -100 290/15G23 RMK AO2 RAB13 P0000
14840KMKG MKG20071115003513211/15/07 00:35:31  5-MIN KMKG 150535Z 30012G21KT 10SM BKN035 BKN046 OVC060 06/M02 A2975 790 57 -100 300/12G21 RMK AO2 RAB13E35 P0000
14840KMKG MKG20071115004012611/15/07 00:40:31  5-MIN KMKG 150540Z 29015G21KT 10SM -RA BKN035 OVC046 05/M02 A2975 790 59 -100 290/15G21 RMK AO2 RAB13 P0000
14840KMKG MKG20071115004512611/15/07 00:45:31  5-MIN KMKG 150545Z 30015G24KT 10SM -RA BKN035 OVC046 05/M02 A2975 790 62 -100 310/15G24 RMK AO2 RAB13 P0000
14840KMKG MKG20071115005016711/15/07 00:50:31  5-MIN KMKG 150550Z 30015G24KT 10SM -RA BKN035 OVC048 05/M02 A2975 790 62 -100 310/15G24 RMK AO2 RAB13 SLP076 P0000 60000 T00501017 10083 20050 53006
14840KMKG MKG20071115005517411/15/07 00:55:31  5-MIN KMKG 150555Z 31015G23KT 10SM -RA SCT033 BKN042 OVC050 05/M02 A2975 790 59 -100 310/15G23 RMK AO2 RAB13 SLP077 P0000 60000 T00501022 10083 20050 53004
14840KMKG MKG20071115010012411/15/07 01:00:31  5-MIN KMKG 150600Z 30010G23KT 10SM SCT035 OVC048 05/M02 A2975 790 59 -100 300/10G23 RMK AO2 RAE0557 P0000
14840KMKG MKG20071115010512411/15/07 01:05:31  5-MIN KMKG 150605Z 30014G22KT 10SM FEW035 OVC048 05/M03 A2975 790 57 -100 300/14G22 RMK AO2 RAE0557 P0000
14840KMKG MKG20071115011012711/15/07 01:10:31  5-MIN KMKG 150610Z 30011G22KT 10SM -RA FEW032 BKN049 OVC055 05/M03 A2975 790 57 -100 310/11G22 RMK AO2 P0000
14840KMKG MKG20071115011512711/15/07 01:15:31  5-MIN KMKG 150615Z 30010G20KT 10SM -RA FEW037 BKN046 OVC055 05/M03 A2975 790 57 -100 300/10G20 RMK AO2 P0000
14840KMKG MKG20071115012012211/15/07 01:20:31  5-MIN KMKG 150620Z 31014G19KT 10SM FEW039 OVC050 05/M03 A2975 790 55 -100 310/14G19 RMK AO2 RAE16 P0000
14840KMKG MKG20071115012512211/15/07 01:25:31  5-MIN KMKG 150625Z 29013G22KT 10SM SCT039 OVC050 05/M03 A2975 780 57 -100 300/13G22 RMK AO2 RAE16 P0000
14840KMKG MKG20071115013012911/15/07 01:30:31  5-MIN KMKG 150630Z 30011G22KT 10SM BKN037 BKN048 OVC060 05/M03 A2975 780 57 -100 300/11G22 RMK AO2 RAE16 P0000
14840KMKG MKG20071115013512911/15/07 01:35:31  5-MIN KMKG 150635Z 30013G19KT 10SM BKN037 BKN048 OVC060 05/M03 A2975 780 57 -100 310/13G19 RMK AO2 RAE16 P0000
14840KMKG MKG20071115014012911/15/07 01:40:31  5-MIN KMKG 150640Z 31015G22KT 10SM BKN039 BKN048 OVC075 05/M03 A2976 780 55 -100 310/15G22 RMK AO2 RAE16 P0000
14840KMKG MKG20071115014512911/15/07 01:45:31  5-MIN KMKG 150645Z 31011G22KT 10SM BKN039 BKN048 OVC080 05/M03 A2975 780 55 -100 310/11G22 RMK AO2 RAE16 P0000
14840KMKG MKG20071115015014611/15/07 01:50:31  5-MIN KMKG 150650Z 30013G19KT 10SM FEW035 BKN042 OVC080 04/M03 A2976 780 57 -200 310/13G19 RMK AO2 RAE16 SLP080 P0000 T00441033
14840KMKG MKG20071115015514611/15/07 01:55:31  5-MIN KMKG 150655Z 30014G20KT 10SM BKN042 BKN050 OVC080 04/M03 A2976 780 57 -200 310/14G20 RMK AO2 RAE16 SLP081 P0000 T00441033
14840KMKG MKG20071115020011711/15/07 02:00:31  5-MIN KMKG 150700Z 30012G20KT 10SM BKN042 BKN050 OVC080 04/M04 A2976 780 55 -200 300/12G20 RMK AO2
14840KMKG MKG20071115020511711/15/07 02:05:31  5-MIN KMKG 150705Z 31009G19KT 10SM BKN042 BKN050 OVC080 04/M04 A2976 780 55 -200 310/09G19 RMK AO2
14840KMKG MKG20071115021011711/15/07 02:10:31  5-MIN KMKG 150710Z 32014G21KT 10SM BKN040 BKN050 OVC065 04/M04 A2976 780 55 -200 320/14G21 RMK AO2
14840KMKG MKG20071115021511711/15/07 02:15:31  5-MIN KMKG 150715Z 30014G21KT 10SM BKN040 BKN048 OVC065 04/M03 A2976 780 57 -200 300/14G21 RMK AO2
14840KMKG MKG20071115022013311/15/07 02:20:31  5-MIN KMKG 150720Z 31011G21KT 10SM -RA BKN040 BKN046 OVC065 04/M03 A2976 780 59 -200 320/11G21 RMK AO2 RAB17 P0000
14840KMKG MKG20071115022512611/15/07 02:25:31  5-MIN KMKG 150725Z 31012G20KT 10SM -RA BKN038 OVC050 04/M03 A2977 770 62 -300 310/12G20 RMK AO2 RAB17 P0000
14840KMKG MKG20071115023012611/15/07 02:30:31  5-MIN KMKG 150730Z 30016G23KT 10SM -RA BKN040 OVC047 04/M03 A2977 770 59 -200 310/16G23 RMK AO2 RAB17 P0000
14840KMKG MKG20071115023512611/15/07 02:35:31  5-MIN KMKG 150735Z 30015G23KT 10SM -RA BKN040 OVC046 04/M03 A2977 770 62 -300 310/15G23 RMK AO2 RAB17 P0000
14840KMKG MKG20071115024012611/15/07 02:40:31  5-MIN KMKG 150740Z 30012G23KT 10SM -RA BKN038 OVC048 04/M03 A2977 770 62 -300 300/12G23 RMK AO2 RAB17 P0000
14840KMKG MKG20071115024512611/15/07 02:45:31  5-MIN KMKG 150745Z 30011G22KT 10SM -RA BKN038 OVC048 04/M02 A2977 770 64 -300 310/11G22 RMK AO2 RAB17 P0001
14840KMKG MKG20071115025014311/15/07 02:50:31  5-MIN KMKG 150750Z 30010G19KT 10SM -RA BKN036 OVC045 04/M03 A2977 770 59 -200 300/10G19 RMK AO2 RAB17 SLP084 P0001 T00441028
14840KMKG MKG20071115025514311/15/07 02:55:31  5-MIN KMKG 150755Z 30014G25KT 10SM -RA SCT034 OVC042 04/M02 A2977 770 62 -200 310/14G25 RMK AO2 RAB17 SLP083 P0001 T00441022
14840KMKG MKG20071115030012011/15/07 03:00:31  5-MIN KMKG 150800Z 30008G25KT 10SM -RA BKN035 OVC044 04/M02 A2977 770 64 -300 310/08G25 RMK AO2 P0000
14840KMKG MKG20071115030511411/15/07 03:05:31  5-MIN KMKG 150805Z 30009KT 10SM -RA BKN033 OVC044 04/M02 A2977 770 67 -300 300/09 RMK AO2 P0000
14840KMKG MKG20071115031012011/15/07 03:10:31  5-MIN KMKG 150810Z 31012G20KT 10SM -RA BKN033 OVC044 04/M02 A2977 770 64 -300 320/12G20 RMK AO2 P0000
14840KMKG MKG20071115031512011/15/07 03:15:31  5-MIN KMKG 150815Z 31012G20KT 10SM -RA SCT033 OVC044 04/M02 A2977 770 64 -300 310/12G20 RMK AO2 P0000
14840KMKG MKG20071115032013511/15/07 03:20:31  5-MIN KMKG 150820Z 31010G18KT 10SM -RA SCT033 OVC044 04/M02 A2977 770 64 -200 310/10G18 RMK AO2 CIG 035 RWY 14 P0000
14840KMKG MKG20071115032512011/15/07 03:25:31  5-MIN KMKG 150825Z 31008G17KT 10SM -RA SCT033 OVC044 04/M02 A2977 770 64 -200 310/08G17 RMK AO2 P0000
14840KMKG MKG20071115033012011/15/07 03:30:31  5-MIN KMKG 150830Z 32011G17KT 10SM -RA SCT031 OVC044 04/M02 A2977 770 64 -200 320/11G17 RMK AO2 P0000
14840KMKG MKG20071115033512011/15/07 03:35:31  5-MIN KMKG 150835Z 32013G19KT 10SM -RA FEW031 OVC044 04/M02 A2977 770 67 -300 320/13G19 RMK AO2 P0000
14840KMKG MKG20071115034012011/15/07 03:40:31  5-MIN KMKG 150840Z 31012G20KT 10SM -RA FEW029 OVC044 04/M02 A2976 780 62 -200 320/12G20 RMK AO2 P0000
14840KMKG MKG20071115034512011/15/07 03:45:31  5-MIN KMKG 150845Z 30014G23KT 10SM -RA FEW029 OVC042 04/M02 A2976 770 64 -200 310/14G23 RMK AO2 P0000
14840KMKG MKG20071115035015611/15/07 03:50:31  5-MIN KMKG 150850Z 30012G23KT 10SM -RA FEW031 BKN042 OVC050 04/M01 A2977 770 70 -300 310/12G23 RMK AO2 SLP083 P0000 60001 T00391011 53004
14840KMKG MKG20071115035515611/15/07 03:55:31  5-MIN KMKG 150855Z 31009G22KT 10SM -RA FEW031 BKN042 OVC055 04/M01 A2977 770 67 -200 310/09G22 RMK AO2 SLP083 P0000 60001 T00441011 50006
14840KMKG MKG20071115040012711/15/07 04:00:31  5-MIN KMKG 150900Z 31008G18KT 10SM -RA FEW029 BKN044 OVC060 04/M01 A2977 770 70 -300 310/08G18 RMK AO2 P0000
14840KMKG MKG20071115040512711/15/07 04:05:31  5-MIN KMKG 150905Z 32012G19KT 10SM -RA FEW027 BKN038 OVC045 04/M01 A2976 770 67 -200 320/12G19 RMK AO2 P0000
14840KMKG MKG20071115041012711/15/07 04:10:31  5-MIN KMKG 150910Z 31017G22KT 10SM -RA FEW027 BKN038 OVC045 04/M01 A2976 780 73 -300 320/17G22 RMK AO2 P0000
14840KMKG MKG20071115041512711/15/07 04:15:31  5-MIN KMKG 150915Z 32016G23KT 10SM -RA FEW025 BKN038 OVC060 04/M01 A2976 770 73 -300 330/16G23 RMK AO2 P0000
14840KMKG MKG20071115042012611/15/07 04:20:31  5-MIN KMKG 150920Z 32013G23KT 10SM -RA FEW025 BKN045 OVC055 04/00 A2977 770 76 -300 320/13G23 RMK AO2 P0000
14840KMKG MKG20071115042512611/15/07 04:25:31  5-MIN KMKG 150925Z 32016G23KT 10SM -RA SCT023 BKN037 OVC045 04/00 A2977 770 76 -300 320/16G23 RMK AO2 P0000
14840KMKG MKG20071115043012611/15/07 04:30:31  5-MIN KMKG 150930Z 32014G23KT 10SM -RA FEW023 BKN037 OVC045 04/00 A2977 770 76 -300 320/14G23 RMK AO2 P0000
14840KMKG MKG20071115043512611/15/07 04:35:31  5-MIN KMKG 150935Z 32012G21KT 10SM -RA SCT023 BKN035 OVC046 04/00 A2977 770 76 -300 320/12G21 RMK AO2 P0000
14840KMKG MKG20071115044012611/15/07 04:40:31  5-MIN KMKG 150940Z 33014G18KT 10SM -RA SCT023 BKN035 OVC055 04/00 A2977 770 76 -300 330/14G18 RMK AO2 P0001
14840KMKG MKG20071115044512611/15/07 04:45:31  5-MIN KMKG 150945Z 32012G18KT 10SM -RA SCT023 BKN035 OVC050 04/00 A2977 770 76 -300 320/12G18 RMK AO2 P0001
14840KMKG MKG20071115045015811/15/07 04:50:31  5-MIN KMKG 150950Z 32013G17KT 10SM -RA SCT023 BKN035 OVC065 04/00 A2977 770 76 -300 330/13G17 RMK AO2 CIG 027 RWY 14 SLP086 P0001 T00390000
14840KMKG MKG20071115045514511/15/07 04:55:31  5-MIN KMKG 150955Z 32013G19KT 10SM FEW020 BKN035 OVC060 04/00 A2977 770 76 -300 320/13G19 RMK AO2 RAE52 SLP086 P0001 T00390000
14840KMKG MKG20071115050013311/15/07 05:00:31  5-MIN KMKG 151000Z 33013G24KT 9SM -RA FEW020 BKN029 OVC060 04/00 A2978 760 76 -300 330/13G24 RMK AO2 RAB0957 P0000
14840KMKG MKG20071115050513311/15/07 05:05:31  5-MIN KMKG 151005Z 32014G24KT 9SM -RA SCT020 BKN029 OVC060 03/01 A2978 760 82 -400 330/14G24 RMK AO2 RAB0957 P0000
14840KMKG MKG20071115051013411/15/07 05:10:31  5-MIN KMKG 151010Z 33016G22KT 10SM -RA SCT020 BKN027 OVC060 04/01 A2978 760 79 -300 330/16G22 RMK AO2 RAB0957 P0000
14840KMKG MKG20071115051513411/15/07 05:15:31  5-MIN KMKG 151015Z 32014G22KT 10SM -RA SCT020 BKN033 OVC065 04/01 A2978 760 79 -300 330/14G22 RMK AO2 RAB0957 P0000
14840KMKG MKG20071115052012811/15/07 05:20:31  5-MIN KMKG 151020Z 33013KT 10SM -RA BKN022 BKN036 OVC065 04/01 A2978 760 79 -300 330/13 RMK AO2 RAB0957 P0000
14840KMKG MKG20071115052513311/15/07 05:25:31  5-MIN KMKG 151025Z 33015G20KT 10SM BKN020 BKN034 OVC070 04/01 A2978 760 79 -300 340/15G20 RMK AO2 RAB0957E21 P0000
14840KMKG MKG20071115053013411/15/07 05:30:31  5-MIN KMKG 151030Z 33011G20KT 10SM -RA BKN020 BKN034 OVC070 04/01 A2978 760 79 -300 330/11G20 RMK AO2 RAB0957 P0000
14840KMKG MKG20071115053513411/15/07 05:35:31  5-MIN KMKG 151035Z 32015G20KT 10SM -RA BKN020 BKN034 OVC048 04/01 A2979 750 79 -300 330/15G20 RMK AO2 RAB0957 P0000
14840KMKG MKG20071115054013311/15/07 05:40:31  5-MIN KMKG 151040Z 34015G20KT 9SM -RA BKN020 BKN036 OVC070 04/01 A2979 750 79 -300 340/15G20 RMK AO2 RAB0957 P0000
14840KMKG MKG20071115054512711/15/07 05:45:31  5-MIN KMKG 151045Z 33012KT 6SM -RA BKN017 BKN028 OVC042 03/01 A2979 750 82 -400 340/12 RMK AO2 RAB0957 P0001
14840KMKG MKG20071115055014711/15/07 05:50:31  5-MIN KMKG 151050Z 34011KT 6SM -RA BR BKN017 BKN021 OVC034 03/01 A2979 750 85 -400 340/11 RMK AO2 RAB0957 SLP094 P0001 T00330011
14840KMKG MKG20071115055514011/15/07 05:55:31  5-MIN KMKG 151055Z 35011KT 5SM -RA BR BKN017 OVC021 03/01 A2980 740 89 -500 350/11 RMK AO2 RAB0957 SLP094 P0002 T00280011
14840KMKG MKG20071115060012111/15/07 06:00:31  5-MIN KMKG 151100Z 34015G19KT 5SM -RA BR BKN017 OVC021 03/01 A2980 740 89 -500 350/15G19 RMK AO2 P0000
14840KMKG MKG20071115060513211/15/07 06:05:31  5-MIN KMKG 151105Z 34013G19KT 5SM -SN BR BKN017 OVC021 03/01 A2980 740 85 -400 350/13G19 RMK AO2 RAE02SNB02 P0000
14840KMKG MKG20071115061013911/15/07 06:10:31  5-MIN KMKG 151110Z 32013G21KT 5SM -SN BR BKN016 BKN021 OVC030 03/01 A2980 750 85 -400 330/13G21 RMK AO2 RAE02SNB02 P0000
14840KMKG MKG20071115061513611/15/07 06:15:31  5-MIN KMKG 151115Z 32014G21KT 7SM -SN BKN016 BKN021 OVC043 03/01 A2980 740 85 -400 330/14G21 RMK AO2 RAE02SNB02 P0000
14840KMKG MKG20071115062013811/15/07 06:20:31  5-MIN KMKG 151120Z 32018G22KT 6SM -RA BR BKN016 OVC021 03/01 A2980 740 85 -400 330/18G22 RMK AO2 RAE02B18SNB02E18 P0001
14840KMKG MKG20071115062513811/15/07 06:25:31  5-MIN KMKG 151125Z 32012G22KT 6SM -RA BR BKN016 OVC021 03/01 A2980 740 85 -400 330/12G22 RMK AO2 RAE02B18SNB02E18 P0001
14840KMKG MKG20071115063013611/15/07 06:30:31  5-MIN KMKG 151130Z 32013KT 8SM -RA BKN016 BKN021 OVC026 03/01 A2980 740 85 -400 320/13 RMK AO2 RAE02B18SNB02E18 P0002
14840KMKG MKG20071115063514211/15/07 06:35:31  5-MIN KMKG 151135Z 32015G23KT 9SM -RA BKN016 BKN021 OVC029 03/01 A2980 740 85 -400 320/15G23 RMK AO2 RAE02B18SNB02E18 P0002
14840KMKG MKG20071115064014311/15/07 06:40:31  5-MIN KMKG 151140Z 32017G25KT 10SM -RA BKN016 BKN021 OVC027 03/01 A2981 740 85 -400 330/17G25 RMK AO2 RAE02B18SNB02E18 P0002
14840KMKG MKG20071115064514311/15/07 06:45:31  5-MIN KMKG 151145Z 32015G25KT 10SM -RA BKN016 BKN022 OVC029 03/01 A2981 740 85 -400 330/15G25 RMK AO2 RAE02B18SNB02E18 P0002
14840KMKG MKG20071115065020511/15/07 06:50:31  5-MIN KMKG 151150Z 32016G23KT 10SM -RA SCT016 BKN022 OVC042 03/01 A2981 730 85 -400 320/16G23 RMK AO2 RAE02B18SNB02E18 CIG 017 RWY 14 SLP098 P0002 60006 70006 T00330011 10050 20028 50006
14840KMKG MKG20071115065519011/15/07 06:55:31  5-MIN KMKG 151155Z 33015G22KT 10SM -RA SCT016 BKN022 OVC046 03/01 A2981 730 85 -400 330/15G22 RMK AO2 RAE02B18SNB02E18 SLP098 P0002 60006 70006 T00330011 10050 20028 53014
14840KMKG MKG20071115070012611/15/07 07:00:31  5-MIN KMKG 151200Z 33018G23KT 10SM -RA SCT016 BKN022 OVC048 03/01 A2981 730 82 -400 330/18G23 RMK AO2 P0000
14840KMKG MKG20071115070514411/15/07 07:05:31  5-MIN KMKG 151205Z 32016G28KT 10SM -RA SCT019 BKN025 OVC055 03/01 A2981 730 82 -400 330/16G28 RMK AO2 PK WND 34028/1201 P0000
14840KMKG MKG20071115071014411/15/07 07:10:31  5-MIN KMKG 151210Z 33014G28KT 10SM -RA SCT021 BKN047 OVC080 03/01 A2982 720 82 -400 330/14G28 RMK AO2 PK WND 34028/1201 P0000
14840KMKG MKG20071115071514411/15/07 07:15:31  5-MIN KMKG 151215Z 32014G21KT 10SM -RA FEW018 BKN049 OVC080 03/01 A2982 730 82 -400 330/14G21 RMK AO2 PK WND 34028/1201 P0000
14840KMKG MKG20071115072014411/15/07 07:20:31  5-MIN KMKG 151220Z 33013G20KT 10SM -RA FEW021 BKN060 OVC080 03/01 A2982 720 82 -400 330/13G20 RMK AO2 PK WND 34028/1201 P0000
14840KMKG MKG20071115072513811/15/07 07:25:31  5-MIN KMKG 151225Z 32013KT 10SM -RA FEW021 BKN060 OVC080 03/01 A2982 720 82 -400 330/13 RMK AO2 PK WND 34028/1201 P0000
14840KMKG MKG20071115073016111/15/07 07:30:31  5-MIN KMKG 151230Z 32016G24KT 10SM FEW023 SCT060 OVC080 03/01 A2983 720 82 -400 330/16G24 RMK AO2 PK WND 34028/1201 RAE30 CIG 060 RWY 14 P0000
14840KMKG MKG20071115073514611/15/07 07:35:31  5-MIN KMKG 151235Z 33014G24KT 10SM FEW023 BKN070 OVC085 03/00 A2983 720 79 -400 330/14G24 RMK AO2 PK WND 34028/1201 RAE30 P0000
14840KMKG MKG20071115074013911/15/07 07:40:31  5-MIN KMKG 151240Z 32014G25KT 10SM BKN060 OVC080 03/00 A2983 710 79 -400 330/14G25 RMK AO2 PK WND 34028/1201 RAE30 P0000
14840KMKG MKG20071115074514611/15/07 07:45:31  5-MIN KMKG 151245Z 33015G25KT 10SM FEW045 BKN055 OVC080 03/00 A2984 710 79 -400 340/15G25 RMK AO2 PK WND 34028/1201 RAE30 P0000
14840KMKG MKG20071115075016311/15/07 07:50:31  5-MIN KMKG 151250Z 33012G21KT 10SM FEW045 BKN055 OVC080 03/00 A2984 710 79 -400 340/12G21 RMK AO2 PK WND 34028/1201 RAE30 SLP109 P0000 T00330000
14840KMKG MKG20071115075517811/15/07 07:55:31  5-MIN KMKG 151255Z 33016G23KT 10SM SCT045 BKN060 OVC080 03/00 A2984 700 79 -500 330/16G23 RMK AO2 PK WND 34028/1201 RAE30 CIG 048 RWY 14 SLP109 P0000 T00330000
14840KMKG MKG20071115080013211/15/07 08:00:31  5-MIN KMKG 151300Z 33015G23KT 10SM SCT047 BKN060 OVC080 03/M01 A2985 700 76 -500 340/15G23 RMK AO2 CIG 048 RWY 14
14840KMKG MKG20071115080513511/15/07 08:05:31  5-MIN KMKG 151305Z 33020G27KT 10SM BKN047 BKN065 OVC080 04/M01 A2985 700 73 -400 330/20G27 RMK AO2 PK WND 33027/1305
14840KMKG MKG20071115081013511/15/07 08:10:31  5-MIN KMKG 151310Z 33018G27KT 10SM BKN045 BKN070 OVC085 04/M01 A2985 700 73 -400 330/18G27 RMK AO2 PK WND 33027/1305
14840KMKG MKG20071115081514311/15/07 08:15:31  5-MIN KMKG 151315Z 33014G25KT 10SM SCT047 OVC080 04/M01 A2985 690 70 -400 330/14G25 RMK AO2 PK WND 33027/1305 CIG 046 RWY 14
14840KMKG MKG20071115082013511/15/07 08:20:31  5-MIN KMKG 151320Z 33019G22KT 10SM BKN047 BKN075 OVC090 04/M01 A2985 690 73 -400 330/19G22 RMK AO2 PK WND 33027/1305
14840KMKG MKG20071115082514311/15/07 08:25:31  5-MIN KMKG 151325Z 33017G27KT 10SM SCT047 OVC080 04/M01 A2986 690 70 -400 330/17G27 RMK AO2 PK WND 34027/1321 CIG 046 RWY 14
14840KMKG MKG20071115083014311/15/07 08:30:31  5-MIN KMKG 151330Z 33014G27KT 10SM SCT047 OVC080 04/M01 A2986 690 70 -400 330/14G27 RMK AO2 PK WND 34027/1321 CIG 046 RWY 14
14840KMKG MKG20071115083514411/15/07 08:35:31  5-MIN KMKG 151335Z 33015KT 10SM SCT047 BKN075 OVC085 04/M01 A2986 680 70 -400 330/15 RMK AO2 PK WND 34027/1321 CIG 048 RWY 14
14840KMKG MKG20071115084013511/15/07 08:40:31  5-MIN KMKG 151340Z 32015G20KT 10SM FEW041 BKN049 OVC090 04/M01 A2987 680 70 -400 330/15G20 RMK AO2 PK WND 34027/1321
14840KMKG MKG20071115084513511/15/07 08:45:31  5-MIN KMKG 151345Z 32015G23KT 10SM FEW042 BKN049 OVC090 04/M01 A2987 680 70 -400 330/15G23 RMK AO2 PK WND 34027/1321
14840KMKG MKG20071115085015211/15/07 08:50:31  5-MIN KMKG 151350Z 33021G27KT 10SM BKN045 BKN075 OVC090 04/M02 A2987 680 67 -400 330/21G27 RMK AO2 PK WND 32027/1349 SLP119 T00391017
14840KMKG MKG20071115085514511/15/07 08:55:31  5-MIN KMKG 151355Z 33015G27KT 10SM BKN045 OVC090 04/M02 A2987 680 67 -400 330/15G27 RMK AO2 PK WND 32027/1349 SLP119 T00391017
14840KMKG MKG20071115090010311/15/07 09:00:31  5-MIN KMKG 151400Z 32017G24KT 10SM OVC045 04/M02 A2988 670 67 -400 320/17G24 RMK AO2
14840KMKG MKG20071115090510311/15/07 09:05:31  5-MIN KMKG 151405Z 32018G25KT 10SM OVC045 04/M02 A2988 670 67 -400 330/18G25 RMK AO2
14840KMKG MKG20071115091011011/15/07 09:10:31  5-MIN KMKG 151410Z 33018G25KT 10SM BKN041 OVC048 04/M02 A2988 660 67 -400 330/18G25 RMK AO2
14840KMKG MKG20071115091512111/15/07 09:15:31  5-MIN KMKG 151415Z 32016G26KT 10SM OVC041 04/M02 A2989 660 67 -400 330/16G26 RMK AO2 PK WND 32026/1412
14840KMKG MKG20071115092013711/15/07 09:20:31  5-MIN KMKG 151420Z 33020G28KT 10SM -RA OVC041 04/M02 A2989 660 67 -400 330/20G28 RMK AO2 PK WND 33028/1418 RAB19 P0000
14840KMKG MKG20071115092514411/15/07 09:25:31  5-MIN KMKG 151425Z 32020G28KT 10SM -RA BKN041 OVC048 03/M02 A2988 660 70 -500 330/20G28 RMK AO2 PK WND 33028/1418 RAB19 P0000
14840KMKG MKG20071115093013711/15/07 09:30:31  5-MIN KMKG 151430Z 33016G25KT 10SM -RA OVC039 03/M02 A2989 660 70 -500 330/16G25 RMK AO2 PK WND 33028/1418 RAB19 P0000
14840KMKG MKG20071115093513711/15/07 09:35:31  5-MIN KMKG 151435Z 34018G24KT 10SM -RA OVC039 03/M02 A2989 660 70 -500 340/18G24 RMK AO2 PK WND 33028/1418 RAB19 P0000
14840KMKG MKG20071115094013611/15/07 09:40:31  5-MIN KMKG 151440Z 33017G24KT 10SM OVC039 03/M02 A2990 650 67 -500 330/17G24 RMK AO2 PK WND 33028/1418 RAB19E37 P0000
14840KMKG MKG20071115094513611/15/07 09:45:31  5-MIN KMKG 151445Z 32018G25KT 10SM OVC039 03/M02 A2990 650 67 -500 330/18G25 RMK AO2 PK WND 33028/1418 RAB19E37 P0000
14840KMKG MKG20071115095016611/15/07 09:50:31  5-MIN KMKG 151450Z 33018G25KT 10SM -RA OVC039 03/M03 A2990 650 64 -500 340/18G25 RMK AO2 PK WND 33028/1418 RAB19 SLP131 P0000 60000 T00331028 53014
14840KMKG MKG20071115095516611/15/07 09:55:31  5-MIN KMKG 151455Z 33018G25KT 10SM -RA OVC041 03/M03 A2991 640 64 -500 330/18G25 RMK AO2 PK WND 33028/1418 RAB19 SLP131 P0000 60000 T00331028 53033
14840KMKG MKG20071115100013811/15/07 10:00:31  5-MIN KMKG 151500Z 33019G26KT 10SM -RA BKN038 OVC047 03/M03 A2991 640 64 -500 340/19G26 RMK AO2 PK WND 33026/1457 P0000
14840KMKG MKG20071115100514611/15/07 10:05:31  5-MIN KMKG 151505Z 32018G26KT 10SM -RASN BKN040 OVC047 03/M02 A2991 640 67 -500 330/18G26 RMK AO2 PK WND 33026/1457 SNB04 P0000
14840KMKG MKG20071115101015311/15/07 10:10:31  5-MIN KMKG 151510Z 32018G24KT 10SM -RASN FEW029 BKN039 OVC047 03/M02 A2991 640 67 -500 320/18G24 RMK AO2 PK WND 33026/1457 SNB04 P0000
14840KMKG MKG20071115101515311/15/07 10:15:31  5-MIN KMKG 151515Z 32021G27KT 10SM -RASN SCT029 BKN036 OVC045 03/M02 A2991 640 67 -500 320/21G27 RMK AO2 PK WND 31027/1515 SNB04 P0000
14840KMKG MKG20071115102014611/15/07 10:20:31  5-MIN KMKG 151520Z 32017G27KT 10SM -RASN BKN033 OVC045 03/M02 A2992 630 67 -500 330/17G27 RMK AO2 PK WND 31027/1516 SNB04 P0000
14840KMKG MKG20071115102515311/15/07 10:25:31  5-MIN KMKG 151525Z 32019G27KT 10SM -RASN FEW029 BKN036 OVC045 03/M02 A2992 630 67 -500 330/19G27 RMK AO2 PK WND 31027/1516 SNB04 P0000
14840KMKG MKG20071115103014611/15/07 10:30:31  5-MIN KMKG 151530Z 33016G26KT 10SM -RASN FEW030 OVC038 03/M02 A2992 630 67 -500 330/16G26 RMK AO2 PK WND 31027/1516 SNB04 P0000
14840KMKG MKG20071115103514611/15/07 10:35:31  5-MIN KMKG 151535Z 33023G30KT 10SM -RASN BKN034 OVC041 03/M03 A2992 630 64 -500 340/23G30 RMK AO2 PK WND 33030/1535 SNB04 P0000
14840KMKG MKG20071115104014611/15/07 10:40:31  5-MIN KMKG 151540Z 32017G30KT 10SM -RASN BKN034 OVC041 03/M03 A2993 630 64 -500 330/17G30 RMK AO2 PK WND 33030/1535 SNB04 P0000
14840KMKG MKG20071115104513911/15/07 10:45:31  5-MIN KMKG 151545Z 33016G27KT 10SM -RASN OVC038 03/M03 A2993 620 64 -600 330/16G27 RMK AO2 PK WND 33030/1535 SNB04 P0000
14840KMKG MKG20071115105015611/15/07 10:50:31  5-MIN KMKG 151550Z 34019G23KT 10SM -RASN OVC038 03/M03 A2993 620 64 -600 340/19G23 RMK AO2 PK WND 33030/1535 SNB04 SLP140 P0000 T00331028
14840KMKG MKG20071115105515611/15/07 10:55:31  5-MIN KMKG 151555Z 33023G30KT 10SM -RASN OVC038 03/M03 A2993 620 61 -600 330/23G30 RMK AO2 PK WND 32030/1555 SNB04 SLP139 P0000 T00331033
14840KMKG MKG20071115110011511/15/07 11:00:31  5-MIN KMKG 151600Z 32019G30KT 10SM -RASN OVC040 03/M03 A2994 620 61 -600 330/19G30 RMK AO2 P0000
14840KMKG MKG20071115110514511/15/07 11:05:31  5-MIN KMKG 151605Z 32023G31KT 10SM BKN040 OVC048 03/M04 A2993 620 59 -600 330/23G31 RMK AO2 PK WND 32031/1603 RAE04SNE04 P0000
14840KMKG MKG20071115111014511/15/07 11:10:31  5-MIN KMKG 151610Z 33020G31KT 10SM BKN040 OVC048 03/M04 A2994 610 59 -600 330/20G31 RMK AO2 PK WND 32031/1603 RAE04SNE04 P0000
14840KMKG MKG20071115111513811/15/07 11:15:31  5-MIN KMKG 151615Z 34020G28KT 10SM OVC042 03/M04 A2994 610 57 -600 340/20G28 RMK AO2 PK WND 32031/1603 RAE04SNE04 P0000
14840KMKG MKG20071115112013811/15/07 11:20:31  5-MIN KMKG 151620Z 33019G28KT 10SM OVC042 03/M04 A2994 610 57 -600 330/19G28 RMK AO2 PK WND 32031/1603 RAE04SNE04 P0000
14840KMKG MKG20071115112513811/15/07 11:25:31  5-MIN KMKG 151625Z 33017G24KT 10SM OVC044 04/M04 A2994 610 54 -500 330/17G24 RMK AO2 PK WND 32031/1603 RAE04SNE04 P0000
14840KMKG MKG20071115113013811/15/07 11:30:31  5-MIN KMKG 151630Z 33022G30KT 10SM OVC046 03/M04 A2994 610 57 -600 330/22G30 RMK AO2 PK WND 32031/1603 RAE04SNE04 P0000
14840KMKG MKG20071115113514511/15/07 11:35:31  5-MIN KMKG 151635Z 33022G30KT 10SM BKN046 OVC055 03/M05 A2995 610 54 -600 340/22G30 RMK AO2 PK WND 32031/1603 RAE04SNE04 P0000
14840KMKG MKG20071115114014511/15/07 11:40:31  5-MIN KMKG 151640Z 33021G32KT 10SM BKN046 OVC055 03/M06 A2994 610 52 -600 340/21G32 RMK AO2 PK WND 32032/1638 RAE04SNE04 P0000
14840KMKG MKG20071115114514511/15/07 11:45:31  5-MIN KMKG 151645Z 33015G32KT 10SM BKN049 OVC060 04/M05 A2995 600 52 -500 330/15G32 RMK AO2 PK WND 32032/1638 RAE04SNE04 P0000
14840KMKG MKG20071115115016211/15/07 11:50:31  5-MIN KMKG 151650Z 33016G25KT 10SM BKN047 OVC055 04/M05 A2995 610 52 -500 340/16G25 RMK AO2 PK WND 32032/1638 RAE04SNE04 SLP145 P0000 T00391050
14840KMKG MKG20071115115516211/15/07 11:55:31  5-MIN KMKG 151655Z 34022G28KT 10SM BKN050 OVC060 03/M05 A2995 600 54 -600 350/22G28 RMK AO2 PK WND 32032/1638 RAE04SNE04 SLP147 P0000 T00331050
14840KMKG MKG20071115120012811/15/07 12:00:31  5-MIN KMKG 151700Z 34019G28KT 10SM FEW048 OVC060 03/M05 A2995 600 54 -600 340/19G28 RMK AO2 PK WND 33026/1657
14840KMKG MKG20071115120512811/15/07 12:05:31  5-MIN KMKG 151705Z 33020G28KT 10SM FEW048 OVC055 03/M05 A2994 610 54 -600 330/20G28 RMK AO2 PK WND 33028/1701
14840KMKG MKG20071115121014411/15/07 12:10:31  5-MIN KMKG 151710Z 34015G28KT 10SM -RA FEW046 OVC055 03/M05 A2995 610 54 -600 340/15G28 RMK AO2 PK WND 33028/1701 RAB08 P0000
14840KMKG MKG20071115121514411/15/07 12:15:31  5-MIN KMKG 151715Z 34019G27KT 10SM -RA FEW044 OVC055 03/M04 A2995 600 57 -600 340/19G27 RMK AO2 PK WND 33028/1701 RAB08 P0000
14840KMKG MKG20071115122014311/15/07 12:20:31  5-MIN KMKG 151720Z 34022G27KT 10SM FEW047 OVC055 03/M04 A2995 610 57 -600 340/22G27 RMK AO2 PK WND 33028/1701 RAB08E17 P0000
14840KMKG MKG20071115122514311/15/07 12:25:31  5-MIN KMKG 151725Z 34022G28KT 10SM FEW047 OVC055 03/M04 A2995 600 57 -600 340/22G28 RMK AO2 PK WND 34028/1724 RAB08E17 P0000
14840KMKG MKG20071115123014311/15/07 12:30:31  5-MIN KMKG 151730Z 34020G28KT 10SM FEW047 OVC055 03/M05 A2995 610 54 -600 340/20G28 RMK AO2 PK WND 34028/1724 RAB08E17 P0000
14840KMKG MKG20071115123513611/15/07 12:35:31  5-MIN KMKG 151735Z 33016G27KT 10SM OVC055 03/M05 A2995 610 54 -600 340/16G27 RMK AO2 PK WND 34028/1724 RAB08E17 P0000
14840KMKG MKG20071115124013611/15/07 12:40:31  5-MIN KMKG 151740Z 33020G24KT 10SM OVC055 03/M05 A2995 610 54 -600 340/20G24 RMK AO2 PK WND 34028/1724 RAB08E17 P0000
14840KMKG MKG20071115124514311/15/07 12:45:31  5-MIN KMKG 151745Z 34016G24KT 10SM BKN050 OVC060 03/M05 A2995 610 54 -600 340/16G24 RMK AO2 PK WND 34028/1724 RAB08E17 P0000
14840KMKG MKG20071115125017711/15/07 12:50:31  5-MIN KMKG 151750Z 32017G24KT 10SM OVC050 03/M05 A2994 620 54 -600 320/17G24 RMK AO2 PK WND 34028/1724 RAB08E17 SLP143 P0000 60000 T00331050 10039 20033 53033
14840KMKG MKG20071115125517711/15/07 12:55:31  5-MIN KMKG 151755Z 33017G24KT 10SM OVC050 03/M06 A2994 610 50 -600 330/17G24 RMK AO2 PK WND 34028/1724 RAB08E17 SLP145 P0000 60000 T00331061 10039 20033 50013
14840KMKG MKG20071115130010311/15/07 13:00:31  5-MIN KMKG 151800Z 34018G24KT 10SM OVC050 03/M06 A2995 610 50 -600 340/18G24 RMK AO2
14840KMKG MKG20071115130510311/15/07 13:05:31  5-MIN KMKG 151805Z 32015G23KT 10SM OVC050 03/M06 A2994 610 50 -600 320/15G23 RMK AO2
14840KMKG MKG20071115131011911/15/07 13:10:31  5-MIN KMKG 151810Z 32013G21KT 10SM -SN OVC050 03/M06 A2994 610 52 -600 330/13G21 RMK AO2 SNB10 P0000
14840KMKG MKG20071115131511811/15/07 13:15:31  5-MIN KMKG 151815Z 33016G23KT 9SM -SN OVC050 03/M06 A2995 610 50 -600 330/16G23 RMK AO2 SNB10 P0000
14840KMKG MKG20071115132011811/15/07 13:20:31  5-MIN KMKG 151820Z 32013G23KT 9SM -SN OVC050 03/M06 A2995 600 52 -600 330/13G23 RMK AO2 SNB10 P0000
14840KMKG MKG20071115132511811/15/07 13:25:31  5-MIN KMKG 151825Z 32015G22KT 9SM -SN OVC048 03/M06 A2994 610 52 -600 320/15G22 RMK AO2 SNB10 P0000
14840KMKG MKG20071115133011811/15/07 13:30:31  5-MIN KMKG 151830Z 32013G22KT 9SM -SN OVC048 03/M06 A2995 600 52 -600 330/13G22 RMK AO2 SNB10 P0000
14840KMKG MKG20071115133511811/15/07 13:35:31  5-MIN KMKG 151835Z 32017G24KT 9SM -SN OVC046 03/M06 A2995 600 52 -600 330/17G24 RMK AO2 SNB10 P0000
14840KMKG MKG20071115134011811/15/07 13:40:31  5-MIN KMKG 151840Z 32017G25KT 9SM -SN OVC046 03/M05 A2995 600 56 -600 330/17G25 RMK AO2 SNB10 P0000
14840KMKG MKG20071115134511911/15/07 13:45:31  5-MIN KMKG 151845Z 32015G25KT 10SM -SN OVC046 03/M06 A2996 590 54 -700 330/15G25 RMK AO2 SNB10 P0000
14840KMKG MKG20071115135013611/15/07 13:50:31  5-MIN KMKG 151850Z 32018G22KT 10SM -SN OVC046 03/M05 A2996 600 56 -700 330/18G22 RMK AO2 SNB10 SLP150 P0000 T00281050
14840KMKG MKG20071115135513511/15/07 13:55:31  5-MIN KMKG 151855Z 32017G25KT 7SM -SN OVC046 03/M05 A2996 590 56 -700 330/17G25 RMK AO2 SNB10 SLP151 P0000 T00281050
14840KMKG MKG20071115140011211/15/07 14:00:31  5-MIN KMKG 151900Z 33017G25KT 7SM -SN OVC046 03/M04 A2996 590 59 -700 330/17G25 RMK AO2 P0000
14840KMKG MKG20071115140511211/15/07 14:05:31  5-MIN KMKG 151905Z 33015G22KT 9SM -SN OVC046 03/M04 A2997 590 59 -700 330/15G22 RMK AO2 P0000
14840KMKG MKG20071115141011211/15/07 14:10:31  5-MIN KMKG 151910Z 33017G23KT 9SM -SN OVC048 03/M04 A2997 580 59 -700 340/17G23 RMK AO2 P0000
14840KMKG MKG20071115141511911/15/07 14:15:31  5-MIN KMKG 151915Z 34012G23KT 9SM -SN FEW043 OVC050 03/M04 A2997 580 59 -700 340/12G23 RMK AO2 P0000
14840KMKG MKG20071115142011911/15/07 14:20:31  5-MIN KMKG 151920Z 34016G22KT 9SM -SN SCT043 OVC050 03/M04 A2997 580 59 -700 340/16G22 RMK AO2 P0000
14840KMKG MKG20071115142511211/15/07 14:25:31  5-MIN KMKG 151925Z 33015G22KT 9SM -SN OVC050 03/M04 A2998 580 59 -700 340/15G22 RMK AO2 P0000
14840KMKG MKG20071115143011211/15/07 14:30:31  5-MIN KMKG 151930Z 33017G23KT 8SM -SN OVC050 02/M04 A2998 580 61 -700 340/17G23 RMK AO2 P0000
14840KMKG MKG20071115143511911/15/07 14:35:31  5-MIN KMKG 151935Z 34016G23KT 8SM -SN SCT039 OVC050 02/M04 A2998 580 61 -700 340/16G23 RMK AO2 P0000
14840KMKG MKG20071115144012611/15/07 14:40:31  5-MIN KMKG 151940Z 33012G23KT 9SM -SN SCT037 BKN045 OVC050 02/M04 A2998 580 61 -700 340/12G23 RMK AO2 P0000
14840KMKG MKG20071115144512011/15/07 14:45:31  5-MIN KMKG 151945Z 32014KT 9SM -SN BKN035 BKN044 OVC050 02/M04 A2998 580 64 -700 330/14 RMK AO2 P0000
14840KMKG MKG20071115145014311/15/07 14:50:31  5-MIN KMKG 151950Z 32012G19KT 9SM -SN BKN033 BKN044 OVC050 02/M04 A2998 580 64 -700 330/12G19 RMK AO2 SLP157 P0000 T00221039
14840KMKG MKG20071115145513711/15/07 14:55:31  5-MIN KMKG 151955Z 33010KT 9SM -SN BKN031 BKN039 OVC048 02/M04 A2998 570 64 -800 340/10 RMK AO2 SLP158 P0000 T00221039
14840KMKG MKG20071115150012011/15/07 15:00:31  5-MIN KMKG 152000Z 34011KT 9SM -SN BKN031 BKN037 OVC047 02/M03 A2999 570 67 -800 340/11 RMK AO2 P0000
14840KMKG MKG20071115150511911/15/07 15:05:31  5-MIN KMKG 152005Z 35014G17KT 9SM -SN BKN033 OVC045 02/M03 A2999 560 67 -800 350/14G17 RMK AO2 P0000
14840KMKG MKG20071115151011311/15/07 15:10:31  5-MIN KMKG 152010Z 34013KT 8SM -SN BKN033 OVC045 02/M03 A2999 570 67 -800 340/13 RMK AO2 P0000
14840KMKG MKG20071115151511911/15/07 15:15:31  5-MIN KMKG 152015Z 33011G19KT 8SM -SN BKN033 OVC045 02/M03 A2999 570 67 -800 340/11G19 RMK AO2 P0000
14840KMKG MKG20071115152011911/15/07 15:20:31  5-MIN KMKG 152020Z 33008G19KT 9SM -SN BKN033 OVC045 02/M03 A2999 560 67 -800 340/08G19 RMK AO2 P0000
14840KMKG MKG20071115152511911/15/07 15:25:31  5-MIN KMKG 152025Z 33008G16KT 9SM -SN BKN033 OVC045 02/M03 A2999 560 67 -800 340/08G16 RMK AO2 P0000
14840KMKG MKG20071115153011911/15/07 15:30:31  5-MIN KMKG 152030Z 34011G16KT 6SM -SN BKN035 OVC045 02/M03 A3000 560 67 -800 340/11G16 RMK AO2 P0000
14840KMKG MKG20071115153511311/15/07 15:35:31  5-MIN KMKG 152035Z 35012KT 5SM -SN BKN035 OVC043 02/M03 A3000 560 67 -800 350/12 RMK AO2 P0000
14840KMKG MKG20071115154011311/15/07 15:40:31  5-MIN KMKG 152040Z 34010KT 8SM -SN BKN035 OVC045 02/M03 A3000 560 67 -800 340/10 RMK AO2 P0000
14840KMKG MKG20071115154511311/15/07 15:45:31  5-MIN KMKG 152045Z 33009KT 8SM -SN BKN035 OVC045 02/M03 A3000 560 67 -800 330/09 RMK AO2 P0000
14840KMKG MKG20071115155014211/15/07 15:50:31  5-MIN KMKG 152050Z 34009KT 8SM -SN BKN037 OVC047 02/M03 A3000 550 69 -800 340/09 RMK AO2 SLP165 P0000 60000 T00221028 50013
14840KMKG MKG20071115155514211/15/07 15:55:31  5-MIN KMKG 152055Z 34009KT 9SM -SN BKN034 OVC047 02/M03 A3001 550 69 -800 340/09 RMK AO2 SLP166 P0000 60000 T00221028 53021
14840KMKG MKG20071115160011911/15/07 16:00:31  5-MIN KMKG 152100Z 34013G18KT 9SM -SN BKN034 OVC047 02/M03 A3001 550 69 -800 350/13G18 RMK AO2 P0000
14840KMKG MKG20071115160512611/15/07 16:05:31  5-MIN KMKG 152105Z 35017G21KT 6SM -SN FEW030 BKN037 OVC047 02/M03 A3001 550 72 -900 350/17G21 RMK AO2 P0000
14840KMKG MKG20071115161012611/15/07 16:10:31  5-MIN KMKG 152110Z 34012G21KT 4SM -SN FEW030 BKN039 OVC047 02/M03 A3001 550 72 -900 340/12G21 RMK AO2 P0000
14840KMKG MKG20071115161512611/15/07 16:15:31  5-MIN KMKG 152115Z 33010G18KT 6SM -SN FEW030 BKN039 OVC047 02/M03 A3001 550 72 -900 340/10G18 RMK AO2 P0001
14840KMKG MKG20071115162011311/15/07 16:20:31  5-MIN KMKG 152120Z 34011KT 9SM -SN FEW030 OVC041 02/M03 A3001 540 72 -900 340/11 RMK AO2 P0001
14840KMKG MKG20071115162511311/15/07 16:25:31  5-MIN KMKG 152125Z 33011KT 9SM -SN FEW030 OVC041 02/M03 A3002 540 72 -900 340/11 RMK AO2 P0001
14840KMKG MKG20071115163010611/15/07 16:30:31  5-MIN KMKG 152130Z 34009KT 9SM -SN OVC041 02/M03 A3002 540 72 -900 340/09 RMK AO2 P0001
14840KMKG MKG20071115163510611/15/07 16:35:31  5-MIN KMKG 152135Z 33010KT 9SM -SN OVC041 02/M03 A3002 540 67 -800 340/10 RMK AO2 P0001
14840KMKG MKG20071115164010611/15/07 16:40:31  5-MIN KMKG 152140Z 33010KT 9SM -SN OVC040 02/M03 A3002 540 67 -800 330/10 RMK AO2 P0001
14840KMKG MKG20071115164512811/15/07 16:45:31  5-MIN KMKG 152145Z 30010G20KT 270V330 9SM -SN OVC040 02/M04 A3002 540 64 -800 300/10G20 270V330 RMK AO2 P0001
14840KMKG MKG20071115165013611/15/07 16:50:31  5-MIN KMKG 152150Z 31013G20KT 9SM -SN BKN039 OVC047 02/M04 A3002 540 61 -800 320/13G20 RMK AO2 SLP171 P0001 T00221044
14840KMKG MKG20071115165513611/15/07 16:55:31  5-MIN KMKG 152155Z 32010G17KT 9SM -SN BKN041 OVC049 03/M04 A3002 540 59 -700 320/10G17 RMK AO2 SLP171 P0001 T00281044
14840KMKG MKG20071115170011911/15/07 17:00:31  5-MIN KMKG 152200Z 31010G16KT 9SM -SN SCT041 OVC049 03/M05 A3002 540 56 -700 320/10G16 RMK AO2 P0000
14840KMKG MKG20071115170511911/15/07 17:05:31  5-MIN KMKG 152205Z 32013G18KT 9SM -SN BKN043 OVC049 03/M05 A3002 530 56 -700 320/13G18 RMK AO2 P0000
14840KMKG MKG20071115171011211/15/07 17:10:31  5-MIN KMKG 152210Z 32012G18KT 9SM -SN OVC045 03/M04 A3003 530 59 -700 320/12G18 RMK AO2 P0000
14840KMKG MKG20071115171510811/15/07 17:15:31  5-MIN KMKG 152215Z 33013KT 9SM OVC045 03/M05 A3003 530 56 -700 340/13 RMK AO2 SNE14 P0000
14840KMKG MKG20071115172011511/15/07 17:20:31  5-MIN KMKG 152220Z 32009G16KT 10SM OVC045 03/M05 A3003 530 56 -700 320/09G16 RMK AO2 SNE14 P0000
14840KMKG MKG20071115172510911/15/07 17:25:31  5-MIN KMKG 152225Z 31008KT 10SM OVC045 03/M05 A3003 530 56 -700 320/08 RMK AO2 SNE14 P0000
14840KMKG MKG20071115173011511/15/07 17:30:31  5-MIN KMKG 152230Z 32013G17KT 10SM OVC045 03/M06 A3003 530 54 -700 330/13G17 RMK AO2 SNE14 P0000
14840KMKG MKG20071115173511511/15/07 17:35:31  5-MIN KMKG 152235Z 30010G17KT 10SM OVC043 03/M06 A3003 530 54 -700 300/10G17 RMK AO2 SNE14 P0000
14840KMKG MKG20071115174011511/15/07 17:40:31  5-MIN KMKG 152240Z 32014G19KT 10SM OVC043 03/M05 A3003 530 56 -700 330/14G19 RMK AO2 SNE14 P0000
14840KMKG MKG20071115174511511/15/07 17:45:31  5-MIN KMKG 152245Z 32011G19KT 10SM OVC043 03/M05 A3003 530 56 -700 320/11G19 RMK AO2 SNE14 P0000
14840KMKG MKG20071115175013211/15/07 17:50:31  5-MIN KMKG 152250Z 31007G15KT 10SM OVC043 03/M05 A3004 520 56 -700 310/07G15 RMK AO2 SNE14 SLP177 P0000 T00281050
14840KMKG MKG20071115175513311/15/07 17:55:31  5-MIN KMKG 152255Z 31010KT 10SM -SN OVC043 03/M05 A3004 520 56 -700 320/10 RMK AO2 SNE14B51 SLP177 P0000 T00281050
14840KMKG MKG20071115180011211/15/07 18:00:31  5-MIN KMKG 152300Z 31012G17KT 9SM -SN OVC043 03/M05 A3004 520 56 -800 310/12G17 RMK AO2 P0000
14840KMKG MKG20071115180511211/15/07 18:05:31  5-MIN KMKG 152305Z 31011G17KT 9SM -SN OVC043 03/M05 A3004 520 56 -800 320/11G17 RMK AO2 P0000
14840KMKG MKG20071115181011211/15/07 18:10:31  5-MIN KMKG 152310Z 33011G15KT 9SM -SN OVC043 03/M05 A3005 510 56 -800 330/11G15 RMK AO2 P0000
14840KMKG MKG20071115181511211/15/07 18:15:31  5-MIN KMKG 152315Z 33012G17KT 9SM -SN OVC043 03/M05 A3005 510 56 -800 330/12G17 RMK AO2 P0000
14840KMKG MKG20071115182011211/15/07 18:20:31  5-MIN KMKG 152320Z 32012G17KT 9SM -SN OVC043 03/M05 A3005 510 56 -800 320/12G17 RMK AO2 P0000
14840KMKG MKG20071115182511211/15/07 18:25:31  5-MIN KMKG 152325Z 32014G18KT 9SM -SN OVC043 03/M06 A3005 510 54 -800 320/14G18 RMK AO2 P0000
14840KMKG MKG20071115183011211/15/07 18:30:31  5-MIN KMKG 152330Z 31007G18KT 9SM -SN OVC045 03/M06 A3005 510 54 -800 310/07G18 RMK AO2 P0000
14840KMKG MKG20071115183511211/15/07 18:35:31  5-MIN KMKG 152335Z 31006G18KT 9SM -SN OVC045 03/M06 A3005 510 52 -800 320/06G18 RMK AO2 P0000
14840KMKG MKG20071115184011211/15/07 18:40:31  5-MIN KMKG 152340Z 33015G20KT 9SM -SN OVC045 03/M06 A3005 510 54 -800 330/15G20 RMK AO2 P0000
14840KMKG MKG20071115184511211/15/07 18:45:31  5-MIN KMKG 152345Z 31009G20KT 9SM -SN OVC045 03/M06 A3005 510 52 -800 310/09G20 RMK AO2 P0000
14840KMKG MKG20071115185015311/15/07 18:50:31  5-MIN KMKG 152350Z 31009G15KT 9SM -SN OVC045 03/M06 A3005 510 52 -800 310/09G15 RMK AO2 SLP182 P0000 60001 T00281061 10033 20017 53021
14840KMKG MKG20071115185514711/15/07 18:55:31  5-MIN KMKG 152355Z 29011KT 9SM -SN OVC045 03/M06 A3005 510 52 -800 290/11 RMK AO2 SLP183 P0000 60001 T00281061 10033 20017 53016
14840KMKG MKG20071115190011211/15/07 19:00:31  5-MIN KMKG 160000Z 30008G19KT 9SM -SN OVC045 03/M06 A3005 510 52 -800 300/08G19 RMK AO2 P0000
14840KMKG MKG20071115190511211/15/07 19:05:31  5-MIN KMKG 160005Z 30010G19KT 9SM -SN OVC045 03/M06 A3005 510 52 -800 310/10G19 RMK AO2 P0000
14840KMKG MKG20071115191011211/15/07 19:10:31  5-MIN KMKG 160010Z 31010G16KT 9SM -SN OVC045 03/M06 A3005 510 54 -800 310/10G16 RMK AO2 P0000
14840KMKG MKG20071115191510611/15/07 19:15:31  5-MIN KMKG 160015Z 30009KT 9SM -SN OVC045 03/M06 A3006 500 52 -800 310/09 RMK AO2 P0000
14840KMKG MKG20071115192010611/15/07 19:20:31  5-MIN KMKG 160020Z 29010KT 9SM -SN OVC045 03/M06 A3006 500 52 -800 300/10 RMK AO2 P0000
14840KMKG MKG20071115192511211/15/07 19:25:31  5-MIN KMKG 160025Z 31009G18KT 9SM -SN OVC047 03/M06 A3006 510 52 -800 320/09G18 RMK AO2 P0000
14840KMKG MKG20071115193011211/15/07 19:30:31  5-MIN KMKG 160030Z 30011G18KT 9SM -SN OVC047 03/M07 A3006 500 50 -800 310/11G18 RMK AO2 P0000
14840KMKG MKG20071115193511211/15/07 19:35:31  5-MIN KMKG 160035Z 31007G15KT 9SM -SN OVC047 03/M06 A3005 510 52 -800 310/07G15 RMK AO2 P0000
14840KMKG MKG20071115194010611/15/07 19:40:31  5-MIN KMKG 160040Z 31010KT 9SM -SN OVC047 03/M06 A3005 510 52 -800 310/10 RMK AO2 P0000
14840KMKG MKG20071115194510611/15/07 19:45:31  5-MIN KMKG 160045Z 30010KT 9SM -SN OVC047 03/M06 A3006 510 52 -800 300/10 RMK AO2 P0000
14840KMKG MKG20071115195012311/15/07 19:50:31  5-MIN KMKG 160050Z 30009KT 9SM -SN OVC049 03/M06 A3005 510 52 -800 300/09 RMK AO2 SLP183 P0000 T00281061
14840KMKG MKG20071115195512911/15/07 19:55:31  5-MIN KMKG 160055Z 30012G20KT 9SM -SN OVC047 03/M06 A3005 510 52 -800 310/12G20 RMK AO2 SLP183 P0000 T00281061
14840KMKG MKG20071115200011211/15/07 20:00:31  5-MIN KMKG 160100Z 30010G20KT 9SM -SN OVC047 03/M06 A3006 500 52 -800 300/10G20 RMK AO2 P0000
14840KMKG MKG20071115200510611/15/07 20:05:31  5-MIN KMKG 160105Z 33011KT 9SM -SN OVC047 03/M06 A3006 500 52 -800 330/11 RMK AO2 P0000
14840KMKG MKG20071115201010811/15/07 20:10:31  5-MIN KMKG 160110Z 32009KT 9SM OVC047 03/M06 A3006 500 52 -800 320/09 RMK AO2 SNE10 P0000
14840KMKG MKG20071115201510811/15/07 20:15:31  5-MIN KMKG 160115Z 31011KT 9SM OVC047 03/M06 A3006 500 52 -800 320/11 RMK AO2 SNE10 P0000
14840KMKG MKG20071115202011511/15/07 20:20:31  5-MIN KMKG 160120Z 31009G16KT 10SM OVC047 03/M06 A3006 500 52 -800 310/09G16 RMK AO2 SNE10 P0000
14840KMKG MKG20071115202510911/15/07 20:25:31  5-MIN KMKG 160125Z 32011KT 10SM OVC047 03/M06 A3006 500 52 -800 320/11 RMK AO2 SNE10 P0000
14840KMKG MKG20071115203011611/15/07 20:30:31  5-MIN KMKG 160130Z 31009KT 10SM FEW041 OVC049 03/M06 A3006 500 52 -800 320/09 RMK AO2 SNE10 P0000
14840KMKG MKG20071115203511511/15/07 20:35:31  5-MIN KMKG 160135Z 31011G18KT 10SM OVC049 03/M06 A3006 500 52 -800 320/11G18 RMK AO2 SNE10 P0000
14840KMKG MKG20071115204011511/15/07 20:40:31  5-MIN KMKG 160140Z 31007G18KT 10SM OVC047 03/M07 A3007 500 50 -800 320/07G18 RMK AO2 SNE10 P0000
14840KMKG MKG20071115204510911/15/07 20:45:31  5-MIN KMKG 160145Z 31008KT 10SM OVC047 03/M06 A3007 490 52 -800 320/08 RMK AO2 SNE10 P0000
14840KMKG MKG20071115205013911/15/07 20:50:31  5-MIN KMKG 160150Z 29011G17KT 10SM -SN OVC047 02/M06 A3006 500 54 -800 290/11G17 RMK AO2 SNE10B49 SLP186 P0000 T00221061
14840KMKG MKG20071115205513811/15/07 20:55:31  5-MIN KMKG 160155Z 32009G18KT 9SM -SN OVC045 02/M06 A3006 500 54 -800 320/09G18 RMK AO2 SNE10B49 SLP186 P0000 T00221061
14840KMKG MKG20071115210011211/15/07 21:00:31  5-MIN KMKG 160200Z 33011G18KT 9SM -SN OVC045 02/M06 A3007 490 54 -900 330/11G18 RMK AO2 P0000
14840KMKG MKG20071115210511211/15/07 21:05:31  5-MIN KMKG 160205Z 31011G16KT 9SM -SN OVC045 03/M06 A3007 490 52 -800 320/11G16 RMK AO2 P0000
14840KMKG MKG20071115211011211/15/07 21:10:31  5-MIN KMKG 160210Z 31008G16KT 9SM -SN OVC045 02/M06 A3007 490 54 -900 310/08G16 RMK AO2 P0000
14840KMKG MKG20071115211510611/15/07 21:15:31  5-MIN KMKG 160215Z 31009KT 9SM -SN OVC045 03/M07 A3007 490 50 -800 310/09 RMK AO2 P0000
14840KMKG MKG20071115212010611/15/07 21:20:31  5-MIN KMKG 160220Z 30009KT 9SM -SN OVC045 02/M07 A3007 490 52 -900 300/09 RMK AO2 P0000
14840KMKG MKG20071115212510611/15/07 21:25:31  5-MIN KMKG 160225Z 30007KT 9SM -SN OVC045 02/M07 A3007 490 52 -900 300/07 RMK AO2 P0000
14840KMKG MKG20071115213010611/15/07 21:30:31  5-MIN KMKG 160230Z 31007KT 9SM -SN OVC043 02/M06 A3007 490 54 -900 320/07 RMK AO2 P0000
14840KMKG MKG20071115213510611/15/07 21:35:31  5-MIN KMKG 160235Z 32008KT 9SM -SN OVC043 02/M06 A3007 490 54 -900 320/08 RMK AO2 P0000
14840KMKG MKG20071115214010611/15/07 21:40:31  5-MIN KMKG 160240Z 32007KT 9SM -SN OVC045 02/M06 A3007 490 54 -900 330/07 RMK AO2 P0000
14840KMKG MKG20071115214510611/15/07 21:45:31  5-MIN KMKG 160245Z 30007KT 9SM -SN OVC045 02/M06 A3007 490 54 -900 300/07 RMK AO2 P0000
14840KMKG MKG20071115215014111/15/07 21:50:31  5-MIN KMKG 160250Z 29010G15KT 9SM -SN OVC045 02/M06 A3007 490 54 -900 290/10G15 RMK AO2 SLP188 P0000 60000 T00221061 53016
14840KMKG MKG20071115215514111/15/07 21:55:31  5-MIN KMKG 160255Z 30007G15KT 9SM -SN OVC047 02/M06 A3007 490 56 -900 300/07G15 RMK AO2 SLP188 P0000 60000 T00221056 53005
14840KMKG MKG20071115220010611/15/07 22:00:31  5-MIN KMKG 160300Z 30006KT 9SM -SN OVC047 02/M06 A3007 490 54 -900 300/06 RMK AO2 P0000
14840KMKG MKG20071115220510611/15/07 22:05:31  5-MIN KMKG 160305Z 33009KT 9SM -SN OVC049 03/M06 A3007 490 52 -800 330/09 RMK AO2 P0000
14840KMKG MKG20071115221010611/15/07 22:10:31  5-MIN KMKG 160310Z 31005KT 9SM -SN OVC049 02/M06 A3007 490 56 -900 310/05 RMK AO2 P0000
14840KMKG MKG20071115221510611/15/07 22:15:31  5-MIN KMKG 160315Z 31007KT 9SM -SN OVC049 03/M06 A3007 490 52 -800 310/07 RMK AO2 P0000
14840KMKG MKG20071115222010611/15/07 22:20:31  5-MIN KMKG 160320Z 34009KT 9SM -SN OVC049 03/M06 A3007 490 52 -800 340/09 RMK AO2 P0000
14840KMKG MKG20071115222510611/15/07 22:25:31  5-MIN KMKG 160325Z 34009KT 9SM -SN OVC049 02/M07 A3008 490 52 -900 340/09 RMK AO2 P0000
14840KMKG MKG20071115223010611/15/07 22:30:31  5-MIN KMKG 160330Z 34007KT 9SM -SN OVC049 02/M06 A3007 490 54 -900 340/07 RMK AO2 P0000
14840KMKG MKG20071115223510611/15/07 22:35:31  5-MIN KMKG 160335Z 34008KT 9SM -SN OVC049 02/M06 A3007 490 54 -900 350/08 RMK AO2 P0000
14840KMKG MKG20071115224010611/15/07 22:40:31  5-MIN KMKG 160340Z 33007KT 9SM -SN OVC049 02/M06 A3007 490 54 -900 340/07 RMK AO2 P0000
14840KMKG MKG20071115224510611/15/07 22:45:31  5-MIN KMKG 160345Z 33008KT 9SM -SN OVC049 02/M07 A3007 490 52 -900 340/08 RMK AO2 P0000
14840KMKG MKG20071115225012311/15/07 22:50:31  5-MIN KMKG 160350Z 33008KT 9SM -SN OVC047 02/M07 A3007 490 52 -900 330/08 RMK AO2 SLP189 P0000 T00221067
14840KMKG MKG20071115225512311/15/07 22:55:31  5-MIN KMKG 160355Z 33005KT 9SM -SN OVC047 02/M07 A3007 490 52 -900 330/05 RMK AO2 SLP189 P0000 T00221067
14840KMKG MKG20071115230010611/15/07 23:00:31  5-MIN KMKG 160400Z 33008KT 9SM -SN OVC047 02/M07 A3007 490 52 -900 330/08 RMK AO2 P0000
14840KMKG MKG20071115230510811/15/07 23:05:31  5-MIN KMKG 160405Z 33007KT 9SM OVC047 02/M07 A3007 490 50 -900 330/07 RMK AO2 SNE01 P0000
14840KMKG MKG20071115231010911/15/07 23:10:31  5-MIN KMKG 160410Z 30008KT 10SM OVC049 03/M07 A3007 490 48 -800 310/08 RMK AO2 SNE01 P0000
14840KMKG MKG20071115231510911/15/07 23:15:31  5-MIN KMKG 160415Z 31007KT 10SM OVC049 03/M07 A3007 490 48 -800 310/07 RMK AO2 SNE01 P0000
14840KMKG MKG20071115232010911/15/07 23:20:31  5-MIN KMKG 160420Z 32007KT 10SM OVC049 03/M07 A3007 490 50 -800 320/07 RMK AO2 SNE01 P0000
14840KMKG MKG20071115232511511/15/07 23:25:31  5-MIN KMKG 160425Z 32011G15KT 10SM OVC049 03/M07 A3007 500 50 -800 320/11G15 RMK AO2 SNE01 P0000
14840KMKG MKG20071115233011511/15/07 23:30:31  5-MIN KMKG 160430Z 33011G15KT 10SM OVC049 03/M06 A3007 490 52 -800 330/11G15 RMK AO2 SNE01 P0000
14840KMKG MKG20071115233510911/15/07 23:35:31  5-MIN KMKG 160435Z 31007KT 10SM OVC047 03/M06 A3007 490 52 -800 310/07 RMK AO2 SNE01 P0000
14840KMKG MKG20071115234010911/15/07 23:40:31  5-MIN KMKG 160440Z 32009KT 10SM OVC047 03/M06 A3007 490 52 -800 320/09 RMK AO2 SNE01 P0000
14840KMKG MKG20071115234511511/15/07 23:45:31  5-MIN KMKG 160445Z 33007G15KT 10SM OVC045 02/M06 A3007 490 56 -900 330/07G15 RMK AO2 SNE01 P0000
14840KMKG MKG20071115235013611/15/07 23:50:31  5-MIN KMKG 160450Z 32008KT 10SM OVC045 02/M06 A3007 490 54 -900 320/08 RMK AO2 SNE01 SLP188 P0000 T00221061 400560017
14840KMKG MKG20071115235513611/15/07 23:55:31  5-MIN KMKG 160455Z 33009KT 10SM OVC047 02/M06 A3007 490 54 -900 330/09 RMK AO2 SNE01 SLP188 P0000 T00221061 400560017
14840KMKG MKG20071116000009711/16/07 00:00:32  5-MIN KMKG 160500Z 32008KT 10SM OVC047 02/M06 A3007 490 54 -900 320/08 RMK AO2
14840KMKG MKG20071116000509711/16/07 00:05:31  5-MIN KMKG 160505Z 32010KT 10SM OVC047 02/M06 A3007 490 54 -900 330/10 RMK AO2
14840KMKG MKG20071116001009711/16/07 00:10:31  5-MIN KMKG 160510Z 32007KT 10SM OVC047 02/M06 A3007 500 54 -800 330/07 RMK AO2
14840KMKG MKG20071116001509711/16/07 00:15:31  5-MIN KMKG 160515Z 31008KT 10SM OVC047 02/M07 A3007 500 52 -800 320/08 RMK AO2
14840KMKG MKG20071116002009711/16/07 00:20:31  5-MIN KMKG 160520Z 33010KT 10SM OVC047 02/M07 A3006 500 52 -800 330/10 RMK AO2
14840KMKG MKG20071116002509711/16/07 00:25:31  5-MIN KMKG 160525Z 31008KT 10SM OVC047 02/M07 A3006 500 52 -800 310/08 RMK AO2
14840KMKG MKG20071116003009711/16/07 00:30:31  5-MIN KMKG 160530Z 32006KT 10SM OVC047 02/M07 A3006 500 52 -800 320/06 RMK AO2
14840KMKG MKG20071116003509711/16/07 00:35:31  5-MIN KMKG 160535Z 32006KT 10SM OVC047 02/M07 A3006 500 52 -800 320/06 RMK AO2
14840KMKG MKG20071116004009711/16/07 00:40:31  5-MIN KMKG 160540Z 31006KT 10SM OVC047 03/M07 A3006 500 50 -800 310/06 RMK AO2
14840KMKG MKG20071116004509711/16/07 00:45:31  5-MIN KMKG 160545Z 31006KT 10SM OVC045 02/M06 A3006 500 54 -800 320/06 RMK AO2
14840KMKG MKG20071116005013811/16/07 00:50:31  5-MIN KMKG 160550Z 32008KT 10SM OVC045 02/M06 A3006 500 54 -800 320/08 RMK AO2 SLP185 60000 T00221061 10028 20022 53005
14840KMKG MKG20071116005513811/16/07 00:55:31  5-MIN KMKG 160555Z 31006KT 10SM OVC045 02/M07 A3006 500 52 -800 320/06 RMK AO2 SLP185 60000 T00221067 10028 20022 58003
14840KMKG MKG20071116010009711/16/07 01:00:31  5-MIN KMKG 160600Z 32006KT 10SM OVC045 02/M06 A3006 500 54 -800 320/06 RMK AO2
14840KMKG MKG20071116010509711/16/07 01:05:31  5-MIN KMKG 160605Z 28005KT 10SM OVC045 02/M06 A3006 500 54 -800 290/05 RMK AO2
14840KMKG MKG20071116011009711/16/07 01:10:31  5-MIN KMKG 160610Z 29006KT 10SM OVC043 02/M06 A3006 500 54 -800 290/06 RMK AO2
14840KMKG MKG20071116011509711/16/07 01:15:31  5-MIN KMKG 160615Z 30006KT 10SM OVC043 02/M06 A3006 500 54 -800 300/06 RMK AO2
14840KMKG MKG20071116012009711/16/07 01:20:31  5-MIN KMKG 160620Z 30004KT 10SM OVC043 02/M06 A3006 500 54 -800 300/04 RMK AO2
14840KMKG MKG20071116012509711/16/07 01:25:31  5-MIN KMKG 160625Z 30005KT 10SM OVC043 02/M06 A3006 500 54 -800 300/05 RMK AO2
14840KMKG MKG20071116013009711/16/07 01:30:31  5-MIN KMKG 160630Z 30006KT 10SM OVC043 02/M06 A3006 500 54 -800 310/06 RMK AO2
14840KMKG MKG20071116013509711/16/07 01:35:31  5-MIN KMKG 160635Z 29006KT 10SM OVC041 02/M06 A3006 500 54 -800 300/06 RMK AO2
14840KMKG MKG20071116014009711/16/07 01:40:31  5-MIN KMKG 160640Z 29007KT 10SM OVC043 02/M06 A3006 500 54 -800 300/07 RMK AO2
14840KMKG MKG20071116014509711/16/07 01:45:31  5-MIN KMKG 160645Z 31007KT 10SM OVC043 03/M06 A3006 500 52 -800 310/07 RMK AO2
14840KMKG MKG20071116015011411/16/07 01:50:31  5-MIN KMKG 160650Z 31007KT 10SM OVC043 03/M07 A3006 500 50 -800 320/07 RMK AO2 SLP186 T00281067
14840KMKG MKG20071116015511411/16/07 01:55:31  5-MIN KMKG 160655Z 31006KT 10SM OVC043 02/M06 A3006 500 56 -800 320/06 RMK AO2 SLP185 T00221056
14840KMKG MKG20071116020009711/16/07 02:00:31  5-MIN KMKG 160700Z 31006KT 10SM OVC043 03/M06 A3006 500 52 -800 310/06 RMK AO2
14840KMKG MKG20071116020509711/16/07 02:05:31  5-MIN KMKG 160705Z 30007KT 10SM OVC043 02/M06 A3006 500 54 -800 300/07 RMK AO2
14840KMKG MKG20071116021009711/16/07 02:10:31  5-MIN KMKG 160710Z 30006KT 10SM OVC043 02/M06 A3006 500 54 -800 310/06 RMK AO2
14840KMKG MKG20071116021509711/16/07 02:15:31  5-MIN KMKG 160715Z 30006KT 10SM OVC043 02/M06 A3006 510 54 -800 300/06 RMK AO2
14840KMKG MKG20071116022009711/16/07 02:20:31  5-MIN KMKG 160720Z 29008KT 10SM OVC043 02/M06 A3006 500 54 -800 290/08 RMK AO2
14840KMKG MKG20071116022509711/16/07 02:25:31  5-MIN KMKG 160725Z 30008KT 10SM OVC043 02/M06 A3006 500 54 -800 300/08 RMK AO2
14840KMKG MKG20071116023009711/16/07 02:30:31  5-MIN KMKG 160730Z 30007KT 10SM OVC043 02/M06 A3006 500 54 -800 300/07 RMK AO2
14840KMKG MKG20071116023509711/16/07 02:35:31  5-MIN KMKG 160735Z 31005KT 10SM OVC043 02/M06 A3007 490 56 -900 310/05 RMK AO2
14840KMKG MKG20071116024009711/16/07 02:40:31  5-MIN KMKG 160740Z 31008KT 10SM OVC043 02/M06 A3007 490 56 -900 310/08 RMK AO2
14840KMKG MKG20071116024509711/16/07 02:45:31  5-MIN KMKG 160745Z 29006KT 10SM OVC043 02/M06 A3007 490 54 -900 300/06 RMK AO2
14840KMKG MKG20071116025011411/16/07 02:50:31  5-MIN KMKG 160750Z 30005KT 10SM OVC043 02/M06 A3007 490 54 -900 300/05 RMK AO2 SLP189 T00221061
14840KMKG MKG20071116025511411/16/07 02:55:31  5-MIN KMKG 160755Z 29007KT 10SM OVC043 02/M06 A3007 490 54 -800 300/07 RMK AO2 SLP188 T00221061
14840KMKG MKG20071116030009711/16/07 03:00:31  5-MIN KMKG 160800Z 31006KT 10SM OVC043 02/M07 A3007 490 52 -800 310/06 RMK AO2
14840KMKG MKG20071116030510311/16/07 03:05:31  5-MIN KMKG 160805Z 30008G14KT 10SM OVC043 02/M07 A3007 500 52 -800 300/08G14 RMK AO2
14840KMKG MKG20071116031010311/16/07 03:10:31  5-MIN KMKG 160810Z 30008G14KT 10SM OVC043 02/M07 A3006 500 52 -800 300/08G14 RMK AO2
14840KMKG MKG20071116031509711/16/07 03:15:31  5-MIN KMKG 160815Z 33007KT 10SM OVC043 02/M06 A3006 500 54 -800 330/07 RMK AO2
14840KMKG MKG20071116032009711/16/07 03:20:31  5-MIN KMKG 160820Z 29008KT 10SM OVC041 02/M06 A3006 500 54 -800 300/08 RMK AO2
14840KMKG MKG20071116032509711/16/07 03:25:31  5-MIN KMKG 160825Z 29008KT 10SM OVC041 02/M07 A3006 500 52 -800 300/08 RMK AO2
14840KMKG MKG20071116033009711/16/07 03:30:31  5-MIN KMKG 160830Z 29009KT 10SM OVC041 02/M07 A3006 500 52 -800 290/09 RMK AO2
14840KMKG MKG20071116033509711/16/07 03:35:31  5-MIN KMKG 160835Z 32006KT 10SM OVC041 02/M07 A3006 500 52 -800 320/06 RMK AO2
14840KMKG MKG20071116034009711/16/07 03:40:31  5-MIN KMKG 160840Z 29006KT 10SM OVC041 02/M06 A3006 500 54 -800 290/06 RMK AO2
14840KMKG MKG20071116034509711/16/07 03:45:31  5-MIN KMKG 160845Z 30005KT 10SM OVC041 02/M07 A3006 500 52 -800 310/05 RMK AO2
14840KMKG MKG20071116035012011/16/07 03:50:31  5-MIN KMKG 160850Z 31005KT 10SM OVC039 02/M06 A3006 500 54 -800 310/05 RMK AO2 SLP186 T00221061 58003
14840KMKG MKG20071116035512011/16/07 03:55:31  5-MIN KMKG 160855Z 30005KT 10SM OVC039 02/M06 A3006 500 54 -800 310/05 RMK AO2 SLP186 T00221061 50000
14840KMKG MKG20071116040009711/16/07 04:00:31  5-MIN KMKG 160900Z 30005KT 10SM BKN039 02/M07 A3006 500 54 -900 300/05 RMK AO2
14840KMKG MKG20071116040509711/16/07 04:05:31  5-MIN KMKG 160905Z 29004KT 10SM BKN039 02/M07 A3006 500 54 -900 300/04 RMK AO2
14840KMKG MKG20071116041009711/16/07 04:10:31  5-MIN KMKG 160910Z 30003KT 10SM OVC039 02/M07 A3006 500 54 -900 310/03 RMK AO2
14840KMKG MKG20071116041509711/16/07 04:15:31  5-MIN KMKG 160915Z 31003KT 10SM OVC039 02/M07 A3006 500 54 -900 310/03 RMK AO2
14840KMKG MKG20071116042009711/16/07 04:20:31  5-MIN KMKG 160920Z 31007KT 10SM OVC039 02/M07 A3006 500 52 -800 310/07 RMK AO2
14840KMKG MKG20071116042509711/16/07 04:25:31  5-MIN KMKG 160925Z 31008KT 10SM BKN039 02/M06 A3006 500 54 -800 310/08 RMK AO2
14840KMKG MKG20071116043009711/16/07 04:30:31  5-MIN KMKG 160930Z 30007KT 10SM OVC039 02/M07 A3006 500 54 -900 300/07 RMK AO2
14840KMKG MKG20071116043509711/16/07 04:35:31  5-MIN KMKG 160935Z 32006KT 10SM OVC039 02/M06 A3006 500 56 -900 320/06 RMK AO2
14840KMKG MKG20071116044009711/16/07 04:40:31  5-MIN KMKG 160940Z 29005KT 10SM OVC039 02/M06 A3006 500 56 -900 290/05 RMK AO2
14840KMKG MKG20071116044509711/16/07 04:45:31  5-MIN KMKG 160945Z 32005KT 10SM OVC039 02/M06 A3006 500 56 -900 320/05 RMK AO2
14840KMKG MKG20071116045011411/16/07 04:50:31  5-MIN KMKG 160950Z 31006KT 10SM BKN039 02/M06 A3006 500 56 -900 320/06 RMK AO2 SLP185 T00171061
14840KMKG MKG20071116045511411/16/07 04:55:31  5-MIN KMKG 160955Z 33007KT 10SM OVC039 02/M06 A3006 500 56 -900 330/07 RMK AO2 SLP186 T00171061
14840KMKG MKG20071116050009711/16/07 05:00:31  5-MIN KMKG 161000Z 33006KT 10SM OVC039 02/M06 A3006 500 59 -900 330/06 RMK AO2
14840KMKG MKG20071116050509711/16/07 05:05:31  5-MIN KMKG 161005Z 33006KT 10SM OVC039 02/M06 A3006 500 56 -900 340/06 RMK AO2
14840KMKG MKG20071116051009711/16/07 05:10:31  5-MIN KMKG 161010Z 33007KT 10SM OVC039 02/M06 A3006 500 56 -900 330/07 RMK AO2
14840KMKG MKG20071116051509711/16/07 05:15:31  5-MIN KMKG 161015Z 32008KT 10SM OVC039 02/M06 A3006 500 56 -900 320/08 RMK AO2
14840KMKG MKG20071116052009711/16/07 05:20:31  5-MIN KMKG 161020Z 31006KT 10SM BKN039 02/M06 A3006 500 56 -900 310/06 RMK AO2
14840KMKG MKG20071116052509711/16/07 05:25:31  5-MIN KMKG 161025Z 32006KT 10SM BKN039 02/M06 A3006 500 56 -900 320/06 RMK AO2
14840KMKG MKG20071116053009711/16/07 05:30:31  5-MIN KMKG 161030Z 34004KT 10SM BKN039 02/M06 A3006 500 56 -900 350/04 RMK AO2
14840KMKG MKG20071116053509811/16/07 05:35:31  5-MIN KMKG 161035Z 33006KT 10SM BKN039 01/M06 A3006 500 58 -1000 330/06 RMK AO2
14840KMKG MKG20071116054009811/16/07 05:40:31  5-MIN KMKG 161040Z 33005KT 10SM BKN039 01/M06 A3006 500 58 -1000 340/05 RMK AO2
14840KMKG MKG20071116054509811/16/07 05:45:31  5-MIN KMKG 161045Z 34004KT 10SM BKN039 01/M06 A3006 500 58 -1000 340/04 RMK AO2
14840KMKG MKG20071116055011511/16/07 05:50:31  5-MIN KMKG 161050Z 35004KT 10SM BKN039 01/M06 A3006 500 61 -1000 350/04 RMK AO2 SLP186 T00111056
14840KMKG MKG20071116055511511/16/07 05:55:31  5-MIN KMKG 161055Z 35003KT 10SM BKN039 01/M06 A3006 500 61 -1000 350/03 RMK AO2 SLP186 T00111056
14840KMKG MKG20071116060009811/16/07 06:00:31  5-MIN KMKG 161100Z 36004KT 10SM BKN037 01/M06 A3006 500 61 -1000 360/04 RMK AO2
14840KMKG MKG20071116060509811/16/07 06:05:31  5-MIN KMKG 161105Z 34003KT 10SM BKN037 01/M06 A3006 500 61 -1000 340/03 RMK AO2
14840KMKG MKG20071116061009811/16/07 06:10:31  5-MIN KMKG 161110Z 31003KT 10SM BKN037 01/M06 A3006 500 61 -1000 310/03 RMK AO2
14840KMKG MKG20071116061509811/16/07 06:15:31  5-MIN KMKG 161115Z 00000KT 10SM BKN037 01/M06 A3006 500 58 -1000 000/00 RMK AO2
14840KMKG MKG20071116062009811/16/07 06:20:31  5-MIN KMKG 161120Z 00000KT 10SM BKN037 01/M06 A3006 500 58 -1000 000/00 RMK AO2
14840KMKG MKG20071116062509811/16/07 06:25:31  5-MIN KMKG 161125Z 00000KT 10SM BKN037 01/M06 A3005 510 61 -1000 000/00 RMK AO2
14840KMKG MKG20071116063009811/16/07 06:30:31  5-MIN KMKG 161130Z 00000KT 10SM BKN037 01/M06 A3006 500 58 -1000 000/00 RMK AO2
14840KMKG MKG20071116063509811/16/07 06:35:31  5-MIN KMKG 161135Z 00000KT 10SM BKN037 01/M06 A3005 510 58 -1000 000/00 RMK AO2
14840KMKG MKG20071116064009811/16/07 06:40:31  5-MIN KMKG 161140Z 35003KT 10SM BKN039 01/M06 A3005 510 61 -1000 350/03 RMK AO2
14840KMKG MKG20071116064509811/16/07 06:45:31  5-MIN KMKG 161145Z 35003KT 10SM BKN039 01/M06 A3005 510 61 -1000 360/03 RMK AO2
14840KMKG MKG20071116065013911/16/07 06:50:31  5-MIN KMKG 161150Z 35003KT 10SM BKN039 01/M06 A3005 510 61 -1000 350/03 RMK AO2 SLP184 70001 T00111056 10028 20006 50000
14840KMKG MKG20071116065513911/16/07 06:55:31  5-MIN KMKG 161155Z 00000KT 10SM OVC039 01/M06 A3005 510 61 -1000 000/00 RMK AO2 SLP183 70001 T00111056 10028 20006 58003
14840KMKG MKG20071116070009811/16/07 07:00:31  5-MIN KMKG 161200Z 02003KT 10SM BKN039 01/M06 A3005 510 61 -1000 030/03 RMK AO2
14840KMKG MKG20071116070509811/16/07 07:05:31  5-MIN KMKG 161205Z 04003KT 10SM BKN039 01/M06 A3005 510 61 -1000 040/03 RMK AO2
14840KMKG MKG20071116071009811/16/07 07:10:31  5-MIN KMKG 161210Z 04003KT 10SM BKN039 00/M05 A3005 510 69 -1100 040/03 RMK AO2
14840KMKG MKG20071116071509811/16/07 07:15:31  5-MIN KMKG 161215Z 03003KT 10SM BKN039 01/M05 A3005 510 66 -1000 030/03 RMK AO2
14840KMKG MKG20071116072009811/16/07 07:20:31  5-MIN KMKG 161220Z 00000KT 10SM BKN039 01/M06 A3005 510 63 -1000 000/00 RMK AO2
14840KMKG MKG20071116072509811/16/07 07:25:31  5-MIN KMKG 161225Z 00000KT 10SM BKN039 01/M06 A3005 510 61 -1000 000/00 RMK AO2
14840KMKG MKG20071116073009811/16/07 07:30:31  5-MIN KMKG 161230Z 00000KT 10SM BKN037 00/M06 A3005 510 66 -1100 000/00 RMK AO2
14840KMKG MKG20071116073509811/16/07 07:35:31  5-MIN KMKG 161235Z 00000KT 10SM BKN037 01/M06 A3005 510 61 -1000 000/00 RMK AO2
14840KMKG MKG20071116074009911/16/07 07:40:31  5-MIN KMKG 161240Z 00000KT 10SM BKN037 M01/M06 A3005 510 69 -1200 000/00 RMK AO2
14840KMKG MKG20071116074509811/16/07 07:45:31  5-MIN KMKG 161245Z 00000KT 10SM BKN037 00/M06 A3005 510 66 -1100 000/00 RMK AO2
14840KMKG MKG20071116075011511/16/07 07:50:31  5-MIN KMKG 161250Z 00000KT 10SM BKN037 00/M05 A3005 510 69 -1100 000/00 RMK AO2 SLP184 T00001050
14840KMKG MKG20071116075511611/16/07 07:55:31  5-MIN KMKG 161255Z 00000KT 10SM BKN037 M01/M05 A3006 500 72 -1200 000/00 RMK AO2 SLP185 T10061050
14840KMKG MKG20071116080009911/16/07 08:00:31  5-MIN KMKG 161300Z 00000KT 10SM BKN037 M01/M06 A3006 500 69 -1200 000/00 RMK AO2
14840KMKG MKG20071116080509911/16/07 08:05:31  5-MIN KMKG 161305Z 00000KT 10SM OVC037 M01/M05 A3006 510 72 -1200 000/00 RMK AO2
14840KMKG MKG20071116081009911/16/07 08:10:31  5-MIN KMKG 161310Z 00000KT 10SM OVC037 M01/M04 A3006 500 75 -1200 000/00 RMK AO2
14840KMKG MKG20071116081509811/16/07 08:15:31  5-MIN KMKG 161315Z 00000KT 10SM OVC037 00/M04 A3006 500 72 -1100 000/00 RMK AO2
14840KMKG MKG20071116082009811/16/07 08:20:31  5-MIN KMKG 161320Z 00000KT 10SM OVC039 00/M04 A3006 500 75 -1100 000/00 RMK AO2
14840KMKG MKG20071116082509811/16/07 08:25:31  5-MIN KMKG 161325Z 00000KT 10SM OVC039 00/M04 A3006 500 75 -1100 000/00 RMK AO2
14840KMKG MKG20071116083009811/16/07 08:30:31  5-MIN KMKG 161330Z 00000KT 10SM OVC039 00/M03 A3006 500 78 -1100 000/00 RMK AO2
14840KMKG MKG20071116083509811/16/07 08:35:31  5-MIN KMKG 161335Z 00000KT 10SM OVC039 00/M03 A3007 490 78 -1100 000/00 RMK AO2
14840KMKG MKG20071116084009811/16/07 08:40:31  5-MIN KMKG 161340Z 00000KT 10SM OVC039 00/M04 A3007 490 75 -1100 000/00 RMK AO2
14840KMKG MKG20071116084509811/16/07 08:45:31  5-MIN KMKG 161345Z 00000KT 10SM OVC039 01/M04 A3007 490 72 -1100 000/00 RMK AO2
14840KMKG MKG20071116085011511/16/07 08:50:31  5-MIN KMKG 161350Z 00000KT 10SM OVC039 01/M04 A3007 490 72 -1100 000/00 RMK AO2 SLP190 T00061039
14840KMKG MKG20071116085511511/16/07 08:55:31  5-MIN KMKG 161355Z 00000KT 10SM OVC039 01/M04 A3007 490 66 -1000 000/00 RMK AO2 SLP190 T00111044
14840KMKG MKG20071116090009811/16/07 09:00:31  5-MIN KMKG 161400Z 00000KT 10SM OVC039 01/M04 A3007 490 66 -1000 000/00 RMK AO2
14840KMKG MKG20071116090509811/16/07 09:05:31  5-MIN KMKG 161405Z 00000KT 10SM OVC039 01/M04 A3007 490 66 -1000 000/00 RMK AO2
14840KMKG MKG20071116091009811/16/07 09:10:31  5-MIN KMKG 161410Z 00000KT 10SM OVC041 01/M04 A3007 490 69 -1000 000/00 RMK AO2
14840KMKG MKG20071116091509711/16/07 09:15:31  5-MIN KMKG 161415Z 00000KT 10SM OVC041 02/M04 A3007 490 66 -900 000/00 RMK AO2
14840KMKG MKG20071116092009711/16/07 09:20:31  5-MIN KMKG 161420Z 00000KT 10SM OVC041 02/M05 A3007 490 61 -900 000/00 RMK AO2
14840KMKG MKG20071116092510411/16/07 09:25:31  5-MIN KMKG 161425Z 00000KT 10SM BKN039 OVC120 02/M04 A3007 490 61 -900 000/00 RMK AO2
14840KMKG MKG20071116093010411/16/07 09:30:31  5-MIN KMKG 161430Z 00000KT 10SM BKN039 BKN120 02/M04 A3007 490 61 -900 000/00 RMK AO2
14840KMKG MKG20071116093510411/16/07 09:35:31  5-MIN KMKG 161435Z 00000KT 10SM BKN041 OVC120 02/M04 A3007 490 61 -900 000/00 RMK AO2
14840KMKG MKG20071116094010411/16/07 09:40:31  5-MIN KMKG 161440Z 00000KT 10SM BKN041 OVC120 02/M04 A3007 490 61 -800 000/00 RMK AO2
14840KMKG MKG20071116094510411/16/07 09:45:31  5-MIN KMKG 161445Z 00000KT 10SM BKN041 BKN120 02/M05 A3007 490 59 -900 000/00 RMK AO2
14840KMKG MKG20071116095012711/16/07 09:50:31  5-MIN KMKG 161450Z 00000KT 10SM BKN041 BKN120 02/M05 A3007 490 59 -900 000/00 RMK AO2 SLP188 T00221050 58003
14840KMKG MKG20071116095512711/16/07 09:55:31  5-MIN KMKG 161455Z 00000KT 10SM BKN041 OVC120 02/M05 A3006 500 59 -800 000/00 RMK AO2 SLP187 T00221050 50004
14840KMKG MKG20071116100009711/16/07 10:00:31  5-MIN KMKG 161500Z 00000KT 10SM OVC039 02/M05 A3006 500 59 -800 000/00 RMK AO2
14840KMKG MKG20071116100509711/16/07 10:05:31  5-MIN KMKG 161505Z 00000KT 10SM OVC039 02/M05 A3006 500 59 -800 000/00 RMK AO2
14840KMKG MKG20071116101009711/16/07 10:10:31  5-MIN KMKG 161510Z 00000KT 10SM OVC039 03/M05 A3006 500 56 -800 000/00 RMK AO2
14840KMKG MKG20071116101509711/16/07 10:15:31  5-MIN KMKG 161515Z 00000KT 10SM OVC041 03/M05 A3006 500 56 -800 000/00 RMK AO2
14840KMKG MKG20071116102009711/16/07 10:20:31  5-MIN KMKG 161520Z 00000KT 10SM OVC041 03/M05 A3006 500 56 -800 000/00 RMK AO2
14840KMKG MKG20071116102509711/16/07 10:25:31  5-MIN KMKG 161525Z 00000KT 10SM OVC039 03/M05 A3006 510 56 -800 000/00 RMK AO2
14840KMKG MKG20071116103009711/16/07 10:30:31  5-MIN KMKG 161530Z 00000KT 10SM OVC039 03/M04 A3005 510 59 -800 000/00 RMK AO2
14840KMKG MKG20071116103509711/16/07 10:35:31  5-MIN KMKG 161535Z 00000KT 10SM OVC041 03/M04 A3005 510 59 -800 000/00 RMK AO2
14840KMKG MKG20071116104009711/16/07 10:40:31  5-MIN KMKG 161540Z 00000KT 10SM OVC039 03/M04 A3005 510 59 -800 000/00 RMK AO2
14840KMKG MKG20071116104509711/16/07 10:45:31  5-MIN KMKG 161545Z VRB04KT 10SM OVC037 03/M04 A3005 510 57 -700 VRB/04 RMK AO2
14840KMKG MKG20071116105011411/16/07 10:50:31  5-MIN KMKG 161550Z 28004KT 10SM OVC037 03/M04 A3004 520 57 -700 280/04 RMK AO2 SLP179 T00331044
14840KMKG MKG20071116105511411/16/07 10:55:31  5-MIN KMKG 161555Z 27004KT 10SM OVC037 03/M04 A3004 520 57 -700 280/04 RMK AO2 SLP179 T00331044
14840KMKG MKG20071116110009711/16/07 11:00:31  5-MIN KMKG 161600Z 27006KT 10SM OVC040 03/M04 A3004 520 57 -700 280/06 RMK AO2
14840KMKG MKG20071116110510411/16/07 11:05:31  5-MIN KMKG 161605Z 27006KT 10SM BKN037 OVC044 03/M04 A3004 520 57 -700 270/06 RMK AO2
14840KMKG MKG20071116111009711/16/07 11:10:31  5-MIN KMKG 161610Z 27006KT 10SM OVC040 03/M04 A3004 520 57 -700 270/06 RMK AO2
14840KMKG MKG20071116111509711/16/07 11:15:31  5-MIN KMKG 161615Z 26005KT 10SM OVC040 03/M04 A3004 520 59 -700 270/05 RMK AO2
14840KMKG MKG20071116112009711/16/07 11:20:31  5-MIN KMKG 161620Z 29005KT 10SM OVC040 03/M04 A3004 520 59 -700 300/05 RMK AO2
14840KMKG MKG20071116112509711/16/07 11:25:31  5-MIN KMKG 161625Z 27006KT 10SM OVC040 03/M04 A3004 520 59 -700 280/06 RMK AO2
14840KMKG MKG20071116113009711/16/07 11:30:31  5-MIN KMKG 161630Z 28007KT 10SM OVC038 03/M04 A3004 520 59 -700 280/07 RMK AO2
14840KMKG MKG20071116113511211/16/07 11:35:31  5-MIN KMKG 161635Z 27004KT 10SM OVC040 03/M04 A3004 520 59 -700 280/04 RMK AO2 CIG 033 RWY 14
14840KMKG MKG20071116114009711/16/07 11:40:31  5-MIN KMKG 161640Z 26005KT 10SM OVC038 03/M04 A3003 520 57 -700 260/05 RMK AO2
14840KMKG MKG20071116114509711/16/07 11:45:31  5-MIN KMKG 161645Z 27004KT 10SM OVC036 03/M04 A3003 530 57 -700 280/04 RMK AO2
14840KMKG MKG20071116115012111/16/07 11:50:31  5-MIN KMKG 161650Z 24006KT 10SM BKN033 OVC040 03/M04 A3003 530 57 -700 250/06 RMK AO2 SLP176 T00331044
14840KMKG MKG20071116115511411/16/07 11:55:31  5-MIN KMKG 161655Z 25005KT 10SM OVC036 03/M04 A3003 530 59 -700 250/05 RMK AO2 SLP176 T00331039
14840KMKG MKG20071116120010411/16/07 12:00:31  5-MIN KMKG 161700Z 25006KT 10SM BKN034 OVC041 03/M04 A3003 530 59 -700 260/06 RMK AO2
14840KMKG MKG20071116120509711/16/07 12:05:31  5-MIN KMKG 161705Z 27007KT 10SM OVC036 03/M04 A3003 530 59 -700 270/07 RMK AO2
14840KMKG MKG20071116121009711/16/07 12:10:31  5-MIN KMKG 161710Z 27006KT 10SM OVC036 03/M04 A3003 530 57 -700 270/06 RMK AO2
14840KMKG MKG20071116121509711/16/07 12:15:31  5-MIN KMKG 161715Z 27006KT 10SM OVC036 03/M04 A3003 530 57 -700 270/06 RMK AO2
14840KMKG MKG20071116122009711/16/07 12:20:31  5-MIN KMKG 161720Z 25004KT 10SM OVC036 03/M04 A3003 530 57 -700 250/04 RMK AO2
14840KMKG MKG20071116122509711/16/07 12:25:31  5-MIN KMKG 161725Z 25006KT 10SM OVC036 03/M04 A3002 530 57 -700 250/06 RMK AO2
14840KMKG MKG20071116123009711/16/07 12:30:31  5-MIN KMKG 161730Z 25004KT 10SM OVC036 04/M04 A3002 540 54 -600 250/04 RMK AO2
14840KMKG MKG20071116123509711/16/07 12:35:31  5-MIN KMKG 161735Z 26007KT 10SM OVC036 03/M04 A3002 540 57 -700 270/07 RMK AO2
14840KMKG MKG20071116124009711/16/07 12:40:31  5-MIN KMKG 161740Z 25005KT 10SM OVC038 03/M04 A3002 540 57 -700 250/05 RMK AO2
14840KMKG MKG20071116124509711/16/07 12:45:31  5-MIN KMKG 161745Z 27007KT 10SM OVC036 04/M04 A3002 540 54 -600 280/07 RMK AO2
14840KMKG MKG20071116125013211/16/07 12:50:31  5-MIN KMKG 161750Z 27005KT 10SM OVC036 04/M04 A3002 540 54 -600 280/05 RMK AO2 SLP170 T00391044 10039 21011 50004
14840KMKG MKG20071116125513911/16/07 12:55:31  5-MIN KMKG 161755Z 28007KT 10SM BKN036 OVC090 04/M04 A3002 540 57 -600 290/07 RMK AO2 SLP170 T00391039 10039 21011 56016
14840KMKG MKG20071116130009711/16/07 13:00:31  5-MIN KMKG 161800Z 27008KT 10SM OVC036 04/M04 A3001 540 54 -600 270/08 RMK AO2
14840KMKG MKG20071116130509711/16/07 13:05:31  5-MIN KMKG 161805Z 24006KT 10SM OVC036 04/M04 A3001 550 57 -600 240/06 RMK AO2
14840KMKG MKG20071116131009711/16/07 13:10:31  5-MIN KMKG 161810Z 22005KT 10SM OVC034 04/M04 A3001 550 54 -600 230/05 RMK AO2
14840KMKG MKG20071116131510411/16/07 13:15:31  5-MIN KMKG 161815Z 23006KT 10SM BKN034 OVC090 04/M04 A3000 550 55 -500 240/06 RMK AO2
14840KMKG MKG20071116132012011/16/07 13:20:31  5-MIN KMKG 161820Z 23007KT 210V280 10SM BKN034 OVC095 04/M04 A3000 550 57 -600 230/07 210V280 RMK AO2
14840KMKG MKG20071116132510411/16/07 13:25:31  5-MIN KMKG 161825Z 24006KT 10SM BKN034 OVC090 04/M04 A3000 550 57 -600 240/06 RMK AO2
14840KMKG MKG20071116133009711/16/07 13:30:31  5-MIN KMKG 161830Z 23008KT 10SM OVC034 04/M04 A3001 550 54 -600 230/08 RMK AO2
14840KMKG MKG20071116133511111/16/07 13:35:31  5-MIN KMKG 161835Z 23005KT 10SM BKN034 BKN090 OVC110 03/M04 A3001 550 57 -600 230/05 RMK AO2
14840KMKG MKG20071116134010411/16/07 13:40:31  5-MIN KMKG 161840Z 22008KT 10SM BKN036 OVC100 03/M04 A3000 550 59 -600 230/08 RMK AO2
14840KMKG MKG20071116134510411/16/07 13:45:31  5-MIN KMKG 161845Z 23006KT 10SM BKN036 OVC100 03/M04 A3000 550 57 -600 240/06 RMK AO2
14840KMKG MKG20071116135012111/16/07 13:50:31  5-MIN KMKG 161850Z 28005KT 10SM BKN036 OVC100 04/M04 A3000 560 57 -600 280/05 RMK AO2 SLP165 T00391039
14840KMKG MKG20071116135512111/16/07 13:55:31  5-MIN KMKG 161855Z 25008KT 10SM BKN036 OVC100 04/M04 A3000 560 55 -500 260/08 RMK AO2 SLP165 T00441039
14840KMKG MKG20071116140011111/16/07 14:00:31  5-MIN KMKG 161900Z 25004KT 10SM BKN036 BKN100 BKN110 04/M04 A3000 560 54 -600 250/04 RMK AO2
14840KMKG MKG20071116140510411/16/07 14:05:31  5-MIN KMKG 161905Z 21006KT 10SM BKN036 OVC100 04/M04 A3000 560 57 -600 210/06 RMK AO2
14840KMKG MKG20071116141010411/16/07 14:10:31  5-MIN KMKG 161910Z 20006KT 10SM BKN036 BKN100 04/M04 A2999 560 57 -600 200/06 RMK AO2
14840KMKG MKG20071116141510411/16/07 14:15:31  5-MIN KMKG 161915Z 22008KT 10SM BKN036 BKN100 04/M04 A2999 560 54 -600 230/08 RMK AO2
14840KMKG MKG20071116142011911/16/07 14:20:31  5-MIN KMKG 161920Z 25006KT 10SM SCT036 BKN100 04/M04 A2999 560 57 -600 250/06 RMK AO2 CIG 034 RWY 14
14840KMKG MKG20071116142511911/16/07 14:25:31  5-MIN KMKG 161925Z 25007KT 10SM SCT036 BKN100 03/M03 A2999 570 61 -600 260/07 RMK AO2 CIG 034 RWY 14
14840KMKG MKG20071116143010411/16/07 14:30:31  5-MIN KMKG 161930Z 23003KT 10SM BKN034 OVC100 03/M03 A2999 570 61 -600 240/03 RMK AO2
14840KMKG MKG20071116143510411/16/07 14:35:31  5-MIN KMKG 161935Z 22006KT 10SM BKN032 OVC100 04/M03 A2999 570 59 -500 220/06 RMK AO2
14840KMKG MKG20071116144011111/16/07 14:40:31  5-MIN KMKG 161940Z 24006KT 10SM BKN030 BKN035 OVC100 04/M03 A2999 570 59 -500 240/06 RMK AO2
14840KMKG MKG20071116144511111/16/07 14:45:31  5-MIN KMKG 161945Z 22006KT 10SM BKN030 BKN035 OVC095 04/M03 A2998 570 59 -500 220/06 RMK AO2
14840KMKG MKG20071116145011411/16/07 14:50:31  5-MIN KMKG 161950Z 22006KT 10SM OVC033 04/M03 A2998 570 59 -500 220/06 RMK AO2 SLP158 T00391033
14840KMKG MKG20071116145512111/16/07 14:55:31  5-MIN KMKG 161955Z 21008KT 10SM BKN030 OVC035 04/M03 A2998 580 59 -500 210/08 RMK AO2 SLP157 T00391033
14840KMKG MKG20071116150010411/16/07 15:00:31  5-MIN KMKG 162000Z 22007KT 10SM BKN030 OVC035 04/M03 A2998 580 59 -500 220/07 RMK AO2
14840KMKG MKG20071116150510411/16/07 15:05:31  5-MIN KMKG 162005Z 23008KT 10SM BKN030 OVC037 04/M03 A2998 580 59 -500 230/08 RMK AO2
14840KMKG MKG20071116151011111/16/07 15:10:31  5-MIN KMKG 162010Z 21007KT 10SM SCT030 BKN037 OVC100 04/M03 A2997 580 59 -500 210/07 RMK AO2
14840KMKG MKG20071116151511111/16/07 15:15:31  5-MIN KMKG 162015Z 21005KT 10SM SCT030 BKN037 OVC100 04/M04 A2997 580 57 -500 210/05 RMK AO2
14840KMKG MKG20071116152011111/16/07 15:20:31  5-MIN KMKG 162020Z 22006KT 10SM SCT030 BKN037 OVC100 04/M03 A2997 580 59 -500 220/06 RMK AO2
14840KMKG MKG20071116152511111/16/07 15:25:31  5-MIN KMKG 162025Z 23007KT 10SM SCT030 BKN037 OVC100 03/M04 A2997 580 59 -600 230/07 RMK AO2
14840KMKG MKG20071116153011111/16/07 15:30:31  5-MIN KMKG 162030Z 22005KT 10SM SCT030 BKN037 OVC100 03/M04 A2997 580 59 -600 220/05 RMK AO2
14840KMKG MKG20071116153510411/16/07 15:35:31  5-MIN KMKG 162035Z 24007KT 10SM BKN034 OVC100 03/M03 A2997 590 61 -600 240/07 RMK AO2
14840KMKG MKG20071116154010411/16/07 15:40:31  5-MIN KMKG 162040Z 24004KT 10SM BKN034 OVC100 03/M04 A2997 590 59 -600 240/04 RMK AO2
14840KMKG MKG20071116154510411/16/07 15:45:31  5-MIN KMKG 162045Z 24007KT 10SM BKN034 OVC100 03/M03 A2997 590 61 -600 240/07 RMK AO2
14840KMKG MKG20071116155012711/16/07 15:50:31  5-MIN KMKG 162050Z 25004KT 10SM BKN034 OVC100 03/M04 A2996 590 59 -600 250/04 RMK AO2 SLP152 T00331039 56016
14840KMKG MKG20071116155512711/16/07 15:55:31  5-MIN KMKG 162055Z 23004KT 10SM BKN032 OVC100 03/M04 A2996 600 59 -600 230/04 RMK AO2 SLP150 T00331039 58019
14840KMKG MKG20071116160010411/16/07 16:00:31  5-MIN KMKG 162100Z 00000KT 10SM BKN032 OVC095 03/M04 A2995 600 59 -600 000/00 RMK AO2
14840KMKG MKG20071116160510411/16/07 16:05:31  5-MIN KMKG 162105Z 22003KT 10SM BKN032 OVC100 03/M04 A2995 600 59 -600 220/03 RMK AO2
14840KMKG MKG20071116161011111/16/07 16:10:31  5-MIN KMKG 162110Z 21004KT 10SM BKN032 BKN100 OVC110 03/M04 A2995 600 59 -600 210/04 RMK AO2
14840KMKG MKG20071116161510411/16/07 16:15:31  5-MIN KMKG 162115Z 18006KT 10SM SCT032 OVC100 03/M04 A2995 600 59 -600 190/06 RMK AO2
14840KMKG MKG20071116162010411/16/07 16:20:31  5-MIN KMKG 162120Z 19005KT 10SM SCT032 OVC110 03/M04 A2994 610 59 -600 200/05 RMK AO2
14840KMKG MKG20071116162511911/16/07 16:25:31  5-MIN KMKG 162125Z 22006KT 10SM FEW032 OVC110 03/M04 A2994 610 59 -600 220/06 RMK AO2 CIG 031 RWY 14
14840KMKG MKG20071116163011911/16/07 16:30:31  5-MIN KMKG 162130Z 21006KT 10SM FEW032 OVC110 03/M04 A2994 610 59 -600 210/06 RMK AO2 CIG 031 RWY 14
14840KMKG MKG20071116163511911/16/07 16:35:31  5-MIN KMKG 162135Z 20004KT 10SM SCT032 OVC110 03/M04 A2994 610 61 -600 200/04 RMK AO2 CIG 031 RWY 14
14840KMKG MKG20071116164011911/16/07 16:40:31  5-MIN KMKG 162140Z 18004KT 10SM SCT032 OVC110 03/M04 A2994 620 61 -600 180/04 RMK AO2 CIG 031 RWY 14
14840KMKG MKG20071116164510411/16/07 16:45:31  5-MIN KMKG 162145Z 20004KT 10SM FEW032 OVC110 03/M03 A2993 620 64 -600 200/04 RMK AO2
14840KMKG MKG20071116165012111/16/07 16:50:31  5-MIN KMKG 162150Z 19003KT 10SM SCT032 OVC110 03/M04 A2993 620 61 -600 200/03 RMK AO2 SLP143 T00281039
14840KMKG MKG20071116165513611/16/07 16:55:31  5-MIN KMKG 162155Z 00000KT 10SM SCT032 OVC110 03/M03 A2993 620 64 -600 000/00 RMK AO2 CIG 031 RWY 14 SLP141 T00281033
14840KMKG MKG20071116170010411/16/07 17:00:31  5-MIN KMKG 162200Z 17004KT 10SM SCT030 OVC110 03/M03 A2993 620 64 -600 180/04 RMK AO2
14840KMKG MKG20071116170510411/16/07 17:05:31  5-MIN KMKG 162205Z 19003KT 10SM SCT030 OVC110 03/M03 A2993 620 64 -600 190/03 RMK AO2
14840KMKG MKG20071116171010411/16/07 17:10:31  5-MIN KMKG 162210Z 00000KT 10SM BKN030 OVC110 03/M03 A2993 620 64 -600 000/00 RMK AO2
14840KMKG MKG20071116171510411/16/07 17:15:31  5-MIN KMKG 162215Z 00000KT 10SM BKN030 OVC110 03/M03 A2993 620 64 -600 000/00 RMK AO2
14840KMKG MKG20071116172010411/16/07 17:20:31  5-MIN KMKG 162220Z 00000KT 10SM BKN030 OVC110 03/M03 A2992 630 64 -600 000/00 RMK AO2
14840KMKG MKG20071116172510411/16/07 17:25:31  5-MIN KMKG 162225Z 00000KT 10SM BKN030 OVC110 03/M03 A2992 630 64 -600 000/00 RMK AO2
14840KMKG MKG20071116173010411/16/07 17:30:31  5-MIN KMKG 162230Z 12003KT 10SM BKN030 OVC110 03/M03 A2992 630 64 -600 120/03 RMK AO2
14840KMKG MKG20071116173510411/16/07 17:35:31  5-MIN KMKG 162235Z 13003KT 10SM BKN032 OVC110 03/M03 A2992 630 64 -600 130/03 RMK AO2
14840KMKG MKG20071116174011111/16/07 17:40:31  5-MIN KMKG 162240Z 12003KT 10SM BKN032 BKN100 OVC110 03/M03 A2992 630 67 -600 130/03 RMK AO2
14840KMKG MKG20071116174510411/16/07 17:45:31  5-MIN KMKG 162245Z 13003KT 10SM BKN032 OVC100 03/M03 A2992 630 67 -600 140/03 RMK AO2
14840KMKG MKG20071116175012111/16/07 17:50:31  5-MIN KMKG 162250Z 00000KT 10SM BKN032 OVC100 03/M02 A2992 630 69 -600 000/00 RMK AO2 SLP139 T00281022
14840KMKG MKG20071116175512111/16/07 17:55:31  5-MIN KMKG 162255Z 00000KT 10SM BKN032 OVC110 03/M02 A2992 630 69 -600 000/00 RMK AO2 SLP139 T00281022
14840KMKG MKG20071116180010411/16/07 18:00:31  5-MIN KMKG 162300Z 00000KT 10SM BKN032 OVC110 03/M03 A2993 630 67 -600 000/00 RMK AO2
14840KMKG MKG20071116180510411/16/07 18:05:31  5-MIN KMKG 162305Z 00000KT 10SM BKN032 OVC110 03/M03 A2993 620 67 -600 000/00 RMK AO2
14840KMKG MKG20071116181010411/16/07 18:10:31  5-MIN KMKG 162310Z 00000KT 10SM SCT032 OVC110 03/M03 A2993 620 67 -600 000/00 RMK AO2
14840KMKG MKG20071116181511911/16/07 18:15:31  5-MIN KMKG 162315Z 00000KT 10SM SCT032 OVC110 03/M03 A2993 620 67 -600 000/00 RMK AO2 CIG 031 RWY 14
14840KMKG MKG20071116182010411/16/07 18:20:31  5-MIN KMKG 162320Z 00000KT 10SM BKN032 OVC110 03/M03 A2993 620 67 -600 000/00 RMK AO2
14840KMKG MKG20071116182510411/16/07 18:25:31  5-MIN KMKG 162325Z 08003KT 10SM BKN032 OVC110 03/M03 A2993 620 67 -600 090/03 RMK AO2
14840KMKG MKG20071116183010411/16/07 18:30:31  5-MIN KMKG 162330Z 08004KT 10SM BKN032 OVC110 03/M03 A2994 620 67 -600 080/04 RMK AO2
14840KMKG MKG20071116183509711/16/07 18:35:31  5-MIN KMKG 162335Z 07003KT 10SM OVC030 03/M02 A2994 610 69 -600 080/03 RMK AO2
14840KMKG MKG20071116184009711/16/07 18:40:31  5-MIN KMKG 162340Z 08004KT 10SM OVC030 03/M02 A2994 610 69 -600 080/04 RMK AO2
14840KMKG MKG20071116184509711/16/07 18:45:31  5-MIN KMKG 162345Z 07004KT 10SM OVC030 03/M03 A2994 610 67 -600 080/04 RMK AO2
14840KMKG MKG20071116185013211/16/07 18:50:31  5-MIN KMKG 162350Z 09004KT 10SM OVC030 03/M03 A2994 610 67 -600 090/04 RMK AO2 SLP145 T00281028 10044 20028 58019
14840KMKG MKG20071116185513211/16/07 18:55:31  5-MIN KMKG 162355Z 09004KT 10SM OVC030 03/M03 A2994 610 67 -600 100/04 RMK AO2 SLP145 T00281028 10044 20028 55006
14840KMKG MKG20071116190009711/16/07 19:00:31  5-MIN KMKG 170000Z 09004KT 10SM OVC030 03/M03 A2994 610 67 -600 090/04 RMK AO2
14840KMKG MKG20071116190510411/16/07 19:05:31  5-MIN KMKG 170005Z 09004KT 10SM BKN030 OVC034 03/M03 A2994 610 67 -600 090/04 RMK AO2
14840KMKG MKG20071116191009711/16/07 19:10:31  5-MIN KMKG 170010Z 08004KT 10SM OVC032 03/M03 A2995 610 67 -600 090/04 RMK AO2
14840KMKG MKG20071116191511911/16/07 19:15:31  5-MIN KMKG 170015Z 09003KT 10SM SCT029 OVC035 03/M03 A2995 610 67 -600 090/03 RMK AO2 CIG 028 RWY 14
14840KMKG MKG20071116192010411/16/07 19:20:31  5-MIN KMKG 170020Z 09003KT 10SM SCT029 OVC035 03/M03 A2995 610 67 -600 090/03 RMK AO2
14840KMKG MKG20071116192509711/16/07 19:25:31  5-MIN KMKG 170025Z 10003KT 10SM OVC035 03/M03 A2995 600 67 -600 100/03 RMK AO2
14840KMKG MKG20071116193009711/16/07 19:30:31  5-MIN KMKG 170030Z 10003KT 10SM OVC035 03/M03 A2995 600 67 -600 100/03 RMK AO2
14840KMKG MKG20071116193509711/16/07 19:35:31  5-MIN KMKG 170035Z 10003KT 10SM OVC033 03/M03 A2995 600 67 -600 100/03 RMK AO2
14840KMKG MKG20071116194009711/16/07 19:40:31  5-MIN KMKG 170040Z 11003KT 10SM OVC033 03/M03 A2995 600 67 -600 110/03 RMK AO2
14840KMKG MKG20071116194509711/16/07 19:45:31  5-MIN KMKG 170045Z 12003KT 10SM OVC033 03/M03 A2995 600 67 -600 120/03 RMK AO2
14840KMKG MKG20071116195011411/16/07 19:50:31  5-MIN KMKG 170050Z 12003KT 10SM OVC031 03/M03 A2995 600 67 -600 120/03 RMK AO2 SLP149 T00281028
14840KMKG MKG20071116195511411/16/07 19:55:31  5-MIN KMKG 170055Z 12004KT 10SM OVC031 03/M03 A2995 600 67 -600 130/04 RMK AO2 SLP149 T00281028
14840KMKG MKG20071116200009711/16/07 20:00:31  5-MIN KMKG 170100Z 12004KT 10SM OVC031 03/M03 A2995 600 67 -700 120/04 RMK AO2
14840KMKG MKG20071116200509711/16/07 20:05:31  5-MIN KMKG 170105Z 12004KT 10SM OVC031 03/M03 A2996 600 67 -700 120/04 RMK AO2
14840KMKG MKG20071116201010411/16/07 20:10:31  5-MIN KMKG 170110Z 12004KT 10SM BKN031 OVC038 03/M03 A2996 600 67 -700 120/04 RMK AO2
14840KMKG MKG20071116201510411/16/07 20:15:31  5-MIN KMKG 170115Z 12004KT 10SM BKN030 OVC038 03/M03 A2996 600 67 -700 130/04 RMK AO2
14840KMKG MKG20071116202009711/16/07 20:20:31  5-MIN KMKG 170120Z 13005KT 10SM OVC035 03/M03 A2995 600 67 -600 140/05 RMK AO2
14840KMKG MKG20071116202510411/16/07 20:25:31  5-MIN KMKG 170125Z 13005KT 10SM SCT030 OVC038 03/M02 A2995 600 69 -600 130/05 RMK AO2
14840KMKG MKG20071116203009711/16/07 20:30:31  5-MIN KMKG 170130Z 13005KT 10SM OVC036 03/M02 A2996 600 69 -700 140/05 RMK AO2
14840KMKG MKG20071116203510411/16/07 20:35:31  5-MIN KMKG 170135Z 13005KT 10SM SCT031 OVC038 03/M02 A2996 590 69 -700 130/05 RMK AO2
14840KMKG MKG20071116204010411/16/07 20:40:31  5-MIN KMKG 170140Z 13005KT 10SM BKN031 OVC038 03/M02 A2996 590 69 -700 140/05 RMK AO2
14840KMKG MKG20071116204510411/16/07 20:45:31  5-MIN KMKG 170145Z 14006KT 10SM BKN028 OVC036 03/M02 A2996 590 69 -700 140/06 RMK AO2
14840KMKG MKG20071116205012111/16/07 20:50:31  5-MIN KMKG 170150Z 14006KT 10SM BKN028 OVC036 03/M03 A2996 600 67 -700 140/06 RMK AO2 SLP151 T00281028
14840KMKG MKG20071116205512111/16/07 20:55:31  5-MIN KMKG 170155Z 14006KT 10SM BKN028 OVC036 03/M03 A2996 600 67 -700 150/06 RMK AO2 SLP151 T00281028
14840KMKG MKG20071116210009711/16/07 21:00:31  5-MIN KMKG 170200Z 14006KT 10SM OVC028 03/M03 A2996 600 67 -700 140/06 RMK AO2
14840KMKG MKG20071116210509711/16/07 21:05:31  5-MIN KMKG 170205Z 14007KT 10SM OVC028 03/M03 A2996 600 67 -700 150/07 RMK AO2
14840KMKG MKG20071116211009711/16/07 21:10:31  5-MIN KMKG 170210Z 14006KT 10SM OVC028 03/M03 A2996 600 67 -700 140/06 RMK AO2
14840KMKG MKG20071116211509711/16/07 21:15:31  5-MIN KMKG 170215Z 14005KT 10SM OVC028 03/M02 A2996 600 69 -700 140/05 RMK AO2
14840KMKG MKG20071116212009711/16/07 21:20:31  5-MIN KMKG 170220Z 13006KT 10SM OVC028 03/M03 A2995 600 67 -700 130/06 RMK AO2
14840KMKG MKG20071116212510411/16/07 21:25:31  5-MIN KMKG 170225Z 14007KT 10SM BKN028 OVC037 03/M03 A2995 600 67 -700 150/07 RMK AO2
14840KMKG MKG20071116213010411/16/07 21:30:31  5-MIN KMKG 170230Z 14008KT 10SM BKN028 OVC037 03/M03 A2995 600 67 -600 150/08 RMK AO2
14840KMKG MKG20071116213510411/16/07 21:35:31  5-MIN KMKG 170235Z 14007KT 10SM BKN028 OVC035 03/M03 A2995 600 64 -600 150/07 RMK AO2
14840KMKG MKG20071116214010411/16/07 21:40:31  5-MIN KMKG 170240Z 14007KT 10SM BKN028 OVC036 03/M03 A2995 600 61 -600 140/07 RMK AO2
14840KMKG MKG20071116214509711/16/07 21:45:31  5-MIN KMKG 170245Z 15006KT 10SM OVC028 03/M03 A2995 600 61 -600 150/06 RMK AO2
14840KMKG MKG20071116215009711/16/07 21:50:31  5-MIN KMKG 170250Z 16007KT 10SM OVC030 03/M03 A2995 600 61 -600 160/07 RMK AO2
14840KMKG MKG20071116215512011/16/07 21:55:31  5-MIN KMKG 170255Z 15008KT 10SM OVC030 03/M03 A2995 610 61 -600 150/08 RMK AO2 SLP146 T00331033 58002
14840KMKG MKG20071116220009711/16/07 22:00:31  5-MIN KMKG 170300Z 15008KT 10SM OVC030 03/M04 A2994 610 61 -600 160/08 RMK AO2
14840KMKG MKG20071116220509711/16/07 22:05:31  5-MIN KMKG 170305Z 16008KT 10SM OVC030 03/M04 A2994 610 59 -600 160/08 RMK AO2
14840KMKG MKG20071116221010411/16/07 22:10:31  5-MIN KMKG 170310Z 16009KT 10SM BKN030 BKN110 03/M04 A2994 610 59 -600 160/09 RMK AO2
14840KMKG MKG20071116221510411/16/07 22:15:31  5-MIN KMKG 170315Z 16008KT 10SM BKN032 BKN110 03/M04 A2994 620 61 -600 160/08 RMK AO2
14840KMKG MKG20071116222011911/16/07 22:20:31  5-MIN KMKG 170320Z 15009KT 10SM SCT032 BKN110 03/M04 A2993 620 59 -600 160/09 RMK AO2 CIG 032 RWY 14
14840KMKG MKG20071116222510411/16/07 22:25:31  5-MIN KMKG 170325Z 16007KT 10SM FEW032 BKN110 03/M04 A2994 610 59 -600 160/07 RMK AO2
14840KMKG MKG20071116223010411/16/07 22:30:31  5-MIN KMKG 170330Z 14006KT 10SM FEW032 BKN110 03/M04 A2994 610 59 -600 150/06 RMK AO2
14840KMKG MKG20071116223509711/16/07 22:35:31  5-MIN KMKG 170335Z 14006KT 10SM BKN120 03/M04 A2994 620 59 -600 140/06 RMK AO2
14840KMKG MKG20071116224009711/16/07 22:40:31  5-MIN KMKG 170340Z 14006KT 10SM BKN110 03/M04 A2993 620 61 -600 150/06 RMK AO2
14840KMKG MKG20071116224509711/16/07 22:45:31  5-MIN KMKG 170345Z 14006KT 10SM BKN110 03/M04 A2993 620 61 -600 140/06 RMK AO2
14840KMKG MKG20071116225011411/16/07 22:50:31  5-MIN KMKG 170350Z 14006KT 10SM BKN110 03/M04 A2993 620 59 -600 150/06 RMK AO2 SLP141 T00281044
14840KMKG MKG20071116225511411/16/07 22:55:31  5-MIN KMKG 170355Z 15008KT 10SM BKN110 03/M04 A2993 620 59 -600 150/08 RMK AO2 SLP141 T00281044
14840KMKG MKG20071116230009711/16/07 23:00:31  5-MIN KMKG 170400Z 15009KT 10SM SCT110 03/M04 A2993 620 59 -600 160/09 RMK AO2
14840KMKG MKG20071116230509711/16/07 23:05:31  5-MIN KMKG 170405Z 15008KT 10SM BKN120 03/M04 A2993 630 59 -600 160/08 RMK AO2
14840KMKG MKG20071116231009711/16/07 23:10:31  5-MIN KMKG 170410Z 15009KT 10SM SCT120 02/M04 A2992 630 61 -700 160/09 RMK AO2
14840KMKG MKG20071116231509711/16/07 23:15:31  5-MIN KMKG 170415Z 15008KT 10SM SCT110 02/M04 A2992 630 61 -700 150/08 RMK AO2
14840KMKG MKG20071116232009711/16/07 23:20:31  5-MIN KMKG 170420Z 15007KT 10SM FEW120 02/M04 A2992 630 61 -700 150/07 RMK AO2
14840KMKG MKG20071116232509711/16/07 23:25:31  5-MIN KMKG 170425Z 14008KT 10SM FEW120 02/M04 A2992 630 61 -700 150/08 RMK AO2
14840KMKG MKG20071116233009711/16/07 23:30:31  5-MIN KMKG 170430Z 15007KT 10SM FEW120 02/M04 A2992 630 61 -700 150/07 RMK AO2
14840KMKG MKG20071116233509411/16/07 23:35:31  5-MIN KMKG 170435Z 15007KT 10SM CLR 02/M04 A2991 640 61 -700 150/07 RMK AO2
14840KMKG MKG20071116234009411/16/07 23:40:31  5-MIN KMKG 170440Z 14007KT 10SM CLR 02/M04 A2991 640 61 -700 150/07 RMK AO2
14840KMKG MKG20071116234509411/16/07 23:45:31  5-MIN KMKG 170445Z 14006KT 10SM CLR 02/M04 A2991 640 64 -700 140/06 RMK AO2
14840KMKG MKG20071116235012411/16/07 23:50:31  5-MIN KMKG 170450Z 14007KT 10SM FEW120 02/M04 A2991 640 64 -700 140/07 RMK AO2 SLP135 T00171044 400441011
14840KMKG MKG20071116235512411/16/07 23:55:31  5-MIN KMKG 170455Z 14006KT 10SM FEW120 02/M04 A2991 640 64 -700 140/06 RMK AO2 SLP135 T00171044 400441011
14840KMKG MKG20071117000009711/17/07 00:00:32  5-MIN KMKG 170500Z 14007KT 10SM FEW120 01/M04 A2991 640 66 -800 140/07 RMK AO2
14840KMKG MKG20071117000509711/17/07 00:05:31  5-MIN KMKG 170505Z 14006KT 10SM FEW120 01/M04 A2991 640 66 -800 150/06 RMK AO2
14840KMKG MKG20071117001009711/17/07 00:10:31  5-MIN KMKG 170510Z 14006KT 10SM FEW120 01/M04 A2991 640 66 -800 150/06 RMK AO2
14840KMKG MKG20071117001509711/17/07 00:15:31  5-MIN KMKG 170515Z 13006KT 10SM FEW120 01/M04 A2991 640 66 -800 140/06 RMK AO2
14840KMKG MKG20071117002009411/17/07 00:20:31  5-MIN KMKG 170520Z 14008KT 10SM CLR 01/M04 A2991 640 66 -800 140/08 RMK AO2
14840KMKG MKG20071117002509411/17/07 00:25:31  5-MIN KMKG 170525Z 13006KT 10SM CLR 01/M04 A2991 640 69 -900 140/06 RMK AO2
14840KMKG MKG20071117003009411/17/07 00:30:31  5-MIN KMKG 170530Z 13007KT 10SM CLR 00/M04 A2991 640 72 -900 130/07 RMK AO2
14840KMKG MKG20071117003509411/17/07 00:35:31  5-MIN KMKG 170535Z 11006KT 10SM CLR 00/M04 A2991 640 72 -900 110/06 RMK AO2
14840KMKG MKG20071117004009411/17/07 00:40:31  5-MIN KMKG 170540Z 11006KT 10SM CLR 01/M04 A2991 640 69 -900 110/06 RMK AO2
14840KMKG MKG20071117004509411/17/07 00:45:31  5-MIN KMKG 170545Z 11006KT 10SM CLR 01/M04 A2991 640 69 -900 110/06 RMK AO2
14840KMKG MKG20071117005012911/17/07 00:50:31  5-MIN KMKG 170550Z 11006KT 10SM CLR 01/M04 A2991 640 69 -900 120/06 RMK AO2 SLP133 T00061044 10033 20000 58002
14840KMKG MKG20071117005512911/17/07 00:55:31  5-MIN KMKG 170555Z 11006KT 10SM CLR 00/M04 A2990 650 72 -900 110/06 RMK AO2 SLP133 T00001044 10033 20000 56014
14840KMKG MKG20071117010009411/17/07 01:00:31  5-MIN KMKG 170600Z 11006KT 10SM CLR 00/M04 A2990 650 72 -900 120/06 RMK AO2
14840KMKG MKG20071117010509611/17/07 01:05:31  5-MIN KMKG 170605Z 11006KT 10SM CLR M01/M04 A2990 650 75 -1000 120/06 RMK AO2
14840KMKG MKG20071117011009611/17/07 01:10:31  5-MIN KMKG 170610Z 11006KT 10SM CLR M01/M04 A2990 650 75 -1000 120/06 RMK AO2
14840KMKG MKG20071117011509611/17/07 01:15:31  5-MIN KMKG 170615Z 11005KT 10SM CLR M01/M04 A2990 650 75 -1000 120/05 RMK AO2
14840KMKG MKG20071117012009611/17/07 01:20:31  5-MIN KMKG 170620Z 11005KT 10SM CLR M01/M04 A2990 650 75 -1000 110/05 RMK AO2
14840KMKG MKG20071117012509411/17/07 01:25:31  5-MIN KMKG 170625Z 10005KT 10SM CLR 00/M04 A2990 650 72 -900 110/05 RMK AO2
14840KMKG MKG20071117013009411/17/07 01:30:31  5-MIN KMKG 170630Z 11005KT 10SM CLR 00/M04 A2989 660 72 -900 110/05 RMK AO2
14840KMKG MKG20071117013509611/17/07 01:35:31  5-MIN KMKG 170635Z 11005KT 10SM CLR M01/M04 A2989 660 75 -1000 110/05 RMK AO2
14840KMKG MKG20071117014009611/17/07 01:40:31  5-MIN KMKG 170640Z 10005KT 10SM CLR M01/M05 A2989 660 72 -1000 110/05 RMK AO2
14840KMKG MKG20071117014509611/17/07 01:45:31  5-MIN KMKG 170645Z 10005KT 10SM CLR M01/M04 A2989 660 75 -1000 110/05 RMK AO2
14840KMKG MKG20071117015011311/17/07 01:50:31  5-MIN KMKG 170650Z 11004KT 10SM CLR M01/M04 A2989 660 75 -1000 110/04 RMK AO2 SLP127 T10061044
14840KMKG MKG20071117015511311/17/07 01:55:31  5-MIN KMKG 170655Z 11004KT 10SM CLR M01/M04 A2989 660 75 -1000 120/04 RMK AO2 SLP128 T10061044
14840KMKG MKG20071117020009611/17/07 02:00:31  5-MIN KMKG 170700Z 11005KT 10SM CLR M01/M04 A2989 660 78 -1100 120/05 RMK AO2
14840KMKG MKG20071117020509611/17/07 02:05:31  5-MIN KMKG 170705Z 12005KT 10SM CLR M01/M04 A2989 660 78 -1100 120/05 RMK AO2
14840KMKG MKG20071117021009611/17/07 02:10:31  5-MIN KMKG 170710Z 12006KT 10SM CLR M01/M04 A2988 660 75 -1000 120/06 RMK AO2
14840KMKG MKG20071117021509611/17/07 02:15:31  5-MIN KMKG 170715Z 12006KT 10SM CLR M01/M04 A2988 670 75 -1000 120/06 RMK AO2
14840KMKG MKG20071117022009611/17/07 02:20:31  5-MIN KMKG 170720Z 12006KT 10SM CLR M01/M04 A2988 670 78 -1000 120/06 RMK AO2
14840KMKG MKG20071117022509411/17/07 02:25:31  5-MIN KMKG 170725Z 11006KT 10SM CLR 00/M04 A2988 670 75 -900 120/06 RMK AO2
14840KMKG MKG20071117023009411/17/07 02:30:31  5-MIN KMKG 170730Z 12006KT 10SM CLR 00/M04 A2988 670 75 -900 120/06 RMK AO2
14840KMKG MKG20071117023509411/17/07 02:35:31  5-MIN KMKG 170735Z 12007KT 10SM CLR 00/M04 A2988 660 75 -900 120/07 RMK AO2
14840KMKG MKG20071117024009411/17/07 02:40:31  5-MIN KMKG 170740Z 12007KT 10SM CLR 00/M04 A2988 660 75 -900 120/07 RMK AO2
14840KMKG MKG20071117024509411/17/07 02:45:31  5-MIN KMKG 170745Z 12006KT 10SM CLR 00/M04 A2988 670 75 -900 120/06 RMK AO2
14840KMKG MKG20071117025011111/17/07 02:50:31  5-MIN KMKG 170750Z 11006KT 10SM CLR 00/M04 A2988 670 75 -900 120/06 RMK AO2 SLP125 T00001039
14840KMKG MKG20071117025511111/17/07 02:55:31  5-MIN KMKG 170755Z 11006KT 10SM CLR 00/M04 A2988 670 75 -900 110/06 RMK AO2 SLP125 T00001039
14840KMKG MKG20071117030009411/17/07 03:00:31  5-MIN KMKG 170800Z 11006KT 10SM CLR 00/M04 A2988 670 75 -900 110/06 RMK AO2
14840KMKG MKG20071117030509411/17/07 03:05:31  5-MIN KMKG 170805Z 11006KT 10SM CLR 01/M04 A2988 670 72 -800 120/06 RMK AO2
14840KMKG MKG20071117031009411/17/07 03:10:31  5-MIN KMKG 170810Z 11006KT 10SM CLR 01/M04 A2988 660 72 -800 110/06 RMK AO2
14840KMKG MKG20071117031509411/17/07 03:15:31  5-MIN KMKG 170815Z 11005KT 10SM CLR 01/M04 A2988 660 72 -800 110/05 RMK AO2
14840KMKG MKG20071117032009411/17/07 03:20:31  5-MIN KMKG 170820Z 10005KT 10SM CLR 01/M04 A2988 660 72 -800 100/05 RMK AO2
14840KMKG MKG20071117032509411/17/07 03:25:31  5-MIN KMKG 170825Z 09005KT 10SM CLR 01/M04 A2988 670 72 -800 100/05 RMK AO2
14840KMKG MKG20071117033009411/17/07 03:30:31  5-MIN KMKG 170830Z 10005KT 10SM CLR 01/M04 A2988 670 69 -800 100/05 RMK AO2
14840KMKG MKG20071117033509411/17/07 03:35:31  5-MIN KMKG 170835Z 09005KT 10SM CLR 01/M04 A2988 670 69 -800 100/05 RMK AO2
14840KMKG MKG20071117034009411/17/07 03:40:31  5-MIN KMKG 170840Z 09004KT 10SM CLR 00/M04 A2988 670 75 -900 090/04 RMK AO2
14840KMKG MKG20071117034509411/17/07 03:45:31  5-MIN KMKG 170845Z 10004KT 10SM CLR 00/M04 A2988 670 72 -900 100/04 RMK AO2
14840KMKG MKG20071117035011711/17/07 03:50:31  5-MIN KMKG 170850Z 10004KT 10SM CLR 00/M04 A2988 670 72 -900 110/04 RMK AO2 SLP123 T00001044 56014
14840KMKG MKG20071117035511711/17/07 03:55:31  5-MIN KMKG 170855Z 10004KT 10SM CLR 00/M04 A2987 670 75 -900 100/04 RMK AO2 SLP123 T00001039 56010
14840KMKG MKG20071117040009411/17/07 04:00:31  5-MIN KMKG 170900Z 08004KT 10SM CLR 00/M04 A2987 670 75 -900 090/04 RMK AO2
14840KMKG MKG20071117040509411/17/07 04:05:31  5-MIN KMKG 170905Z 09004KT 10SM CLR 00/M04 A2987 670 75 -900 090/04 RMK AO2
14840KMKG MKG20071117041009411/17/07 04:10:31  5-MIN KMKG 170910Z 09003KT 10SM CLR 00/M04 A2987 670 75 -900 090/03 RMK AO2
14840KMKG MKG20071117041509411/17/07 04:15:31  5-MIN KMKG 170915Z 08005KT 10SM CLR 00/M04 A2987 670 75 -900 080/05 RMK AO2
14840KMKG MKG20071117042009411/17/07 04:20:31  5-MIN KMKG 170920Z 08005KT 10SM CLR 00/M04 A2988 670 75 -900 090/05 RMK AO2
14840KMKG MKG20071117042509411/17/07 04:25:31  5-MIN KMKG 170925Z 11005KT 10SM CLR 00/M04 A2988 670 75 -900 110/05 RMK AO2
14840KMKG MKG20071117043009411/17/07 04:30:31  5-MIN KMKG 170930Z 11005KT 10SM CLR 00/M04 A2987 670 75 -900 110/05 RMK AO2
14840KMKG MKG20071117043509411/17/07 04:35:31  5-MIN KMKG 170935Z 09005KT 10SM CLR 00/M04 A2987 670 75 -900 090/05 RMK AO2
14840KMKG MKG20071117044009411/17/07 04:40:31  5-MIN KMKG 170940Z 10005KT 10SM CLR 00/M04 A2987 670 75 -900 100/05 RMK AO2
14840KMKG MKG20071117044509411/17/07 04:45:31  5-MIN KMKG 170945Z 10005KT 10SM CLR 00/M04 A2987 680 75 -900 110/05 RMK AO2
14840KMKG MKG20071117045011111/17/07 04:50:31  5-MIN KMKG 170950Z 10007KT 10SM CLR 00/M04 A2987 680 75 -900 110/07 RMK AO2 SLP121 T00001039
14840KMKG MKG20071117045511111/17/07 04:55:31  5-MIN KMKG 170955Z 10005KT 10SM CLR 00/M04 A2987 680 75 -900 110/05 RMK AO2 SLP121 T00001039
14840KMKG MKG20071117050009411/17/07 05:00:31  5-MIN KMKG 171000Z 10006KT 10SM CLR 00/M04 A2987 680 75 -900 100/06 RMK AO2
14840KMKG MKG20071117050509411/17/07 05:05:31  5-MIN KMKG 171005Z 10006KT 10SM CLR 00/M04 A2987 680 75 -900 100/06 RMK AO2
14840KMKG MKG20071117051009411/17/07 05:10:31  5-MIN KMKG 171010Z 10006KT 10SM CLR 00/M04 A2987 680 75 -900 100/06 RMK AO2
14840KMKG MKG20071117051509411/17/07 05:15:31  5-MIN KMKG 171015Z 09005KT 10SM CLR 00/M04 A2987 680 75 -900 100/05 RMK AO2
14840KMKG MKG20071117052009311/17/07 05:20:31  5-MIN KMKG 171020Z 09004KT 9SM CLR 00/M04 A2987 670 75 -900 090/04 RMK AO2
14840KMKG MKG20071117052509311/17/07 05:25:31  5-MIN KMKG 171025Z 09004KT 9SM CLR 00/M04 A2987 680 75 -900 100/04 RMK AO2
14840KMKG MKG20071117053009311/17/07 05:30:31  5-MIN KMKG 171030Z 10004KT 9SM CLR 00/M04 A2987 670 75 -900 100/04 RMK AO2
14840KMKG MKG20071117053509311/17/07 05:35:31  5-MIN KMKG 171035Z 09004KT 9SM CLR 00/M04 A2987 670 75 -900 100/04 RMK AO2
14840KMKG MKG20071117054009611/17/07 05:40:31  5-MIN KMKG 171040Z 09005KT 9SM FEW120 00/M04 A2987 680 75 -900 090/05 RMK AO2
14840KMKG MKG20071117054509311/17/07 05:45:31  5-MIN KMKG 171045Z 08005KT 9SM CLR 00/M04 A2987 680 75 -900 080/05 RMK AO2
14840KMKG MKG20071117055011011/17/07 05:50:31  5-MIN KMKG 171050Z 08006KT 9SM CLR 00/M04 A2987 680 75 -900 090/06 RMK AO2 SLP120 T00001039
14840KMKG MKG20071117055511011/17/07 05:55:31  5-MIN KMKG 171055Z 08006KT 9SM CLR 00/M04 A2987 680 75 -900 080/06 RMK AO2 SLP121 T00001039
14840KMKG MKG20071117060009611/17/07 06:00:31  5-MIN KMKG 171100Z 08006KT 9SM FEW120 00/M03 A2987 680 78 -900 090/06 RMK AO2
14840KMKG MKG20071117060509611/17/07 06:05:31  5-MIN KMKG 171105Z 09005KT 9SM SCT110 00/M03 A2987 670 78 -900 090/05 RMK AO2
14840KMKG MKG20071117061009611/17/07 06:10:31  5-MIN KMKG 171110Z 09005KT 9SM SCT110 00/M03 A2988 670 78 -900 090/05 RMK AO2
14840KMKG MKG20071117061509611/17/07 06:15:31  5-MIN KMKG 171115Z 08005KT 9SM BKN110 00/M03 A2988 670 78 -900 090/05 RMK AO2
14840KMKG MKG20071117062009611/17/07 06:20:31  5-MIN KMKG 171120Z 08006KT 9SM BKN110 01/M03 A2988 670 75 -800 080/06 RMK AO2
14840KMKG MKG20071117062509611/17/07 06:25:31  5-MIN KMKG 171125Z 07006KT 9SM BKN110 00/M03 A2987 670 78 -900 080/06 RMK AO2
14840KMKG MKG20071117063009611/17/07 06:30:31  5-MIN KMKG 171130Z 07006KT 9SM BKN120 00/M03 A2987 670 78 -900 080/06 RMK AO2
14840KMKG MKG20071117063509611/17/07 06:35:31  5-MIN KMKG 171135Z 08006KT 9SM BKN120 01/M03 A2988 670 75 -800 080/06 RMK AO2
14840KMKG MKG20071117064009611/17/07 06:40:31  5-MIN KMKG 171140Z 08006KT 9SM BKN110 01/M03 A2988 670 75 -800 080/06 RMK AO2
14840KMKG MKG20071117064509611/17/07 06:45:31  5-MIN KMKG 171145Z 08006KT 9SM BKN110 01/M03 A2988 670 75 -800 090/06 RMK AO2
14840KMKG MKG20071117065013111/17/07 06:50:31  5-MIN KMKG 171150Z 08006KT 9SM BKN110 01/M03 A2988 670 75 -800 090/06 RMK AO2 SLP125 T00061033 10006 21011 56010
14840KMKG MKG20071117065513111/17/07 06:55:31  5-MIN KMKG 171155Z 08005KT 9SM BKN110 01/M03 A2988 660 75 -800 080/05 RMK AO2 SLP126 T00061033 10006 21011 53003
14840KMKG MKG20071117070009611/17/07 07:00:31  5-MIN KMKG 171200Z 08005KT 9SM BKN110 01/M03 A2988 660 75 -800 080/05 RMK AO2
14840KMKG MKG20071117070509611/17/07 07:05:31  5-MIN KMKG 171205Z 09005KT 9SM BKN100 01/M03 A2989 660 75 -900 090/05 RMK AO2
14840KMKG MKG20071117071009611/17/07 07:10:31  5-MIN KMKG 171210Z 09005KT 9SM BKN110 01/M03 A2989 660 75 -900 090/05 RMK AO2
14840KMKG MKG20071117071509611/17/07 07:15:31  5-MIN KMKG 171215Z 08005KT 9SM BKN110 01/M03 A2989 660 75 -800 080/05 RMK AO2
14840KMKG MKG20071117072009611/17/07 07:20:31  5-MIN KMKG 171220Z 08006KT 9SM BKN110 01/M03 A2989 660 75 -900 080/06 RMK AO2
14840KMKG MKG20071117072509611/17/07 07:25:31  5-MIN KMKG 171225Z 08006KT 9SM BKN110 01/M03 A2989 650 75 -900 080/06 RMK AO2
14840KMKG MKG20071117073009611/17/07 07:30:31  5-MIN KMKG 171230Z 08006KT 9SM BKN110 01/M03 A2990 650 75 -900 090/06 RMK AO2
14840KMKG MKG20071117073509611/17/07 07:35:31  5-MIN KMKG 171235Z 08006KT 9SM OVC110 01/M03 A2990 650 75 -900 080/06 RMK AO2
14840KMKG MKG20071117074009611/17/07 07:40:31  5-MIN KMKG 171240Z 08005KT 9SM OVC110 01/M03 A2990 650 75 -900 080/05 RMK AO2
14840KMKG MKG20071117074509611/17/07 07:45:31  5-MIN KMKG 171245Z 07006KT 9SM OVC120 01/M03 A2990 650 75 -900 080/06 RMK AO2
14840KMKG MKG20071117075011311/17/07 07:50:31  5-MIN KMKG 171250Z 06007KT 9SM OVC120 01/M03 A2991 640 75 -900 070/07 RMK AO2 SLP133 T00061033
14840KMKG MKG20071117075511311/17/07 07:55:31  5-MIN KMKG 171255Z 07007KT 8SM OVC120 01/M03 A2991 640 75 -900 080/07 RMK AO2 SLP134 T00061033
14840KMKG MKG20071117080009611/17/07 08:00:31  5-MIN KMKG 171300Z 07006KT 8SM OVC120 01/M03 A2991 640 75 -900 080/06 RMK AO2
14840KMKG MKG20071117080509611/17/07 08:05:31  5-MIN KMKG 171305Z 07007KT 8SM OVC110 01/M03 A2991 640 75 -900 080/07 RMK AO2
14840KMKG MKG20071117081009611/17/07 08:10:31  5-MIN KMKG 171310Z 08006KT 8SM OVC110 01/M03 A2991 640 75 -900 080/06 RMK AO2
14840KMKG MKG20071117081510311/17/07 08:15:31  5-MIN KMKG 171315Z 08007KT 7SM BKN100 OVC120 01/M03 A2991 640 72 -800 080/07 RMK AO2
14840KMKG MKG20071117082010311/17/07 08:20:31  5-MIN KMKG 171320Z 09006KT 7SM BKN100 OVC120 01/M03 A2991 640 72 -800 090/06 RMK AO2
14840KMKG MKG20071117082509611/17/07 08:25:31  5-MIN KMKG 171325Z 09006KT 8SM OVC100 01/M03 A2991 640 72 -800 090/06 RMK AO2
14840KMKG MKG20071117083009611/17/07 08:30:31  5-MIN KMKG 171330Z 09005KT 8SM OVC100 01/M03 A2992 630 72 -800 090/05 RMK AO2
14840KMKG MKG20071117083511111/17/07 08:35:31  5-MIN KMKG 171335Z 08006KT 8SM OVC100 01/M03 A2992 630 72 -800 080/06 RMK AO2 CIG 080 RWY 14
14840KMKG MKG20071117084011111/17/07 08:40:31  5-MIN KMKG 171340Z 08008KT 8SM OVC100 01/M03 A2992 630 72 -800 080/08 RMK AO2 CIG 075 RWY 14
14840KMKG MKG20071117084511811/17/07 08:45:31  5-MIN KMKG 171345Z 08007KT 8SM FEW060 OVC100 01/M03 A2992 630 72 -800 080/07 RMK AO2 CIG 070 RWY 14
14840KMKG MKG20071117085013511/17/07 08:50:31  5-MIN KMKG 171350Z 08008KT 8SM FEW070 OVC100 01/M03 A2992 630 75 -800 080/08 RMK AO2 CIG 070 RWY 14 SLP137 T00111028
14840KMKG MKG20071117085513511/17/07 08:55:31  5-MIN KMKG 171355Z 07007KT 8SM SCT070 OVC095 01/M03 A2992 630 75 -800 080/07 RMK AO2 CIG 070 RWY 14 SLP137 T00111028
14840KMKG MKG20071117090010311/17/07 09:00:31  5-MIN KMKG 171400Z 07008KT 8SM BKN070 OVC090 01/M03 A2992 640 75 -800 080/08 RMK AO2
14840KMKG MKG20071117090510311/17/07 09:05:31  5-MIN KMKG 171405Z 07009KT 8SM BKN075 OVC090 01/M03 A2992 630 75 -800 070/09 RMK AO2
14840KMKG MKG20071117091010311/17/07 09:10:31  5-MIN KMKG 171410Z 07008KT 8SM BKN070 OVC100 02/M03 A2992 630 72 -700 070/08 RMK AO2
14840KMKG MKG20071117091512511/17/07 09:15:31  5-MIN KMKG 171415Z 07007KT 8SM SCT070 BKN090 OVC100 02/M03 A2992 630 72 -700 070/07 RMK AO2 CIG 070 RWY 14
14840KMKG MKG20071117092011811/17/07 09:20:31  5-MIN KMKG 171420Z 07008KT 8SM FEW070 OVC095 02/M03 A2991 640 72 -700 080/08 RMK AO2 CIG 070 RWY 14
14840KMKG MKG20071117092511811/17/07 09:25:31  5-MIN KMKG 171425Z 07008KT 8SM FEW070 OVC100 02/M03 A2992 630 72 -700 080/08 RMK AO2 CIG 070 RWY 14
14840KMKG MKG20071117093011811/17/07 09:30:31  5-MIN KMKG 171430Z 08010KT 8SM FEW070 OVC095 02/M03 A2992 630 69 -700 090/10 RMK AO2 CIG 065 RWY 14
14840KMKG MKG20071117093511811/17/07 09:35:31  5-MIN KMKG 171435Z 08009KT 8SM FEW070 BKN100 02/M03 A2992 630 69 -700 080/09 RMK AO2 CIG 070 RWY 14
14840KMKG MKG20071117094012511/17/07 09:40:31  5-MIN KMKG 171440Z 07008KT 8SM FEW070 BKN100 BKN120 02/M03 A2992 630 69 -700 080/08 RMK AO2 CIG 070 RWY 14
14840KMKG MKG20071117094512511/17/07 09:45:31  5-MIN KMKG 171445Z 08010KT 8SM FEW070 BKN100 BKN110 02/M03 A2992 630 69 -700 080/10 RMK AO2 CIG 070 RWY 14
14840KMKG MKG20071117095014111/17/07 09:50:31  5-MIN KMKG 171450Z 07008KT 8SM FEW070 BKN110 02/M03 A2992 630 69 -700 080/08 RMK AO2 CIG 070 RWY 14 SLP137 T00221028 53003
14840KMKG MKG20071117095514111/17/07 09:55:31  5-MIN KMKG 171455Z 07008KT 8SM FEW070 BKN110 02/M03 A2992 630 69 -700 070/08 RMK AO2 CIG 065 RWY 14 SLP138 T00221028 51013
14840KMKG MKG20071117100011111/17/07 10:00:31  5-MIN KMKG 171500Z 07008KT 8SM BKN110 02/M03 A2992 630 69 -700 070/08 RMK AO2 CIG 065 RWY 14
14840KMKG MKG20071117100511811/17/07 10:05:31  5-MIN KMKG 171505Z 07009KT 8SM SCT100 BKN120 02/M03 A2992 630 69 -700 070/09 RMK AO2 CIG 085 RWY 14
14840KMKG MKG20071117101010311/17/07 10:10:31  5-MIN KMKG 171510Z 07007KT 8SM BKN095 BKN120 03/M03 A2992 630 67 -600 080/07 RMK AO2
14840KMKG MKG20071117101510311/17/07 10:15:31  5-MIN KMKG 171515Z 07009KT 8SM BKN100 BKN120 03/M03 A2992 630 67 -600 070/09 RMK AO2
14840KMKG MKG20071117102009611/17/07 10:20:31  5-MIN KMKG 171520Z 07010KT 8SM BKN095 03/M03 A2992 630 67 -600 080/10 RMK AO2
14840KMKG MKG20071117102509611/17/07 10:25:31  5-MIN KMKG 171525Z 08008KT 8SM OVC095 03/M03 A2993 620 67 -600 080/08 RMK AO2
14840KMKG MKG20071117103011811/17/07 10:30:31  5-MIN KMKG 171530Z 08008KT 8SM FEW075 OVC090 03/M03 A2993 620 67 -600 080/08 RMK AO2 CIG 070 RWY 14
14840KMKG MKG20071117103512511/17/07 10:35:31  5-MIN KMKG 171535Z 07008KT 8SM FEW070 BKN090 OVC100 03/M03 A2993 620 67 -600 070/08 RMK AO2 CIG 070 RWY 14
14840KMKG MKG20071117104010311/17/07 10:40:31  5-MIN KMKG 171540Z 07008KT 8SM BKN070 OVC095 03/M03 A2993 620 64 -600 070/08 RMK AO2
14840KMKG MKG20071117104510311/17/07 10:45:31  5-MIN KMKG 171545Z 08008KT 8SM BKN060 BKN090 03/M03 A2993 620 67 -600 090/08 RMK AO2
14840KMKG MKG20071117105012711/17/07 10:50:31  5-MIN KMKG 171550Z 08009KT 8SM FEW044 BKN060 BKN090 03/M03 A2993 620 64 -600 080/09 RMK AO2 SLP142 T00331028
14840KMKG MKG20071117105512711/17/07 10:55:31  5-MIN KMKG 171555Z 08007KT 8SM FEW040 BKN050 OVC090 03/M03 A2994 620 64 -600 080/07 RMK AO2 SLP142 T00331028
14840KMKG MKG20071117110011011/17/07 11:00:31  5-MIN KMKG 171600Z 10007KT 8SM SCT038 BKN050 OVC070 03/M03 A2994 610 64 -600 100/07 RMK AO2
14840KMKG MKG20071117110510311/17/07 11:05:31  5-MIN KMKG 171605Z 09007KT 9SM BKN038 OVC050 03/M03 A2994 610 64 -600 090/07 RMK AO2
14840KMKG MKG20071117111009611/17/07 11:10:31  5-MIN KMKG 171610Z 09009KT 9SM OVC040 03/M03 A2994 610 64 -600 090/09 RMK AO2
14840KMKG MKG20071117111509611/17/07 11:15:31  5-MIN KMKG 171615Z 08006KT 9SM OVC040 03/M03 A2994 610 64 -600 090/06 RMK AO2
14840KMKG MKG20071117112009611/17/07 11:20:31  5-MIN KMKG 171620Z 09005KT 8SM OVC038 04/M03 A2994 610 62 -500 090/05 RMK AO2
14840KMKG MKG20071117112509611/17/07 11:25:31  5-MIN KMKG 171625Z 08007KT 8SM OVC038 04/M03 A2994 610 62 -500 080/07 RMK AO2
14840KMKG MKG20071117113009611/17/07 11:30:31  5-MIN KMKG 171630Z 08007KT 8SM OVC038 04/M03 A2994 610 62 -500 080/07 RMK AO2
14840KMKG MKG20071117113509611/17/07 11:35:31  5-MIN KMKG 171635Z 08007KT 9SM BKN036 04/M02 A2994 610 62 -400 090/07 RMK AO2
14840KMKG MKG20071117114009611/17/07 11:40:31  5-MIN KMKG 171640Z 08006KT 9SM BKN036 04/M02 A2994 610 62 -400 080/06 RMK AO2
14840KMKG MKG20071117114509611/17/07 11:45:31  5-MIN KMKG 171645Z 07009KT 9SM BKN036 04/M02 A2994 610 62 -400 080/09 RMK AO2
14840KMKG MKG20071117115011311/17/07 11:50:31  5-MIN KMKG 171650Z 08008KT 9SM BKN036 04/M03 A2994 610 59 -400 080/08 RMK AO2 SLP145 T00441028
14840KMKG MKG20071117115511311/17/07 11:55:31  5-MIN KMKG 171655Z 08008KT 9SM BKN034 04/M02 A2994 610 62 -400 080/08 RMK AO2 SLP145 T00441022
14840KMKG MKG20071117120010311/17/07 12:00:31  5-MIN KMKG 171700Z 08009KT 9SM BKN034 BKN065 04/M02 A2994 610 62 -400 080/09 RMK AO2
14840KMKG MKG20071117120510311/17/07 12:05:31  5-MIN KMKG 171705Z 08009KT 9SM BKN034 BKN060 04/M03 A2994 610 59 -400 090/09 RMK AO2
14840KMKG MKG20071117121010311/17/07 12:10:31  5-MIN KMKG 171710Z 09009KT 9SM BKN034 OVC060 04/M02 A2994 610 62 -400 090/09 RMK AO2
14840KMKG MKG20071117121510311/17/07 12:15:31  5-MIN KMKG 171715Z 10009KT 9SM SCT034 OVC060 04/M02 A2994 610 62 -400 100/09 RMK AO2
14840KMKG MKG20071117122010411/17/07 12:20:31  5-MIN KMKG 171720Z 09010KT 10SM SCT034 OVC065 04/M02 A2994 610 62 -400 090/10 RMK AO2
14840KMKG MKG20071117122510411/17/07 12:25:31  5-MIN KMKG 171725Z 08010KT 10SM FEW034 OVC060 04/M02 A2994 610 62 -400 080/10 RMK AO2
14840KMKG MKG20071117123010411/17/07 12:30:31  5-MIN KMKG 171730Z 09007KT 10SM FEW034 BKN060 04/M02 A2994 610 62 -400 100/07 RMK AO2
14840KMKG MKG20071117123509711/17/07 12:35:31  5-MIN KMKG 171735Z 09008KT 10SM BKN060 04/M02 A2994 610 62 -400 100/08 RMK AO2
14840KMKG MKG20071117124011911/17/07 12:40:31  5-MIN KMKG 171740Z 08008KT 10SM FEW047 BKN060 04/M02 A2994 610 62 -400 080/08 RMK AO2 CIG 049 RWY 14
14840KMKG MKG20071117124511911/17/07 12:45:31  5-MIN KMKG 171745Z 09010KT 10SM SCT047 BKN060 04/M02 A2994 610 62 -400 090/10 RMK AO2 CIG 047 RWY 14
14840KMKG MKG20071117125013911/17/07 12:50:31  5-MIN KMKG 171750Z 08009KT 10SM BKN047 BKN060 04/M02 A2994 610 62 -400 090/09 RMK AO2 SLP145 T00441022 10050 20006 51013
14840KMKG MKG20071117125513211/17/07 12:55:31  5-MIN KMKG 171755Z 08009KT 10SM BKN047 04/M02 A2994 610 62 -400 080/09 RMK AO2 SLP147 T00441022 10050 20006 51007
14840KMKG MKG20071117130009711/17/07 13:00:31  5-MIN KMKG 171800Z 09009KT 10SM BKN047 04/M02 A2994 610 62 -400 090/09 RMK AO2
14840KMKG MKG20071117130509711/17/07 13:05:31  5-MIN KMKG 171805Z 08009KT 10SM BKN047 04/M02 A2994 610 62 -400 080/09 RMK AO2
14840KMKG MKG20071117131009611/17/07 13:10:31  5-MIN KMKG 171810Z 06009KT 9SM BKN047 04/M02 A2994 610 62 -400 070/09 RMK AO2
14840KMKG MKG20071117131509711/17/07 13:15:31  5-MIN KMKG 171815Z 08007KT 10SM BKN047 05/M02 A2995 610 62 -400 090/07 RMK AO2
14840KMKG MKG20071117132010411/17/07 13:20:31  5-MIN KMKG 171820Z 08009KT 10SM SCT047 SCT080 05/M02 A2995 610 62 -400 080/09 RMK AO2
14840KMKG MKG20071117132509711/17/07 13:25:31  5-MIN KMKG 171825Z 07010KT 10SM FEW047 04/M02 A2995 600 62 -400 070/10 RMK AO2
14840KMKG MKG20071117133009711/17/07 13:30:31  5-MIN KMKG 171830Z 07011KT 10SM FEW047 04/M02 A2995 600 62 -400 070/11 RMK AO2
14840KMKG MKG20071117133509711/17/07 13:35:31  5-MIN KMKG 171835Z 06010KT 10SM FEW080 04/M02 A2995 600 62 -400 070/10 RMK AO2
14840KMKG MKG20071117134010911/17/07 13:40:31  5-MIN KMKG 171840Z 07007KT 10SM CLR 04/M02 A2995 600 64 -400 070/07 RMK AO2 CIG 032 RWY 14
14840KMKG MKG20071117134509711/17/07 13:45:31  5-MIN KMKG 171845Z 09008KT 10SM BKN032 04/M02 A2995 600 64 -400 090/08 RMK AO2
14840KMKG MKG20071117135011311/17/07 13:50:31  5-MIN KMKG 171850Z 09008KT 9SM BKN032 04/M02 A2995 600 64 -400 090/08 RMK AO2 SLP150 T00441017
14840KMKG MKG20071117135511411/17/07 13:55:31  5-MIN KMKG 171855Z 09009KT 10SM OVC038 04/M02 A2996 600 64 -400 100/09 RMK AO2 SLP150 T00441017
14840KMKG MKG20071117140010911/17/07 14:00:31  5-MIN KMKG 171900Z 07006KT 10SM CLR 04/M02 A2996 600 64 -400 080/06 RMK AO2 CIG 045 RWY 14
14840KMKG MKG20071117140510911/17/07 14:05:31  5-MIN KMKG 171905Z 10008KT 10SM CLR 04/M02 A2996 590 64 -500 100/08 RMK AO2 CIG 045 RWY 14
14840KMKG MKG20071117141009711/17/07 14:10:31  5-MIN KMKG 171910Z 09006KT 10SM FEW046 04/M02 A2996 590 64 -500 090/06 RMK AO2
14840KMKG MKG20071117141509711/17/07 14:15:31  5-MIN KMKG 171915Z 10006KT 10SM FEW046 04/M02 A2996 590 64 -500 100/06 RMK AO2
14840KMKG MKG20071117142009711/17/07 14:20:31  5-MIN KMKG 171920Z 08006KT 10SM FEW046 04/M02 A2996 590 64 -500 090/06 RMK AO2
14840KMKG MKG20071117142510911/17/07 14:25:31  5-MIN KMKG 171925Z 09006KT 10SM CLR 04/M02 A2996 590 64 -500 090/06 RMK AO2 CIG 047 RWY 14
14840KMKG MKG20071117143009711/17/07 14:30:31  5-MIN KMKG 171930Z 09007KT 10SM FEW047 04/M02 A2996 590 64 -500 090/07 RMK AO2
14840KMKG MKG20071117143509711/17/07 14:35:31  5-MIN KMKG 171935Z 08008KT 10SM FEW047 04/M02 A2997 590 64 -500 080/08 RMK AO2
14840KMKG MKG20071117144009711/17/07 14:40:31  5-MIN KMKG 171940Z 08006KT 10SM OVC047 04/M02 A2997 590 64 -500 080/06 RMK AO2
14840KMKG MKG20071117144509711/17/07 14:45:31  5-MIN KMKG 171945Z 09005KT 10SM OVC047 04/M02 A2997 590 64 -500 090/05 RMK AO2
14840KMKG MKG20071117145011411/17/07 14:50:31  5-MIN KMKG 171950Z 09004KT 10SM OVC047 04/M02 A2997 580 64 -500 090/04 RMK AO2 SLP155 T00441017
14840KMKG MKG20071117145511411/17/07 14:55:31  5-MIN KMKG 171955Z 10006KT 10SM OVC047 04/M02 A2997 580 64 -500 100/06 RMK AO2 SLP155 T00441017
14840KMKG MKG20071117150009711/17/07 15:00:31  5-MIN KMKG 172000Z 10004KT 10SM OVC047 04/M02 A2997 580 64 -500 100/04 RMK AO2
14840KMKG MKG20071117150509711/17/07 15:05:31  5-MIN KMKG 172005Z 09005KT 10SM OVC047 04/M02 A2997 580 64 -500 100/05 RMK AO2
14840KMKG MKG20071117151009711/17/07 15:10:31  5-MIN KMKG 172010Z 09006KT 10SM OVC047 04/M02 A2997 580 64 -500 090/06 RMK AO2
14840KMKG MKG20071117151509711/17/07 15:15:31  5-MIN KMKG 172015Z 10004KT 10SM OVC047 04/M02 A2998 580 64 -500 100/04 RMK AO2
14840KMKG MKG20071117152009711/17/07 15:20:31  5-MIN KMKG 172020Z 09004KT 10SM OVC047 04/M02 A2998 580 64 -500 100/04 RMK AO2
14840KMKG MKG20071117152509711/17/07 15:25:31  5-MIN KMKG 172025Z 10004KT 10SM FEW055 04/M02 A2998 580 64 -500 110/04 RMK AO2
14840KMKG MKG20071117153009711/17/07 15:30:31  5-MIN KMKG 172030Z 10004KT 10SM SCT070 04/M02 A2998 570 64 -500 100/04 RMK AO2
14840KMKG MKG20071117153509711/17/07 15:35:31  5-MIN KMKG 172035Z 10004KT 10SM BKN065 04/M02 A2998 570 64 -500 110/04 RMK AO2
14840KMKG MKG20071117154011911/17/07 15:40:31  5-MIN KMKG 172040Z 09005KT 10SM FEW033 BKN065 04/M02 A2998 570 64 -500 090/05 RMK AO2 CIG 032 RWY 14
14840KMKG MKG20071117154511911/17/07 15:45:31  5-MIN KMKG 172045Z 09005KT 10SM FEW033 BKN065 05/M02 A2999 570 62 -400 090/05 RMK AO2 CIG 032 RWY 14
14840KMKG MKG20071117155014211/17/07 15:50:31  5-MIN KMKG 172050Z 08006KT 10SM SCT033 BKN065 05/M02 A2999 570 62 -400 080/06 RMK AO2 CIG 032 RWY 14 SLP160 T00501017 51007
14840KMKG MKG20071117155514211/17/07 15:55:31  5-MIN KMKG 172055Z 07006KT 10SM SCT033 BKN065 05/M02 A2999 570 62 -400 070/06 RMK AO2 CIG 034 RWY 14 SLP161 T00501017 53015
14840KMKG MKG20071117160010411/17/07 16:00:31  5-MIN KMKG 172100Z 07004KT 10SM SCT033 SCT075 05/M02 A2999 560 62 -400 080/04 RMK AO2
14840KMKG MKG20071117160510411/17/07 16:05:31  5-MIN KMKG 172105Z VRB04KT 10SM SCT035 SCT100 05/M02 A3000 560 62 -400 VRB/04 RMK AO2
14840KMKG MKG20071117161010411/17/07 16:10:31  5-MIN KMKG 172110Z 09004KT 10SM SCT035 SCT110 05/M02 A3000 560 62 -400 090/04 RMK AO2
14840KMKG MKG20071117161511911/17/07 16:15:31  5-MIN KMKG 172115Z 09004KT 10SM FEW035 BKN110 05/M02 A3000 560 62 -400 090/04 RMK AO2 CIG 034 RWY 14
14840KMKG MKG20071117162010411/17/07 16:20:31  5-MIN KMKG 172120Z 08004KT 10SM FEW035 SCT110 05/M02 A3000 560 62 -400 080/04 RMK AO2
14840KMKG MKG20071117162510411/17/07 16:25:31  5-MIN KMKG 172125Z 05007KT 10SM FEW035 SCT110 05/M02 A3000 560 59 -400 060/07 RMK AO2
14840KMKG MKG20071117163009711/17/07 16:30:31  5-MIN KMKG 172130Z 07007KT 10SM SCT110 05/M02 A3000 550 59 -400 080/07 RMK AO2
14840KMKG MKG20071117163509711/17/07 16:35:31  5-MIN KMKG 172135Z 08006KT 10SM SCT110 05/M02 A3000 550 59 -400 080/06 RMK AO2
14840KMKG MKG20071117164009711/17/07 16:40:31  5-MIN KMKG 172140Z 08004KT 10SM SCT110 05/M02 A3001 550 59 -400 090/04 RMK AO2
14840KMKG MKG20071117164509711/17/07 16:45:31  5-MIN KMKG 172145Z 11004KT 10SM SCT100 04/M02 A3001 550 64 -500 110/04 RMK AO2
14840KMKG MKG20071117165011411/17/07 16:50:31  5-MIN KMKG 172150Z 12004KT 10SM BKN100 04/M01 A3001 550 67 -500 120/04 RMK AO2 SLP168 T00441011
14840KMKG MKG20071117165511411/17/07 16:55:31  5-MIN KMKG 172155Z 11006KT 10SM SCT100 04/M01 A3001 550 67 -500 120/06 RMK AO2 SLP169 T00441011
14840KMKG MKG20071117170010411/17/07 17:00:31  5-MIN KMKG 172200Z 11005KT 10SM FEW038 SCT110 04/M01 A3001 540 70 -600 120/05 RMK AO2
14840KMKG MKG20071117170509711/17/07 17:05:31  5-MIN KMKG 172205Z 11004KT 10SM BKN110 04/M01 A3002 540 70 -600 110/04 RMK AO2
14840KMKG MKG20071117171011111/17/07 17:10:31  5-MIN KMKG 172210Z 10004KT 9SM BKN110 04/M01 A3002 540 70 -600 100/04 RMK AO2 CIG 080 RWY 14
14840KMKG MKG20071117171511111/17/07 17:15:31  5-MIN KMKG 172215Z 09003KT 9SM BKN110 04/M01 A3002 540 70 -600 090/03 RMK AO2 CIG 085 RWY 14
14840KMKG MKG20071117172009611/17/07 17:20:31  5-MIN KMKG 172220Z 09003KT 8SM BKN120 04/M01 A3002 540 70 -600 100/03 RMK AO2
14840KMKG MKG20071117172509611/17/07 17:25:31  5-MIN KMKG 172225Z 10003KT 9SM OVC120 04/M01 A3002 530 70 -600 110/03 RMK AO2
14840KMKG MKG20071117173009611/17/07 17:30:31  5-MIN KMKG 172230Z 10003KT 9SM OVC120 03/M01 A3003 530 72 -700 100/03 RMK AO2
14840KMKG MKG20071117173509611/17/07 17:35:31  5-MIN KMKG 172235Z 09003KT 9SM OVC120 03/M01 A3003 530 72 -700 100/03 RMK AO2
14840KMKG MKG20071117174009611/17/07 17:40:31  5-MIN KMKG 172240Z 09003KT 9SM OVC120 04/M01 A3004 520 70 -600 100/03 RMK AO2
14840KMKG MKG20071117174509611/17/07 17:45:31  5-MIN KMKG 172245Z 09003KT 9SM OVC120 04/M01 A3004 520 70 -600 090/03 RMK AO2
14840KMKG MKG20071117175011311/17/07 17:50:31  5-MIN KMKG 172250Z 10003KT 9SM OVC120 03/M01 A3004 520 72 -700 100/03 RMK AO2 SLP179 T00331011
14840KMKG MKG20071117175511311/17/07 17:55:31  5-MIN KMKG 172255Z 00000KT 9SM OVC110 03/M01 A3004 520 72 -700 000/00 RMK AO2 SLP180 T00331011
14840KMKG MKG20071117180009611/17/07 18:00:31  5-MIN KMKG 172300Z 09003KT 9SM OVC110 03/M01 A3005 510 72 -700 090/03 RMK AO2
14840KMKG MKG20071117180509611/17/07 18:05:31  5-MIN KMKG 172305Z 07004KT 9SM OVC110 04/M02 A3005 510 67 -600 070/04 RMK AO2
14840KMKG MKG20071117181009711/17/07 18:10:31  5-MIN KMKG 172310Z 07005KT 10SM OVC110 04/M02 A3006 500 64 -600 070/05 RMK AO2
14840KMKG MKG20071117181509711/17/07 18:15:31  5-MIN KMKG 172315Z 06005KT 10SM OVC110 04/M03 A3006 500 59 -600 060/05 RMK AO2
14840KMKG MKG20071117182009711/17/07 18:20:31  5-MIN KMKG 172320Z 05005KT 10SM OVC100 04/M03 A3006 500 59 -600 050/05 RMK AO2
14840KMKG MKG20071117182510411/17/07 18:25:31  5-MIN KMKG 172325Z 05006KT 10SM BKN100 OVC110 04/M03 A3007 500 59 -600 050/06 RMK AO2
14840KMKG MKG20071117183010411/17/07 18:30:31  5-MIN KMKG 172330Z 04006KT 10SM BKN100 OVC110 04/M03 A3007 490 57 -600 050/06 RMK AO2
14840KMKG MKG20071117183509711/17/07 18:35:31  5-MIN KMKG 172335Z 05005KT 10SM OVC100 04/M03 A3007 490 57 -600 050/05 RMK AO2
14840KMKG MKG20071117184009711/17/07 18:40:31  5-MIN KMKG 172340Z 05006KT 10SM OVC095 04/M03 A3007 490 57 -600 060/06 RMK AO2
14840KMKG MKG20071117184509711/17/07 18:45:31  5-MIN KMKG 172345Z 05008KT 10SM OVC095 04/M03 A3007 490 57 -600 050/08 RMK AO2
14840KMKG MKG20071117185013211/17/07 18:50:31  5-MIN KMKG 172350Z 04009KT 10SM OVC095 04/M03 A3007 490 59 -600 050/09 RMK AO2 SLP190 T00441028 10050 20033 53015
14840KMKG MKG20071117185513211/17/07 18:55:31  5-MIN KMKG 172355Z 05010KT 10SM OVC095 04/M03 A3008 490 62 -700 050/10 RMK AO2 SLP191 T00391028 10050 20033 53028
14840KMKG MKG20071117190009711/17/07 19:00:31  5-MIN KMKG 180000Z 05008KT 10SM OVC090 04/M03 A3008 480 62 -700 050/08 RMK AO2
14840KMKG MKG20071117190509711/17/07 19:05:31  5-MIN KMKG 180005Z 05008KT 10SM OVC090 04/M03 A3008 480 62 -700 050/08 RMK AO2
14840KMKG MKG20071117191009711/17/07 19:10:31  5-MIN KMKG 180010Z 04009KT 10SM OVC090 04/M03 A3008 480 62 -700 050/09 RMK AO2
14840KMKG MKG20071117191509711/17/07 19:15:31  5-MIN KMKG 180015Z 05007KT 10SM OVC090 04/M03 A3009 480 62 -700 050/07 RMK AO2
14840KMKG MKG20071117192009711/17/07 19:20:31  5-MIN KMKG 180020Z 05008KT 10SM OVC090 04/M03 A3009 480 62 -700 050/08 RMK AO2
14840KMKG MKG20071117192509711/17/07 19:25:31  5-MIN KMKG 180025Z 07010KT 10SM OVC085 04/M03 A3009 470 62 -700 070/10 RMK AO2
14840KMKG MKG20071117193009711/17/07 19:30:31  5-MIN KMKG 180030Z 06009KT 10SM OVC080 04/M03 A3009 470 62 -700 070/09 RMK AO2
14840KMKG MKG20071117193509711/17/07 19:35:31  5-MIN KMKG 180035Z 06009KT 10SM OVC085 03/M03 A3010 470 64 -700 070/09 RMK AO2
14840KMKG MKG20071117194009711/17/07 19:40:31  5-MIN KMKG 180040Z 05008KT 10SM OVC090 03/M03 A3010 460 64 -700 060/08 RMK AO2
14840KMKG MKG20071117194509711/17/07 19:45:31  5-MIN KMKG 180045Z 06008KT 10SM OVC090 03/M02 A3010 460 67 -800 060/08 RMK AO2
14840KMKG MKG20071117195011411/17/07 19:50:31  5-MIN KMKG 180050Z 05008KT 10SM OVC090 03/M02 A3010 460 67 -800 050/08 RMK AO2 SLP200 T00331022
14840KMKG MKG20071117195511411/17/07 19:55:31  5-MIN KMKG 180055Z 06010KT 10SM OVC095 03/M02 A3010 460 67 -800 070/10 RMK AO2 SLP200 T00331022
14840KMKG MKG20071117200009711/17/07 20:00:31  5-MIN KMKG 180100Z 07009KT 10SM OVC100 03/M02 A3011 460 67 -800 070/09 RMK AO2
14840KMKG MKG20071117200509711/17/07 20:05:31  5-MIN KMKG 180105Z 07008KT 10SM OVC100 03/M02 A3011 460 69 -800 070/08 RMK AO2
14840KMKG MKG20071117201009711/17/07 20:10:31  5-MIN KMKG 180110Z 07008KT 10SM OVC100 03/M02 A3011 460 69 -800 080/08 RMK AO2
14840KMKG MKG20071117201509711/17/07 20:15:31  5-MIN KMKG 180115Z 08006KT 10SM OVC100 03/M02 A3011 450 69 -800 080/06 RMK AO2
14840KMKG MKG20071117202009711/17/07 20:20:31  5-MIN KMKG 180120Z 07006KT 10SM OVC100 03/M02 A3011 450 69 -800 080/06 RMK AO2
14840KMKG MKG20071117202509711/17/07 20:25:31  5-MIN KMKG 180125Z 07005KT 10SM OVC100 03/M02 A3012 450 69 -800 070/05 RMK AO2
14840KMKG MKG20071117203009711/17/07 20:30:31  5-MIN KMKG 180130Z 07005KT 10SM OVC100 03/M02 A3012 450 69 -800 070/05 RMK AO2
14840KMKG MKG20071117203509711/17/07 20:35:31  5-MIN KMKG 180135Z 07005KT 10SM OVC100 03/M02 A3012 450 69 -800 070/05 RMK AO2
14840KMKG MKG20071117204011911/17/07 20:40:31  5-MIN KMKG 180140Z 06005KT 10SM FEW060 OVC100 03/M02 A3012 450 69 -800 070/05 RMK AO2 CIG 060 RWY 14
14840KMKG MKG20071117204511911/17/07 20:45:31  5-MIN KMKG 180145Z 06004KT 10SM SCT060 OVC100 03/M02 A3012 450 69 -800 070/04 RMK AO2 CIG 060 RWY 14
14840KMKG MKG20071117205014311/17/07 20:50:31  5-MIN KMKG 180150Z 06004KT 10SM FEW031 SCT060 BKN100 03/M02 A3012 450 69 -800 060/04 RMK AO2 CIG 060 RWY 14 SLP207 T00281022
14840KMKG MKG20071117205514311/17/07 20:55:31  5-MIN KMKG 180155Z 05004KT 10SM SCT031 SCT060 BKN100 03/M02 A3012 440 69 -800 060/04 RMK AO2 CIG 060 RWY 14 SLP207 T00281022
14840KMKG MKG20071117210011111/17/07 21:00:31  5-MIN KMKG 180200Z 04004KT 10SM BKN031 BKN060 OVC100 03/M02 A3013 440 69 -800 040/04 RMK AO2
14840KMKG MKG20071117210511111/17/07 21:05:31  5-MIN KMKG 180205Z 00000KT 10SM BKN031 BKN035 OVC100 03/M02 A3013 440 69 -900 000/00 RMK AO2
14840KMKG MKG20071117211011111/17/07 21:10:31  5-MIN KMKG 180210Z 05004KT 10SM SCT031 BKN035 OVC060 03/M02 A3013 440 69 -900 050/04 RMK AO2
14840KMKG MKG20071117211510411/17/07 21:15:31  5-MIN KMKG 180215Z 05004KT 10SM SCT031 OVC035 03/M02 A3013 430 69 -900 050/04 RMK AO2
14840KMKG MKG20071117212009711/17/07 21:20:31  5-MIN KMKG 180220Z 05004KT 10SM OVC033 03/M02 A3013 430 69 -900 050/04 RMK AO2
14840KMKG MKG20071117212510411/17/07 21:25:31  5-MIN KMKG 180225Z 04007KT 10SM SCT030 OVC036 03/M02 A3014 430 69 -900 040/07 RMK AO2
14840KMKG MKG20071117213011111/17/07 21:30:31  5-MIN KMKG 180230Z 04005KT 10SM FEW028 BKN036 OVC042 03/M02 A3014 430 69 -900 050/05 RMK AO2
14840KMKG MKG20071117213511911/17/07 21:35:31  5-MIN KMKG 180235Z 04006KT 10SM SCT036 BKN042 03/M02 A3014 430 69 -900 040/06 RMK AO2 CIG 035 RWY 14
14840KMKG MKG20071117214011111/17/07 21:40:31  5-MIN KMKG 180240Z 04007KT 10SM SCT034 BKN042 BKN060 03/M02 A3014 430 69 -900 040/07 RMK AO2
14840KMKG MKG20071117214511111/17/07 21:45:31  5-MIN KMKG 180245Z 05008KT 10SM FEW034 SCT042 BKN060 03/M02 A3014 430 69 -900 060/08 RMK AO2
14840KMKG MKG20071117215012711/17/07 21:50:31  5-MIN KMKG 180250Z 04006KT 10SM FEW034 BKN060 03/M02 A3014 430 69 -900 050/06 RMK AO2 SLP212 T00281022 53028
14840KMKG MKG20071117215512711/17/07 21:55:31  5-MIN KMKG 180255Z 04006KT 10SM FEW042 OVC060 03/M02 A3014 420 69 -900 040/06 RMK AO2 SLP213 T00281022 51022
14840KMKG MKG20071117220009711/17/07 22:00:31  5-MIN KMKG 180300Z 04007KT 10SM OVC060 03/M03 A3014 420 67 -900 050/07 RMK AO2
14840KMKG MKG20071117220509711/17/07 22:05:31  5-MIN KMKG 180305Z 05005KT 10SM OVC060 03/M03 A3015 420 67 -900 050/05 RMK AO2
14840KMKG MKG20071117221009711/17/07 22:10:31  5-MIN KMKG 180310Z 04006KT 10SM OVC060 03/M03 A3015 420 67 -900 040/06 RMK AO2
14840KMKG MKG20071117221509711/17/07 22:15:31  5-MIN KMKG 180315Z 04005KT 10SM OVC060 02/M03 A3015 420 69 -900 040/05 RMK AO2
14840KMKG MKG20071117222009711/17/07 22:20:31  5-MIN KMKG 180320Z 04006KT 10SM OVC060 03/M03 A3015 420 67 -900 050/06 RMK AO2
14840KMKG MKG20071117222509711/17/07 22:25:31  5-MIN KMKG 180325Z 04005KT 10SM OVC060 02/M03 A3015 420 69 -900 040/05 RMK AO2
14840KMKG MKG20071117223009811/17/07 22:30:31  5-MIN KMKG 180330Z 04006KT 10SM OVC060 02/M03 A3016 410 69 -1000 040/06 RMK AO2
14840KMKG MKG20071117223509811/17/07 22:35:31  5-MIN KMKG 180335Z 04005KT 10SM OVC060 02/M03 A3016 410 69 -1000 040/05 RMK AO2
14840KMKG MKG20071117224009711/17/07 22:40:31  5-MIN KMKG 180340Z 03006KT 10SM OVC060 03/M03 A3016 410 67 -900 040/06 RMK AO2
14840KMKG MKG20071117224509711/17/07 22:45:31  5-MIN KMKG 180345Z 04005KT 10SM OVC060 03/M03 A3016 410 67 -900 040/05 RMK AO2
14840KMKG MKG20071117225011511/17/07 22:50:31  5-MIN KMKG 180350Z 04005KT 10SM OVC060 02/M03 A3016 410 69 -1000 040/05 RMK AO2 SLP219 T00221028
14840KMKG MKG20071117225511511/17/07 22:55:31  5-MIN KMKG 180355Z 04007KT 10SM OVC060 02/M03 A3016 410 69 -1000 050/07 RMK AO2 SLP219 T00221028
14840KMKG MKG20071117230009811/17/07 23:00:31  5-MIN KMKG 180400Z 03006KT 10SM OVC060 02/M03 A3016 410 69 -1000 040/06 RMK AO2
14840KMKG MKG20071117230509811/17/07 23:05:31  5-MIN KMKG 180405Z 04005KT 10SM OVC060 02/M03 A3016 410 69 -1000 040/05 RMK AO2
14840KMKG MKG20071117231009811/17/07 23:10:31  5-MIN KMKG 180410Z 05005KT 10SM OVC060 02/M03 A3016 410 69 -1000 050/05 RMK AO2
14840KMKG MKG20071117231509811/17/07 23:15:31  5-MIN KMKG 180415Z 04006KT 10SM OVC060 02/M03 A3016 400 69 -1000 050/06 RMK AO2
14840KMKG MKG20071117232009811/17/07 23:20:31  5-MIN KMKG 180420Z 05005KT 10SM OVC060 02/M03 A3017 400 67 -1000 050/05 RMK AO2
14840KMKG MKG20071117232509811/17/07 23:25:31  5-MIN KMKG 180425Z 05007KT 10SM OVC060 02/M03 A3017 400 67 -1000 050/07 RMK AO2
14840KMKG MKG20071117233009811/17/07 23:30:31  5-MIN KMKG 180430Z 04006KT 10SM OVC060 02/M03 A3017 400 67 -1000 050/06 RMK AO2
14840KMKG MKG20071117233509811/17/07 23:35:31  5-MIN KMKG 180435Z 04006KT 10SM OVC060 02/M03 A3017 400 67 -1000 050/06 RMK AO2
14840KMKG MKG20071117234009811/17/07 23:40:31  5-MIN KMKG 180440Z 04006KT 10SM OVC060 02/M03 A3017 400 67 -1000 050/06 RMK AO2
14840KMKG MKG20071117234509811/17/07 23:45:31  5-MIN KMKG 180445Z 04004KT 10SM OVC060 02/M03 A3017 400 67 -1000 050/04 RMK AO2
14840KMKG MKG20071117235012511/17/07 23:50:31  5-MIN KMKG 180450Z 04005KT 10SM OVC060 02/M03 A3018 390 67 -1000 050/05 RMK AO2 SLP224 T00221033 400501011
14840KMKG MKG20071117235512511/17/07 23:55:31  5-MIN KMKG 180455Z 04006KT 10SM OVC060 02/M03 A3018 390 67 -1000 040/06 RMK AO2 SLP225 T00221033 400501011
14840KMKG MKG20071118000009811/18/07 00:00:32  5-MIN KMKG 180500Z 04005KT 10SM OVC060 02/M03 A3018 390 67 -1000 040/05 RMK AO2
14840KMKG MKG20071118000509811/18/07 00:05:31  5-MIN KMKG 180505Z 05005KT 10SM OVC060 02/M03 A3018 390 67 -1000 050/05 RMK AO2
14840KMKG MKG20071118001009811/18/07 00:10:31  5-MIN KMKG 180510Z 05006KT 10SM OVC060 02/M03 A3018 390 67 -1000 050/06 RMK AO2
14840KMKG MKG20071118001509811/18/07 00:15:31  5-MIN KMKG 180515Z 04005KT 10SM OVC060 02/M03 A3018 390 67 -1000 050/05 RMK AO2
14840KMKG MKG20071118002009811/18/07 00:20:31  5-MIN KMKG 180520Z 04005KT 10SM OVC060 02/M03 A3018 390 67 -1000 050/05 RMK AO2
14840KMKG MKG20071118002509811/18/07 00:25:31  5-MIN KMKG 180525Z 04005KT 10SM OVC060 02/M03 A3018 390 69 -1100 050/05 RMK AO2
14840KMKG MKG20071118003009811/18/07 00:30:31  5-MIN KMKG 180530Z 04005KT 10SM OVC060 02/M03 A3019 390 69 -1100 050/05 RMK AO2
14840KMKG MKG20071118003509811/18/07 00:35:31  5-MIN KMKG 180535Z 04005KT 10SM OVC060 02/M03 A3019 380 69 -1100 050/05 RMK AO2
14840KMKG MKG20071118004009811/18/07 00:40:31  5-MIN KMKG 180540Z 04004KT 10SM OVC060 02/M03 A3019 380 69 -1100 040/04 RMK AO2
14840KMKG MKG20071118004509811/18/07 00:45:31  5-MIN KMKG 180545Z 04005KT 10SM OVC060 02/M03 A3019 380 69 -1100 040/05 RMK AO2
14840KMKG MKG20071118005013311/18/07 00:50:31  5-MIN KMKG 180550Z 04005KT 10SM OVC060 02/M03 A3019 380 69 -1100 050/05 RMK AO2 SLP229 T00171033 10039 20017 51022
14840KMKG MKG20071118005513311/18/07 00:55:31  5-MIN KMKG 180555Z 04004KT 10SM OVC060 02/M03 A3019 380 69 -1100 050/04 RMK AO2 SLP229 T00171033 10039 20017 51016
14840KMKG MKG20071118010009811/18/07 01:00:31  5-MIN KMKG 180600Z 04004KT 10SM OVC060 02/M03 A3019 380 69 -1100 040/04 RMK AO2
14840KMKG MKG20071118010509811/18/07 01:05:31  5-MIN KMKG 180605Z 04005KT 10SM OVC060 02/M03 A3019 380 69 -1100 040/05 RMK AO2
14840KMKG MKG20071118011009811/18/07 01:10:31  5-MIN KMKG 180610Z 04005KT 10SM OVC060 02/M03 A3019 380 69 -1100 040/05 RMK AO2
14840KMKG MKG20071118011509811/18/07 01:15:31  5-MIN KMKG 180615Z 04005KT 10SM OVC060 02/M03 A3019 380 69 -1100 040/05 RMK AO2
14840KMKG MKG20071118012009811/18/07 01:20:31  5-MIN KMKG 180620Z 03004KT 10SM OVC060 01/M03 A3019 380 72 -1100 030/04 RMK AO2
14840KMKG MKG20071118012509811/18/07 01:25:31  5-MIN KMKG 180625Z 02005KT 10SM OVC060 01/M03 A3019 380 72 -1100 030/05 RMK AO2
14840KMKG MKG20071118013009811/18/07 01:30:31  5-MIN KMKG 180630Z 03005KT 10SM OVC060 01/M03 A3020 380 72 -1100 040/05 RMK AO2
14840KMKG MKG20071118013509811/18/07 01:35:31  5-MIN KMKG 180635Z 03005KT 10SM OVC060 01/M03 A3020 370 72 -1100 040/05 RMK AO2
14840KMKG MKG20071118014009811/18/07 01:40:31  5-MIN KMKG 180640Z 02005KT 10SM OVC060 01/M03 A3020 370 72 -1100 030/05 RMK AO2
14840KMKG MKG20071118014509811/18/07 01:45:31  5-MIN KMKG 180645Z 03006KT 10SM OVC060 01/M03 A3020 370 72 -1100 030/06 RMK AO2
14840KMKG MKG20071118015011511/18/07 01:50:31  5-MIN KMKG 180650Z 03005KT 10SM OVC060 01/M03 A3020 370 72 -1100 030/05 RMK AO2 SLP234 T00111033
14840KMKG MKG20071118015511511/18/07 01:55:31  5-MIN KMKG 180655Z 03005KT 10SM OVC060 01/M03 A3021 370 72 -1100 040/05 RMK AO2 SLP234 T00111033
14840KMKG MKG20071118020009811/18/07 02:00:31  5-MIN KMKG 180700Z 03005KT 10SM OVC060 01/M03 A3021 370 72 -1100 030/05 RMK AO2
14840KMKG MKG20071118020509811/18/07 02:05:31  5-MIN KMKG 180705Z 04004KT 10SM OVC060 01/M03 A3021 360 72 -1200 040/04 RMK AO2
14840KMKG MKG20071118021009811/18/07 02:10:31  5-MIN KMKG 180710Z 03004KT 10SM OVC060 01/M03 A3021 360 72 -1200 040/04 RMK AO2
14840KMKG MKG20071118021509811/18/07 02:15:31  5-MIN KMKG 180715Z 04005KT 10SM OVC060 01/M03 A3021 360 72 -1200 040/05 RMK AO2
14840KMKG MKG20071118022009811/18/07 02:20:31  5-MIN KMKG 180720Z 05004KT 10SM OVC060 01/M03 A3022 360 72 -1200 050/04 RMK AO2
14840KMKG MKG20071118022509811/18/07 02:25:31  5-MIN KMKG 180725Z 03005KT 10SM OVC060 01/M03 A3022 360 72 -1200 040/05 RMK AO2
14840KMKG MKG20071118023009811/18/07 02:30:31  5-MIN KMKG 180730Z 04004KT 10SM OVC060 01/M03 A3022 350 72 -1200 040/04 RMK AO2
14840KMKG MKG20071118023509811/18/07 02:35:31  5-MIN KMKG 180735Z 05005KT 10SM BKN060 01/M03 A3022 350 72 -1200 050/05 RMK AO2
14840KMKG MKG20071118024009811/18/07 02:40:31  5-MIN KMKG 180740Z 04004KT 10SM BKN060 01/M03 A3022 350 72 -1200 040/04 RMK AO2
14840KMKG MKG20071118024509811/18/07 02:45:31  5-MIN KMKG 180745Z 04005KT 10SM OVC060 01/M03 A3023 350 72 -1200 040/05 RMK AO2
14840KMKG MKG20071118025011511/18/07 02:50:31  5-MIN KMKG 180750Z 04004KT 10SM OVC060 01/M03 A3023 350 72 -1200 040/04 RMK AO2 SLP242 T00111033
14840KMKG MKG20071118025511511/18/07 02:55:31  5-MIN KMKG 180755Z 05004KT 10SM OVC060 01/M03 A3023 350 72 -1200 050/04 RMK AO2 SLP243 T00111033
14840KMKG MKG20071118030009811/18/07 03:00:31  5-MIN KMKG 180800Z 04004KT 10SM OVC060 01/M03 A3023 340 75 -1200 050/04 RMK AO2
14840KMKG MKG20071118030509811/18/07 03:05:31  5-MIN KMKG 180805Z 04003KT 10SM OVC060 01/M03 A3023 340 75 -1200 050/03 RMK AO2
14840KMKG MKG20071118031009811/18/07 03:10:31  5-MIN KMKG 180810Z 05005KT 10SM OVC060 01/M03 A3023 340 75 -1300 050/05 RMK AO2
14840KMKG MKG20071118031509811/18/07 03:15:31  5-MIN KMKG 180815Z 05006KT 10SM OVC060 01/M03 A3024 340 75 -1300 050/06 RMK AO2
14840KMKG MKG20071118032009811/18/07 03:20:31  5-MIN KMKG 180820Z 04004KT 10SM OVC060 01/M03 A3024 340 75 -1300 050/04 RMK AO2
14840KMKG MKG20071118032509811/18/07 03:25:31  5-MIN KMKG 180825Z 04004KT 10SM OVC060 01/M03 A3024 340 75 -1300 050/04 RMK AO2
14840KMKG MKG20071118033009811/18/07 03:30:31  5-MIN KMKG 180830Z 05005KT 10SM OVC060 01/M03 A3024 330 75 -1300 050/05 RMK AO2
14840KMKG MKG20071118033509811/18/07 03:35:31  5-MIN KMKG 180835Z 05005KT 10SM OVC060 01/M03 A3024 330 75 -1300 050/05 RMK AO2
14840KMKG MKG20071118034009811/18/07 03:40:31  5-MIN KMKG 180840Z 04004KT 10SM OVC060 01/M03 A3024 330 75 -1300 040/04 RMK AO2
14840KMKG MKG20071118034509811/18/07 03:45:31  5-MIN KMKG 180845Z 04004KT 10SM OVC060 01/M03 A3025 330 75 -1300 040/04 RMK AO2
14840KMKG MKG20071118035012111/18/07 03:50:31  5-MIN KMKG 180850Z 04005KT 10SM OVC060 01/M03 A3025 330 75 -1300 050/05 RMK AO2 SLP249 T00061033 51016
14840KMKG MKG20071118035512111/18/07 03:55:31  5-MIN KMKG 180855Z 04004KT 10SM OVC060 01/M03 A3025 330 75 -1300 040/04 RMK AO2 SLP249 T00061033 53020
14840KMKG MKG20071118040009811/18/07 04:00:31  5-MIN KMKG 180900Z 04004KT 10SM OVC060 01/M03 A3025 320 75 -1300 040/04 RMK AO2
14840KMKG MKG20071118040509811/18/07 04:05:31  5-MIN KMKG 180905Z 04006KT 10SM OVC060 01/M03 A3026 320 75 -1300 050/06 RMK AO2
14840KMKG MKG20071118041009811/18/07 04:10:31  5-MIN KMKG 180910Z 04007KT 10SM OVC060 01/M03 A3026 320 75 -1300 040/07 RMK AO2
14840KMKG MKG20071118041509811/18/07 04:15:31  5-MIN KMKG 180915Z 05006KT 10SM OVC060 01/M03 A3026 320 75 -1300 050/06 RMK AO2
14840KMKG MKG20071118042009811/18/07 04:20:31  5-MIN KMKG 180920Z 05007KT 10SM OVC060 01/M03 A3026 320 75 -1300 050/07 RMK AO2
14840KMKG MKG20071118042509811/18/07 04:25:31  5-MIN KMKG 180925Z 05007KT 10SM OVC060 01/M03 A3026 320 75 -1300 050/07 RMK AO2
14840KMKG MKG20071118043009811/18/07 04:30:31  5-MIN KMKG 180930Z 04005KT 10SM OVC060 01/M03 A3026 320 75 -1300 050/05 RMK AO2
14840KMKG MKG20071118045011511/18/07 04:50:31  5-MIN KMKG 180950Z 05005KT 10SM OVC060 01/M03 A3026 320 75 -1300 060/05 RMK AO2 SLP253 T00061033
14840KMKG MKG20071118045511511/18/07 04:55:31  5-MIN KMKG 180955Z 05006KT 10SM BKN060 00/M03 A3026 310 78 -1400 060/06 RMK AO2 SLP255 T00001033
14840KMKG MKG20071118050009811/18/07 05:00:31  5-MIN KMKG 181000Z 05006KT 10SM BKN060 01/M03 A3027 310 75 -1300 050/06 RMK AO2
14840KMKG MKG20071118050509811/18/07 05:05:31  5-MIN KMKG 181005Z 06006KT 10SM BKN060 01/M03 A3027 310 75 -1300 060/06 RMK AO2
14840KMKG MKG20071118051009811/18/07 05:10:31  5-MIN KMKG 181010Z 05005KT 10SM SCT060 00/M03 A3027 310 78 -1400 060/05 RMK AO2
14840KMKG MKG20071118051509811/18/07 05:15:31  5-MIN KMKG 181015Z 05004KT 10SM SCT060 00/M03 A3027 310 78 -1400 050/04 RMK AO2
14840KMKG MKG20071118052009811/18/07 05:20:31  5-MIN KMKG 181020Z 05004KT 10SM SCT060 00/M03 A3027 310 78 -1400 050/04 RMK AO2
14840KMKG MKG20071118052509811/18/07 05:25:31  5-MIN KMKG 181025Z 04004KT 10SM SCT060 00/M03 A3027 310 78 -1400 040/04 RMK AO2
14840KMKG MKG20071118053009811/18/07 05:30:31  5-MIN KMKG 181030Z 05004KT 10SM SCT060 00/M03 A3027 300 81 -1400 050/04 RMK AO2
14840KMKG MKG20071118053509811/18/07 05:35:31  5-MIN KMKG 181035Z 05003KT 10SM SCT060 00/M03 A3028 300 78 -1400 050/03 RMK AO2
14840KMKG MKG20071118054009811/18/07 05:40:31  5-MIN KMKG 181040Z 04004KT 10SM SCT060 00/M03 A3028 300 78 -1400 040/04 RMK AO2
14840KMKG MKG20071118054509811/18/07 05:45:31  5-MIN KMKG 181045Z 04004KT 10SM SCT060 00/M03 A3028 300 78 -1400 050/04 RMK AO2
14840KMKG MKG20071118055011511/18/07 05:50:31  5-MIN KMKG 181050Z 04004KT 10SM SCT060 00/M03 A3028 300 78 -1400 050/04 RMK AO2 SLP261 T00001033
14840KMKG MKG20071118055511511/18/07 05:55:31  5-MIN KMKG 181055Z 04004KT 10SM SCT060 00/M03 A3028 300 78 -1400 050/04 RMK AO2 SLP261 T00001033
14840KMKG MKG20071118060009811/18/07 06:00:31  5-MIN KMKG 181100Z 04004KT 10SM SCT065 00/M03 A3028 300 78 -1400 050/04 RMK AO2
14840KMKG MKG20071118060509911/18/07 06:05:31  5-MIN KMKG 181105Z 05004KT 10SM SCT065 M01/M03 A3028 300 81 -1400 050/04 RMK AO2
14840KMKG MKG20071118061009911/18/07 06:10:31  5-MIN KMKG 181110Z 04004KT 10SM SCT065 M01/M03 A3028 300 81 -1400 050/04 RMK AO2
14840KMKG MKG20071118061509911/18/07 06:15:31  5-MIN KMKG 181115Z 04004KT 10SM SCT065 M01/M03 A3028 300 81 -1400 040/04 RMK AO2
14840KMKG MKG20071118062009911/18/07 06:20:31  5-MIN KMKG 181120Z 05005KT 10SM SCT065 M01/M03 A3028 300 81 -1400 050/05 RMK AO2
14840KMKG MKG20071118062509911/18/07 06:25:31  5-MIN KMKG 181125Z 05005KT 10SM SCT065 M01/M03 A3028 290 81 -1400 050/05 RMK AO2
14840KMKG MKG20071118063009911/18/07 06:30:31  5-MIN KMKG 181130Z 05005KT 10SM SCT065 M01/M03 A3028 290 81 -1400 050/05 RMK AO2
14840KMKG MKG20071118063509911/18/07 06:35:31  5-MIN KMKG 181135Z 05005KT 10SM SCT065 M01/M03 A3029 290 81 -1400 050/05 RMK AO2
14840KMKG MKG20071118064009911/18/07 06:40:31  5-MIN KMKG 181140Z 05005KT 10SM SCT065 M01/M03 A3029 290 81 -1500 060/05 RMK AO2
14840KMKG MKG20071118064509911/18/07 06:45:31  5-MIN KMKG 181145Z 05005KT 10SM SCT065 M01/M03 A3029 290 85 -1500 060/05 RMK AO2
14840KMKG MKG20071118065013411/18/07 06:50:31  5-MIN KMKG 181150Z 06004KT 10SM SCT065 M01/M03 A3029 290 85 -1500 060/04 RMK AO2 SLP265 T10061028 10017 21006 53020
14840KMKG MKG20071118065513411/18/07 06:55:31  5-MIN KMKG 181155Z 04004KT 10SM SCT060 M01/M03 A3029 290 85 -1500 050/04 RMK AO2 SLP265 T10061028 10017 21006 51014
14840KMKG MKG20071118070009811/18/07 07:00:31  5-MIN KMKG 181200Z 05004KT 10SM BKN060 00/M03 A3030 280 81 -1400 050/04 RMK AO2
14840KMKG MKG20071118070509811/18/07 07:05:31  5-MIN KMKG 181205Z 05004KT 10SM BKN060 00/M03 A3030 280 81 -1400 060/04 RMK AO2
14840KMKG MKG20071118071009811/18/07 07:10:31  5-MIN KMKG 181210Z 05004KT 10SM BKN060 00/M03 A3030 280 81 -1400 050/04 RMK AO2
14840KMKG MKG20071118071509811/18/07 07:15:31  5-MIN KMKG 181215Z 05005KT 10SM BKN060 00/M03 A3030 280 81 -1400 060/05 RMK AO2
14840KMKG MKG20071118072009811/18/07 07:20:31  5-MIN KMKG 181220Z 05004KT 10SM OVC060 00/M03 A3030 280 81 -1400 060/04 RMK AO2
14840KMKG MKG20071118072509811/18/07 07:25:31  5-MIN KMKG 181225Z 06006KT 10SM OVC060 00/M03 A3030 280 81 -1400 060/06 RMK AO2
14840KMKG MKG20071118073009811/18/07 07:30:31  5-MIN KMKG 181230Z 05006KT 10SM OVC060 00/M03 A3030 280 81 -1400 060/06 RMK AO2
14840KMKG MKG20071118073509811/18/07 07:35:31  5-MIN KMKG 181235Z 06006KT 10SM OVC060 00/M03 A3030 280 81 -1400 060/06 RMK AO2
14840KMKG MKG20071118074009811/18/07 07:40:31  5-MIN KMKG 181240Z 06006KT 10SM OVC060 00/M03 A3031 280 81 -1400 060/06 RMK AO2
14840KMKG MKG20071118074509811/18/07 07:45:31  5-MIN KMKG 181245Z 06006KT 10SM OVC060 00/M03 A3031 270 81 -1400 070/06 RMK AO2
14840KMKG MKG20071118075011511/18/07 07:50:31  5-MIN KMKG 181250Z 06006KT 10SM OVC060 00/M03 A3031 270 81 -1400 070/06 RMK AO2 SLP271 T00001028
14840KMKG MKG20071118075511511/18/07 07:55:31  5-MIN KMKG 181255Z 06006KT 10SM OVC060 00/M03 A3031 270 81 -1400 060/06 RMK AO2 SLP272 T00001028
14840KMKG MKG20071118080009811/18/07 08:00:31  5-MIN KMKG 181300Z 06006KT 10SM OVC060 00/M03 A3032 270 81 -1400 070/06 RMK AO2
14840KMKG MKG20071118080509811/18/07 08:05:31  5-MIN KMKG 181305Z 06006KT 10SM OVC060 00/M03 A3032 260 81 -1400 070/06 RMK AO2
14840KMKG MKG20071118081009811/18/07 08:10:31  5-MIN KMKG 181310Z 07006KT 10SM OVC060 00/M03 A3032 260 81 -1400 070/06 RMK AO2
14840KMKG MKG20071118081509811/18/07 08:15:31  5-MIN KMKG 181315Z 06006KT 10SM OVC060 00/M03 A3032 260 81 -1400 070/06 RMK AO2
14840KMKG MKG20071118082009811/18/07 08:20:31  5-MIN KMKG 181320Z 07006KT 10SM OVC060 00/M02 A3032 260 85 -1400 070/06 RMK AO2
14840KMKG MKG20071118082509811/18/07 08:25:31  5-MIN KMKG 181325Z 07007KT 10SM OVC060 01/M02 A3032 260 82 -1400 070/07 RMK AO2
14840KMKG MKG20071118083009811/18/07 08:30:31  5-MIN KMKG 181330Z 07006KT 10SM OVC060 01/M02 A3032 260 82 -1300 070/06 RMK AO2
14840KMKG MKG20071118083509811/18/07 08:35:31  5-MIN KMKG 181335Z 07007KT 10SM OVC060 01/M02 A3032 260 82 -1400 070/07 RMK AO2
14840KMKG MKG20071118084009811/18/07 08:40:31  5-MIN KMKG 181340Z 07006KT 10SM OVC060 01/M02 A3033 260 78 -1300 070/06 RMK AO2
14840KMKG MKG20071118084509811/18/07 08:45:31  5-MIN KMKG 181345Z 07006KT 10SM OVC060 01/M02 A3033 260 78 -1300 070/06 RMK AO2
14840KMKG MKG20071118085011511/18/07 08:50:31  5-MIN KMKG 181350Z 07006KT 10SM BKN060 01/M02 A3033 260 78 -1300 070/06 RMK AO2 SLP276 T00111022
14840KMKG MKG20071118085511511/18/07 08:55:31  5-MIN KMKG 181355Z 07006KT 10SM BKN060 01/M02 A3033 260 78 -1300 070/06 RMK AO2 SLP277 T00111022
14840KMKG MKG20071118090009811/18/07 09:00:31  5-MIN KMKG 181400Z 07007KT 10SM SCT060 01/M02 A3033 260 78 -1300 080/07 RMK AO2
14840KMKG MKG20071118090509811/18/07 09:05:31  5-MIN KMKG 181405Z 07006KT 10SM SCT060 01/M02 A3033 250 78 -1300 070/06 RMK AO2
14840KMKG MKG20071118091009811/18/07 09:10:31  5-MIN KMKG 181410Z 07007KT 10SM SCT060 02/M02 A3033 250 75 -1200 070/07 RMK AO2
14840KMKG MKG20071118091509811/18/07 09:15:31  5-MIN KMKG 181415Z 07008KT 10SM SCT060 02/M02 A3033 250 75 -1200 070/08 RMK AO2
14840KMKG MKG20071118092009811/18/07 09:20:31  5-MIN KMKG 181420Z 07008KT 10SM SCT060 02/M02 A3033 250 75 -1200 080/08 RMK AO2
14840KMKG MKG20071118092509811/18/07 09:25:31  5-MIN KMKG 181425Z 08007KT 10SM SCT060 02/M02 A3034 250 72 -1200 080/07 RMK AO2
14840KMKG MKG20071118093009811/18/07 09:30:31  5-MIN KMKG 181430Z 08009KT 10SM SCT060 02/M02 A3034 240 72 -1200 090/09 RMK AO2
14840KMKG MKG20071118093509811/18/07 09:35:31  5-MIN KMKG 181435Z 09010KT 10SM SCT060 02/M02 A3034 240 72 -1200 090/10 RMK AO2
14840KMKG MKG20071118094009811/18/07 09:40:31  5-MIN KMKG 181440Z 08010KT 10SM SCT060 03/M02 A3034 240 69 -1100 090/10 RMK AO2
14840KMKG MKG20071118094509811/18/07 09:45:31  5-MIN KMKG 181445Z 08009KT 10SM BKN060 03/M02 A3034 240 69 -1100 080/09 RMK AO2
14840KMKG MKG20071118095012111/18/07 09:50:31  5-MIN KMKG 181450Z 08011KT 10SM BKN060 03/M02 A3035 240 67 -1000 090/11 RMK AO2 SLP282 T00331022 51014
14840KMKG MKG20071118095512111/18/07 09:55:31  5-MIN KMKG 181455Z 10009KT 10SM BKN060 03/M02 A3035 240 69 -1100 100/09 RMK AO2 SLP283 T00281022 51018
14840KMKG MKG20071118100009811/18/07 10:00:31  5-MIN KMKG 181500Z 08012KT 10SM BKN060 03/M03 A3035 240 67 -1100 090/12 RMK AO2
14840KMKG MKG20071118100509811/18/07 10:05:31  5-MIN KMKG 181505Z 09009KT 10SM OVC060 03/M03 A3035 240 67 -1100 100/09 RMK AO2
14840KMKG MKG20071118101009811/18/07 10:10:31  5-MIN KMKG 181510Z 10009KT 10SM BKN060 03/M03 A3035 240 67 -1100 100/09 RMK AO2
14840KMKG MKG20071118101509811/18/07 10:15:31  5-MIN KMKG 181515Z 10008KT 10SM BKN060 03/M03 A3035 230 67 -1100 100/08 RMK AO2
14840KMKG MKG20071118102009811/18/07 10:20:31  5-MIN KMKG 181520Z 09011KT 10SM BKN060 03/M03 A3035 230 64 -1100 100/11 RMK AO2
14840KMKG MKG20071118102509811/18/07 10:25:31  5-MIN KMKG 181525Z 10009KT 10SM BKN065 03/M03 A3035 230 61 -1000 110/09 RMK AO2
14840KMKG MKG20071118103010411/18/07 10:30:31  5-MIN KMKG 181530Z 09012G18KT 10SM BKN065 03/M03 A3036 230 61 -1000 100/12G18 RMK AO2
14840KMKG MKG20071118103510411/18/07 10:35:31  5-MIN KMKG 181535Z 10011G18KT 10SM BKN065 03/M03 A3036 230 61 -1000 110/11G18 RMK AO2
14840KMKG MKG20071118104010411/18/07 10:40:31  5-MIN KMKG 181540Z 08011G16KT 10SM OVC065 04/M03 A3036 230 59 -1000 090/11G16 RMK AO2
14840KMKG MKG20071118104510411/18/07 10:45:31  5-MIN KMKG 181545Z 09010G16KT 10SM OVC065 04/M04 A3036 230 57 -1000 100/10G16 RMK AO2
14840KMKG MKG20071118105011511/18/07 10:50:31  5-MIN KMKG 181550Z 09009KT 10SM OVC060 04/M04 A3036 230 57 -1000 090/09 RMK AO2 SLP287 T00391039
14840KMKG MKG20071118105511411/18/07 10:55:31  5-MIN KMKG 181555Z 09009KT 10SM BKN060 04/M04 A3036 230 55 -900 100/09 RMK AO2 SLP287 T00441039
14840KMKG MKG20071118110009711/18/07 11:00:31  5-MIN KMKG 181600Z 11013KT 10SM OVC060 04/M04 A3036 230 52 -900 120/13 RMK AO2
14840KMKG MKG20071118110509711/18/07 11:05:31  5-MIN KMKG 181605Z 11014KT 10SM OVC060 04/M04 A3036 220 52 -900 110/14 RMK AO2
14840KMKG MKG20071118111009711/18/07 11:10:31  5-MIN KMKG 181610Z 12011KT 10SM OVC060 04/M04 A3036 220 52 -900 130/11 RMK AO2
14840KMKG MKG20071118111509711/18/07 11:15:31  5-MIN KMKG 181615Z 11011KT 10SM OVC065 04/M04 A3036 220 52 -900 120/11 RMK AO2
14840KMKG MKG20071118112009711/18/07 11:20:31  5-MIN KMKG 181620Z 12012KT 10SM OVC065 04/M04 A3037 220 55 -900 120/12 RMK AO2
14840KMKG MKG20071118112509711/18/07 11:25:31  5-MIN KMKG 181625Z 11013KT 10SM OVC065 04/M04 A3036 220 55 -900 120/13 RMK AO2
14840KMKG MKG20071118113009711/18/07 11:30:31  5-MIN KMKG 181630Z 10011KT 10SM OVC065 04/M04 A3036 220 55 -900 100/11 RMK AO2
14840KMKG MKG20071118113509711/18/07 11:35:31  5-MIN KMKG 181635Z 09009KT 10SM OVC065 04/M04 A3036 230 52 -900 100/09 RMK AO2
14840KMKG MKG20071118114009711/18/07 11:40:31  5-MIN KMKG 181640Z 11010KT 10SM OVC065 05/M04 A3036 230 50 -800 110/10 RMK AO2
14840KMKG MKG20071118114509711/18/07 11:45:31  5-MIN KMKG 181645Z 11011KT 10SM OVC065 05/M04 A3036 230 50 -800 110/11 RMK AO2
14840KMKG MKG20071118115011411/18/07 11:50:31  5-MIN KMKG 181650Z 11010KT 10SM OVC065 05/M04 A3035 230 52 -800 110/10 RMK AO2 SLP285 T00501039
14840KMKG MKG20071118115512011/18/07 11:55:31  5-MIN KMKG 181655Z 09008G16KT 10SM BKN065 05/M04 A3035 230 50 -800 090/08G16 RMK AO2 SLP285 T00501044
14840KMKG MKG20071118120009711/18/07 12:00:31  5-MIN KMKG 181700Z 10010KT 10SM BKN065 06/M04 A3035 240 48 -800 110/10 RMK AO2
14840KMKG MKG20071118120510311/18/07 12:05:31  5-MIN KMKG 181705Z 13011G15KT 10SM SCT065 06/M04 A3035 240 48 -800 130/11G15 RMK AO2
14840KMKG MKG20071118121009711/18/07 12:10:31  5-MIN KMKG 181710Z 12011KT 10SM SCT065 06/M04 A3035 240 48 -800 130/11 RMK AO2
14840KMKG MKG20071118121509711/18/07 12:15:31  5-MIN KMKG 181715Z 12009KT 10SM SCT065 06/M04 A3035 240 48 -800 120/09 RMK AO2
14840KMKG MKG20071118122009711/18/07 12:20:31  5-MIN KMKG 181720Z 10010KT 10SM FEW065 06/M05 A3034 240 46 -800 100/10 RMK AO2
14840KMKG MKG20071118122509711/18/07 12:25:31  5-MIN KMKG 181725Z 09012KT 10SM FEW065 06/M05 A3034 240 46 -800 100/12 RMK AO2
14840KMKG MKG20071118123009711/18/07 12:30:31  5-MIN KMKG 181730Z 10008KT 10SM FEW065 06/M05 A3034 240 46 -700 100/08 RMK AO2
14840KMKG MKG20071118123509711/18/07 12:35:31  5-MIN KMKG 181735Z 12010KT 10SM FEW065 06/M04 A3034 250 46 -700 120/10 RMK AO2
14840KMKG MKG20071118124009411/18/07 12:40:31  5-MIN KMKG 181740Z 11011KT 10SM CLR 06/M05 A3034 250 45 -700 120/11 RMK AO2
14840KMKG MKG20071118124510011/18/07 12:45:31  5-MIN KMKG 181745Z 11009G16KT 10SM CLR 06/M05 A3034 250 45 -700 120/09G16 RMK AO2
14840KMKG MKG20071118125013511/18/07 12:50:31  5-MIN KMKG 181750Z 12012G16KT 10SM CLR 06/M06 A3033 250 43 -700 130/12G16 RMK AO2 SLP278 T00611056 10061 21006 51018
14840KMKG MKG20071118125513211/18/07 12:55:31  5-MIN KMKG 181755Z 11009KT 10SM FEW060 06/M05 A3033 250 45 -700 120/09 RMK AO2 SLP277 T00611050 10061 21006 58005
14840KMKG MKG20071118130009711/18/07 13:00:31  5-MIN KMKG 181800Z 13012KT 10SM FEW060 06/M05 A3033 250 45 -700 140/12 RMK AO2
14840KMKG MKG20071118130509711/18/07 13:05:31  5-MIN KMKG 181805Z 13011KT 10SM FEW060 06/M05 A3033 250 45 -700 140/11 RMK AO2
14840KMKG MKG20071118131009711/18/07 13:10:31  5-MIN KMKG 181810Z 13010KT 10SM FEW045 06/M05 A3033 250 45 -700 130/10 RMK AO2
14840KMKG MKG20071118131509711/18/07 13:15:31  5-MIN KMKG 181815Z 12011KT 10SM FEW045 07/M05 A3033 250 43 -600 120/11 RMK AO2
14840KMKG MKG20071118132009711/18/07 13:20:31  5-MIN KMKG 181820Z 11010KT 10SM FEW045 06/M05 A3033 250 45 -700 110/10 RMK AO2
14840KMKG MKG20071118132509711/18/07 13:25:31  5-MIN KMKG 181825Z 12011KT 10SM FEW045 06/M06 A3032 260 43 -700 120/11 RMK AO2
14840KMKG MKG20071118133009711/18/07 13:30:31  5-MIN KMKG 181830Z 10009KT 10SM FEW045 07/M05 A3032 260 43 -600 100/09 RMK AO2
14840KMKG MKG20071118133510311/18/07 13:35:31  5-MIN KMKG 181835Z 11006G15KT 10SM FEW045 07/M06 A3033 260 41 -600 110/06G15 RMK AO2
14840KMKG MKG20071118134009711/18/07 13:40:31  5-MIN KMKG 181840Z 12012KT 10SM SCT045 06/M06 A3033 260 41 -700 130/12 RMK AO2
14840KMKG MKG20071118134510411/18/07 13:45:31  5-MIN KMKG 181845Z 13011KT 10SM SCT045 SCT065 06/M06 A3033 260 41 -700 130/11 RMK AO2
14840KMKG MKG20071118135012111/18/07 13:50:31  5-MIN KMKG 181850Z 13011KT 10SM FEW045 SCT065 06/M06 A3033 260 41 -700 130/11 RMK AO2 SLP275 T00611061
14840KMKG MKG20071118135512111/18/07 13:55:31  5-MIN KMKG 181855Z 13011KT 10SM SCT045 SCT065 06/M06 A3033 260 43 -700 130/11 RMK AO2 SLP275 T00561061
14840KMKG MKG20071118140010411/18/07 14:00:31  5-MIN KMKG 181900Z 12011KT 10SM FEW045 SCT065 06/M06 A3032 260 43 -700 130/11 RMK AO2
14840KMKG MKG20071118140510411/18/07 14:05:31  5-MIN KMKG 181905Z 14011KT 10SM FEW047 SCT065 06/M06 A3032 260 43 -700 140/11 RMK AO2
14840KMKG MKG20071118141009711/18/07 14:10:31  5-MIN KMKG 181910Z 12007KT 10SM FEW065 06/M06 A3032 260 44 -700 130/07 RMK AO2
14840KMKG MKG20071118141509711/18/07 14:15:31  5-MIN KMKG 181915Z 13011KT 10SM FEW065 06/M06 A3032 260 44 -700 140/11 RMK AO2
14840KMKG MKG20071118142009711/18/07 14:20:31  5-MIN KMKG 181920Z 13009KT 10SM SCT065 06/M05 A3032 260 46 -700 130/09 RMK AO2
14840KMKG MKG20071118142509711/18/07 14:25:31  5-MIN KMKG 181925Z 12009KT 10SM BKN065 06/M06 A3032 260 44 -700 130/09 RMK AO2
14840KMKG MKG20071118143009711/18/07 14:30:31  5-MIN KMKG 181930Z 12009KT 10SM BKN060 06/M06 A3032 260 43 -700 120/09 RMK AO2
14840KMKG MKG20071118143509711/18/07 14:35:31  5-MIN KMKG 181935Z 10009KT 10SM BKN060 06/M06 A3032 260 41 -700 110/09 RMK AO2
14840KMKG MKG20071118144009711/18/07 14:40:31  5-MIN KMKG 181940Z 09007KT 10SM BKN060 06/M06 A3032 260 43 -700 090/07 RMK AO2
14840KMKG MKG20071118144509711/18/07 14:45:31  5-MIN KMKG 181945Z 11007KT 10SM BKN060 06/M06 A3032 270 41 -700 120/07 RMK AO2
14840KMKG MKG20071118145011411/18/07 14:50:31  5-MIN KMKG 181950Z 10007KT 10SM BKN060 06/M06 A3032 270 43 -700 100/07 RMK AO2 SLP272 T00611056
14840KMKG MKG20071118145511411/18/07 14:55:31  5-MIN KMKG 181955Z 09007KT 10SM BKN060 06/M06 A3032 270 43 -700 100/07 RMK AO2 SLP272 T00611056
14840KMKG MKG20071118150009711/18/07 15:00:31  5-MIN KMKG 182000Z 12006KT 10SM SCT060 06/M06 A3031 270 43 -700 130/06 RMK AO2
14840KMKG MKG20071118150509711/18/07 15:05:31  5-MIN KMKG 182005Z 09008KT 10SM FEW060 06/M06 A3031 270 43 -700 100/08 RMK AO2
14840KMKG MKG20071118151010411/18/07 15:10:31  5-MIN KMKG 182010Z 09008KT 10SM FEW048 SCT060 06/M06 A3032 270 41 -700 090/08 RMK AO2
14840KMKG MKG20071118151509711/18/07 15:15:31  5-MIN KMKG 182015Z 11009KT 10SM FEW048 06/M06 A3032 270 43 -700 110/09 RMK AO2
14840KMKG MKG20071118152009711/18/07 15:20:31  5-MIN KMKG 182020Z 11008KT 10SM FEW048 06/M06 A3031 270 43 -700 110/08 RMK AO2
14840KMKG MKG20071118152509711/18/07 15:25:31  5-MIN KMKG 182025Z 13009KT 10SM FEW048 06/M06 A3031 270 43 -700 130/09 RMK AO2
14840KMKG MKG20071118153009711/18/07 15:30:31  5-MIN KMKG 182030Z 12009KT 10SM FEW048 06/M06 A3031 270 41 -600 130/09 RMK AO2
14840KMKG MKG20071118153509711/18/07 15:35:31  5-MIN KMKG 182035Z 11010KT 10SM FEW048 06/M06 A3031 270 43 -700 110/10 RMK AO2
14840KMKG MKG20071118154009411/18/07 15:40:31  5-MIN KMKG 182040Z 09008KT 10SM CLR 06/M06 A3031 270 43 -700 100/08 RMK AO2
14840KMKG MKG20071118154509711/18/07 15:45:31  5-MIN KMKG 182045Z 10009KT 10SM FEW048 06/M06 A3031 270 44 -700 100/09 RMK AO2
14840KMKG MKG20071118155012011/18/07 15:50:31  5-MIN KMKG 182050Z 12007KT 10SM FEW048 06/M06 A3031 270 43 -700 120/07 RMK AO2 SLP271 T00561061 58005
14840KMKG MKG20071118155512011/18/07 15:55:31  5-MIN KMKG 182055Z 11008KT 10SM FEW048 06/M06 A3031 270 43 -700 110/08 RMK AO2 SLP271 T00561061 56006
14840KMKG MKG20071118160009411/18/07 16:00:31  5-MIN KMKG 182100Z 12009KT 10SM CLR 06/M06 A3031 270 43 -700 130/09 RMK AO2
14840KMKG MKG20071118160509411/18/07 16:05:31  5-MIN KMKG 182105Z 12007KT 10SM CLR 06/M06 A3031 270 44 -700 120/07 RMK AO2
14840KMKG MKG20071118161009411/18/07 16:10:31  5-MIN KMKG 182110Z 13011KT 10SM CLR 06/M06 A3031 270 44 -700 130/11 RMK AO2
14840KMKG MKG20071118161509411/18/07 16:15:31  5-MIN KMKG 182115Z 13009KT 10SM CLR 06/M06 A3031 270 43 -700 130/09 RMK AO2
14840KMKG MKG20071118162009411/18/07 16:20:31  5-MIN KMKG 182120Z 13011KT 10SM CLR 05/M06 A3031 270 44 -800 130/11 RMK AO2
14840KMKG MKG20071118162509411/18/07 16:25:31  5-MIN KMKG 182125Z 12009KT 10SM CLR 05/M06 A3031 270 46 -800 130/09 RMK AO2
14840KMKG MKG20071118163009411/18/07 16:30:31  5-MIN KMKG 182130Z 12009KT 10SM CLR 05/M06 A3030 280 46 -800 130/09 RMK AO2
14840KMKG MKG20071118163509411/18/07 16:35:31  5-MIN KMKG 182135Z 13009KT 10SM CLR 05/M06 A3030 280 44 -800 130/09 RMK AO2
14840KMKG MKG20071118164009411/18/07 16:40:31  5-MIN KMKG 182140Z 12009KT 10SM CLR 05/M06 A3030 280 44 -800 120/09 RMK AO2
14840KMKG MKG20071118164509411/18/07 16:45:31  5-MIN KMKG 182145Z 10010KT 10SM CLR 04/M07 A3030 280 44 -800 100/10 RMK AO2
14840KMKG MKG20071118165011111/18/07 16:50:31  5-MIN KMKG 182150Z 11009KT 10SM CLR 04/M07 A3030 280 44 -800 110/09 RMK AO2 SLP268 T00441067
14840KMKG MKG20071118165511111/18/07 16:55:31  5-MIN KMKG 182155Z 12008KT 10SM CLR 04/M06 A3030 280 48 -900 120/08 RMK AO2 SLP269 T00391061
14840KMKG MKG20071118170009411/18/07 17:00:31  5-MIN KMKG 182200Z 11007KT 10SM CLR 04/M06 A3030 280 48 -900 110/07 RMK AO2
14840KMKG MKG20071118170509811/18/07 17:05:31  5-MIN KMKG 182205Z 11006KT 10SM SCT090 03/M06 A3030 280 50 -1000 110/06 RMK AO2
14840KMKG MKG20071118171009811/18/07 17:10:31  5-MIN KMKG 182210Z 10006KT 10SM SCT090 03/M06 A3030 280 50 -1000 110/06 RMK AO2
14840KMKG MKG20071118171509811/18/07 17:15:31  5-MIN KMKG 182215Z 10005KT 10SM FEW050 03/M06 A3030 280 50 -1000 100/05 RMK AO2
14840KMKG MKG20071118172009711/18/07 17:20:31  5-MIN KMKG 182220Z 10004KT 10SM SCT050 04/M06 A3030 280 48 -900 110/04 RMK AO2
14840KMKG MKG20071118172509711/18/07 17:25:31  5-MIN KMKG 182225Z 10005KT 10SM BKN050 04/M06 A3030 280 50 -900 100/05 RMK AO2
14840KMKG MKG20071118173009711/18/07 17:30:31  5-MIN KMKG 182230Z 11004KT 10SM BKN050 04/M06 A3030 280 50 -900 110/04 RMK AO2
14840KMKG MKG20071118173509711/18/07 17:35:31  5-MIN KMKG 182235Z 11006KT 10SM BKN050 04/M06 A3030 280 50 -900 110/06 RMK AO2
14840KMKG MKG20071118174009711/18/07 17:40:31  5-MIN KMKG 182240Z 11005KT 10SM OVC050 04/M06 A3030 280 50 -900 120/05 RMK AO2
14840KMKG MKG20071118174509711/18/07 17:45:31  5-MIN KMKG 182245Z 11006KT 10SM OVC050 04/M06 A3030 280 50 -900 120/06 RMK AO2
14840KMKG MKG20071118175011411/18/07 17:50:31  5-MIN KMKG 182250Z 11006KT 10SM OVC050 04/M06 A3030 280 50 -900 110/06 RMK AO2 SLP269 T00391056
14840KMKG MKG20071118175511411/18/07 17:55:31  5-MIN KMKG 182255Z 10007KT 10SM BKN050 04/M06 A3031 270 50 -900 100/07 RMK AO2 SLP270 T00391056
14840KMKG MKG20071118180009711/18/07 18:00:31  5-MIN KMKG 182300Z 10007KT 10SM OVC050 04/M06 A3031 270 46 -800 110/07 RMK AO2
14840KMKG MKG20071118180509711/18/07 18:05:31  5-MIN KMKG 182305Z 10007KT 10SM OVC050 04/M06 A3031 270 50 -900 110/07 RMK AO2
14840KMKG MKG20071118181009711/18/07 18:10:31  5-MIN KMKG 182310Z 10007KT 10SM OVC050 04/M06 A3031 280 46 -800 110/07 RMK AO2
14840KMKG MKG20071118181509711/18/07 18:15:31  5-MIN KMKG 182315Z 10007KT 10SM OVC050 04/M06 A3030 280 46 -800 110/07 RMK AO2
14840KMKG MKG20071118182009711/18/07 18:20:31  5-MIN KMKG 182320Z 10008KT 10SM OVC050 04/M06 A3030 280 48 -900 110/08 RMK AO2
14840KMKG MKG20071118182509711/18/07 18:25:31  5-MIN KMKG 182325Z 11007KT 10SM OVC050 04/M06 A3030 280 48 -900 110/07 RMK AO2
14840KMKG MKG20071118183009711/18/07 18:30:31  5-MIN KMKG 182330Z 11007KT 10SM OVC050 04/M06 A3030 280 48 -900 120/07 RMK AO2
14840KMKG MKG20071118183509711/18/07 18:35:31  5-MIN KMKG 182335Z 11006KT 10SM OVC050 04/M06 A3030 280 48 -900 110/06 RMK AO2
14840KMKG MKG20071118184009711/18/07 18:40:31  5-MIN KMKG 182340Z 11008KT 10SM OVC050 04/M06 A3030 280 50 -900 110/08 RMK AO2
14840KMKG MKG20071118184509711/18/07 18:45:31  5-MIN KMKG 182345Z 11006KT 10SM OVC050 04/M06 A3030 280 50 -900 110/06 RMK AO2
14840KMKG MKG20071118185013211/18/07 18:50:31  5-MIN KMKG 182350Z 11008KT 10SM OVC050 04/M06 A3030 280 50 -900 110/08 RMK AO2 SLP267 T00391056 10067 20033 56006
14840KMKG MKG20071118185513211/18/07 18:55:31  5-MIN KMKG 182355Z 11008KT 10SM OVC050 04/M06 A3030 280 50 -900 110/08 RMK AO2 SLP266 T00391056 10067 20033 58005
14840KMKG MKG20071118190009711/18/07 19:00:31  5-MIN KMKG 190000Z 11008KT 10SM OVC050 04/M06 A3030 280 50 -900 110/08 RMK AO2
14840KMKG MKG20071118190509711/18/07 19:05:31  5-MIN KMKG 190005Z 11009KT 10SM OVC050 04/M06 A3030 280 50 -900 120/09 RMK AO2
14840KMKG MKG20071118191009711/18/07 19:10:31  5-MIN KMKG 190010Z 11009KT 10SM OVC050 04/M06 A3029 290 50 -900 110/09 RMK AO2
14840KMKG MKG20071118191509811/18/07 19:15:31  5-MIN KMKG 190015Z 11008KT 10SM BKN050 03/M06 A3029 290 52 -1000 110/08 RMK AO2
14840KMKG MKG20071118192009811/18/07 19:20:31  5-MIN KMKG 190020Z 11008KT 10SM BKN048 03/M06 A3029 290 52 -1000 110/08 RMK AO2
14840KMKG MKG20071118192509811/18/07 19:25:31  5-MIN KMKG 190025Z 11009KT 10SM OVC048 03/M06 A3029 290 52 -1000 110/09 RMK AO2
14840KMKG MKG20071118193009811/18/07 19:30:31  5-MIN KMKG 190030Z 11010KT 10SM BKN048 03/M06 A3028 290 52 -1000 110/10 RMK AO2
14840KMKG MKG20071118193509811/18/07 19:35:31  5-MIN KMKG 190035Z 11008KT 10SM BKN048 03/M06 A3029 290 52 -1000 120/08 RMK AO2
14840KMKG MKG20071118194009811/18/07 19:40:31  5-MIN KMKG 190040Z 11008KT 10SM OVC048 03/M06 A3029 290 52 -1000 110/08 RMK AO2
14840KMKG MKG20071118194509811/18/07 19:45:31  5-MIN KMKG 190045Z 11008KT 10SM OVC048 03/M06 A3028 290 52 -1000 120/08 RMK AO2
14840KMKG MKG20071118195011511/18/07 19:50:31  5-MIN KMKG 190050Z 11008KT 10SM OVC048 03/M06 A3028 300 52 -1000 120/08 RMK AO2 SLP262 T00331056
14840KMKG MKG20071118195511511/18/07 19:55:31  5-MIN KMKG 190055Z 12011KT 10SM OVC048 03/M06 A3028 300 52 -1000 120/11 RMK AO2 SLP262 T00331056
14840KMKG MKG20071118200009811/18/07 20:00:31  5-MIN KMKG 190100Z 11011KT 10SM OVC048 03/M06 A3028 300 52 -1000 120/11 RMK AO2
14840KMKG MKG20071118200509811/18/07 20:05:31  5-MIN KMKG 190105Z 11009KT 10SM OVC046 03/M06 A3028 300 52 -1000 110/09 RMK AO2
14840KMKG MKG20071118201009811/18/07 20:10:31  5-MIN KMKG 190110Z 11011KT 10SM OVC046 03/M06 A3028 300 52 -1000 120/11 RMK AO2
14840KMKG MKG20071118201509811/18/07 20:15:31  5-MIN KMKG 190115Z 11011KT 10SM OVC046 03/M06 A3028 300 52 -1000 120/11 RMK AO2
14840KMKG MKG20071118202009811/18/07 20:20:31  5-MIN KMKG 190120Z 12010KT 10SM OVC046 03/M06 A3028 300 52 -1000 120/10 RMK AO2
14840KMKG MKG20071118202509811/18/07 20:25:31  5-MIN KMKG 190125Z 11011KT 10SM OVC046 03/M06 A3028 300 52 -1000 110/11 RMK AO2
14840KMKG MKG20071118203009711/18/07 20:30:31  5-MIN KMKG 190130Z 11012KT 10SM OVC046 03/M06 A3027 300 52 -900 120/12 RMK AO2
14840KMKG MKG20071118203509711/18/07 20:35:31  5-MIN KMKG 190135Z 12011KT 10SM OVC046 03/M06 A3027 300 52 -900 120/11 RMK AO2
14840KMKG MKG20071118204009711/18/07 20:40:31  5-MIN KMKG 190140Z 12009KT 10SM OVC046 03/M06 A3027 310 52 -900 120/09 RMK AO2
14840KMKG MKG20071118204509811/18/07 20:45:31  5-MIN KMKG 190145Z 11011KT 10SM BKN044 03/M06 A3027 310 54 -1000 120/11 RMK AO2
14840KMKG MKG20071118205011411/18/07 20:50:31  5-MIN KMKG 190150Z 12010KT 10SM BKN044 03/M06 A3027 300 52 -900 120/10 RMK AO2 SLP259 T00331056
14840KMKG MKG20071118205511511/18/07 20:55:31  5-MIN KMKG 190155Z 12011KT 10SM SCT044 03/M06 A3027 310 54 -1000 120/11 RMK AO2 SLP258 T00281056
14840KMKG MKG20071118210009811/18/07 21:00:31  5-MIN KMKG 190200Z 12012KT 10SM SCT044 03/M06 A3028 300 54 -1000 130/12 RMK AO2
14840KMKG MKG20071118210509811/18/07 21:05:31  5-MIN KMKG 190205Z 12011KT 10SM FEW044 02/M06 A3028 300 56 -1100 130/11 RMK AO2
14840KMKG MKG20071118211009811/18/07 21:10:31  5-MIN KMKG 190210Z 12009KT 10SM FEW044 02/M06 A3028 300 56 -1100 130/09 RMK AO2
14840KMKG MKG20071118211509811/18/07 21:15:31  5-MIN KMKG 190215Z 13008KT 10SM FEW045 02/M06 A3029 290 56 -1100 130/08 RMK AO2
14840KMKG MKG20071118212009811/18/07 21:20:31  5-MIN KMKG 190220Z 13007KT 10SM SCT045 02/M06 A3029 290 56 -1100 130/07 RMK AO2
14840KMKG MKG20071118212509811/18/07 21:25:31  5-MIN KMKG 190225Z 12007KT 10SM BKN045 02/M05 A3028 300 59 -1100 130/07 RMK AO2
14840KMKG MKG20071118213009811/18/07 21:30:31  5-MIN KMKG 190230Z 12007KT 10SM BKN045 02/M05 A3028 300 59 -1100 120/07 RMK AO2
14840KMKG MKG20071118213509811/18/07 21:35:31  5-MIN KMKG 190235Z 12006KT 10SM SCT045 02/M05 A3028 300 61 -1200 120/06 RMK AO2
14840KMKG MKG20071118214009811/18/07 21:40:31  5-MIN KMKG 190240Z 12005KT 10SM SCT045 02/M06 A3028 300 59 -1200 120/05 RMK AO2
14840KMKG MKG20071118214510511/18/07 21:45:31  5-MIN KMKG 190245Z 12005KT 10SM SCT045 SCT095 01/M06 A3028 300 61 -1200 120/05 RMK AO2
14840KMKG MKG20071118215012811/18/07 21:50:31  5-MIN KMKG 190250Z 13005KT 10SM FEW045 SCT095 01/M06 A3028 300 61 -1200 130/05 RMK AO2 SLP261 T00111056 58005
14840KMKG MKG20071118215511811/18/07 21:55:31  5-MIN KMKG 190255Z 13005KT 10SM CLR 01/M05 A3028 300 66 -1300 140/05 RMK AO2 SLP261 T00061050 55005
14840KMKG MKG20071118220009511/18/07 22:00:31  5-MIN KMKG 190300Z 14005KT 10SM CLR 01/M05 A3028 300 66 -1300 140/05 RMK AO2
14840KMKG MKG20071118220509511/18/07 22:05:31  5-MIN KMKG 190305Z 14005KT 10SM CLR 01/M05 A3028 300 64 -1200 140/05 RMK AO2
14840KMKG MKG20071118221009511/18/07 22:10:31  5-MIN KMKG 190310Z 14004KT 10SM CLR 01/M05 A3028 300 64 -1200 140/04 RMK AO2
14840KMKG MKG20071118221509511/18/07 22:15:31  5-MIN KMKG 190315Z 13004KT 10SM CLR 01/M05 A3028 300 66 -1300 140/04 RMK AO2
14840KMKG MKG20071118222009511/18/07 22:20:31  5-MIN KMKG 190320Z 14004KT 10SM CLR 01/M06 A3029 290 63 -1300 140/04 RMK AO2
14840KMKG MKG20071118222509511/18/07 22:25:31  5-MIN KMKG 190325Z 14004KT 10SM CLR 01/M06 A3028 300 63 -1300 140/04 RMK AO2
14840KMKG MKG20071118223009811/18/07 22:30:31  5-MIN KMKG 190330Z 13004KT 10SM FEW090 01/M05 A3028 300 66 -1300 140/04 RMK AO2
14840KMKG MKG20071118223509811/18/07 22:35:31  5-MIN KMKG 190335Z 13005KT 10SM SCT090 00/M05 A3028 300 69 -1400 130/05 RMK AO2
14840KMKG MKG20071118224009811/18/07 22:40:31  5-MIN KMKG 190340Z 12005KT 10SM BKN090 00/M04 A3028 300 72 -1400 130/05 RMK AO2
14840KMKG MKG20071118224509811/18/07 22:45:31  5-MIN KMKG 190345Z 13004KT 10SM BKN090 01/M04 A3028 300 69 -1300 130/04 RMK AO2
14840KMKG MKG20071118225011511/18/07 22:50:31  5-MIN KMKG 190350Z 13005KT 10SM BKN090 01/M04 A3028 300 69 -1300 130/05 RMK AO2 SLP260 T00061044
14840KMKG MKG20071118225511511/18/07 22:55:31  5-MIN KMKG 190355Z 13006KT 10SM OVC090 01/M04 A3028 300 69 -1300 130/06 RMK AO2 SLP258 T00061044
14840KMKG MKG20071118230009811/18/07 23:00:31  5-MIN KMKG 190400Z 12006KT 10SM OVC090 01/M04 A3027 300 69 -1300 130/06 RMK AO2
14840KMKG MKG20071118230509811/18/07 23:05:31  5-MIN KMKG 190405Z 12006KT 10SM BKN090 00/M04 A3027 310 72 -1400 130/06 RMK AO2
14840KMKG MKG20071118231009811/18/07 23:10:31  5-MIN KMKG 190410Z 12005KT 10SM BKN090 00/M05 A3027 310 69 -1400 120/05 RMK AO2
14840KMKG MKG20071118231509811/18/07 23:15:31  5-MIN KMKG 190415Z 12005KT 10SM SCT090 00/M05 A3027 310 69 -1400 120/05 RMK AO2
14840KMKG MKG20071118232010511/18/07 23:20:31  5-MIN KMKG 190420Z 12006KT 10SM FEW036 SCT090 00/M05 A3027 310 69 -1400 130/06 RMK AO2
14840KMKG MKG20071118232510511/18/07 23:25:31  5-MIN KMKG 190425Z 13005KT 10SM SCT036 SCT090 00/M04 A3027 310 72 -1400 130/05 RMK AO2
14840KMKG MKG20071118233009811/18/07 23:30:31  5-MIN KMKG 190430Z 12006KT 10SM BKN036 01/M04 A3027 310 69 -1300 130/06 RMK AO2
14840KMKG MKG20071118233509811/18/07 23:35:31  5-MIN KMKG 190435Z 12005KT 10SM BKN036 01/M04 A3027 310 69 -1300 130/05 RMK AO2
14840KMKG MKG20071118234009811/18/07 23:40:31  5-MIN KMKG 190440Z 12005KT 10SM BKN036 01/M04 A3027 310 69 -1300 130/05 RMK AO2
14840KMKG MKG20071118234509811/18/07 23:45:31  5-MIN KMKG 190445Z 13006KT 10SM OVC036 01/M04 A3027 310 69 -1300 130/06 RMK AO2
14840KMKG MKG20071118235012511/18/07 23:50:31  5-MIN KMKG 190450Z 13006KT 10SM OVC036 01/M04 A3026 320 66 -1200 130/06 RMK AO2 SLP254 T00111044 400671006
14840KMKG MKG20071118235512511/18/07 23:55:31  5-MIN KMKG 190455Z 13006KT 10SM OVC036 01/M04 A3026 320 66 -1200 130/06 RMK AO2 SLP253 T00111044 400671006
14840KMKG MKG20071119000009811/19/07 00:00:32  5-MIN KMKG 190500Z 12006KT 10SM OVC036 01/M04 A3026 320 66 -1200 130/06 RMK AO2
14840KMKG MKG20071119000509811/19/07 00:05:31  5-MIN KMKG 190505Z 12006KT 10SM OVC036 01/M04 A3026 320 66 -1200 130/06 RMK AO2
14840KMKG MKG20071119001009811/19/07 00:10:31  5-MIN KMKG 190510Z 12006KT 10SM OVC036 01/M05 A3026 320 64 -1200 130/06 RMK AO2
14840KMKG MKG20071119001509811/19/07 00:15:31  5-MIN KMKG 190515Z 13006KT 10SM OVC036 01/M05 A3026 320 64 -1200 130/06 RMK AO2
14840KMKG MKG20071119002009811/19/07 00:20:31  5-MIN KMKG 190520Z 14006KT 10SM OVC036 02/M05 A3026 320 61 -1100 140/06 RMK AO2
14840KMKG MKG20071119002509811/19/07 00:25:31  5-MIN KMKG 190525Z 13005KT 10SM OVC036 02/M05 A3026 310 61 -1100 130/05 RMK AO2
14840KMKG MKG20071119003009811/19/07 00:30:31  5-MIN KMKG 190530Z 13006KT 10SM OVC036 02/M04 A3026 310 64 -1100 130/06 RMK AO2
14840KMKG MKG20071119003509811/19/07 00:35:31  5-MIN KMKG 190535Z 12007KT 10SM OVC034 02/M04 A3026 320 64 -1100 120/07 RMK AO2
14840KMKG MKG20071119004009811/19/07 00:40:31  5-MIN KMKG 190540Z 11006KT 10SM OVC034 02/M04 A3026 320 64 -1100 120/06 RMK AO2
14840KMKG MKG20071119004510511/19/07 00:45:31  5-MIN KMKG 190545Z 12007KT 10SM BKN034 OVC080 02/M05 A3026 320 61 -1100 120/07 RMK AO2
14840KMKG MKG20071119005014011/19/07 00:50:31  5-MIN KMKG 190550Z 11006KT 10SM BKN034 OVC080 02/M05 A3025 330 61 -1100 120/06 RMK AO2 SLP250 T00171050 10039 20000 55005
14840KMKG MKG20071119005515511/19/07 00:55:31  5-MIN KMKG 190555Z 11008KT 10SM SCT034 OVC080 02/M05 A3024 330 61 -1100 110/08 RMK AO2 CIG 034 RWY 14 SLP247 T00171050 10039 20000 58013
14840KMKG MKG20071119010010511/19/07 01:00:31  5-MIN KMKG 190600Z 12008KT 10SM SCT032 OVC080 02/M05 A3024 340 61 -1100 120/08 RMK AO2
14840KMKG MKG20071119010510511/19/07 01:05:31  5-MIN KMKG 190605Z 12008KT 10SM FEW034 OVC080 02/M05 A3024 340 61 -1100 120/08 RMK AO2
14840KMKG MKG20071119011009811/19/07 01:10:31  5-MIN KMKG 190610Z 12008KT 10SM OVC080 02/M05 A3023 340 61 -1100 120/08 RMK AO2
14840KMKG MKG20071119011509811/19/07 01:15:31  5-MIN KMKG 190615Z 12010KT 10SM BKN080 02/M05 A3023 340 61 -1100 120/10 RMK AO2
14840KMKG MKG20071119012009811/19/07 01:20:31  5-MIN KMKG 190620Z 12009KT 10SM BKN080 02/M04 A3023 350 64 -1100 120/09 RMK AO2
14840KMKG MKG20071119012510511/19/07 01:25:31  5-MIN KMKG 190625Z 12010KT 10SM BKN080 BKN100 02/M05 A3022 360 61 -1100 130/10 RMK AO2
14840KMKG MKG20071119013012711/19/07 01:30:31  5-MIN KMKG 190630Z 12010KT 10SM SCT080 BKN095 02/M04 A3021 360 64 -1100 120/10 RMK AO2 CIG 080 RWY 14 PRESFR
14840KMKG MKG20071119013512011/19/07 01:35:31  5-MIN KMKG 190635Z 12010KT 10SM FEW075 BKN095 02/M04 A3021 360 64 -1100 130/10 RMK AO2 CIG 075 RWY 14
14840KMKG MKG20071119014010511/19/07 01:40:31  5-MIN KMKG 190640Z 12010KT 10SM FEW070 SCT095 02/M04 A3021 370 64 -1100 120/10 RMK AO2
14840KMKG MKG20071119014514311/19/07 01:45:31  5-MIN KMKG 190645Z 12009KT 10SM -RA FEW060 SCT070 BKN095 02/M04 A3021 370 64 -1100 130/09 RMK AO2 RAB42 CIG 070 RWY 14 P0000
14840KMKG MKG20071119015015311/19/07 01:50:31  5-MIN KMKG 190650Z 12011KT 10SM -RA SCT055 BKN095 02/M04 A3021 370 66 -1100 130/11 RMK AO2 RAB42 CIG 070 RWY 14 SLP235 P0000 T00171039
14840KMKG MKG20071119015513711/19/07 01:55:31  5-MIN KMKG 190655Z 13008KT 10SM BKN055 BKN095 02/M04 A3022 360 66 -1100 130/08 RMK AO2 RAB42E54 SLP239 P0000 T00171039
14840KMKG MKG20071119020009811/19/07 02:00:31  5-MIN KMKG 190700Z 13007KT 10SM BKN055 02/M04 A3022 350 66 -1100 130/07 RMK AO2
14840KMKG MKG20071119020509811/19/07 02:05:31  5-MIN KMKG 190705Z 13008KT 10SM BKN050 02/M04 A3022 360 66 -1100 130/08 RMK AO2
14840KMKG MKG20071119021009811/19/07 02:10:31  5-MIN KMKG 190710Z 12009KT 10SM OVC050 02/M03 A3022 360 69 -1100 130/09 RMK AO2
14840KMKG MKG20071119021509811/19/07 02:15:31  5-MIN KMKG 190715Z 12009KT 10SM OVC050 02/M03 A3021 360 67 -1000 130/09 RMK AO2
14840KMKG MKG20071119022009811/19/07 02:20:31  5-MIN KMKG 190720Z 13009KT 10SM OVC050 02/M03 A3021 360 67 -1000 130/09 RMK AO2
14840KMKG MKG20071119022509811/19/07 02:25:31  5-MIN KMKG 190725Z 14009KT 10SM OVC050 02/M03 A3021 360 69 -1000 140/09 RMK AO2
14840KMKG MKG20071119023009811/19/07 02:30:31  5-MIN KMKG 190730Z 14007KT 10SM OVC050 02/M03 A3021 360 69 -1000 140/07 RMK AO2
14840KMKG MKG20071119023509811/19/07 02:35:31  5-MIN KMKG 190735Z 14008KT 10SM OVC050 02/M03 A3021 360 69 -1000 150/08 RMK AO2
14840KMKG MKG20071119024009811/19/07 02:40:31  5-MIN KMKG 190740Z 15007KT 10SM OVC050 02/M03 A3022 360 69 -1000 150/07 RMK AO2
14840KMKG MKG20071119024509711/19/07 02:45:31  5-MIN KMKG 190745Z 14008KT 10SM OVC050 03/M03 A3021 360 67 -900 150/08 RMK AO2
14840KMKG MKG20071119025011411/19/07 02:50:31  5-MIN KMKG 190750Z 14010KT 10SM OVC050 03/M03 A3021 360 67 -900 140/10 RMK AO2 SLP237 T00281028
14840KMKG MKG20071119025511411/19/07 02:55:31  5-MIN KMKG 190755Z 14007KT 10SM OVC050 03/M03 A3021 360 67 -900 150/07 RMK AO2 SLP237 T00281028
14840KMKG MKG20071119030009711/19/07 03:00:31  5-MIN KMKG 190800Z 15010KT 10SM OVC050 03/M02 A3021 360 69 -900 150/10 RMK AO2
14840KMKG MKG20071119030509711/19/07 03:05:31  5-MIN KMKG 190805Z 14009KT 10SM OVC050 03/M02 A3020 370 69 -900 140/09 RMK AO2
14840KMKG MKG20071119031009711/19/07 03:10:31  5-MIN KMKG 190810Z 14009KT 10SM OVC050 03/M02 A3021 370 69 -900 150/09 RMK AO2
14840KMKG MKG20071119031509711/19/07 03:15:31  5-MIN KMKG 190815Z 14010KT 10SM OVC050 03/M02 A3020 370 69 -900 140/10 RMK AO2
14840KMKG MKG20071119032009711/19/07 03:20:31  5-MIN KMKG 190820Z 14009KT 10SM OVC050 03/M02 A3020 370 69 -900 150/09 RMK AO2
14840KMKG MKG20071119032509711/19/07 03:25:31  5-MIN KMKG 190825Z 14011KT 10SM OVC050 03/M02 A3020 370 69 -900 150/11 RMK AO2
14840KMKG MKG20071119033009711/19/07 03:30:31  5-MIN KMKG 190830Z 14008KT 10SM OVC050 03/M02 A3020 370 70 -900 150/08 RMK AO2
14840KMKG MKG20071119033509711/19/07 03:35:31  5-MIN KMKG 190835Z 14011KT 10SM OVC050 03/M02 A3019 380 70 -900 140/11 RMK AO2
14840KMKG MKG20071119034010411/19/07 03:40:31  5-MIN KMKG 190840Z 14011KT 10SM OVC048 03/M02 A3018 390 70 -800 150/11 RMK AO2 PRESFR
14840KMKG MKG20071119034511111/19/07 03:45:31  5-MIN KMKG 190845Z 15010KT 10SM BKN048 OVC065 03/M02 A3018 400 70 -800 150/10 RMK AO2 PRESFR
14840KMKG MKG20071119035013311/19/07 03:50:31  5-MIN KMKG 190850Z 14011KT 10SM BKN048 OVC065 03/M02 A3017 400 70 -800 140/11 RMK AO2 SLP223 60000 T00331017 58013
14840KMKG MKG20071119035513311/19/07 03:55:31  5-MIN KMKG 190855Z 14012KT 10SM BKN046 OVC070 03/M01 A3017 400 72 -800 140/12 RMK AO2 SLP223 60000 T00331011 58023
14840KMKG MKG20071119040011011/19/07 04:00:31  5-MIN KMKG 190900Z 14010G17KT 10SM SCT046 OVC070 03/M01 A3018 390 72 -800 150/10G17 RMK AO2
14840KMKG MKG20071119040512511/19/07 04:05:31  5-MIN KMKG 190905Z 14011G18KT 10SM SCT046 OVC070 03/M01 A3017 400 72 -800 140/11G18 RMK AO2 CIG 046 RWY 14
14840KMKG MKG20071119041011011/19/07 04:10:31  5-MIN KMKG 190910Z 14012G18KT 10SM SCT046 OVC065 03/M01 A3017 400 72 -800 140/12G18 RMK AO2
14840KMKG MKG20071119041511111/19/07 04:15:31  5-MIN KMKG 190915Z 15011KT 10SM FEW046 BKN060 OVC075 03/M01 A3017 400 72 -800 150/11 RMK AO2
14840KMKG MKG20071119042011111/19/07 04:20:31  5-MIN KMKG 190920Z 14008KT 10SM SCT046 BKN060 OVC075 04/M01 A3017 400 70 -800 150/08 RMK AO2
14840KMKG MKG20071119042510411/19/07 04:25:31  5-MIN KMKG 190925Z 15011KT 10SM SCT046 OVC060 04/M01 A3016 410 70 -800 150/11 RMK AO2
14840KMKG MKG20071119043011011/19/07 04:30:31  5-MIN KMKG 190930Z 14009G17KT 10SM FEW046 OVC060 04/M01 A3016 410 70 -800 140/09G17 RMK AO2
14840KMKG MKG20071119043511011/19/07 04:35:31  5-MIN KMKG 190935Z 15011G17KT 10SM FEW046 OVC060 04/M01 A3015 420 70 -700 150/11G17 RMK AO2
14840KMKG MKG20071119044010411/19/07 04:40:31  5-MIN KMKG 190940Z 14011KT 10SM FEW046 OVC060 04/M01 A3015 420 70 -700 140/11 RMK AO2
14840KMKG MKG20071119044511711/19/07 04:45:31  5-MIN KMKG 190945Z 15008G16KT 10SM FEW046 BKN060 OVC095 03/M01 A3015 420 72 -800 150/08G16 RMK AO2
14840KMKG MKG20071119045012111/19/07 04:50:31  5-MIN KMKG 190950Z 15009KT 10SM BKN060 BKN095 03/M01 A3016 410 72 -800 150/09 RMK AO2 SLP218 T00331011
14840KMKG MKG20071119045512711/19/07 04:55:31  5-MIN KMKG 190955Z 14008G15KT 10SM BKN060 BKN095 03/M01 A3017 400 72 -800 150/08G15 RMK AO2 SLP221 T00331011
14840KMKG MKG20071119050010411/19/07 05:00:31  5-MIN KMKG 191000Z 14011KT 10SM BKN060 BKN095 04/M01 A3016 410 70 -800 140/11 RMK AO2
14840KMKG MKG20071119050510411/19/07 05:05:31  5-MIN KMKG 191005Z 14010KT 10SM BKN060 BKN095 04/M01 A3016 410 70 -700 140/10 RMK AO2
14840KMKG MKG20071119051009711/19/07 05:10:31  5-MIN KMKG 191010Z 15009KT 10SM BKN060 04/M01 A3016 410 70 -800 160/09 RMK AO2
14840KMKG MKG20071119051509711/19/07 05:15:31  5-MIN KMKG 191015Z 15010KT 10SM BKN060 04/M01 A3016 410 70 -800 160/10 RMK AO2
14840KMKG MKG20071119052009711/19/07 05:20:31  5-MIN KMKG 191020Z 15009KT 10SM OVC055 04/M01 A3016 410 73 -700 160/09 RMK AO2
14840KMKG MKG20071119052509711/19/07 05:25:31  5-MIN KMKG 191025Z 15009KT 10SM OVC055 04/M01 A3015 420 70 -700 150/09 RMK AO2
14840KMKG MKG20071119053010311/19/07 05:30:31  5-MIN KMKG 191030Z 14012G16KT 10SM OVC055 04/M01 A3014 420 73 -700 150/12G16 RMK AO2
14840KMKG MKG20071119053510311/19/07 05:35:31  5-MIN KMKG 191035Z 15010G16KT 10SM OVC060 04/M01 A3014 430 70 -700 150/10G16 RMK AO2
14840KMKG MKG20071119054009711/19/07 05:40:31  5-MIN KMKG 191040Z 15008KT 10SM OVC060 04/M01 A3015 420 73 -700 150/08 RMK AO2
14840KMKG MKG20071119054509711/19/07 05:45:31  5-MIN KMKG 191045Z 14007KT 10SM OVC060 04/M01 A3016 410 73 -700 150/07 RMK AO2
14840KMKG MKG20071119055011411/19/07 05:50:31  5-MIN KMKG 191050Z 15008KT 10SM OVC060 04/M01 A3015 420 73 -700 150/08 RMK AO2 SLP214 T00391006
14840KMKG MKG20071119055511411/19/07 05:55:31  5-MIN KMKG 191055Z 15010KT 10SM OVC060 04/M01 A3015 420 73 -700 150/10 RMK AO2 SLP214 T00391006
14840KMKG MKG20071119060009711/19/07 06:00:31  5-MIN KMKG 191100Z 15010KT 10SM OVC060 04/M01 A3014 430 73 -700 150/10 RMK AO2
14840KMKG MKG20071119060509711/19/07 06:05:31  5-MIN KMKG 191105Z 15012KT 10SM BKN060 04/M01 A3014 430 70 -700 150/12 RMK AO2
14840KMKG MKG20071119061009711/19/07 06:10:31  5-MIN KMKG 191110Z 15010KT 10SM BKN060 04/M01 A3013 430 70 -700 150/10 RMK AO2
14840KMKG MKG20071119061509711/19/07 06:15:31  5-MIN KMKG 191115Z 15011KT 10SM BKN060 04/M01 A3013 440 67 -600 150/11 RMK AO2
14840KMKG MKG20071119062009711/19/07 06:20:31  5-MIN KMKG 191120Z 15010KT 10SM SCT060 04/M01 A3013 440 67 -600 150/10 RMK AO2
14840KMKG MKG20071119062510311/19/07 06:25:31  5-MIN KMKG 191125Z 15010G16KT 10SM SCT055 04/M01 A3012 440 67 -600 150/10G16 RMK AO2
14840KMKG MKG20071119063011011/19/07 06:30:31  5-MIN KMKG 191130Z 14009G16KT 10SM SCT050 SCT060 04/M01 A3012 450 67 -600 140/09G16 RMK AO2
14840KMKG MKG20071119063510311/19/07 06:35:31  5-MIN KMKG 191135Z 15011G18KT 10SM BKN050 04/M01 A3012 450 67 -600 150/11G18 RMK AO2
14840KMKG MKG20071119064010311/19/07 06:40:31  5-MIN KMKG 191140Z 14012G18KT 10SM BKN050 04/M01 A3012 450 67 -600 140/12G18 RMK AO2
14840KMKG MKG20071119064510311/19/07 06:45:31  5-MIN KMKG 191145Z 14012G17KT 10SM BKN050 04/M01 A3012 450 67 -600 150/12G17 RMK AO2
14840KMKG MKG20071119065013811/19/07 06:50:31  5-MIN KMKG 191150Z 14011KT 10SM OVC050 04/M01 A3011 450 67 -600 150/11 RMK AO2 SLP203 60000 T00441011 10044 20017 58023
14840KMKG MKG20071119065514511/19/07 06:55:31  5-MIN KMKG 191155Z 14012KT 10SM BKN047 OVC055 04/M01 A3011 450 67 -600 150/12 RMK AO2 SLP203 60000 T00441011 10044 20017 58020
14840KMKG MKG20071119070009711/19/07 07:00:31  5-MIN KMKG 191200Z 14010KT 10SM OVC049 04/M01 A3011 450 67 -600 140/10 RMK AO2
14840KMKG MKG20071119070509711/19/07 07:05:31  5-MIN KMKG 191205Z 15009KT 10SM OVC049 04/M01 A3012 450 67 -600 150/09 RMK AO2
14840KMKG MKG20071119071009711/19/07 07:10:31  5-MIN KMKG 191210Z 14009KT 10SM OVC049 04/M01 A3012 450 67 -600 150/09 RMK AO2
14840KMKG MKG20071119071509711/19/07 07:15:31  5-MIN KMKG 191215Z 14011KT 10SM OVC049 04/M01 A3011 450 67 -600 140/11 RMK AO2
14840KMKG MKG20071119072009711/19/07 07:20:31  5-MIN KMKG 191220Z 14010KT 10SM OVC047 04/M01 A3011 450 67 -600 140/10 RMK AO2
14840KMKG MKG20071119072509711/19/07 07:25:31  5-MIN KMKG 191225Z 14008KT 10SM OVC047 04/M01 A3011 460 70 -600 150/08 RMK AO2
14840KMKG MKG20071119073009711/19/07 07:30:31  5-MIN KMKG 191230Z 14010KT 10SM OVC047 04/M01 A3010 460 70 -600 150/10 RMK AO2
14840KMKG MKG20071119073510311/19/07 07:35:31  5-MIN KMKG 191235Z 14008G16KT 10SM BKN047 04/M01 A3011 460 70 -600 150/08G16 RMK AO2
14840KMKG MKG20071119074009711/19/07 07:40:31  5-MIN KMKG 191240Z 15010KT 10SM BKN045 04/M01 A3011 450 70 -600 150/10 RMK AO2
14840KMKG MKG20071119074509711/19/07 07:45:31  5-MIN KMKG 191245Z 14010KT 10SM BKN045 04/M01 A3011 450 70 -600 150/10 RMK AO2
14840KMKG MKG20071119075011411/19/07 07:50:31  5-MIN KMKG 191250Z 14008KT 10SM BKN045 04/M01 A3011 460 70 -600 150/08 RMK AO2 SLP202 T00441006
14840KMKG MKG20071119075511411/19/07 07:55:31  5-MIN KMKG 191255Z 14009KT 10SM OVC045 05/M01 A3011 460 67 -500 140/09 RMK AO2 SLP200 T00501006
14840KMKG MKG20071119080009711/19/07 08:00:31  5-MIN KMKG 191300Z 14011KT 10SM BKN045 05/M01 A3011 460 67 -500 140/11 RMK AO2
14840KMKG MKG20071119080509711/19/07 08:05:31  5-MIN KMKG 191305Z 14011KT 10SM BKN045 05/M01 A3010 460 67 -500 140/11 RMK AO2
14840KMKG MKG20071119081009711/19/07 08:10:31  5-MIN KMKG 191310Z 14010KT 10SM OVC045 05/M01 A3010 460 67 -500 140/10 RMK AO2
14840KMKG MKG20071119081509711/19/07 08:15:31  5-MIN KMKG 191315Z 14010KT 10SM OVC043 05/M01 A3010 460 67 -500 140/10 RMK AO2
14840KMKG MKG20071119082009711/19/07 08:20:31  5-MIN KMKG 191320Z 13011KT 10SM OVC043 05/M01 A3010 460 67 -500 140/11 RMK AO2
14840KMKG MKG20071119082509711/19/07 08:25:31  5-MIN KMKG 191325Z 14010KT 10SM OVC043 05/M01 A3010 470 67 -500 140/10 RMK AO2
14840KMKG MKG20071119083009711/19/07 08:30:31  5-MIN KMKG 191330Z 14010KT 10SM OVC041 05/M01 A3009 470 67 -500 140/10 RMK AO2
14840KMKG MKG20071119083509711/19/07 08:35:31  5-MIN KMKG 191335Z 14012KT 10SM OVC041 05/M01 A3009 470 67 -500 140/12 RMK AO2
14840KMKG MKG20071119084009711/19/07 08:40:31  5-MIN KMKG 191340Z 14013KT 10SM OVC039 05/M01 A3009 480 67 -500 140/13 RMK AO2
14840KMKG MKG20071119084509711/19/07 08:45:31  5-MIN KMKG 191345Z 14010KT 10SM OVC039 05/M01 A3009 480 67 -500 140/10 RMK AO2
14840KMKG MKG20071119085012011/19/07 08:50:31  5-MIN KMKG 191350Z 14010G20KT 10SM OVC037 05/M01 A3008 480 67 -500 140/10G20 RMK AO2 SLP193 T00501006
14840KMKG MKG20071119085512011/19/07 08:55:31  5-MIN KMKG 191355Z 14009G20KT 10SM OVC035 06/M01 A3009 480 65 -500 140/09G20 RMK AO2 SLP195 T00561006
14840KMKG MKG20071119090009711/19/07 09:00:31  5-MIN KMKG 191400Z 15008KT 10SM OVC035 06/M01 A3009 470 65 -500 150/08 RMK AO2
14840KMKG MKG20071119090509511/19/07 09:05:31  5-MIN KMKG 191405Z 15007KT 9SM OVC033 06/00 A3009 470 67 -500 150/07 RMK AO2
14840KMKG MKG20071119091009511/19/07 09:10:31  5-MIN KMKG 191410Z 14008KT 9SM OVC033 06/00 A3009 470 67 -500 150/08 RMK AO2
14840KMKG MKG20071119091509511/19/07 09:15:31  5-MIN KMKG 191415Z 14008KT 9SM OVC033 06/00 A3009 470 67 -500 150/08 RMK AO2
14840KMKG MKG20071119092009511/19/07 09:20:31  5-MIN KMKG 191420Z 15007KT 9SM OVC033 06/00 A3010 470 67 -500 150/07 RMK AO2
14840KMKG MKG20071119092509511/19/07 09:25:31  5-MIN KMKG 191425Z 16006KT 9SM OVC033 06/00 A3010 470 67 -500 160/06 RMK AO2
14840KMKG MKG20071119093009511/19/07 09:30:31  5-MIN KMKG 191430Z 15009KT 9SM OVC031 06/00 A3010 470 67 -500 150/09 RMK AO2
14840KMKG MKG20071119093510311/19/07 09:35:31  5-MIN KMKG 191435Z 15007KT 10SM BKN027 OVC033 06/00 A3010 460 67 -500 160/07 RMK AO2
14840KMKG MKG20071119094010211/19/07 09:40:31  5-MIN KMKG 191440Z 16005KT 9SM BKN027 OVC033 06/00 A3010 460 65 -400 160/05 RMK AO2
14840KMKG MKG20071119094509511/19/07 09:45:31  5-MIN KMKG 191445Z 15005KT 9SM OVC027 06/00 A3010 470 65 -400 150/05 RMK AO2
14840KMKG MKG20071119095012511/19/07 09:50:31  5-MIN KMKG 191450Z 15006KT 7SM BKN025 OVC030 06/01 A3010 470 70 -500 150/06 RMK AO2 SLP198 T00560006 58020
14840KMKG MKG20071119095511811/19/07 09:55:31  5-MIN KMKG 191455Z 16007KT 7SM OVC025 06/01 A3010 460 67 -400 160/07 RMK AO2 SLP198 T00610006 55004
14840KMKG MKG20071119100009511/19/07 10:00:31  5-MIN KMKG 191500Z 15008KT 9SM OVC025 06/01 A3009 470 67 -400 150/08 RMK AO2
14840KMKG MKG20071119100509511/19/07 10:05:31  5-MIN KMKG 191505Z 15008KT 9SM OVC025 06/01 A3010 470 67 -400 160/08 RMK AO2
14840KMKG MKG20071119101009511/19/07 10:10:31  5-MIN KMKG 191510Z 15008KT 9SM OVC025 06/01 A3009 480 67 -400 150/08 RMK AO2
14840KMKG MKG20071119101509511/19/07 10:15:31  5-MIN KMKG 191515Z 14007KT 9SM OVC023 06/01 A3009 480 67 -400 140/07 RMK AO2
14840KMKG MKG20071119102009511/19/07 10:20:31  5-MIN KMKG 191520Z 15006KT 9SM OVC023 06/01 A3009 470 67 -400 150/06 RMK AO2
14840KMKG MKG20071119102509511/19/07 10:25:31  5-MIN KMKG 191525Z 14008KT 9SM OVC023 06/01 A3009 480 67 -400 140/08 RMK AO2
14840KMKG MKG20071119103009511/19/07 10:30:31  5-MIN KMKG 191530Z 15008KT 9SM OVC021 06/01 A3008 480 67 -400 150/08 RMK AO2
14840KMKG MKG20071119103509511/19/07 10:35:31  5-MIN KMKG 191535Z 15008KT 9SM OVC021 06/01 A3008 480 67 -400 150/08 RMK AO2
14840KMKG MKG20071119104009511/19/07 10:40:31  5-MIN KMKG 191540Z 15006KT 9SM BKN021 06/01 A3008 480 67 -400 160/06 RMK AO2
14840KMKG MKG20071119104509511/19/07 10:45:31  5-MIN KMKG 191545Z 14007KT 9SM BKN019 07/01 A3008 480 67 -300 150/07 RMK AO2
14840KMKG MKG20071119105011211/19/07 10:50:31  5-MIN KMKG 191550Z 15006KT 8SM OVC019 06/01 A3008 480 67 -400 160/06 RMK AO2 SLP192 T00610006
14840KMKG MKG20071119105511211/19/07 10:55:31  5-MIN KMKG 191555Z 15008KT 8SM OVC019 07/01 A3008 490 67 -300 150/08 RMK AO2 SLP191 T00670011
14840KMKG MKG20071119110009511/19/07 11:00:31  5-MIN KMKG 191600Z 16008KT 8SM OVC019 06/01 A3008 480 70 -400 160/08 RMK AO2
14840KMKG MKG20071119110509511/19/07 11:05:31  5-MIN KMKG 191605Z 15005KT 8SM OVC019 07/01 A3008 490 67 -300 150/05 RMK AO2
14840KMKG MKG20071119111009511/19/07 11:10:31  5-MIN KMKG 191610Z 15006KT 8SM OVC019 07/01 A3008 490 67 -300 150/06 RMK AO2
14840KMKG MKG20071119111509511/19/07 11:15:31  5-MIN KMKG 191615Z 15008KT 8SM OVC019 07/01 A3008 490 67 -300 150/08 RMK AO2
14840KMKG MKG20071119112009511/19/07 11:20:31  5-MIN KMKG 191620Z 15008KT 8SM OVC019 07/01 A3007 490 67 -300 150/08 RMK AO2
14840KMKG MKG20071119112510211/19/07 11:25:31  5-MIN KMKG 191625Z 15009KT 8SM OVC019 07/01 A3005 510 67 -300 150/09 RMK AO2 PRESFR
14840KMKG MKG20071119113010211/19/07 11:30:31  5-MIN KMKG 191630Z 15008KT 8SM OVC019 07/01 A3005 510 67 -300 150/08 RMK AO2 PRESFR
14840KMKG MKG20071119113510211/19/07 11:35:31  5-MIN KMKG 191635Z 16011KT 8SM OVC019 07/01 A3004 520 67 -300 160/11 RMK AO2 PRESFR
14840KMKG MKG20071119114009511/19/07 11:40:31  5-MIN KMKG 191640Z 16007KT 8SM OVC019 07/01 A3004 520 65 -200 170/07 RMK AO2
14840KMKG MKG20071119114509511/19/07 11:45:31  5-MIN KMKG 191645Z 15009KT 8SM OVC017 07/01 A3004 520 67 -300 150/09 RMK AO2
14840KMKG MKG20071119115011211/19/07 11:50:31  5-MIN KMKG 191650Z 15008KT 8SM OVC017 07/01 A3004 520 67 -300 160/08 RMK AO2 SLP177 T00670011
14840KMKG MKG20071119115511211/19/07 11:55:31  5-MIN KMKG 191655Z 17008KT 8SM OVC017 07/02 A3005 520 68 -200 170/08 RMK AO2 SLP180 T00720017
14840KMKG MKG20071119120009511/19/07 12:00:31  5-MIN KMKG 191700Z 16009KT 7SM OVC017 07/02 A3004 520 68 -200 160/09 RMK AO2
14840KMKG MKG20071119120509511/19/07 12:05:31  5-MIN KMKG 191705Z 16007KT 7SM OVC017 07/02 A3004 520 68 -200 170/07 RMK AO2
14840KMKG MKG20071119121009511/19/07 12:10:31  5-MIN KMKG 191710Z 16007KT 7SM OVC017 07/02 A3003 520 68 -200 160/07 RMK AO2
14840KMKG MKG20071119121509511/19/07 12:15:31  5-MIN KMKG 191715Z 16008KT 7SM OVC017 07/02 A3003 530 68 -200 160/08 RMK AO2
14840KMKG MKG20071119122009511/19/07 12:20:31  5-MIN KMKG 191720Z 17007KT 7SM OVC017 07/02 A3003 530 68 -200 170/07 RMK AO2
14840KMKG MKG20071119122509511/19/07 12:25:31  5-MIN KMKG 191725Z 16008KT 7SM OVC017 07/02 A3003 530 68 -200 170/08 RMK AO2
14840KMKG MKG20071119123009811/19/07 12:30:31  5-MIN KMKG 191730Z 17010KT 6SM HZ OVC017 07/02 A3002 530 70 -200 170/10 RMK AO2
14840KMKG MKG20071119123509811/19/07 12:35:31  5-MIN KMKG 191735Z 16007KT 6SM HZ OVC017 07/02 A3002 540 70 -200 170/07 RMK AO2
14840KMKG MKG20071119124009811/19/07 12:40:31  5-MIN KMKG 191740Z 15006KT 6SM HZ OVC017 07/02 A3001 540 70 -200 160/06 RMK AO2
14840KMKG MKG20071119124509811/19/07 12:45:31  5-MIN KMKG 191745Z 17009KT 6SM HZ OVC017 07/03 A3001 550 73 -200 170/09 RMK AO2
14840KMKG MKG20071119125013311/19/07 12:50:31  5-MIN KMKG 191750Z 18010KT 5SM HZ OVC017 07/03 A3001 550 73 -200 180/10 RMK AO2 SLP168 T00720028 10072 20044 55004
14840KMKG MKG20071119125513311/19/07 12:55:31  5-MIN KMKG 191755Z 16007KT 5SM HZ OVC015 07/03 A3001 550 73 -200 170/07 RMK AO2 SLP168 T00720028 10072 20044 58030
14840KMKG MKG20071119130009811/19/07 13:00:31  5-MIN KMKG 191800Z 15007KT 5SM HZ OVC015 07/03 A3001 550 73 -200 150/07 RMK AO2
14840KMKG MKG20071119130509811/19/07 13:05:31  5-MIN KMKG 191805Z 16007KT 5SM HZ OVC015 07/03 A3000 550 73 -200 170/07 RMK AO2
14840KMKG MKG20071119131009811/19/07 13:10:31  5-MIN KMKG 191810Z 16004KT 5SM HZ OVC015 07/03 A3000 560 73 -200 160/04 RMK AO2
14840KMKG MKG20071119131509811/19/07 13:15:31  5-MIN KMKG 191815Z 16005KT 5SM HZ OVC015 07/03 A2999 560 73 -100 160/05 RMK AO2
14840KMKG MKG20071119132009811/19/07 13:20:31  5-MIN KMKG 191820Z 15007KT 5SM HZ OVC015 07/03 A2999 570 73 -100 150/07 RMK AO2
14840KMKG MKG20071119132509811/19/07 13:25:31  5-MIN KMKG 191825Z 16007KT 4SM HZ OVC015 07/03 A2998 570 76 -100 160/07 RMK AO2
14840KMKG MKG20071119133009811/19/07 13:30:31  5-MIN KMKG 191830Z 17007KT 4SM HZ OVC015 07/03 A2998 570 76 -100 170/07 RMK AO2
14840KMKG MKG20071119133509811/19/07 13:35:31  5-MIN KMKG 191835Z 14007KT 4SM HZ OVC013 07/03 A2998 580 76 -100 150/07 RMK AO2
14840KMKG MKG20071119134009811/19/07 13:40:31  5-MIN KMKG 191840Z 15007KT 4SM HZ OVC013 07/03 A2997 580 76 -100 160/07 RMK AO2
14840KMKG MKG20071119134509811/19/07 13:45:31  5-MIN KMKG 191845Z 14007KT 4SM HZ OVC013 07/03 A2997 580 76 -100 140/07 RMK AO2
14840KMKG MKG20071119135011511/19/07 13:50:31  5-MIN KMKG 191850Z 16008KT 4SM HZ OVC013 07/03 A2997 580 76 -100 160/08 RMK AO2 SLP154 T00720033
14840KMKG MKG20071119135511511/19/07 13:55:31  5-MIN KMKG 191855Z 16009KT 4SM HZ OVC013 07/03 A2997 590 76 -100 160/09 RMK AO2 SLP153 T00720033
14840KMKG MKG20071119140009811/19/07 14:00:31  5-MIN KMKG 191900Z 16010KT 4SM HZ OVC013 07/04 A2996 590 79 -100 170/10 RMK AO2
14840KMKG MKG20071119140509811/19/07 14:05:31  5-MIN KMKG 191905Z 16009KT 3SM HZ OVC013 07/04 A2995 600 79 -100 160/09 RMK AO2
14840KMKG MKG20071119141010511/19/07 14:10:31  5-MIN KMKG 191910Z 14008KT 3SM HZ OVC013 07/04 A2995 600 79 -100 140/08 RMK AO2 PRESFR
14840KMKG MKG20071119141510511/19/07 14:15:31  5-MIN KMKG 191915Z 13010KT 3SM HZ OVC013 07/04 A2994 610 79 -100 130/10 RMK AO2 PRESFR
14840KMKG MKG20071119142011111/19/07 14:20:31  5-MIN KMKG 191920Z 14010G17KT 3SM HZ OVC013 07/04 A2994 610 79 -100 140/10G17 RMK AO2 PRESFR
14840KMKG MKG20071119142510411/19/07 14:25:31  5-MIN KMKG 191925Z 14009G17KT 3SM HZ OVC011 07/04 A2993 620 79 -100 140/09G17 RMK AO2
14840KMKG MKG20071119143009811/19/07 14:30:31  5-MIN KMKG 191930Z 16009KT 3SM HZ OVC011 07/04 A2993 620 79 -100 160/09 RMK AO2
14840KMKG MKG20071119143509811/19/07 14:35:31  5-MIN KMKG 191935Z 16008KT 3SM HZ OVC011 07/04 A2993 620 79 -100 160/08 RMK AO2
14840KMKG MKG20071119144009811/19/07 14:40:31  5-MIN KMKG 191940Z 14009KT 3SM HZ OVC011 07/04 A2993 620 79 -100 150/09 RMK AO2
14840KMKG MKG20071119144509811/19/07 14:45:31  5-MIN KMKG 191945Z 15010KT 3SM HZ OVC011 07/04 A2993 620 79 -100 150/10 RMK AO2
14840KMKG MKG20071119145011511/19/07 14:50:31  5-MIN KMKG 191950Z 14009KT 3SM HZ OVC011 07/04 A2993 620 79 -100 150/09 RMK AO2 SLP141 T00720039
14840KMKG MKG20071119145511511/19/07 14:55:31  5-MIN KMKG 191955Z 14008KT 3SM HZ OVC011 07/04 A2993 620 79 -100 150/08 RMK AO2 SLP139 T00720039
14840KMKG MKG20071119150009811/19/07 15:00:31  5-MIN KMKG 192000Z 14010KT 3SM HZ OVC011 07/04 A2992 630 79 -100 140/10 RMK AO2
14840KMKG MKG20071119150509811/19/07 15:05:31  5-MIN KMKG 192005Z 14011KT 3SM HZ OVC011 07/04 A2992 630 82 -100 140/11 RMK AO2
14840KMKG MKG20071119151010211/19/07 15:10:31  5-MIN KMKG 192010Z 15008KT 2 1/2SM HZ OVC009 07/04 A2992 630 82 -100 150/08 RMK AO2
14840KMKG MKG20071119151510211/19/07 15:15:31  5-MIN KMKG 192015Z 14009KT 2 1/2SM HZ OVC009 07/04 A2991 640 82 -100 140/09 RMK AO2
14840KMKG MKG20071119152010211/19/07 15:20:31  5-MIN KMKG 192020Z 15008KT 2 1/2SM HZ OVC009 07/04 A2991 640 82 -100 150/08 RMK AO2
14840KMKG MKG20071119152509811/19/07 15:25:31  5-MIN KMKG 192025Z 14010KT 3SM HZ OVC009 07/04 A2991 640 82 -100 150/10 RMK AO2
14840KMKG MKG20071119153009811/19/07 15:30:31  5-MIN KMKG 192030Z 14008KT 3SM HZ OVC009 07/04 A2991 640 82 -100 150/08 RMK AO2
14840KMKG MKG20071119153509511/19/07 15:35:31  5-MIN KMKG 192035Z 14007KT 3SM HZ OVC009 07/04 A2991 640 82 0 150/07 RMK AO2
14840KMKG MKG20071119154009511/19/07 15:40:31  5-MIN KMKG 192040Z 14007KT 3SM HZ OVC009 07/04 A2990 650 82 0 150/07 RMK AO2
14840KMKG MKG20071119154509511/19/07 15:45:31  5-MIN KMKG 192045Z 14008KT 2SM HZ OVC009 07/04 A2990 640 82 0 140/08 RMK AO2
14840KMKG MKG20071119155014411/19/07 15:50:31  5-MIN KMKG 192050Z 14011KT 1 1/2SM -DZ BR OVC009 07/05 A2990 650 86 0 140/11 RMK AO2 DZB50 SLP131 P0000 60000 T00720050 58030
14840KMKG MKG20071119155514311/19/07 15:55:31  5-MIN KMKG 192055Z 14010KT 1SM -DZ BR OVC009 07/05 A2990 650 89 -100 140/10 RMK AO2 DZB50 SLP131 P0000 60000 T00670050 56035
14840KMKG MKG20071119160010811/19/07 16:00:31  5-MIN KMKG 192100Z 14008KT 1SM -DZ BR OVC007 07/06 A2990 650 93 -100 140/08 RMK AO2 P0000
14840KMKG MKG20071119160511011/19/07 16:05:31  5-MIN KMKG 192105Z 13010KT 3/4SM -DZ BR OVC007 07/06 A2990 650 93 -100 140/10 RMK AO2 P0000
14840KMKG MKG20071119161012211/19/07 16:10:31  5-MIN KMKG 192110Z 14009KT 3/4SM -DZ BR OVC007 07/06 A2990 650 93 -100 140/09 RMK AO2 CIG 005V008 P0000
14840KMKG MKG20071119161512211/19/07 16:15:31  5-MIN KMKG 192115Z 14009KT 3/4SM -DZ BR OVC007 07/06 A2989 660 93 -100 140/09 RMK AO2 CIG 004V008 P0000
14840KMKG MKG20071119162012211/19/07 16:20:31  5-MIN KMKG 192120Z 13010KT 3/4SM -DZ BR OVC007 07/06 A2989 660 93 -100 140/10 RMK AO2 CIG 004V008 P0000
14840KMKG MKG20071119162512211/19/07 16:25:31  5-MIN KMKG 192125Z 14009KT 3/4SM -DZ BR OVC005 07/06 A2989 660 93 -100 140/09 RMK AO2 CIG 003V008 P0000
14840KMKG MKG20071119163012211/19/07 16:30:31  5-MIN KMKG 192130Z 14009KT 3/4SM -DZ BR OVC005 07/06 A2989 660 93 -100 140/09 RMK AO2 CIG 003V008 P0000
14840KMKG MKG20071119163511011/19/07 16:35:31  5-MIN KMKG 192135Z 14009KT 3/4SM -DZ BR OVC005 07/06 A2989 660 93 -100 140/09 RMK AO2 P0000
14840KMKG MKG20071119164011011/19/07 16:40:31  5-MIN KMKG 192140Z 14009KT 3/4SM -DZ BR OVC005 07/06 A2988 670 93 -100 150/09 RMK AO2 P0000
14840KMKG MKG20071119164512211/19/07 16:45:31  5-MIN KMKG 192145Z 14010KT 3/4SM -DZ BR OVC005 07/06 A2988 670 93 -100 140/10 RMK AO2 CIG 003V008 P0000
14840KMKG MKG20071119165012711/19/07 16:50:31  5-MIN KMKG 192150Z 14010KT 3/4SM -DZ BR OVC005 07/06 A2987 670 93 -100 150/10 RMK AO2 SLP121 P0000 T00670056
14840KMKG MKG20071119165512711/19/07 16:55:31  5-MIN KMKG 192155Z 14011KT 3/4SM -DZ BR OVC005 07/06 A2987 680 93 -100 140/11 RMK AO2 SLP118 P0000 T00670056
14840KMKG MKG20071119170011011/19/07 17:00:31  5-MIN KMKG 192200Z 14009KT 3/4SM -DZ BR OVC005 07/06 A2987 680 93 -100 150/09 RMK AO2 P0000
14840KMKG MKG20071119170511011/19/07 17:05:31  5-MIN KMKG 192205Z 14010KT 3/4SM -DZ BR OVC005 07/06 A2986 690 93 -100 140/10 RMK AO2 P0000
14840KMKG MKG20071119171011011/19/07 17:10:31  5-MIN KMKG 192210Z 15008KT 3/4SM -DZ BR OVC005 07/06 A2986 690 93 -100 150/08 RMK AO2 P0000
14840KMKG MKG20071119171510711/19/07 17:15:31  5-MIN KMKG 192215Z 14010KT 3/4SM -DZ BR OVC005 07/06 A2986 680 89 0 150/10 RMK AO2 P0000
14840KMKG MKG20071119172010711/19/07 17:20:31  5-MIN KMKG 192220Z 15008KT 3/4SM -DZ BR OVC005 07/06 A2986 690 89 0 150/08 RMK AO2 P0000
14840KMKG MKG20071119172510711/19/07 17:25:31  5-MIN KMKG 192225Z 15007KT 3/4SM -DZ BR OVC005 07/06 A2986 680 93 0 160/07 RMK AO2 P0000
14840KMKG MKG20071119173010511/19/07 17:30:31  5-MIN KMKG 192230Z 15009KT 1SM -DZ BR OVC005 07/06 A2986 690 93 0 160/09 RMK AO2 P0000
14840KMKG MKG20071119173510911/19/07 17:35:31  5-MIN KMKG 192235Z 15008KT 1 1/4SM -DZ BR OVC005 07/06 A2986 690 93 0 150/08 RMK AO2 P0000
14840KMKG MKG20071119174010911/19/07 17:40:31  5-MIN KMKG 192240Z 16009KT 1 1/2SM -DZ BR OVC005 07/06 A2986 690 93 0 160/09 RMK AO2 P0000
14840KMKG MKG20071119174510911/19/07 17:45:31  5-MIN KMKG 192245Z 15009KT 1 1/4SM -DZ BR OVC005 07/06 A2985 690 93 0 160/09 RMK AO2 P0000
14840KMKG MKG20071119175012611/19/07 17:50:31  5-MIN KMKG 192250Z 15005KT 1 1/4SM -DZ BR OVC005 07/06 A2985 690 93 0 150/05 RMK AO2 SLP114 P0000 T00720061
14840KMKG MKG20071119175512611/19/07 17:55:31  5-MIN KMKG 192255Z 15007KT 1 1/4SM -DZ BR OVC003 07/06 A2985 700 93 0 150/07 RMK AO2 SLP112 P0000 T00720061
14840KMKG MKG20071119180010911/19/07 18:00:31  5-MIN KMKG 192300Z 14008KT 1 1/4SM -DZ BR OVC003 07/06 A2984 700 93 0 150/08 RMK AO2 P0000
14840KMKG MKG20071119180510911/19/07 18:05:31  5-MIN KMKG 192305Z 14008KT 1 1/4SM -DZ BR OVC003 07/06 A2983 710 93 0 140/08 RMK AO2 P0000
14840KMKG MKG20071119181010911/19/07 18:10:31  5-MIN KMKG 192310Z 13008KT 1 1/4SM -DZ BR OVC003 07/06 A2983 710 93 0 140/08 RMK AO2 P0000
14840KMKG MKG20071119181511111/19/07 18:15:31  5-MIN KMKG 192315Z 14007KT 1 1/4SM -DZ BR OVC003 08/06 A2983 710 89 100 150/07 RMK AO2 P0001
14840KMKG MKG20071119182011111/19/07 18:20:31  5-MIN KMKG 192320Z 14008KT 1 1/4SM -DZ BR OVC003 08/07 A2983 710 93 100 140/08 RMK AO2 P0001
14840KMKG MKG20071119182511111/19/07 18:25:31  5-MIN KMKG 192325Z 14008KT 1 1/4SM -DZ BR OVC003 08/07 A2983 710 93 100 140/08 RMK AO2 P0001
14840KMKG MKG20071119183011111/19/07 18:30:31  5-MIN KMKG 192330Z 14007KT 1 1/4SM -DZ BR OVC003 08/07 A2983 710 93 100 150/07 RMK AO2 P0001
14840KMKG MKG20071119183511111/19/07 18:35:31  5-MIN KMKG 192335Z 15007KT 1 1/2SM -DZ BR OVC003 08/07 A2983 710 93 100 150/07 RMK AO2 P0001
14840KMKG MKG20071119184011111/19/07 18:40:31  5-MIN KMKG 192340Z 14007KT 1 3/4SM -DZ BR OVC003 08/07 A2983 720 93 100 140/07 RMK AO2 P0001
14840KMKG MKG20071119184511111/19/07 18:45:31  5-MIN KMKG 192345Z 14008KT 1 3/4SM -DZ BR OVC003 08/07 A2983 710 93 100 140/08 RMK AO2 P0001
14840KMKG MKG20071119185015411/19/07 18:50:31  5-MIN KMKG 192350Z 14006KT 1 3/4SM BR OVC003 08/07 A2983 710 93 100 140/06 RMK AO2 DZE47 SLP107 P0001 60001 T00780067 10078 20067 56035
14840KMKG MKG20071119185515411/19/07 18:55:31  5-MIN KMKG 192355Z 15003KT 1 3/4SM BR OVC003 08/07 A2984 700 93 100 150/03 RMK AO2 DZE47 SLP109 P0001 60001 T00830072 10083 20067 56020
14840KMKG MKG20071119190009711/19/07 19:00:31  5-MIN KMKG 200000Z 14004KT 2SM BR OVC003 08/07 A2984 700 93 100 140/04 RMK AO2
14840KMKG MKG20071119190509711/19/07 19:05:31  5-MIN KMKG 200005Z 13004KT 2SM BR OVC003 08/07 A2984 700 93 100 140/04 RMK AO2
14840KMKG MKG20071119191009711/19/07 19:10:31  5-MIN KMKG 200010Z 17005KT 2SM BR OVC003 08/07 A2985 700 93 100 170/05 RMK AO2
14840KMKG MKG20071119191509711/19/07 19:15:31  5-MIN KMKG 200015Z 16006KT 2SM BR OVC003 08/07 A2985 700 93 100 160/06 RMK AO2
14840KMKG MKG20071119192010111/19/07 19:20:31  5-MIN KMKG 200020Z 16004KT 1 3/4SM BR OVC003 08/07 A2985 700 93 100 160/04 RMK AO2
14840KMKG MKG20071119192510111/19/07 19:25:31  5-MIN KMKG 200025Z 16004KT 1 3/4SM BR OVC003 08/08 A2985 700 96 100 160/04 RMK AO2
14840KMKG MKG20071119193010111/19/07 19:30:31  5-MIN KMKG 200030Z 16003KT 1 3/4SM BR OVC003 08/08 A2985 700 96 100 160/03 RMK AO2
14840KMKG MKG20071119193510111/19/07 19:35:31  5-MIN KMKG 200035Z 12003KT 1 3/4SM BR OVC003 09/08 A2984 700 93 200 120/03 RMK AO2
14840KMKG MKG20071119194010811/19/07 19:40:31  5-MIN KMKG 200040Z 00000KT 1 1/2SM BR BKN003 OVC008 08/08 A2984 700 96 100 000/00 RMK AO2
14840KMKG MKG20071119194511311/19/07 19:45:31  5-MIN KMKG 200045Z 12004KT 1 1/2SM BR OVC005 08/07 A2984 710 93 100 120/04 RMK AO2 CIG 003V008
14840KMKG MKG20071119195011311/19/07 19:50:31  5-MIN KMKG 200050Z 12004KT 1 1/2SM BR OVC005 08/07 A2984 710 93 100 120/04 RMK AO2 CIG 003V008
14840KMKG MKG20071119195513011/19/07 19:55:31  5-MIN KMKG 200055Z 11003KT 1 1/2SM BR OVC005 08/07 A2984 700 93 100 110/03 RMK AO2 CIG 003V010 SLP108 T00830072
14840KMKG MKG20071119200011311/19/07 20:00:31  5-MIN KMKG 200100Z 00000KT 1 1/2SM BR OVC007 09/08 A2984 700 93 200 000/00 RMK AO2 CIG 003V010
14840KMKG MKG20071119200513611/19/07 20:05:31  5-MIN KMKG 200105Z 00000KT 1 1/2SM -RA BR FEW003 OVC007 09/08 A2984 700 93 200 000/00 RMK AO2 RAB03 CIG 006V010 P0000
14840KMKG MKG20071119201012911/19/07 20:10:31  5-MIN KMKG 200110Z 00000KT 1 3/4SM -RA BR OVC007 09/08 A2984 700 93 200 000/00 RMK AO2 RAB03 CIG 003V010 P0000
14840KMKG MKG20071119201514111/19/07 20:15:31  5-MIN KMKG 200115Z 00000KT 1 3/4SM BR OVC007 09/08 A2984 710 93 200 000/00 RMK AO2 VIS 1 RWY 14 RAB03E15 CIG 005V011 P0000
14840KMKG MKG20071119202013511/19/07 20:20:31  5-MIN KMKG 200120Z 00000KT 1 1/4SM BR BKN007 OVC011 08/08 A2984 710 96 100 000/00 RMK AO2 RAB03E15 CIG 005V010 P0000
14840KMKG MKG20071119202513511/19/07 20:25:31  5-MIN KMKG 200125Z 00000KT 1 1/4SM BR BKN007 OVC011 09/08 A2984 700 93 200 000/00 RMK AO2 RAB03E15 CIG 005V010 P0000
14840KMKG MKG20071119203012411/19/07 20:30:31  5-MIN KMKG 200130Z 00000KT 1 1/2SM -RA BR BKN007 OVC011 09/08 A2985 700 93 200 000/00 RMK AO2 RAB03 P0000
14840KMKG MKG20071119203512911/19/07 20:35:31  5-MIN KMKG 200135Z 00000KT 1 1/4SM -RA BR OVC007 09/08 A2985 700 93 200 000/00 RMK AO2 RAB03 CIG 005V011 P0000
14840KMKG MKG20071119204012511/19/07 20:40:31  5-MIN KMKG 200140Z 00000KT 1SM -RA BR OVC007 09/08 A2985 700 93 200 000/00 RMK AO2 RAB03 CIG 005V011 P0001
14840KMKG MKG20071119204513211/19/07 20:45:31  5-MIN KMKG 200145Z 22007KT 1SM -RA BR BKN007 OVC011 10/08 A2985 700 89 300 220/07 RMK AO2 RAB03 CIG 005V009 P0001
14840KMKG MKG20071119205014611/19/07 20:50:31  5-MIN KMKG 200150Z 21006KT 1 1/4SM -RA BR OVC007 11/09 A2984 700 93 400 220/06 RMK AO2 RAB03 CIG 004V011 SLP110 P0001 T01060094
14840KMKG MKG20071119205514611/19/07 20:55:31  5-MIN KMKG 200155Z 21007KT 1 1/2SM -RA BR OVC007 11/09 A2985 700 93 400 210/07 RMK AO2 RAB03 CIG 003V012 SLP110 P0001 T01060094
14840KMKG MKG20071119210012311/19/07 21:00:31  5-MIN KMKG 200200Z 20006KT 1 1/2SM -RA BR OVC007 11/09 A2984 700 93 400 200/06 RMK AO2 CIG 003V010 P0001
14840KMKG MKG20071119210513211/19/07 21:05:31  5-MIN KMKG 200205Z 20006KT 1 3/4SM BR BKN005 OVC009 11/09 A2984 710 93 400 210/06 RMK AO2 RAE05 CIG 003V007 P0001
14840KMKG MKG20071119211013211/19/07 21:10:31  5-MIN KMKG 200210Z 21007KT 1 1/2SM BR BKN005 OVC009 11/09 A2984 710 93 400 210/07 RMK AO2 RAE05 CIG 003V007 P0001
14840KMKG MKG20071119211512511/19/07 21:15:31  5-MIN KMKG 200215Z 22005KT 1 1/2SM BR OVC005 11/09 A2984 710 93 400 230/05 RMK AO2 RAE05 CIG 003V007 P0001
14840KMKG MKG20071119212012511/19/07 21:20:31  5-MIN KMKG 200220Z 22006KT 1 1/2SM BR OVC005 11/10 A2984 700 96 400 220/06 RMK AO2 RAE05 CIG 003V007 P0001
14840KMKG MKG20071119212511311/19/07 21:25:31  5-MIN KMKG 200225Z 22005KT 1 1/2SM BR OVC005 11/10 A2984 710 96 400 220/05 RMK AO2 RAE05 P0001
14840KMKG MKG20071119213011311/19/07 21:30:31  5-MIN KMKG 200230Z 22005KT 1 1/4SM BR BKN005 11/09 A2984 710 93 400 230/05 RMK AO2 RAE05 P0001
14840KMKG MKG20071119213513211/19/07 21:35:31  5-MIN KMKG 200235Z 22006KT 1 1/2SM BR BKN005 BKN015 11/10 A2984 710 96 400 230/06 RMK AO2 RAE05 CIG 003V007 P0001
14840KMKG MKG20071119214012011/19/07 21:40:31  5-MIN KMKG 200240Z 22007KT 1 1/2SM BR SCT005 BKN015 11/10 A2984 710 96 400 220/07 RMK AO2 RAE05 P0001
14840KMKG MKG20071119214511311/19/07 21:45:31  5-MIN KMKG 200245Z 22006KT 1 1/4SM BR SCT005 11/10 A2984 710 96 400 230/06 RMK AO2 RAE05 P0001
14840KMKG MKG20071119215014211/19/07 21:50:31  5-MIN KMKG 200250Z 23006KT 1 1/2SM BR FEW005 11/10 A2984 710 93 500 230/06 RMK AO2 RAE05 SLP107 P0001 60002 T01110100 56020
14840KMKG MKG20071119215515411/19/07 21:55:31  5-MIN KMKG 200255Z 23005KT 1 3/4SM BR CLR 11/10 A2983 710 93 500 230/05 RMK AO2 RAE05 CIG 016 RWY 14 SLP105 P0001 60002 T01110100 58003
14840KMKG MKG20071119220011311/19/07 22:00:31  5-MIN KMKG 200300Z 23007KT 1 3/4SM BR CLR 11/10 A2983 710 93 500 230/07 RMK AO2 CIG 016 RWY 14
14840KMKG MKG20071119220511311/19/07 22:05:31  5-MIN KMKG 200305Z 23006KT 1 3/4SM BR CLR 11/10 A2984 710 93 500 240/06 RMK AO2 CIG 031 RWY 14
14840KMKG MKG20071119221011311/19/07 22:10:31  5-MIN KMKG 200310Z 24006KT 1 3/4SM BR CLR 11/10 A2984 710 93 500 240/06 RMK AO2 CIG 014 RWY 14
14840KMKG MKG20071119221511311/19/07 22:15:31  5-MIN KMKG 200315Z 24005KT 1 3/4SM BR CLR 11/10 A2984 710 93 500 240/05 RMK AO2 CIG 033 RWY 14
14840KMKG MKG20071119222011311/19/07 22:20:31  5-MIN KMKG 200320Z 25006KT 1 3/4SM BR CLR 11/10 A2984 710 93 500 250/06 RMK AO2 CIG 033 RWY 14
14840KMKG MKG20071119222510911/19/07 22:25:31  5-MIN KMKG 200325Z 24006KT 2SM BR CLR 11/10 A2984 710 93 500 240/06 RMK AO2 CIG 012 RWY 14
14840KMKG MKG20071119223009711/19/07 22:30:31  5-MIN KMKG 200330Z 26006KT 2SM BR FEW009 11/10 A2984 710 93 400 260/06 RMK AO2
14840KMKG MKG20071119223509711/19/07 22:35:31  5-MIN KMKG 200335Z 26006KT 2SM BR SCT009 11/10 A2984 710 93 400 270/06 RMK AO2
14840KMKG MKG20071119224009711/19/07 22:40:31  5-MIN KMKG 200340Z 27007KT 2SM BR SCT009 11/10 A2984 710 93 400 270/07 RMK AO2
14840KMKG MKG20071119224510911/19/07 22:45:31  5-MIN KMKG 200345Z 26007KT 2SM BR BKN009 11/10 A2984 700 93 400 270/07 RMK AO2 CIG 006V010
14840KMKG MKG20071119225010911/19/07 22:50:31  5-MIN KMKG 200350Z 28006KT 2SM BR BKN009 11/10 A2984 700 93 400 280/06 RMK AO2 CIG 005V010
14840KMKG MKG20071119225512611/19/07 22:55:31  5-MIN KMKG 200355Z 28008KT 2SM BR BKN007 11/09 A2984 700 89 400 280/08 RMK AO2 CIG 004V010 SLP109 T01110094
14840KMKG MKG20071119230010911/19/07 23:00:31  5-MIN KMKG 200400Z 28006KT 2SM BR BKN007 11/09 A2985 700 93 400 280/06 RMK AO2 CIG 004V010
14840KMKG MKG20071119230510911/19/07 23:05:31  5-MIN KMKG 200405Z 27008KT 2SM BR BKN007 11/09 A2985 700 93 400 280/08 RMK AO2 CIG 004V009
14840KMKG MKG20071119231011611/19/07 23:10:31  5-MIN KMKG 200410Z 28008KT 2SM BR BKN007 BKN031 11/09 A2985 700 93 400 280/08 RMK AO2 CIG 004V009
14840KMKG MKG20071119231512011/19/07 23:15:31  5-MIN KMKG 200415Z 28009KT 2 1/2SM BR BKN007 BKN031 11/09 A2985 700 89 400 290/09 RMK AO2 CIG 004V010
14840KMKG MKG20071119232012011/19/07 23:20:31  5-MIN KMKG 200420Z 29007KT 2 1/2SM BR BKN007 BKN031 11/09 A2985 690 89 400 290/07 RMK AO2 CIG 004V010
14840KMKG MKG20071119232512011/19/07 23:25:31  5-MIN KMKG 200425Z 29008KT 2 1/2SM BR BKN007 BKN049 11/09 A2985 700 89 400 290/08 RMK AO2 CIG 005V010
14840KMKG MKG20071119233011611/19/07 23:30:31  5-MIN KMKG 200430Z 29009KT 3SM BR BKN007 BKN049 10/09 A2985 690 93 300 290/09 RMK AO2 CIG 005V010
14840KMKG MKG20071119233511611/19/07 23:35:31  5-MIN KMKG 200435Z 28007KT 3SM BR BKN007 BKN049 10/09 A2985 690 93 300 290/07 RMK AO2 CIG 005V010
14840KMKG MKG20071119234010411/19/07 23:40:31  5-MIN KMKG 200440Z 28007KT 3SM BR BKN007 BKN049 10/09 A2986 690 93 300 290/07 RMK AO2
14840KMKG MKG20071119234510411/19/07 23:45:31  5-MIN KMKG 200445Z 28008KT 3SM BR SCT007 SCT049 10/08 A2986 690 89 300 280/08 RMK AO2
14840KMKG MKG20071119235012111/19/07 23:50:31  5-MIN KMKG 200450Z 28008KT 3SM BR SCT007 BKN031 BKN049 10/08 A2986 680 89 300 280/08 RMK AO2 401110011
14840KMKG MKG20071119235514611/19/07 23:55:31  5-MIN KMKG 200455Z 29009KT 4SM BR SCT009 BKN031 10/08 A2986 690 89 300 290/09 RMK AO2 CIG 008 RWY 14 SLP114 T01000083 401110011
14840KMKG MKG20071120000009711/20/07 00:00:32  5-MIN KMKG 200500Z 29007KT 4SM BR SCT009 10/08 A2986 680 89 300 300/07 RMK AO2
14840KMKG MKG20071120000510911/20/07 00:05:31  5-MIN KMKG 200505Z 29007KT 4SM BR BKN009 10/08 A2986 680 89 300 290/07 RMK AO2 CIG 006V011
14840KMKG MKG20071120001010911/20/07 00:10:31  5-MIN KMKG 200510Z 29008KT 4SM BR BKN009 10/08 A2986 680 89 300 300/08 RMK AO2 CIG 006V011
14840KMKG MKG20071120001512211/20/07 00:15:31  5-MIN KMKG 200515Z 29009G15KT 4SM BR BKN009 BKN015 10/08 A2986 680 89 300 300/09G15 RMK AO2 CIG 006V011
14840KMKG MKG20071120002011511/20/07 00:20:31  5-MIN KMKG 200520Z 31008G15KT 5SM BR BKN009 09/08 A2987 680 89 200 320/08G15 RMK AO2 CIG 006V014
14840KMKG MKG20071120002511611/20/07 00:25:31  5-MIN KMKG 200525Z 31009KT 5SM BR BKN009 OVC014 09/07 A2987 680 86 200 320/09 RMK AO2 CIG 006V011
14840KMKG MKG20071120003011611/20/07 00:30:31  5-MIN KMKG 200530Z 31008KT 6SM BR BKN009 OVC014 09/07 A2988 670 86 200 310/08 RMK AO2 CIG 007V011
14840KMKG MKG20071120053509811/20/07 05:35:31  5-MIN KMKG 201035Z 36004KT 3SM BR SCT012 07/04 A2996 590 86 -200 010/04 RMK AO2
14840KMKG MKG20071120054010511/20/07 05:40:31  5-MIN KMKG 201040Z 00000KT 3SM BR SCT012 07/04 A2997 590 86 -200 000/00 RMK AO2 PRESRR
14840KMKG MKG20071120054509811/20/07 05:45:31  5-MIN KMKG 201045Z 34003KT 3SM BR SCT012 07/04 A2997 590 86 -200 350/03 RMK AO2
14840KMKG MKG20071120055011511/20/07 05:50:31  5-MIN KMKG 201050Z 36004KT 3SM BR SCT012 07/04 A2997 590 86 -200 360/04 RMK AO2 SLP152 T00670044
14840KMKG MKG20071120055511511/20/07 05:55:31  5-MIN KMKG 201055Z 02004KT 3SM BR SCT012 07/04 A2997 580 86 -200 020/04 RMK AO2 SLP153 T00670044
14840KMKG MKG20071120060009811/20/07 06:00:31  5-MIN KMKG 201100Z 02003KT 3SM BR FEW012 07/04 A2997 580 86 -200 020/03 RMK AO2
14840KMKG MKG20071120060509811/20/07 06:05:31  5-MIN KMKG 201105Z 36003KT 3SM BR FEW010 07/04 A2997 580 86 -200 010/03 RMK AO2
14840KMKG MKG20071120061009811/20/07 06:10:31  5-MIN KMKG 201110Z 36004KT 3SM HZ FEW010 07/04 A2998 580 82 -200 360/04 RMK AO2
14840KMKG MKG20071120061509811/20/07 06:15:31  5-MIN KMKG 201115Z 31005KT 3SM BR FEW010 07/04 A2999 570 86 -200 320/05 RMK AO2
14840KMKG MKG20071120062009811/20/07 06:20:31  5-MIN KMKG 201120Z 32004KT 3SM HZ SCT010 07/04 A2999 570 82 -200 320/04 RMK AO2
14840KMKG MKG20071120062509811/20/07 06:25:31  5-MIN KMKG 201125Z 33006KT 3SM HZ SCT010 07/04 A2999 570 82 -200 340/06 RMK AO2
14840KMKG MKG20071120063009811/20/07 06:30:31  5-MIN KMKG 201130Z 33005KT 3SM HZ BKN010 07/04 A2999 560 82 -200 340/05 RMK AO2
14840KMKG MKG20071120063509811/20/07 06:35:31  5-MIN KMKG 201135Z 35006KT 3SM HZ SCT010 07/04 A3000 560 82 -200 350/06 RMK AO2
14840KMKG MKG20071120064009811/20/07 06:40:31  5-MIN KMKG 201140Z 34005KT 3SM HZ SCT010 07/04 A3000 560 82 -200 350/05 RMK AO2
14840KMKG MKG20071120064509811/20/07 06:45:31  5-MIN KMKG 201145Z 35005KT 3SM HZ BKN010 07/04 A3000 560 82 -200 350/05 RMK AO2
14840KMKG MKG20071120065013911/20/07 06:50:31  5-MIN KMKG 201150Z 02004KT 3SM HZ BKN010 07/04 A3000 560 82 -200 030/04 RMK AO2 SLP163 70003 T00670039 10089 20067 53024
14840KMKG MKG20071120065513911/20/07 06:55:31  5-MIN KMKG 201155Z VRB03KT 3SM HZ BKN010 07/04 A3001 550 82 -200 VRB/03 RMK AO2 SLP167 70003 T00670039 10089 20067 51025
14840KMKG MKG20071120070009811/20/07 07:00:31  5-MIN KMKG 201200Z 35006KT 3SM HZ BKN010 07/04 A3001 550 82 -200 360/06 RMK AO2
14840KMKG MKG20071120070509811/20/07 07:05:31  5-MIN KMKG 201205Z 36006KT 4SM HZ BKN010 07/04 A3000 550 82 -200 360/06 RMK AO2
14840KMKG MKG20071120071009811/20/07 07:10:31  5-MIN KMKG 201210Z 01005KT 4SM HZ BKN010 07/04 A3000 560 82 -200 010/05 RMK AO2
14840KMKG MKG20071120071509811/20/07 07:15:31  5-MIN KMKG 201215Z 03007KT 4SM HZ BKN010 07/04 A3000 560 82 -200 040/07 RMK AO2
14840KMKG MKG20071120072009811/20/07 07:20:31  5-MIN KMKG 201220Z 03006KT 4SM HZ OVC010 07/03 A3000 560 79 -200 030/06 RMK AO2
14840KMKG MKG20071120072509811/20/07 07:25:31  5-MIN KMKG 201225Z 04007KT 4SM HZ OVC010 07/04 A3000 560 82 -200 040/07 RMK AO2
14840KMKG MKG20071120073009811/20/07 07:30:31  5-MIN KMKG 201230Z 01007KT 4SM HZ OVC010 07/03 A3000 560 79 -200 020/07 RMK AO2
14840KMKG MKG20071120073509811/20/07 07:35:31  5-MIN KMKG 201235Z 02005KT 4SM HZ OVC012 07/03 A3001 550 79 -200 030/05 RMK AO2
14840KMKG MKG20071120074009811/20/07 07:40:31  5-MIN KMKG 201240Z 01004KT 4SM HZ OVC012 07/03 A3002 540 79 -200 010/04 RMK AO2
14840KMKG MKG20071120074509811/20/07 07:45:31  5-MIN KMKG 201245Z 05003KT 4SM HZ OVC012 07/03 A3002 540 79 -200 050/03 RMK AO2
14840KMKG MKG20071120075011511/20/07 07:50:31  5-MIN KMKG 201250Z 01004KT 4SM HZ OVC012 07/03 A3002 540 79 -200 020/04 RMK AO2 SLP169 T00670033
14840KMKG MKG20071120075511511/20/07 07:55:31  5-MIN KMKG 201255Z 03005KT 4SM HZ OVC012 07/03 A3002 540 79 -200 030/05 RMK AO2 SLP169 T00670033
14840KMKG MKG20071120080009811/20/07 08:00:31  5-MIN KMKG 201300Z 05003KT 4SM HZ OVC012 07/03 A3002 540 79 -200 060/03 RMK AO2
14840KMKG MKG20071120080509811/20/07 08:05:31  5-MIN KMKG 201305Z 08006KT 4SM HZ OVC012 07/03 A3002 540 79 -200 080/06 RMK AO2
14840KMKG MKG20071120081009811/20/07 08:10:31  5-MIN KMKG 201310Z 07006KT 3SM HZ OVC012 07/03 A3002 540 79 -200 070/06 RMK AO2
14840KMKG MKG20071120081509811/20/07 08:15:31  5-MIN KMKG 201315Z 05005KT 4SM HZ OVC012 07/03 A3002 540 79 -200 050/05 RMK AO2
14840KMKG MKG20071120082009811/20/07 08:20:31  5-MIN KMKG 201320Z 04004KT 4SM HZ OVC012 07/03 A3002 540 79 -200 040/04 RMK AO2
14840KMKG MKG20071120082509811/20/07 08:25:31  5-MIN KMKG 201325Z 00000KT 3SM HZ OVC012 07/03 A3003 530 79 -300 000/00 RMK AO2
14840KMKG MKG20071120083009811/20/07 08:30:31  5-MIN KMKG 201330Z 00000KT 3SM HZ OVC012 07/03 A3003 530 79 -300 000/00 RMK AO2
14840KMKG MKG20071120083509811/20/07 08:35:31  5-MIN KMKG 201335Z 08003KT 3SM HZ OVC012 07/03 A3003 530 79 -300 080/03 RMK AO2
14840KMKG MKG20071120084009811/20/07 08:40:31  5-MIN KMKG 201340Z 05005KT 3SM HZ OVC012 07/03 A3003 530 79 -300 060/05 RMK AO2
14840KMKG MKG20071120084509811/20/07 08:45:31  5-MIN KMKG 201345Z 03003KT 3SM HZ OVC012 07/03 A3003 530 79 -300 040/03 RMK AO2
14840KMKG MKG20071120085011511/20/07 08:50:31  5-MIN KMKG 201350Z 05005KT 3SM HZ OVC012 07/04 A3002 540 82 -200 060/05 RMK AO2 SLP169 T00670039
14840KMKG MKG20071120085511511/20/07 08:55:31  5-MIN KMKG 201355Z 05006KT 3SM HZ OVC012 07/04 A3001 540 82 -200 050/06 RMK AO2 SLP166 T00670039
14840KMKG MKG20071120090009811/20/07 09:00:31  5-MIN KMKG 201400Z 07007KT 3SM HZ OVC012 07/03 A3002 540 79 -200 070/07 RMK AO2
14840KMKG MKG20071120090509811/20/07 09:05:31  5-MIN KMKG 201405Z 07005KT 3SM HZ OVC012 07/03 A3002 540 79 -200 070/05 RMK AO2
14840KMKG MKG20071120091009811/20/07 09:10:31  5-MIN KMKG 201410Z 08005KT 3SM HZ OVC012 07/04 A3002 530 82 -300 080/05 RMK AO2
14840KMKG MKG20071120091509811/20/07 09:15:31  5-MIN KMKG 201415Z 06007KT 3SM HZ OVC012 07/03 A3002 540 79 -200 070/07 RMK AO2
14840KMKG MKG20071120092009811/20/07 09:20:31  5-MIN KMKG 201420Z 08006KT 4SM HZ OVC012 07/03 A3002 540 79 -200 080/06 RMK AO2
14840KMKG MKG20071120092509811/20/07 09:25:31  5-MIN KMKG 201425Z 10004KT 4SM HZ OVC012 07/03 A3002 540 79 -200 100/04 RMK AO2
14840KMKG MKG20071120093009811/20/07 09:30:31  5-MIN KMKG 201430Z 08007KT 3SM HZ OVC012 07/03 A3001 550 79 -200 090/07 RMK AO2
14840KMKG MKG20071120093509811/20/07 09:35:31  5-MIN KMKG 201435Z 07007KT 3SM HZ OVC012 07/04 A3001 550 82 -200 080/07 RMK AO2
14840KMKG MKG20071120094009811/20/07 09:40:31  5-MIN KMKG 201440Z 08007KT 3SM HZ OVC012 07/04 A3001 540 79 -200 080/07 RMK AO2
14840KMKG MKG20071120094509811/20/07 09:45:31  5-MIN KMKG 201445Z 11006KT 3SM HZ OVC012 07/04 A3001 540 79 -200 110/06 RMK AO2
14840KMKG MKG20071120095012111/20/07 09:50:31  5-MIN KMKG 201450Z 10005KT 3SM HZ OVC012 07/04 A3001 550 82 -200 110/05 RMK AO2 SLP165 T00670039 51025
14840KMKG MKG20071120095512111/20/07 09:55:31  5-MIN KMKG 201455Z 10005KT 3SM HZ OVC012 07/04 A3002 540 79 -200 100/05 RMK AO2 SLP167 T00720039 51001
14840KMKG MKG20071120100009811/20/07 10:00:31  5-MIN KMKG 201500Z 10006KT 3SM HZ OVC012 07/04 A3002 540 79 -200 110/06 RMK AO2
14840KMKG MKG20071120100509811/20/07 10:05:31  5-MIN KMKG 201505Z 10008KT 3SM HZ BKN012 07/04 A3001 540 79 -200 100/08 RMK AO2
14840KMKG MKG20071120101009811/20/07 10:10:31  5-MIN KMKG 201510Z 11008KT 3SM HZ BKN012 07/04 A3002 540 79 -200 110/08 RMK AO2
14840KMKG MKG20071120101509811/20/07 10:15:31  5-MIN KMKG 201515Z 10007KT 3SM HZ BKN014 07/04 A3002 540 79 -200 100/07 RMK AO2
14840KMKG MKG20071120102009811/20/07 10:20:31  5-MIN KMKG 201520Z 12006KT 3SM HZ OVC014 07/04 A3002 540 79 -200 120/06 RMK AO2
14840KMKG MKG20071120102509811/20/07 10:25:31  5-MIN KMKG 201525Z 12005KT 3SM HZ BKN014 07/04 A3002 540 79 -200 120/05 RMK AO2
14840KMKG MKG20071120103009811/20/07 10:30:31  5-MIN KMKG 201530Z 12009KT 3SM HZ BKN014 07/04 A3002 540 79 -200 120/09 RMK AO2
14840KMKG MKG20071120103509811/20/07 10:35:31  5-MIN KMKG 201535Z 12009KT 3SM HZ BKN014 07/04 A3001 540 79 -200 120/09 RMK AO2
14840KMKG MKG20071120104009811/20/07 10:40:31  5-MIN KMKG 201540Z 11008KT 3SM HZ OVC014 07/04 A3001 550 79 -200 110/08 RMK AO2
14840KMKG MKG20071120104509811/20/07 10:45:31  5-MIN KMKG 201545Z 12010KT 3SM HZ OVC014 08/04 A3001 550 76 -100 120/10 RMK AO2
14840KMKG MKG20071120105011511/20/07 10:50:31  5-MIN KMKG 201550Z 10009KT 3SM HZ OVC014 08/04 A3001 550 76 -100 110/09 RMK AO2 SLP165 T00780039
14840KMKG MKG20071120105511511/20/07 10:55:31  5-MIN KMKG 201555Z 10007KT 3SM HZ OVC014 08/04 A3001 540 76 -100 110/07 RMK AO2 SLP166 T00780039
14840KMKG MKG20071120110009811/20/07 11:00:31  5-MIN KMKG 201600Z 10011KT 3SM HZ BKN014 08/04 A3000 550 76 -100 100/11 RMK AO2
14840KMKG MKG20071120110509811/20/07 11:05:31  5-MIN KMKG 201605Z 11009KT 3SM HZ BKN014 08/04 A3000 550 76 -100 120/09 RMK AO2
14840KMKG MKG20071120111009811/20/07 11:10:31  5-MIN KMKG 201610Z 10009KT 3SM HZ BKN014 08/04 A3001 550 79 -100 100/09 RMK AO2
14840KMKG MKG20071120111509811/20/07 11:15:31  5-MIN KMKG 201615Z 10007KT 3SM HZ BKN014 08/04 A3000 550 79 -100 100/07 RMK AO2
14840KMKG MKG20071120112009811/20/07 11:20:31  5-MIN KMKG 201620Z 10008KT 3SM HZ OVC014 08/04 A3001 550 79 -100 100/08 RMK AO2
14840KMKG MKG20071120112509811/20/07 11:25:31  5-MIN KMKG 201625Z 10009KT 3SM HZ OVC014 08/04 A3001 550 79 -100 100/09 RMK AO2
14840KMKG MKG20071120113009811/20/07 11:30:31  5-MIN KMKG 201630Z 10010KT 3SM HZ OVC012 08/04 A3001 550 79 -100 110/10 RMK AO2
14840KMKG MKG20071120113510211/20/07 11:35:31  5-MIN KMKG 201635Z 11009KT 2 1/2SM HZ OVC012 08/04 A3001 550 79 -100 110/09 RMK AO2
14840KMKG MKG20071120114010211/20/07 11:40:31  5-MIN KMKG 201640Z 11008KT 2 1/2SM HZ OVC012 08/04 A3001 550 79 -100 110/08 RMK AO2
14840KMKG MKG20071120114510211/20/07 11:45:31  5-MIN KMKG 201645Z 11006KT 2 1/2SM HZ OVC012 08/04 A3001 550 79 -100 120/06 RMK AO2
14840KMKG MKG20071120115011911/20/07 11:50:31  5-MIN KMKG 201650Z 09006KT 2 1/2SM HZ OVC012 08/04 A3001 550 79 -100 090/06 RMK AO2 SLP164 T00780044
14840KMKG MKG20071120115511911/20/07 11:55:31  5-MIN KMKG 201655Z 08005KT 2 1/2SM HZ OVC012 08/04 A3001 550 79 -100 080/05 RMK AO2 SLP164 T00780044
14840KMKG MKG20071120120010211/20/07 12:00:31  5-MIN KMKG 201700Z 09006KT 2 1/2SM HZ OVC012 08/04 A3000 550 79 -100 090/06 RMK AO2
14840KMKG MKG20071120120509911/20/07 12:05:31  5-MIN KMKG 201705Z 09006KT 2 1/2SM HZ BKN012 08/05 A3000 550 79 0 090/06 RMK AO2
14840KMKG MKG20071120121009511/20/07 12:10:31  5-MIN KMKG 201710Z 09007KT 3SM HZ OVC012 08/05 A3000 560 79 0 090/07 RMK AO2
14840KMKG MKG20071120121510911/20/07 12:15:31  5-MIN KMKG 201715Z 08005KT 2 1/2SM HZ OVC012 08/04 A3000 560 76 0 080/05 RMK AO2 SFC VIS 3
14840KMKG MKG20071120122010911/20/07 12:20:31  5-MIN KMKG 201720Z 08007KT 2 1/2SM HZ OVC012 08/05 A2999 560 79 0 080/07 RMK AO2 SFC VIS 3
14840KMKG MKG20071120122510911/20/07 12:25:31  5-MIN KMKG 201725Z 06008KT 2 1/2SM HZ OVC012 09/05 A2999 560 76 0 070/08 RMK AO2 SFC VIS 3
14840KMKG MKG20071120123010911/20/07 12:30:31  5-MIN KMKG 201730Z 05008KT 2 1/2SM HZ OVC012 09/05 A2999 560 76 0 060/08 RMK AO2 SFC VIS 3
14840KMKG MKG20071120123510911/20/07 12:35:31  5-MIN KMKG 201735Z 07008KT 2 1/2SM HZ OVC012 09/05 A3000 560 76 0 070/08 RMK AO2 SFC VIS 3
14840KMKG MKG20071120124010911/20/07 12:40:31  5-MIN KMKG 201740Z 06007KT 2 1/2SM HZ OVC012 09/05 A2999 560 76 0 070/07 RMK AO2 SFC VIS 3
14840KMKG MKG20071120124510911/20/07 12:45:31  5-MIN KMKG 201745Z 05007KT 2 1/2SM HZ OVC012 08/05 A2999 560 79 0 050/07 RMK AO2 SFC VIS 3
14840KMKG MKG20071120125014411/20/07 12:50:31  5-MIN KMKG 201750Z 06008KT 2 1/2SM HZ OVC012 09/05 A2999 570 76 0 060/08 RMK AO2 SFC VIS 3 SLP158 T00890050 10089 20067 51001
14840KMKG MKG20071120125514411/20/07 12:55:31  5-MIN KMKG 201755Z 07008KT 2 1/2SM HZ OVC012 09/05 A2999 570 76 0 070/08 RMK AO2 SFC VIS 3 SLP157 T00890050 10089 20067 58009
14840KMKG MKG20071120130010911/20/07 13:00:31  5-MIN KMKG 201800Z 06004KT 2 1/2SM HZ OVC012 09/04 A2999 570 73 0 070/04 RMK AO2 SFC VIS 3
14840KMKG MKG20071120130510911/20/07 13:05:31  5-MIN KMKG 201805Z 06008KT 2 1/2SM HZ OVC012 08/04 A2999 570 76 0 060/08 RMK AO2 SFC VIS 3
14840KMKG MKG20071120131010911/20/07 13:10:31  5-MIN KMKG 201810Z 05005KT 2 1/2SM HZ OVC014 08/04 A2998 570 76 0 060/05 RMK AO2 SFC VIS 3
14840KMKG MKG20071120131510911/20/07 13:15:31  5-MIN KMKG 201815Z 06007KT 2 1/2SM HZ OVC014 09/05 A2998 570 76 0 060/07 RMK AO2 SFC VIS 3
14840KMKG MKG20071120132010911/20/07 13:20:31  5-MIN KMKG 201820Z 09007KT 2 1/2SM HZ OVC014 09/05 A2998 570 76 0 090/07 RMK AO2 SFC VIS 3
14840KMKG MKG20071120132510911/20/07 13:25:31  5-MIN KMKG 201825Z 08007KT 2 1/2SM HZ OVC014 08/04 A2998 580 76 0 080/07 RMK AO2 SFC VIS 3
14840KMKG MKG20071120133010911/20/07 13:30:31  5-MIN KMKG 201830Z 09006KT 2 1/2SM HZ OVC014 09/04 A2998 580 73 0 090/06 RMK AO2 SFC VIS 3
14840KMKG MKG20071120133510911/20/07 13:35:31  5-MIN KMKG 201835Z 09009KT 2 1/2SM HZ OVC014 09/04 A2998 580 73 0 090/09 RMK AO2 SFC VIS 3
14840KMKG MKG20071120134010911/20/07 13:40:31  5-MIN KMKG 201840Z 08006KT 2 1/2SM HZ OVC014 09/05 A2997 580 76 0 080/06 RMK AO2 SFC VIS 4
14840KMKG MKG20071120134510911/20/07 13:45:31  5-MIN KMKG 201845Z 06010KT 2 1/2SM HZ OVC014 09/04 A2997 590 73 0 060/10 RMK AO2 SFC VIS 4
14840KMKG MKG20071120135012611/20/07 13:50:31  5-MIN KMKG 201850Z 08008KT 2 1/2SM HZ OVC014 09/04 A2996 590 73 0 080/08 RMK AO2 SFC VIS 4 SLP149 T00890044
14840KMKG MKG20071120135511211/20/07 13:55:31  5-MIN KMKG 201855Z 11004KT 4SM HZ OVC014 09/04 A2997 580 73 0 120/04 RMK AO2 SLP153 T00890044
14840KMKG MKG20071120140009511/20/07 14:00:31  5-MIN KMKG 201900Z 11007KT 4SM HZ OVC016 09/04 A2997 580 73 0 110/07 RMK AO2
14840KMKG MKG20071120140509511/20/07 14:05:31  5-MIN KMKG 201905Z 09007KT 4SM HZ OVC016 09/04 A2997 580 73 0 090/07 RMK AO2
14840KMKG MKG20071120141009511/20/07 14:10:31  5-MIN KMKG 201910Z 08007KT 4SM HZ OVC016 09/04 A2997 590 73 0 080/07 RMK AO2
14840KMKG MKG20071120141509511/20/07 14:15:31  5-MIN KMKG 201915Z 08006KT 4SM HZ OVC016 09/04 A2996 590 73 0 090/06 RMK AO2
14840KMKG MKG20071120142009511/20/07 14:20:31  5-MIN KMKG 201920Z 08008KT 4SM HZ OVC016 09/04 A2996 600 73 0 090/08 RMK AO2
14840KMKG MKG20071120142509511/20/07 14:25:31  5-MIN KMKG 201925Z 08007KT 4SM HZ OVC016 09/05 A2995 600 76 0 080/07 RMK AO2
14840KMKG MKG20071120143009711/20/07 14:30:31  5-MIN KMKG 201930Z 08010KT 4SM HZ OVC016 09/05 A2995 600 76 100 080/10 RMK AO2
14840KMKG MKG20071120143509711/20/07 14:35:31  5-MIN KMKG 201935Z 09006KT 4SM HZ OVC016 09/04 A2995 600 73 100 090/06 RMK AO2
14840KMKG MKG20071120144010411/20/07 14:40:31  5-MIN KMKG 201940Z 09008KT 4SM HZ BKN016 OVC020 09/04 A2995 600 73 100 090/08 RMK AO2
14840KMKG MKG20071120144510411/20/07 14:45:31  5-MIN KMKG 201945Z 07007KT 4SM HZ BKN016 OVC020 09/04 A2995 610 73 100 080/07 RMK AO2
14840KMKG MKG20071120145012111/20/07 14:50:31  5-MIN KMKG 201950Z 08007KT 4SM HZ BKN016 OVC020 09/05 A2994 610 76 100 090/07 RMK AO2 SLP142 T00890050
14840KMKG MKG20071120145512111/20/07 14:55:31  5-MIN KMKG 201955Z 09006KT 4SM HZ BKN016 OVC020 09/05 A2994 610 76 100 090/06 RMK AO2 SLP141 T00890050
14840KMKG MKG20071120150010411/20/07 15:00:31  5-MIN KMKG 202000Z 09007KT 4SM HZ BKN016 OVC020 09/05 A2993 620 76 100 100/07 RMK AO2
14840KMKG MKG20071120150510411/20/07 15:05:31  5-MIN KMKG 202005Z 09008KT 4SM HZ BKN016 OVC020 09/05 A2993 620 76 100 090/08 RMK AO2
14840KMKG MKG20071120151010411/20/07 15:10:31  5-MIN KMKG 202010Z 10005KT 4SM HZ BKN016 OVC020 09/05 A2994 610 76 100 100/05 RMK AO2
14840KMKG MKG20071120151509711/20/07 15:15:31  5-MIN KMKG 202015Z 11004KT 4SM HZ OVC018 09/05 A2994 610 76 100 110/04 RMK AO2
14840KMKG MKG20071120152009711/20/07 15:20:31  5-MIN KMKG 202020Z 11006KT 4SM HZ OVC018 09/05 A2994 610 76 100 110/06 RMK AO2
14840KMKG MKG20071120152509711/20/07 15:25:31  5-MIN KMKG 202025Z 12006KT 4SM HZ OVC018 09/05 A2994 610 76 100 120/06 RMK AO2
14840KMKG MKG20071120153009711/20/07 15:30:31  5-MIN KMKG 202030Z 11007KT 4SM HZ OVC018 09/05 A2994 610 76 100 110/07 RMK AO2
14840KMKG MKG20071120153509711/20/07 15:35:31  5-MIN KMKG 202035Z 12008KT 3SM HZ OVC018 09/05 A2994 610 76 100 120/08 RMK AO2
14840KMKG MKG20071120154010611/20/07 15:40:31  5-MIN KMKG 202040Z 10007KT 2 1/2SM HZ BKN018 OVC029 08/05 A2994 610 79 0 100/07 RMK AO2
14840KMKG MKG20071120154509911/20/07 15:45:31  5-MIN KMKG 202045Z 10006KT 2 1/2SM HZ BKN018 08/06 A2993 620 82 0 100/06 RMK AO2
14840KMKG MKG20071120155013211/20/07 15:50:31  5-MIN KMKG 202050Z 10007KT 2SM HZ BKN018 BKN023 OVC027 08/06 A2993 620 82 0 100/07 RMK AO2 SLP138 T00830056 58009
14840KMKG MKG20071120155514411/20/07 15:55:31  5-MIN KMKG 202055Z 09007KT 1 3/4SM HZ SCT018 OVC029 08/06 A2992 630 82 0 100/07 RMK AO2 CIG 018 RWY 14 SLP136 T00830056 58021
14840KMKG MKG20071120160010611/20/07 16:00:31  5-MIN KMKG 202100Z 09008KT 1 3/4SM HZ SCT018 OVC029 08/06 A2992 630 82 0 100/08 RMK AO2
14840KMKG MKG20071120160510611/20/07 16:05:31  5-MIN KMKG 202105Z 11007KT 1 3/4SM BR SCT018 OVC029 08/06 A2992 630 86 0 110/07 RMK AO2
14840KMKG MKG20071120161010611/20/07 16:10:31  5-MIN KMKG 202110Z 10006KT 1 3/4SM BR BKN018 OVC029 08/06 A2992 630 89 0 110/06 RMK AO2
14840KMKG MKG20071120161510611/20/07 16:15:31  5-MIN KMKG 202115Z 11007KT 1 1/2SM BR BKN020 OVC029 08/06 A2992 630 89 0 120/07 RMK AO2
14840KMKG MKG20071120162012911/20/07 16:20:31  5-MIN KMKG 202120Z 11007KT 1 1/2SM -DZ BR FEW008 BKN020 OVC031 08/06 A2992 630 89 0 110/07 RMK AO2 DZB16 P0000
14840KMKG MKG20071120162512911/20/07 16:25:31  5-MIN KMKG 202125Z 11007KT 1 1/2SM -DZ BR SCT008 BKN020 OVC031 08/06 A2992 630 89 0 120/07 RMK AO2 DZB16 P0000
14840KMKG MKG20071120163012211/20/07 16:30:31  5-MIN KMKG 202130Z 11008KT 1 1/2SM -DZ BR SCT008 OVC020 08/06 A2992 630 89 0 110/08 RMK AO2 DZB16 P0000
14840KMKG MKG20071120163512211/20/07 16:35:31  5-MIN KMKG 202135Z 09007KT 1 1/4SM -DZ BR SCT008 OVC020 08/06 A2992 630 89 0 100/07 RMK AO2 DZB16 P0000
14840KMKG MKG20071120164011811/20/07 16:40:31  5-MIN KMKG 202140Z 09007KT 1SM -DZ BR BKN008 OVC018 08/06 A2992 630 89 0 100/07 RMK AO2 DZB16 P0000
14840KMKG MKG20071120164513011/20/07 16:45:31  5-MIN KMKG 202145Z 09006KT 1SM -DZ BR BKN008 OVC018 08/06 A2992 630 89 0 090/06 RMK AO2 DZB16 CIG 006V009 P0000
14840KMKG MKG20071120165014711/20/07 16:50:31  5-MIN KMKG 202150Z 10006KT 1SM -DZ BR BKN008 OVC018 08/07 A2993 620 93 0 100/06 RMK AO2 DZB16 CIG 005V009 SLP137 P0000 T00780067
14840KMKG MKG20071120165513511/20/07 16:55:31  5-MIN KMKG 202155Z 09006KT 1SM -DZ BR BKN008 OVC018 08/07 A2993 620 93 0 100/06 RMK AO2 DZB16 SLP138 P0000 T00780067
14840KMKG MKG20071120170010511/20/07 17:00:31  5-MIN KMKG 202200Z 09006KT 1SM -DZ BR OVC008 08/07 A2993 620 93 0 090/06 RMK AO2 P0000
14840KMKG MKG20071120170512111/20/07 17:05:31  5-MIN KMKG 202205Z 08005KT 1 1/2SM -DZ BR OVC006 08/07 A2993 620 93 0 090/05 RMK AO2 CIG 004V009 P0000
14840KMKG MKG20071120171012111/20/07 17:10:31  5-MIN KMKG 202210Z 08004KT 1 3/4SM -DZ BR OVC006 08/07 A2994 610 93 0 080/04 RMK AO2 CIG 004V010 P0000
14840KMKG MKG20071120171512111/20/07 17:15:31  5-MIN KMKG 202215Z 08006KT 1 3/4SM -DZ BR OVC006 08/07 A2994 620 93 0 080/06 RMK AO2 CIG 004V010 P0001
14840KMKG MKG20071120172013211/20/07 17:20:31  5-MIN KMKG 202220Z 07006KT 1 3/4SM -RA BR OVC006 08/07 A2994 620 93 0 080/06 RMK AO2 DZE18RAB18 CIG 004V010 P0001
14840KMKG MKG20071120172513211/20/07 17:25:31  5-MIN KMKG 202225Z 07005KT 1 1/2SM -RA BR OVC006 08/07 A2994 620 93 0 070/05 RMK AO2 DZE18RAB18 CIG 004V010 P0001
14840KMKG MKG20071120173013211/20/07 17:30:31  5-MIN KMKG 202230Z 08006KT 1 1/2SM -RA BR OVC006 08/07 A2993 620 93 0 080/06 RMK AO2 DZE18RAB18 CIG 004V010 P0001
14840KMKG MKG20071120173513211/20/07 17:35:31  5-MIN KMKG 202235Z 07007KT 1 3/4SM -RA BR OVC006 08/07 A2993 620 93 0 080/07 RMK AO2 DZE18RAB18 CIG 004V010 P0002
14840KMKG MKG20071120174013211/20/07 17:40:31  5-MIN KMKG 202240Z 07007KT 1 3/4SM -RA BR OVC006 08/07 A2993 620 93 0 080/07 RMK AO2 DZE18RAB18 CIG 004V009 P0002
14840KMKG MKG20071120174512811/20/07 17:45:31  5-MIN KMKG 202245Z 06007KT 2SM -RA BR OVC006 08/07 A2993 620 93 0 070/07 RMK AO2 DZE18RAB18 CIG 004V009 P0002
14840KMKG MKG20071120175012811/20/07 17:50:31  5-MIN KMKG 202250Z 07007KT 2SM -RA BR OVC006 08/07 A2993 620 93 0 070/07 RMK AO2 DZE18RAB18 CIG 004V009 P0002
14840KMKG MKG20071120175514811/20/07 17:55:31  5-MIN KMKG 202255Z 07008KT 2 1/2SM BR OVC006 08/07 A2993 630 93 0 080/08 RMK AO2 DZE18RAB18E55 CIG 004V009 SLP137 P0002 T00780067
14840KMKG MKG20071120180011411/20/07 18:00:31  5-MIN KMKG 202300Z 07007KT 2SM BR BKN006 OVC012 08/07 A2992 630 93 0 080/07 RMK AO2 CIG 004V009
14840KMKG MKG20071120180511411/20/07 18:05:31  5-MIN KMKG 202305Z 06007KT 2SM BR BKN006 OVC012 08/07 A2993 620 93 0 070/07 RMK AO2 CIG 004V009
14840KMKG MKG20071120181013011/20/07 18:10:31  5-MIN KMKG 202310Z 07007KT 2SM -DZ BR BKN006 OVC012 08/07 A2993 620 93 0 070/07 RMK AO2 DZB08 CIG 004V010 P0000
14840KMKG MKG20071120181513011/20/07 18:15:31  5-MIN KMKG 202315Z 07008KT 2SM -DZ BR BKN006 OVC012 08/07 A2992 630 93 0 080/08 RMK AO2 DZB08 CIG 004V009 P0000
14840KMKG MKG20071120182013011/20/07 18:20:31  5-MIN KMKG 202320Z 06008KT 2SM -DZ BR BKN006 OVC012 08/07 A2993 630 93 0 060/08 RMK AO2 DZB08 CIG 004V010 P0000
14840KMKG MKG20071120182513411/20/07 18:25:31  5-MIN KMKG 202325Z 05005KT 1 3/4SM -DZ BR BKN006 OVC012 08/07 A2993 620 93 0 050/05 RMK AO2 DZB08 CIG 004V010 P0000
14840KMKG MKG20071120183013411/20/07 18:30:31  5-MIN KMKG 202330Z 06007KT 1 1/2SM -DZ BR BKN006 OVC012 08/07 A2993 620 93 0 070/07 RMK AO2 DZB08 CIG 004V008 P0000
14840KMKG MKG20071120183513411/20/07 18:35:31  5-MIN KMKG 202335Z 07007KT 1 1/2SM -DZ BR BKN006 OVC012 08/07 A2992 630 93 0 070/07 RMK AO2 DZB08 CIG 004V008 P0000
14840KMKG MKG20071120184014211/20/07 18:40:31  5-MIN KMKG 202340Z 06006KT 1 1/2SM -RA BR BKN006 OVC012 08/07 A2992 630 93 0 070/06 RMK AO2 DZB08E40RAB40 CIG 004V009 P0001
14840KMKG MKG20071120184514211/20/07 18:45:31  5-MIN KMKG 202345Z 07007KT 1 1/4SM -RA BR BKN006 OVC012 08/07 A2992 630 93 0 070/07 RMK AO2 DZB08E40RAB40 CIG 004V009 P0001
14840KMKG MKG20071120185018311/20/07 18:50:31  5-MIN KMKG 202350Z 08007KT 1 1/2SM -RA BR BKN006 OVC012 08/07 A2992 630 93 0 090/07 RMK AO2 DZB08E40RAB40 CIG 004V009 SLP134 P0001 60003 T00780067 10089 20078 58021
14840KMKG MKG20071120185519011/20/07 18:55:31  5-MIN KMKG 202355Z 09009KT 1 1/2SM -RA BR BKN006 BKN012 OVC017 08/07 A2991 640 93 0 090/09 RMK AO2 DZB08E40RAB40 CIG 004V009 SLP132 P0001 60003 T00780067 10089 20078 58006
14840KMKG MKG20071120190012711/20/07 19:00:31  5-MIN KMKG 210000Z 09008KT 1 1/2SM BR BKN006 BKN010 OVC017 08/07 A2991 640 93 0 090/08 RMK AO2 RAE2359 P0000
14840KMKG MKG20071120190512911/20/07 19:05:31  5-MIN KMKG 210005Z 09008KT 1 1/2SM -DZ BR BKN006 OVC010 08/07 A2990 650 93 0 100/08 RMK AO2 RAE2359DZB03 P0000
14840KMKG MKG20071120191012211/20/07 19:10:31  5-MIN KMKG 210010Z 09009KT 1 1/2SM -DZ BR OVC006 08/07 A2990 650 93 0 100/09 RMK AO2 RAE2359DZB03 P0000
14840KMKG MKG20071120191512211/20/07 19:15:31  5-MIN KMKG 210015Z 09008KT 1 1/2SM -DZ BR OVC006 08/07 A2989 650 93 0 090/08 RMK AO2 RAE2359DZB03 P0000
14840KMKG MKG20071120192012211/20/07 19:20:31  5-MIN KMKG 210020Z 09007KT 1 3/4SM -DZ BR OVC004 08/07 A2990 650 93 0 090/07 RMK AO2 RAE2359DZB03 P0000
14840KMKG MKG20071120192511811/20/07 19:25:31  5-MIN KMKG 210025Z 08007KT 2SM -DZ BR OVC004 08/07 A2990 650 93 0 080/07 RMK AO2 RAE2359DZB03 P0000
14840KMKG MKG20071120193011811/20/07 19:30:31  5-MIN KMKG 210030Z 08007KT 2SM -DZ BR OVC004 08/07 A2990 650 93 0 080/07 RMK AO2 RAE2359DZB03 P0000
14840KMKG MKG20071120193512211/20/07 19:35:31  5-MIN KMKG 210035Z 09006KT 2 1/2SM -DZ BR OVC004 08/07 A2990 650 93 0 090/06 RMK AO2 RAE2359DZB03 P0000
14840KMKG MKG20071120194012211/20/07 19:40:31  5-MIN KMKG 210040Z 08006KT 2 1/2SM -DZ BR OVC004 08/07 A2990 650 93 0 080/06 RMK AO2 RAE2359DZB03 P0000
14840KMKG MKG20071120194512211/20/07 19:45:31  5-MIN KMKG 210045Z 07006KT 2 1/2SM -DZ BR OVC004 08/07 A2990 650 93 0 070/06 RMK AO2 RAE2359DZB03 P0000
14840KMKG MKG20071120195013911/20/07 19:50:31  5-MIN KMKG 210050Z 06006KT 2 1/2SM -DZ BR OVC004 08/07 A2990 650 93 0 070/06 RMK AO2 RAE2359DZB03 SLP128 P0000 T00780067
14840KMKG MKG20071120195514111/20/07 19:55:31  5-MIN KMKG 210055Z 08007KT 2SM -RA BR OVC004 08/07 A2990 650 93 0 080/07 RMK AO2 RAE2359B53DZB03E53 SLP128 P0000 T00780067
14840KMKG MKG20071120200010511/20/07 20:00:31  5-MIN KMKG 210100Z 07006KT 2SM -RA BR OVC004 08/07 A2990 650 93 0 070/06 RMK AO2 P0001
14840KMKG MKG20071120200512111/20/07 20:05:31  5-MIN KMKG 210105Z 07007KT 1 3/4SM -RA BR OVC004 08/07 A2989 650 93 0 070/07 RMK AO2 CIG 003V008 P0001
14840KMKG MKG20071120201011711/20/07 20:10:31  5-MIN KMKG 210110Z 07007KT 2SM -RA BR OVC004 08/07 A2989 660 93 0 070/07 RMK AO2 CIG 003V008 P0001
14840KMKG MKG20071120201512311/20/07 20:15:31  5-MIN KMKG 210115Z 07007KT 2 1/2SM BR OVC004 08/07 A2989 660 93 0 080/07 RMK AO2 RAE15 CIG 003V008 P0001
14840KMKG MKG20071120202011111/20/07 20:20:31  5-MIN KMKG 210120Z 08005KT 2 1/2SM BR OVC004 08/07 A2989 660 93 0 080/05 RMK AO2 RAE15 P0001
14840KMKG MKG20071120202511111/20/07 20:25:31  5-MIN KMKG 210125Z 07004KT 2 1/2SM BR OVC004 08/07 A2989 660 93 0 070/04 RMK AO2 RAE15 P0001
14840KMKG MKG20071120203011111/20/07 20:30:31  5-MIN KMKG 210130Z 05005KT 2 1/2SM BR OVC004 08/07 A2989 660 93 0 050/05 RMK AO2 RAE15 P0001
14840KMKG MKG20071120203511111/20/07 20:35:31  5-MIN KMKG 210135Z 03005KT 2 1/2SM BR OVC004 08/07 A2989 660 93 0 040/05 RMK AO2 RAE15 P0001
14840KMKG MKG20071120204011411/20/07 20:40:31  5-MIN KMKG 210140Z 01005KT 2SM -RA BR OVC004 08/07 A2990 650 93 0 010/05 RMK AO2 RAE15B40 P0001
14840KMKG MKG20071120204511811/20/07 20:45:31  5-MIN KMKG 210145Z 03006KT 1 3/4SM -RA BR OVC004 08/07 A2989 650 93 0 040/06 RMK AO2 RAE15B40 P0001
14840KMKG MKG20071120205011711/20/07 20:50:31  5-MIN KMKG 210150Z 01004KT 1 1/2SM RA BR OVC004 08/07 A2990 650 93 0 010/04 RMK AO2 RAE15B40 P0002
14840KMKG MKG20071120205513511/20/07 20:55:31  5-MIN KMKG 210155Z 36005KT 1 1/2SM -RA BR OVC004 08/07 A2990 650 93 0 360/05 RMK AO2 RAE15B40 SLP128 P0003 T00780067
14840KMKG MKG20071120210010911/20/07 21:00:31  5-MIN KMKG 210200Z 01006KT 1 1/2SM -RA BR OVC004 08/07 A2989 660 93 0 010/06 RMK AO2 P0000
14840KMKG MKG20071120210510911/20/07 21:05:31  5-MIN KMKG 210205Z 02005KT 1 3/4SM -RA BR OVC004 08/07 A2989 660 93 0 020/05 RMK AO2 P0001
14840KMKG MKG20071120211012111/20/07 21:10:31  5-MIN KMKG 210210Z 02006KT 1 3/4SM -RA BR OVC004 08/07 A2989 660 93 0 020/06 RMK AO2 CIG 003V008 P0001
14840KMKG MKG20071120211511711/20/07 21:15:31  5-MIN KMKG 210215Z 02007KT 2SM -RA BR OVC004 08/07 A2989 660 93 0 030/07 RMK AO2 CIG 003V007 P0002
14840KMKG MKG20071120212012111/20/07 21:20:31  5-MIN KMKG 210220Z 03008KT 2 1/2SM -RA BR OVC004 08/07 A2988 670 93 0 040/08 RMK AO2 CIG 003V008 P0002
14840KMKG MKG20071120212511711/20/07 21:25:31  5-MIN KMKG 210225Z 03008KT 3SM -RA BR OVC004 08/07 A2988 670 93 0 040/08 RMK AO2 CIG 003V008 P0002
14840KMKG MKG20071120213011711/20/07 21:30:31  5-MIN KMKG 210230Z 03008KT 3SM -RA BR OVC004 08/07 A2988 670 93 0 040/08 RMK AO2 CIG 003V008 P0002
14840KMKG MKG20071120213511911/20/07 21:35:31  5-MIN KMKG 210235Z 03007KT 3SM BR OVC004 08/07 A2988 670 93 0 040/07 RMK AO2 RAE33 CIG 003V008 P0002
14840KMKG MKG20071120214011911/20/07 21:40:31  5-MIN KMKG 210240Z 03008KT 3SM BR OVC004 08/07 A2987 670 93 0 040/08 RMK AO2 RAE33 CIG 003V008 P0002
14840KMKG MKG20071120214511911/20/07 21:45:31  5-MIN KMKG 210245Z 03008KT 3SM BR OVC004 08/07 A2987 670 93 0 040/08 RMK AO2 RAE33 CIG 003V008 P0002
14840KMKG MKG20071120215014111/20/07 21:50:31  5-MIN KMKG 210250Z 03007KT 3SM -RA BR BKN004 OVC011 08/07 A2987 670 93 0 030/07 RMK AO2 SLP120 P0002 60005 T00780067 58006
14840KMKG MKG20071120215513411/20/07 21:55:31  5-MIN KMKG 210255Z 04009KT 4SM -RA BR OVC004 08/06 A2987 670 89 0 040/09 RMK AO2 SLP119 P0002 60005 T00780061 58012
14840KMKG MKG20071120220010311/20/07 22:00:31  5-MIN KMKG 210300Z 03007KT 4SM BR OVC004 08/06 A2987 670 89 0 030/07 RMK AO2 RAE0256
14840KMKG MKG20071120220510311/20/07 22:05:31  5-MIN KMKG 210305Z 03007KT 4SM BR OVC004 08/06 A2987 680 89 0 040/07 RMK AO2 RAE0256
14840KMKG MKG20071120221010311/20/07 22:10:31  5-MIN KMKG 210310Z 03008KT 4SM BR OVC004 08/06 A2987 670 89 0 030/08 RMK AO2 RAE0256
14840KMKG MKG20071120221510311/20/07 22:15:31  5-MIN KMKG 210315Z 02006KT 4SM BR OVC004 08/06 A2988 670 89 0 020/06 RMK AO2 RAE0256
14840KMKG MKG20071120222010311/20/07 22:20:31  5-MIN KMKG 210320Z 01007KT 4SM BR OVC004 08/06 A2988 670 89 0 020/07 RMK AO2 RAE0256
14840KMKG MKG20071120222510311/20/07 22:25:31  5-MIN KMKG 210325Z 02008KT 4SM BR OVC004 08/06 A2988 670 89 0 020/08 RMK AO2 RAE0256
14840KMKG MKG20071120223010311/20/07 22:30:31  5-MIN KMKG 210330Z 01007KT 4SM BR OVC004 08/06 A2988 670 89 0 020/07 RMK AO2 RAE0256
14840KMKG MKG20071120223510311/20/07 22:35:31  5-MIN KMKG 210335Z 02008KT 4SM BR OVC004 08/06 A2988 670 89 0 020/08 RMK AO2 RAE0256
14840KMKG MKG20071120224010311/20/07 22:40:31  5-MIN KMKG 210340Z 02008KT 3SM BR OVC004 07/06 A2987 670 93 0 030/08 RMK AO2 RAE0256
14840KMKG MKG20071120224510911/20/07 22:45:31  5-MIN KMKG 210345Z 04011G15KT 3SM BR OVC004 07/06 A2987 680 93 0 050/11G15 RMK AO2 RAE0256
14840KMKG MKG20071120225013211/20/07 22:50:31  5-MIN KMKG 210350Z 04011KT 4SM BR OVC004 07/06 A2987 680 93 0 040/11 RMK AO2 RAE0256 CIG 004V008 SLP117 T00720061
14840KMKG MKG20071120225513211/20/07 22:55:31  5-MIN KMKG 210355Z 03008KT 4SM BR OVC006 07/06 A2987 680 93 0 030/08 RMK AO2 RAE0256 CIG 004V008 SLP118 T00720061
14840KMKG MKG20071120230009511/20/07 23:00:31  5-MIN KMKG 210400Z 04010KT 3SM BR OVC006 07/06 A2987 680 89 0 040/10 RMK AO2
14840KMKG MKG20071120230510111/20/07 23:05:31  5-MIN KMKG 210405Z 04010G16KT 3SM BR OVC006 07/06 A2987 680 89 0 040/10G16 RMK AO2
14840KMKG MKG20071120231010111/20/07 23:10:31  5-MIN KMKG 210410Z 03010G16KT 3SM BR OVC006 07/06 A2987 670 89 0 040/10G16 RMK AO2
14840KMKG MKG20071120231510711/20/07 23:15:31  5-MIN KMKG 210415Z 04009KT 3SM BR OVC006 07/06 A2988 670 89 0 040/09 RMK AO2 CIG 005V010
14840KMKG MKG20071120232010711/20/07 23:20:31  5-MIN KMKG 210420Z 04009KT 3SM BR OVC006 07/06 A2988 670 89 0 040/09 RMK AO2 CIG 005V010
14840KMKG MKG20071120232510711/20/07 23:25:31  5-MIN KMKG 210425Z 03009KT 3SM BR OVC006 07/06 A2987 670 89 0 040/09 RMK AO2 CIG 005V010
14840KMKG MKG20071120233010711/20/07 23:30:31  5-MIN KMKG 210430Z 01008KT 3SM BR OVC006 07/06 A2988 670 89 0 020/08 RMK AO2 CIG 004V010
14840KMKG MKG20071120233511411/20/07 23:35:31  5-MIN KMKG 210435Z 02011KT 2 1/2SM BR OVC006 07/06 A2988 670 93 -100 030/11 RMK AO2 CIG 004V010
14840KMKG MKG20071120234011611/20/07 23:40:31  5-MIN KMKG 210440Z 03013G17KT 3SM BR OVC006 07/06 A2988 670 93 -100 030/13G17 RMK AO2 CIG 004V010
14840KMKG MKG20071120234511611/20/07 23:45:31  5-MIN KMKG 210445Z 03011G17KT 3SM BR OVC006 07/05 A2988 670 89 -100 030/11G17 RMK AO2 CIG 004V010
14840KMKG MKG20071120235013711/20/07 23:50:31  5-MIN KMKG 210450Z 03012KT 3SM BR OVC006 07/05 A2988 670 89 -100 030/12 RMK AO2 CIG 004V011 SLP121 T00670050 401000067
14840KMKG MKG20071120235514311/20/07 23:55:31  5-MIN KMKG 210455Z 03010G17KT 3SM BR OVC006 07/05 A2988 670 89 -100 040/10G17 RMK AO2 CIG 004V011 SLP121 T00670050 401000067
14840KMKG MKG20071121000012311/21/07 00:00:32  5-MIN KMKG 210500Z 03009G17KT 3SM BR BKN008 OVC012 06/05 A2988 670 93 -200 040/09G17 RMK AO2 CIG 005V011
14840KMKG MKG20071121000512311/21/07 00:05:31  5-MIN KMKG 210505Z 04011G16KT 3SM BR BKN008 OVC012 06/05 A2988 670 93 -200 040/11G16 RMK AO2 CIG 005V009
14840KMKG MKG20071121001011111/21/07 00:10:31  5-MIN KMKG 210510Z 04009G16KT 3SM BR BKN006 OVC010 06/05 A2988 670 93 -200 050/09G16 RMK AO2
14840KMKG MKG20071121001510511/21/07 00:15:31  5-MIN KMKG 210515Z 04010KT 3SM BR BKN006 OVC010 06/05 A2988 670 93 -200 040/10 RMK AO2
14840KMKG MKG20071121002011011/21/07 00:20:31  5-MIN KMKG 210520Z 03009KT 3SM BR OVC008 06/05 A2989 660 93 -200 030/09 RMK AO2 CIG 004V012
14840KMKG MKG20071121002511011/21/07 00:25:31  5-MIN KMKG 210525Z 03011KT 3SM BR OVC008 06/05 A2989 660 93 -200 030/11 RMK AO2 CIG 004V011
14840KMKG MKG20071121003011011/21/07 00:30:31  5-MIN KMKG 210530Z 03010KT 4SM BR OVC008 06/04 A2989 660 89 -200 030/10 RMK AO2 CIG 004V012
14840KMKG MKG20071121003511011/21/07 00:35:31  5-MIN KMKG 210535Z 03011KT 4SM BR OVC008 06/04 A2989 660 89 -200 040/11 RMK AO2 CIG 004V012
14840KMKG MKG20071121004011711/21/07 00:40:31  5-MIN KMKG 210540Z 04010KT 4SM BR BKN008 OVC011 06/04 A2989 660 89 -200 040/10 RMK AO2 CIG 004V010
14840KMKG MKG20071121004511711/21/07 00:45:31  5-MIN KMKG 210545Z 03009KT 5SM BR BKN008 OVC011 06/04 A2989 660 89 -200 030/09 RMK AO2 CIG 005V009
14840KMKG MKG20071121005015111/21/07 00:50:31  5-MIN KMKG 210550Z 04009KT 6SM BR OVC008 06/04 A2989 660 89 -200 040/09 RMK AO2 CIG 005V013 SLP125 60005 T00610044 10078 20061 58012
14840KMKG MKG20071121005515511/21/07 00:55:31  5-MIN KMKG 210555Z 03011KT 7SM BKN008 OVC012 06/04 A2989 660 89 -200 030/11 RMK AO2 CIG 005V010 SLP125 60005 T00610044 10078 20061 53005
14840KMKG MKG20071121010010711/21/07 01:00:31  5-MIN KMKG 210600Z 03010KT 8SM OVC008 06/04 A2989 660 89 -200 030/10 RMK AO2 CIG 005V013
14840KMKG MKG20071121010511311/21/07 01:05:31  5-MIN KMKG 210605Z 04010G19KT 9SM OVC010 06/04 A2989 660 89 -200 040/10G19 RMK AO2 CIG 006V013
14840KMKG MKG20071121011011411/21/07 01:10:31  5-MIN KMKG 210610Z 03008G19KT 10SM OVC010 06/04 A2989 650 89 -200 040/08G19 RMK AO2 CIG 006V014
14840KMKG MKG20071121011510211/21/07 01:15:31  5-MIN KMKG 210615Z 03009KT 9SM BKN007 OVC012 06/04 A2990 650 89 -200 030/09 RMK AO2
14840KMKG MKG20071121012010711/21/07 01:20:31  5-MIN KMKG 210620Z 02008KT 9SM OVC007 06/04 A2990 650 89 -200 030/08 RMK AO2 CIG 006V011
14840KMKG MKG20071121012510711/21/07 01:25:31  5-MIN KMKG 210625Z 01007KT 8SM OVC009 06/04 A2991 640 89 -200 010/07 RMK AO2 CIG 006V014
14840KMKG MKG20071121013011311/21/07 01:30:31  5-MIN KMKG 210630Z 02010G16KT 7SM OVC009 06/04 A2991 640 89 -300 020/10G16 RMK AO2 CIG 006V014
14840KMKG MKG20071121013511611/21/07 01:35:31  5-MIN KMKG 210635Z 01009G16KT 6SM BR OVC009 06/04 A2991 640 89 -300 020/09G16 RMK AO2 CIG 006V011
14840KMKG MKG20071121014011011/21/07 01:40:31  5-MIN KMKG 210640Z 02009KT 5SM BR OVC007 06/04 A2991 640 89 -300 020/09 RMK AO2 CIG 006V011
14840KMKG MKG20071121014512611/21/07 01:45:31  5-MIN KMKG 210645Z 02010KT 4SM -RA BR OVC009 06/04 A2991 640 89 -300 020/10 RMK AO2 RAB42 CIG 006V012 P0000
14840KMKG MKG20071121015014311/21/07 01:50:31  5-MIN KMKG 210650Z 02008KT 3SM -RA BR OVC009 06/04 A2991 640 89 -300 030/08 RMK AO2 RAB42 CIG 006V012 SLP132 P0000 T00560039
14840KMKG MKG20071121015516011/21/07 01:55:31  5-MIN KMKG 210655Z 02009G17KT 2 1/2SM -RA BR BKN009 OVC012 06/04 A2992 630 89 -300 020/09G17 RMK AO2 RAB42 CIG 006V010 SLP135 P0000 T00560039
14840KMKG MKG20071121020013711/21/07 02:00:31  5-MIN KMKG 210700Z 03010G17KT 2 1/2SM -RA BR BKN009 OVC012 06/04 A2991 640 89 -300 040/10G17 RMK AO2 CIG 006V010 P0000
14840KMKG MKG20071121020512711/21/07 02:05:31  5-MIN KMKG 210705Z 04009KT 3SM -RA BR BKN009 OVC014 06/04 A2990 650 89 -200 040/09 RMK AO2 CIG 005V013 P0000
14840KMKG MKG20071121021012711/21/07 02:10:31  5-MIN KMKG 210710Z 04010KT 4SM -RA BR BKN009 OVC012 06/04 A2990 650 89 -200 040/10 RMK AO2 CIG 005V010 P0000
14840KMKG MKG20071121021512211/21/07 02:15:31  5-MIN KMKG 210715Z 05011KT 5SM BR OVC009 06/04 A2989 660 89 -200 060/11 RMK AO2 RAE13 CIG 005V015 P0000
14840KMKG MKG20071121022013311/21/07 02:20:31  5-MIN KMKG 210720Z 03010KT 7SM BKN007 BKN013 OVC041 05/04 A2990 650 92 -300 040/10 RMK AO2 RAE13 CIG 005V010 P0000
14840KMKG MKG20071121022513311/21/07 02:25:31  5-MIN KMKG 210725Z 02009KT 9SM BKN007 BKN013 OVC041 06/04 A2990 650 89 -200 020/09 RMK AO2 RAE13 CIG 005V010 P0001
14840KMKG MKG20071121023012611/21/07 02:30:31  5-MIN KMKG 210730Z 03007KT 9SM BKN007 OVC041 05/04 A2989 650 92 -300 040/07 RMK AO2 RAE13 CIG 005V013 P0001
14840KMKG MKG20071121023513911/21/07 02:35:31  5-MIN KMKG 210735Z 03010G16KT 9SM -RA BKN009 OVC041 05/04 A2989 660 92 -300 040/10G16 RMK AO2 RAE13B31 CIG 005V013 P0001
14840KMKG MKG20071121024013911/21/07 02:40:31  5-MIN KMKG 210740Z 03009G16KT 9SM -RA BKN009 OVC041 05/03 A2989 660 89 -300 030/09G16 RMK AO2 RAE13B31 CIG 005V012 P0001
14840KMKG MKG20071121024513311/21/07 02:45:31  5-MIN KMKG 210745Z 03008KT 8SM -RA BKN007 OVC011 05/03 A2990 650 89 -300 030/08 RMK AO2 RAE13B31 CIG 006V009 P0001
14840KMKG MKG20071121025014911/21/07 02:50:31  5-MIN KMKG 210750Z 02008G17KT 9SM -RA OVC009 05/03 A2990 650 89 -300 030/08G17 RMK AO2 RAE13B31 CIG 006V011 SLP130 P0001 T00500033
14840KMKG MKG20071121025515011/21/07 02:55:31  5-MIN KMKG 210755Z 03009G17KT 10SM -RA OVC009 05/03 A2991 640 89 -300 030/09G17 RMK AO2 RAE13B31 CIG 006V011 SLP131 P0002 T00500033
14840KMKG MKG20071121030013111/21/07 03:00:31  5-MIN KMKG 210800Z 04010G15KT 10SM -RA BKN009 OVC013 05/03 A2990 650 89 -300 040/10G15 RMK AO2 CIG 006V011 P0000
14840KMKG MKG20071121030513011/21/07 03:05:31  5-MIN KMKG 210805Z 03011G15KT 9SM -RA BKN009 OVC013 05/03 A2990 650 89 -300 030/11G15 RMK AO2 CIG 006V011 P0000
14840KMKG MKG20071121031011011/21/07 03:10:31  5-MIN KMKG 210810Z 04009G16KT 7SM RA OVC011 05/03 A2990 650 89 -300 040/09G16 RMK AO2 P0000
14840KMKG MKG20071121031512611/21/07 03:15:31  5-MIN KMKG 210815Z 03010KT 6SM RA BR BKN011 OVC014 05/03 A2990 650 89 -300 030/10 RMK AO2 CIG 007V011 P0001
14840KMKG MKG20071121032010511/21/07 03:20:31  5-MIN KMKG 210820Z 03009KT 7SM -RA OVC011 05/03 A2990 650 89 -300 040/09 RMK AO2 P0002
14840KMKG MKG20071121032511211/21/07 03:25:31  5-MIN KMKG 210825Z 03010G17KT 10SM -RA OVC011 05/03 A2990 650 89 -300 030/10G17 RMK AO2 P0002
14840KMKG MKG20071121033011411/21/07 03:30:31  5-MIN KMKG 210830Z 03009G17KT 10SM OVC011 05/03 A2991 640 89 -300 030/09G17 RMK AO2 RAE30 P0002
14840KMKG MKG20071121033510811/21/07 03:35:31  5-MIN KMKG 210835Z 03008KT 10SM OVC011 05/03 A2991 640 89 -300 040/08 RMK AO2 RAE30 P0002
14840KMKG MKG20071121034010811/21/07 03:40:31  5-MIN KMKG 210840Z 02006KT 10SM OVC013 05/03 A2991 640 89 -300 020/06 RMK AO2 RAE30 P0002
14840KMKG MKG20071121034510811/21/07 03:45:31  5-MIN KMKG 210845Z 03008KT 10SM OVC013 05/03 A2991 640 89 -300 040/08 RMK AO2 RAE30 P0002
14840KMKG MKG20071121035013711/21/07 03:50:31  5-MIN KMKG 210850Z 03009KT 10SM OVC013 05/03 A2991 640 85 -300 040/09 RMK AO2 RAE30 SLP131 P0002 60004 T00500028 53005
14840KMKG MKG20071121035513711/21/07 03:55:31  5-MIN KMKG 210855Z 03009KT 10SM OVC013 05/03 A2990 640 89 -300 030/09 RMK AO2 RAE30 SLP130 P0002 60004 T00500033 50005
14840KMKG MKG20071121040011411/21/07 04:00:31  5-MIN KMKG 210900Z 02008KT 10SM -RA OVC013 05/03 A2991 640 89 -300 030/08 RMK AO2 RAB0859 P0000
14840KMKG MKG20071121040511411/21/07 04:05:31  5-MIN KMKG 210905Z 02009KT 10SM -RA OVC013 05/03 A2992 630 85 -300 020/09 RMK AO2 RAB0859 P0000
14840KMKG MKG20071121041012111/21/07 04:10:31  5-MIN KMKG 210910Z 03007KT 10SM -RA BKN013 OVC024 05/03 A2993 620 89 -300 030/07 RMK AO2 RAB0859 P0000
14840KMKG MKG20071121041512011/21/07 04:15:31  5-MIN KMKG 210915Z 02007KT 10SM BKN013 OVC024 05/03 A2993 620 89 -300 020/07 RMK AO2 RAB0859E11 P0000
14840KMKG MKG20071121042012011/21/07 04:20:31  5-MIN KMKG 210920Z 02009KT 10SM SCT013 OVC024 05/03 A2993 630 89 -300 020/09 RMK AO2 RAB0859E11 P0000
14840KMKG MKG20071121042512011/21/07 04:25:31  5-MIN KMKG 210925Z 02010KT 10SM FEW013 OVC024 05/03 A2992 630 85 -300 020/10 RMK AO2 RAB0859E11 P0000
14840KMKG MKG20071121043012011/21/07 04:30:31  5-MIN KMKG 210930Z 02007KT 10SM FEW013 OVC024 05/03 A2992 630 89 -300 020/07 RMK AO2 RAB0859E11 P0000
14840KMKG MKG20071121043511311/21/07 04:35:31  5-MIN KMKG 210935Z 01006KT 10SM OVC024 05/03 A2993 620 89 -300 020/06 RMK AO2 RAB0859E11 P0000
14840KMKG MKG20071121044011311/21/07 04:40:31  5-MIN KMKG 210940Z 02008KT 10SM OVC026 05/03 A2992 630 89 -300 020/08 RMK AO2 RAB0859E11 P0000
14840KMKG MKG20071121044511311/21/07 04:45:31  5-MIN KMKG 210945Z 02008KT 10SM OVC026 05/03 A2992 630 89 -300 020/08 RMK AO2 RAB0859E11 P0000
14840KMKG MKG20071121045013711/21/07 04:50:31  5-MIN KMKG 210950Z 02007KT 10SM BKN028 OVC033 05/03 A2992 630 89 -300 020/07 RMK AO2 RAB0859E11 SLP136 P0000 T00500033
14840KMKG MKG20071121045513711/21/07 04:55:31  5-MIN KMKG 210955Z 01007KT 10SM BKN028 OVC033 05/03 A2993 620 89 -300 010/07 RMK AO2 RAB0859E11 SLP138 P0000 T00500033
14840KMKG MKG20071121050010311/21/07 05:00:31  5-MIN KMKG 211000Z 01008KT 10SM SCT028 OVC035 05/03 A2992 630 89 -300 010/08 RMK AO2
14840KMKG MKG20071121050510311/21/07 05:05:31  5-MIN KMKG 211005Z 36008KT 10SM FEW028 OVC035 05/03 A2992 630 89 -300 010/08 RMK AO2
14840KMKG MKG20071121051009611/21/07 05:10:31  5-MIN KMKG 211010Z 02008KT 10SM OVC033 05/03 A2992 630 89 -300 020/08 RMK AO2
14840KMKG MKG20071121051509611/21/07 05:15:31  5-MIN KMKG 211015Z 02008KT 10SM OVC033 05/03 A2993 630 85 -300 020/08 RMK AO2
14840KMKG MKG20071121052009611/21/07 05:20:31  5-MIN KMKG 211020Z 01008KT 10SM OVC035 05/03 A2993 620 85 -400 020/08 RMK AO2
14840KMKG MKG20071121052509611/21/07 05:25:31  5-MIN KMKG 211025Z 01007KT 10SM OVC035 05/03 A2994 610 85 -400 010/07 RMK AO2
14840KMKG MKG20071121053009611/21/07 05:30:31  5-MIN KMKG 211030Z 01008KT 10SM OVC035 05/03 A2994 610 85 -400 010/08 RMK AO2
14840KMKG MKG20071121053509611/21/07 05:35:31  5-MIN KMKG 211035Z 36009KT 10SM OVC035 05/03 A2994 610 85 -400 010/09 RMK AO2
14840KMKG MKG20071121054009611/21/07 05:40:31  5-MIN KMKG 211040Z 36008KT 10SM OVC035 05/03 A2994 610 85 -400 010/08 RMK AO2
14840KMKG MKG20071121054509611/21/07 05:45:31  5-MIN KMKG 211045Z 36008KT 10SM OVC037 05/03 A2995 600 85 -400 010/08 RMK AO2
14840KMKG MKG20071121055011311/21/07 05:50:31  5-MIN KMKG 211050Z 36007KT 10SM OVC037 05/03 A2995 600 85 -400 010/07 RMK AO2 SLP147 T00500028
14840KMKG MKG20071121055512011/21/07 05:55:31  5-MIN KMKG 211055Z 01008KT 10SM FEW010 OVC037 05/03 A2995 600 85 -400 010/08 RMK AO2 SLP147 T00500028
14840KMKG MKG20071121060010311/21/07 06:00:31  5-MIN KMKG 211100Z 01009KT 10SM FEW012 OVC037 05/03 A2995 600 85 -400 010/09 RMK AO2
14840KMKG MKG20071121060510311/21/07 06:05:31  5-MIN KMKG 211105Z 01008KT 10SM SCT012 OVC039 05/03 A2995 600 85 -400 020/08 RMK AO2
14840KMKG MKG20071121061011011/21/07 06:10:31  5-MIN KMKG 211110Z 36010KT 10SM SCT012 BKN039 OVC065 05/03 A2995 600 85 -400 010/10 RMK AO2
14840KMKG MKG20071121061511011/21/07 06:15:31  5-MIN KMKG 211115Z 01009KT 10SM FEW012 BKN039 OVC065 05/03 A2995 600 85 -400 010/09 RMK AO2
14840KMKG MKG20071121062011011/21/07 06:20:31  5-MIN KMKG 211120Z 01008KT 10SM FEW012 BKN039 OVC065 05/03 A2995 600 85 -400 010/08 RMK AO2
14840KMKG MKG20071121062511011/21/07 06:25:31  5-MIN KMKG 211125Z 02009KT 10SM FEW012 SCT039 OVC065 05/03 A2996 600 85 -400 020/09 RMK AO2
14840KMKG MKG20071121063010311/21/07 06:30:31  5-MIN KMKG 211130Z 01010KT 10SM FEW012 OVC065 05/03 A2995 600 85 -400 020/10 RMK AO2
14840KMKG MKG20071121063511011/21/07 06:35:31  5-MIN KMKG 211135Z 02009KT 10SM FEW012 SCT050 OVC065 05/03 A2995 600 85 -400 030/09 RMK AO2
14840KMKG MKG20071121064010911/21/07 06:40:31  5-MIN KMKG 211140Z 02006G14KT 10SM SCT050 OVC065 05/03 A2996 600 85 -400 020/06G14 RMK AO2
14840KMKG MKG20071121064511811/21/07 06:45:31  5-MIN KMKG 211145Z 02007KT 10SM FEW032 OVC060 05/03 A2996 590 85 -400 030/07 RMK AO2 CIG 050 RWY 14
14840KMKG MKG20071121065015711/21/07 06:50:31  5-MIN KMKG 211150Z 01008KT 10SM FEW032 BKN050 OVC065 05/03 A2996 590 85 -400 010/08 RMK AO2 SLP149 60004 70012 T00500028 10061 20050 50005
14840KMKG MKG20071121065516311/21/07 06:55:31  5-MIN KMKG 211155Z 01008G15KT 10SM SCT032 BKN050 OVC065 05/03 A2997 590 85 -400 010/08G15 RMK AO2 SLP151 60004 70012 T00500028 10061 20050 51020
14840KMKG MKG20071121070011611/21/07 07:00:31  5-MIN KMKG 211200Z 01007G15KT 10SM FEW029 SCT036 BKN055 05/03 A2997 590 85 -400 020/07G15 RMK AO2
14840KMKG MKG20071121070511011/21/07 07:05:31  5-MIN KMKG 211205Z 01007KT 10SM FEW033 SCT040 OVC055 05/03 A2997 590 85 -400 020/07 RMK AO2
14840KMKG MKG20071121071010311/21/07 07:10:31  5-MIN KMKG 211210Z 02007KT 10SM FEW033 BKN050 05/03 A2997 590 85 -400 020/07 RMK AO2
14840KMKG MKG20071121071510311/21/07 07:15:31  5-MIN KMKG 211215Z 02007KT 10SM FEW033 BKN050 05/03 A2997 580 85 -400 030/07 RMK AO2
14840KMKG MKG20071121072010311/21/07 07:20:31  5-MIN KMKG 211220Z 01005KT 10SM FEW042 BKN050 05/03 A2997 580 85 -400 020/05 RMK AO2
14840KMKG MKG20071121072510311/21/07 07:25:31  5-MIN KMKG 211225Z 02006KT 10SM FEW043 OVC050 05/03 A2998 580 85 -400 020/06 RMK AO2
14840KMKG MKG20071121073009611/21/07 07:30:31  5-MIN KMKG 211230Z 02008KT 10SM OVC055 05/02 A2998 570 82 -400 030/08 RMK AO2
14840KMKG MKG20071121073509611/21/07 07:35:31  5-MIN KMKG 211235Z 02010KT 10SM OVC055 05/02 A2998 580 82 -400 020/10 RMK AO2
14840KMKG MKG20071121074009611/21/07 07:40:31  5-MIN KMKG 211240Z 01008KT 10SM OVC055 05/02 A2998 580 82 -400 010/08 RMK AO2
14840KMKG MKG20071121074509611/21/07 07:45:31  5-MIN KMKG 211245Z 02008KT 10SM BKN055 05/02 A2998 580 82 -400 020/08 RMK AO2
14840KMKG MKG20071121075011311/21/07 07:50:31  5-MIN KMKG 211250Z 01008KT 10SM BKN055 05/02 A2997 580 82 -400 020/08 RMK AO2 SLP154 T00500022
14840KMKG MKG20071121075511311/21/07 07:55:31  5-MIN KMKG 211255Z 02010KT 10SM BKN055 05/02 A2997 580 82 -400 020/10 RMK AO2 SLP153 T00500022
14840KMKG MKG20071121080009611/21/07 08:00:31  5-MIN KMKG 211300Z 02009KT 10SM SCT055 05/02 A2997 580 79 -400 030/09 RMK AO2
14840KMKG MKG20071121080509611/21/07 08:05:31  5-MIN KMKG 211305Z 03008KT 10SM SCT055 05/02 A2998 580 79 -400 030/08 RMK AO2
14840KMKG MKG20071121081009611/21/07 08:10:31  5-MIN KMKG 211310Z 03009KT 10SM SCT055 05/02 A2997 580 79 -400 040/09 RMK AO2
14840KMKG MKG20071121081509611/21/07 08:15:31  5-MIN KMKG 211315Z 03009KT 10SM SCT055 05/02 A2998 580 79 -400 030/09 RMK AO2
14840KMKG MKG20071121082010211/21/07 08:20:31  5-MIN KMKG 211320Z 03008G16KT 10SM BKN055 05/02 A2998 580 79 -400 030/08G16 RMK AO2
14840KMKG MKG20071121082510211/21/07 08:25:31  5-MIN KMKG 211325Z 03008G16KT 10SM BKN055 05/02 A2998 580 79 -400 030/08G16 RMK AO2
14840KMKG MKG20071121083010211/21/07 08:30:31  5-MIN KMKG 211330Z 02011G16KT 10SM SCT055 05/02 A2998 580 79 -400 020/11G16 RMK AO2
14840KMKG MKG20071121083509611/21/07 08:35:31  5-MIN KMKG 211335Z 02008KT 10SM SCT055 05/02 A2998 570 79 -400 020/08 RMK AO2
14840KMKG MKG20071121084009611/21/07 08:40:31  5-MIN KMKG 211340Z 01008KT 10SM SCT055 05/02 A2998 570 79 -400 020/08 RMK AO2
14840KMKG MKG20071121084509611/21/07 08:45:31  5-MIN KMKG 211345Z 02008KT 10SM FEW055 05/02 A2999 570 79 -400 020/08 RMK AO2
14840KMKG MKG20071121085011911/21/07 08:50:31  5-MIN KMKG 211350Z 02007G14KT 10SM FEW055 05/02 A2999 570 79 -400 020/07G14 RMK AO2 SLP158 T00500017
14840KMKG MKG20071121085512011/21/07 08:55:31  5-MIN KMKG 211355Z 01009KT 10SM FEW055 SCT090 05/02 A2999 570 79 -400 020/09 RMK AO2 SLP158 T00500017
14840KMKG MKG20071121090009311/21/07 09:00:31  5-MIN KMKG 211400Z 02009KT 10SM CLR 05/02 A2998 570 79 -400 030/09 RMK AO2
14840KMKG MKG20071121090509911/21/07 09:05:31  5-MIN KMKG 211405Z 03010G15KT 10SM CLR 05/02 A2998 570 79 -400 030/10G15 RMK AO2
14840KMKG MKG20071121091009911/21/07 09:10:31  5-MIN KMKG 211410Z 02008G15KT 10SM CLR 05/02 A2998 570 79 -400 020/08G15 RMK AO2
14840KMKG MKG20071121091509311/21/07 09:15:31  5-MIN KMKG 211415Z 03010KT 10SM CLR 05/02 A2999 570 79 -400 030/10 RMK AO2
14840KMKG MKG20071121092009611/21/07 09:20:31  5-MIN KMKG 211420Z 03009KT 10SM FEW090 05/02 A2999 570 79 -400 040/09 RMK AO2
14840KMKG MKG20071121092510211/21/07 09:25:31  5-MIN KMKG 211425Z 03010G15KT 10SM FEW090 05/02 A2999 560 79 -400 030/10G15 RMK AO2
14840KMKG MKG20071121093010211/21/07 09:30:31  5-MIN KMKG 211430Z 02010G17KT 10SM SCT090 05/02 A2999 570 79 -400 020/10G17 RMK AO2
14840KMKG MKG20071121093509611/21/07 09:35:31  5-MIN KMKG 211435Z 03010KT 10SM SCT090 05/02 A2998 570 79 -400 030/10 RMK AO2
14840KMKG MKG20071121094009611/21/07 09:40:31  5-MIN KMKG 211440Z 02010KT 10SM SCT090 05/02 A2998 580 79 -400 020/10 RMK AO2
14840KMKG MKG20071121094510211/21/07 09:45:31  5-MIN KMKG 211445Z 03012G18KT 10SM SCT090 05/02 A2998 580 79 -400 030/12G18 RMK AO2
14840KMKG MKG20071121095012511/21/07 09:50:31  5-MIN KMKG 211450Z 03014G20KT 10SM FEW090 05/02 A2997 580 79 -400 030/14G20 RMK AO2 SLP153 T00500017 51020
14840KMKG MKG20071121095513211/21/07 09:55:31  5-MIN KMKG 211455Z 03014G21KT 10SM SCT090 05/01 A2996 590 76 -400 030/14G21 RMK AO2 PRESFR SLP149 T00500011 58002
14840KMKG MKG20071121100009911/21/07 10:00:31  5-MIN KMKG 211500Z 03012G21KT 10SM CLR 05/02 A2996 590 79 -400 030/12G21 RMK AO2
14840KMKG MKG20071121100509911/21/07 10:05:31  5-MIN KMKG 211505Z 03015G20KT 10SM CLR 05/01 A2997 590 76 -400 030/15G20 RMK AO2
14840KMKG MKG20071121101009911/21/07 10:10:31  5-MIN KMKG 211510Z 03010G20KT 10SM CLR 05/01 A2997 580 76 -400 030/10G20 RMK AO2
14840KMKG MKG20071121101509311/21/07 10:15:31  5-MIN KMKG 211515Z 04011KT 10SM CLR 05/02 A2997 590 79 -400 050/11 RMK AO2
14840KMKG MKG20071121102009911/21/07 10:20:31  5-MIN KMKG 211520Z 04011G18KT 10SM CLR 05/02 A2996 590 79 -400 040/11G18 RMK AO2
14840KMKG MKG20071121102510211/21/07 10:25:31  5-MIN KMKG 211525Z 02011G18KT 10SM FEW015 05/02 A2996 590 79 -400 030/11G18 RMK AO2
14840KMKG MKG20071121103010211/21/07 10:30:31  5-MIN KMKG 211530Z 03012G18KT 10SM FEW015 06/02 A2997 590 76 -300 030/12G18 RMK AO2
14840KMKG MKG20071121103509911/21/07 10:35:31  5-MIN KMKG 211535Z 03010G16KT 10SM CLR 06/02 A2997 580 76 -300 030/10G16 RMK AO2
14840KMKG MKG20071121104009311/21/07 10:40:31  5-MIN KMKG 211540Z 02009KT 10SM CLR 06/02 A2998 580 76 -300 030/09 RMK AO2
14840KMKG MKG20071121104509311/21/07 10:45:31  5-MIN KMKG 211545Z 03008KT 10SM CLR 06/02 A2998 580 76 -300 040/08 RMK AO2
14840KMKG MKG20071121105011011/21/07 10:50:31  5-MIN KMKG 211550Z 03009KT 10SM CLR 06/01 A2998 580 73 -300 040/09 RMK AO2 SLP155 T00560011
14840KMKG MKG20071121105512711/21/07 10:55:31  5-MIN KMKG 211555Z 02009KT 10SM FEW017 SCT050 SCT090 06/01 A2998 570 73 -300 020/09 RMK AO2 SLP157 T00560011
14840KMKG MKG20071121110010311/21/07 11:00:31  5-MIN KMKG 211600Z 02005KT 10SM FEW020 SCT090 06/01 A2999 560 73 -400 020/05 RMK AO2
14840KMKG MKG20071121110509611/21/07 11:05:31  5-MIN KMKG 211605Z 01006KT 10SM BKN090 06/01 A2999 570 73 -300 020/06 RMK AO2
14840KMKG MKG20071121111009611/21/07 11:10:31  5-MIN KMKG 211610Z 02006KT 10SM SCT090 06/01 A3000 560 73 -400 030/06 RMK AO2
14840KMKG MKG20071121111509611/21/07 11:15:31  5-MIN KMKG 211615Z 01008KT 10SM SCT090 06/01 A2999 560 73 -400 020/08 RMK AO2
14840KMKG MKG20071121112009611/21/07 11:20:31  5-MIN KMKG 211620Z 02010KT 10SM SCT090 06/01 A2998 570 73 -300 030/10 RMK AO2
14840KMKG MKG20071121112509611/21/07 11:25:31  5-MIN KMKG 211625Z 02010KT 10SM SCT090 06/01 A2997 580 73 -300 020/10 RMK AO2
14840KMKG MKG20071121113009611/21/07 11:30:31  5-MIN KMKG 211630Z 03011KT 10SM FEW090 06/01 A2997 580 73 -300 030/11 RMK AO2
14840KMKG MKG20071121113509611/21/07 11:35:31  5-MIN KMKG 211635Z 02012KT 10SM FEW095 06/01 A2997 590 73 -300 030/12 RMK AO2
14840KMKG MKG20071121114009611/21/07 11:40:31  5-MIN KMKG 211640Z 02011KT 10SM FEW090 06/01 A2997 590 73 -300 020/11 RMK AO2
14840KMKG MKG20071121114509611/21/07 11:45:31  5-MIN KMKG 211645Z 02011KT 10SM SCT080 06/01 A2997 580 73 -300 020/11 RMK AO2
14840KMKG MKG20071121115011911/21/07 11:50:31  5-MIN KMKG 211650Z 02007G15KT 10SM BKN080 06/01 A2997 580 70 -300 030/07G15 RMK AO2 SLP154 T00560006
14840KMKG MKG20071121115512611/21/07 11:55:31  5-MIN KMKG 211655Z 03011G17KT 10SM FEW020 BKN080 06/01 A2998 580 73 -300 040/11G17 RMK AO2 SLP155 T00560011
14840KMKG MKG20071121120010211/21/07 12:00:31  5-MIN KMKG 211700Z 01009G17KT 10SM BKN080 06/01 A2998 570 73 -300 010/09G17 RMK AO2
14840KMKG MKG20071121120510311/21/07 12:05:31  5-MIN KMKG 211705Z 02010KT 10SM FEW021 OVC080 06/01 A2998 570 73 -300 020/10 RMK AO2
14840KMKG MKG20071121121009611/21/07 12:10:31  5-MIN KMKG 211710Z 02010KT 10SM OVC080 06/01 A2998 580 73 -300 020/10 RMK AO2
14840KMKG MKG20071121121509611/21/07 12:15:31  5-MIN KMKG 211715Z 36012KT 10SM BKN080 06/01 A2998 580 73 -300 010/12 RMK AO2
14840KMKG MKG20071121122011911/21/07 12:20:31  5-MIN KMKG 211720Z 01009KT 330V030 10SM FEW021 BKN080 06/01 A2999 570 70 -300 010/09 330V030 RMK AO2
14840KMKG MKG20071121122510911/21/07 12:25:31  5-MIN KMKG 211725Z 02008G15KT 10SM FEW021 BKN080 06/01 A2999 560 70 -400 020/08G15 RMK AO2
14840KMKG MKG20071121123010311/21/07 12:30:31  5-MIN KMKG 211730Z 02010KT 10SM FEW021 BKN080 06/01 A2998 570 70 -300 020/10 RMK AO2
14840KMKG MKG20071121123509611/21/07 12:35:31  5-MIN KMKG 211735Z 03011KT 10SM BKN085 06/01 A2998 580 70 -300 030/11 RMK AO2
14840KMKG MKG20071121124010211/21/07 12:40:31  5-MIN KMKG 211740Z 03012G18KT 10SM BKN085 06/01 A2997 580 70 -300 030/12G18 RMK AO2
14840KMKG MKG20071121124510911/21/07 12:45:31  5-MIN KMKG 211745Z 01008G18KT 10SM FEW021 BKN085 06/01 A2997 580 70 -300 020/08G18 RMK AO2
14840KMKG MKG20071121125013711/21/07 12:50:31  5-MIN KMKG 211750Z 03011G16KT 10SM BKN085 06/01 A2997 580 70 -300 030/11G16 RMK AO2 SLP153 T00560006 10056 20050 58002
14840KMKG MKG20071121125513811/21/07 12:55:31  5-MIN KMKG 211755Z 03010KT 10SM FEW023 OVC085 06/01 A2996 590 70 -300 030/10 RMK AO2 SLP151 T00560006 10056 20050 50001
14840KMKG MKG20071121130010911/21/07 13:00:31  5-MIN KMKG 211800Z 03011G17KT 10SM FEW023 OVC085 06/01 A2995 600 70 -300 030/11G17 RMK AO2
14840KMKG MKG20071121130510911/21/07 13:05:31  5-MIN KMKG 211805Z 04011G17KT 10SM FEW025 BKN085 06/01 A2995 600 70 -300 040/11G17 RMK AO2
14840KMKG MKG20071121131012411/21/07 13:10:31  5-MIN KMKG 211810Z 02008G16KT 10SM FEW025 BKN085 06/01 A2996 590 73 -300 030/08G16 RMK AO2 CIG 024 RWY 14
14840KMKG MKG20071121131511811/21/07 13:15:31  5-MIN KMKG 211815Z 04012KT 10SM SCT025 BKN085 06/01 A2995 600 73 -300 040/12 RMK AO2 CIG 024 RWY 14
14840KMKG MKG20071121132011811/21/07 13:20:31  5-MIN KMKG 211820Z 02009KT 10SM SCT025 BKN085 06/01 A2995 600 70 -200 030/09 RMK AO2 CIG 024 RWY 14
14840KMKG MKG20071121132511811/21/07 13:25:31  5-MIN KMKG 211825Z 03008KT 10SM SCT025 BKN085 06/01 A2995 600 70 -200 040/08 RMK AO2 CIG 024 RWY 14
14840KMKG MKG20071121133009611/21/07 13:30:31  5-MIN KMKG 211830Z 03012KT 10SM BKN025 06/01 A2995 600 70 -200 030/12 RMK AO2
14840KMKG MKG20071121133510211/21/07 13:35:31  5-MIN KMKG 211835Z 03011G15KT 10SM BKN025 06/01 A2994 610 67 -200 030/11G15 RMK AO2
14840KMKG MKG20071121134010211/21/07 13:40:31  5-MIN KMKG 211840Z 03012G17KT 10SM BKN025 06/01 A2994 610 70 -300 040/12G17 RMK AO2
14840KMKG MKG20071121134510211/21/07 13:45:31  5-MIN KMKG 211845Z 04011G17KT 10SM BKN025 06/01 A2995 610 70 -300 050/11G17 RMK AO2
14840KMKG MKG20071121135012611/21/07 13:50:31  5-MIN KMKG 211850Z 04013G18KT 10SM BKN025 BKN090 06/01 A2994 610 67 -200 050/13G18 RMK AO2 SLP143 T00610006
14840KMKG MKG20071121135512611/21/07 13:55:31  5-MIN KMKG 211855Z 04015G21KT 10SM BKN025 BKN090 06/00 A2994 610 67 -300 040/15G21 RMK AO2 SLP143 T00560000
14840KMKG MKG20071121140010911/21/07 14:00:31  5-MIN KMKG 211900Z 04012G21KT 10SM BKN027 OVC090 06/00 A2994 620 67 -300 040/12G21 RMK AO2
14840KMKG MKG20071121140510911/21/07 14:05:31  5-MIN KMKG 211905Z 03012G20KT 10SM BKN025 OVC090 06/00 A2994 610 67 -300 040/12G20 RMK AO2
14840KMKG MKG20071121141010911/21/07 14:10:31  5-MIN KMKG 211910Z 04008G16KT 10SM BKN025 OVC090 06/00 A2994 610 67 -300 040/08G16 RMK AO2
14840KMKG MKG20071121141510911/21/07 14:15:31  5-MIN KMKG 211915Z 05015G19KT 10SM BKN025 OVC090 06/00 A2994 610 67 -300 060/15G19 RMK AO2
14840KMKG MKG20071121142010911/21/07 14:20:31  5-MIN KMKG 211920Z 04010G20KT 10SM BKN025 OVC090 06/00 A2994 610 67 -300 040/10G20 RMK AO2
14840KMKG MKG20071121142510211/21/07 14:25:31  5-MIN KMKG 211925Z 04012G20KT 10SM OVC027 06/00 A2993 620 67 -300 040/12G20 RMK AO2
14840KMKG MKG20071121143010211/21/07 14:30:31  5-MIN KMKG 211930Z 04009G19KT 10SM OVC027 06/00 A2994 620 67 -300 040/09G19 RMK AO2
14840KMKG MKG20071121143510211/21/07 14:35:31  5-MIN KMKG 211935Z 03009G19KT 10SM OVC027 06/00 A2995 600 67 -300 030/09G19 RMK AO2
14840KMKG MKG20071121144010211/21/07 14:40:31  5-MIN KMKG 211940Z 03012G20KT 10SM OVC027 06/00 A2994 610 67 -300 030/12G20 RMK AO2
14840KMKG MKG20071121144510211/21/07 14:45:31  5-MIN KMKG 211945Z 03012G20KT 10SM OVC025 06/00 A2994 610 67 -300 030/12G20 RMK AO2
14840KMKG MKG20071121145012611/21/07 14:50:31  5-MIN KMKG 211950Z 03011G19KT 10SM BKN023 OVC028 06/00 A2994 610 67 -300 040/11G19 RMK AO2 SLP142 T00560000
14840KMKG MKG20071121145511911/21/07 14:55:31  5-MIN KMKG 211955Z 03009G17KT 10SM OVC023 05/01 A2994 620 73 -400 040/09G17 RMK AO2 SLP142 T00500006
14840KMKG MKG20071121150010211/21/07 15:00:31  5-MIN KMKG 212000Z 04014G20KT 10SM OVC023 05/00 A2994 610 70 -400 050/14G20 RMK AO2
14840KMKG MKG20071121150510211/21/07 15:05:31  5-MIN KMKG 212005Z 04013G20KT 10SM OVC021 05/00 A2994 610 70 -400 050/13G20 RMK AO2
14840KMKG MKG20071121151010211/21/07 15:10:31  5-MIN KMKG 212010Z 04010G19KT 10SM OVC021 05/00 A2994 610 70 -400 040/10G19 RMK AO2
14840KMKG MKG20071121151510211/21/07 15:15:31  5-MIN KMKG 212015Z 04010G18KT 10SM OVC021 05/01 A2994 610 73 -400 040/10G18 RMK AO2
14840KMKG MKG20071121152010211/21/07 15:20:31  5-MIN KMKG 212020Z 03009G16KT 10SM OVC021 05/01 A2993 620 73 -400 030/09G16 RMK AO2
14840KMKG MKG20071124003510411/24/07 00:35:31  5-MIN KMKG 240535Z 23012G16KT 10SM SCT032 01/M06 A3030 280 58 -1300 240/12G16 RMK AO2
14840KMKG MKG20071124004010411/24/07 00:40:31  5-MIN KMKG 240540Z 23008G16KT 10SM SCT032 01/M06 A3030 280 61 -1300 240/08G16 RMK AO2
14840KMKG MKG20071124004509811/24/07 00:45:31  5-MIN KMKG 240545Z 24010KT 10SM SCT032 01/M06 A3030 280 58 -1300 240/10 RMK AO2
14840KMKG MKG20071124005013911/24/07 00:50:31  5-MIN KMKG 240550Z 24012G17KT 10SM SCT032 01/M06 A3030 290 58 -1200 240/12G17 RMK AO2 SLP267 T00111061 10011 21006 58006
14840KMKG MKG20071124005513911/24/07 00:55:31  5-MIN KMKG 240555Z 24011G17KT 10SM FEW032 01/M06 A3029 290 58 -1200 250/11G17 RMK AO2 SLP267 T00111061 10011 21006 56007
14840KMKG MKG20071124010009811/24/07 01:00:31  5-MIN KMKG 240600Z 24009KT 10SM FEW032 01/M06 A3030 280 58 -1300 240/09 RMK AO2
14840KMKG MKG20071124010509811/24/07 01:05:31  5-MIN KMKG 240605Z 23010KT 10SM SCT032 01/M06 A3029 290 61 -1200 240/10 RMK AO2
14840KMKG MKG20071124011009811/24/07 01:10:31  5-MIN KMKG 240610Z 23015KT 10SM SCT034 01/M06 A3029 290 61 -1200 240/15 RMK AO2
14840KMKG MKG20071124011511111/24/07 01:15:31  5-MIN KMKG 240615Z 22011G19KT 10SM SCT032 SCT040 01/M06 A3029 290 61 -1200 230/11G19 RMK AO2
14840KMKG MKG20071124012011111/24/07 01:20:31  5-MIN KMKG 240620Z 23011G19KT 10SM SCT031 SCT039 01/M06 A3029 290 61 -1200 240/11G19 RMK AO2
14840KMKG MKG20071124012510511/24/07 01:25:31  5-MIN KMKG 240625Z 24010KT 10SM SCT031 SCT039 01/M06 A3029 290 61 -1200 240/10 RMK AO2
14840KMKG MKG20071124013010511/24/07 01:30:31  5-MIN KMKG 240630Z 24012KT 10SM SCT031 SCT039 01/M06 A3029 290 61 -1200 240/12 RMK AO2
14840KMKG MKG20071124013509811/24/07 01:35:31  5-MIN KMKG 240635Z 24010KT 10SM SCT034 01/M06 A3029 290 61 -1200 250/10 RMK AO2
14840KMKG MKG20071124014010411/24/07 01:40:31  5-MIN KMKG 240640Z 24011G17KT 10SM SCT034 01/M06 A3029 290 58 -1200 250/11G17 RMK AO2
14840KMKG MKG20071124014510411/24/07 01:45:31  5-MIN KMKG 240645Z 24010G17KT 10SM SCT034 01/M06 A3029 290 58 -1200 240/10G17 RMK AO2
14840KMKG MKG20071124015011511/24/07 01:50:31  5-MIN KMKG 240650Z 24012KT 10SM FEW034 01/M06 A3029 290 58 -1200 240/12 RMK AO2 SLP265 T00111061
14840KMKG MKG20071124015511511/24/07 01:55:31  5-MIN KMKG 240655Z 24012KT 10SM FEW034 01/M06 A3028 290 58 -1200 240/12 RMK AO2 SLP263 T00111061
14840KMKG MKG20071124020010411/24/07 02:00:31  5-MIN KMKG 240700Z 24011G18KT 10SM SCT034 01/M06 A3029 290 58 -1200 240/11G18 RMK AO2
14840KMKG MKG20071124020509811/24/07 02:05:31  5-MIN KMKG 240705Z 24009KT 10SM SCT034 01/M06 A3029 290 58 -1200 240/09 RMK AO2
14840KMKG MKG20071124021009811/24/07 02:10:31  5-MIN KMKG 240710Z 24010KT 10SM SCT034 01/M06 A3028 290 58 -1200 240/10 RMK AO2
14840KMKG MKG20071124021510411/24/07 02:15:31  5-MIN KMKG 240715Z 23013G18KT 10SM SCT034 01/M06 A3028 300 58 -1200 240/13G18 RMK AO2
14840KMKG MKG20071124022010411/24/07 02:20:31  5-MIN KMKG 240720Z 23016G19KT 10SM SCT034 01/M06 A3028 300 61 -1200 230/16G19 RMK AO2
14840KMKG MKG20071124022509811/24/07 02:25:31  5-MIN KMKG 240725Z 23012KT 10SM SCT032 01/M06 A3028 300 61 -1200 240/12 RMK AO2
14840KMKG MKG20071124023010411/24/07 02:30:31  5-MIN KMKG 240730Z 23013G19KT 10SM SCT032 01/M06 A3028 300 61 -1200 240/13G19 RMK AO2
14840KMKG MKG20071124023510411/24/07 02:35:31  5-MIN KMKG 240735Z 23015G21KT 10SM SCT032 01/M06 A3028 300 58 -1200 240/15G21 RMK AO2
14840KMKG MKG20071124024010411/24/07 02:40:31  5-MIN KMKG 240740Z 24013G21KT 10SM FEW030 01/M06 A3028 300 61 -1200 240/13G21 RMK AO2
14840KMKG MKG20071124024510411/24/07 02:45:31  5-MIN KMKG 240745Z 24015G19KT 10SM FEW032 01/M06 A3028 290 61 -1200 240/15G19 RMK AO2
14840KMKG MKG20071124025012111/24/07 02:50:31  5-MIN KMKG 240750Z 23012G19KT 10SM SCT032 02/M05 A3029 290 61 -1200 230/12G19 RMK AO2 SLP264 T00171050
14840KMKG MKG20071124025512111/24/07 02:55:31  5-MIN KMKG 240755Z 23015G21KT 10SM SCT034 01/M06 A3028 300 61 -1200 230/15G21 RMK AO2 SLP263 T00111056
14840KMKG MKG20071124030010411/24/07 03:00:31  5-MIN KMKG 240800Z 24012G21KT 10SM FEW034 01/M06 A3028 290 61 -1200 240/12G21 RMK AO2
14840KMKG MKG20071124030510411/24/07 03:05:31  5-MIN KMKG 240805Z 23013G18KT 10SM FEW034 02/M06 A3028 300 59 -1200 240/13G18 RMK AO2
14840KMKG MKG20071124031009811/24/07 03:10:31  5-MIN KMKG 240810Z 23013KT 10SM SCT031 02/M06 A3028 300 59 -1200 240/13 RMK AO2
14840KMKG MKG20071124031510411/24/07 03:15:31  5-MIN KMKG 240815Z 24014G23KT 10SM SCT031 02/M05 A3028 300 61 -1200 240/14G23 RMK AO2
14840KMKG MKG20071124032011111/24/07 03:20:31  5-MIN KMKG 240820Z 23016G23KT 10SM SCT031 SCT039 02/M05 A3028 300 61 -1200 230/16G23 RMK AO2
14840KMKG MKG20071124032511111/24/07 03:25:31  5-MIN KMKG 240825Z 23018G23KT 10SM SCT031 BKN039 02/M06 A3028 300 59 -1200 230/18G23 RMK AO2
14840KMKG MKG20071124033011111/24/07 03:30:31  5-MIN KMKG 240830Z 24016G23KT 10SM SCT031 SCT039 02/M06 A3028 300 59 -1200 240/16G23 RMK AO2
14840KMKG MKG20071124033511111/24/07 03:35:31  5-MIN KMKG 240835Z 24014G21KT 10SM SCT031 SCT039 02/M06 A3028 300 59 -1200 240/14G21 RMK AO2
14840KMKG MKG20071124034011111/24/07 03:40:31  5-MIN KMKG 240840Z 24014G21KT 10SM SCT031 SCT039 02/M06 A3028 300 59 -1200 250/14G21 RMK AO2
14840KMKG MKG20071124034511111/24/07 03:45:31  5-MIN KMKG 240845Z 24015G20KT 10SM FEW031 SCT039 02/M06 A3028 300 59 -1200 250/15G20 RMK AO2
14840KMKG MKG20071124035012711/24/07 03:50:31  5-MIN KMKG 240850Z 24016G22KT 10SM SCT031 02/M05 A3027 310 61 -1200 240/16G22 RMK AO2 SLP259 T00171050 56007
14840KMKG MKG20071124035512711/24/07 03:55:31  5-MIN KMKG 240855Z 23015G22KT 10SM SCT031 02/M06 A3027 310 59 -1200 240/15G22 RMK AO2 SLP259 T00171056 56007
14840KMKG MKG20071124040010411/24/07 04:00:31  5-MIN KMKG 240900Z 24011G21KT 10SM SCT033 02/M05 A3027 310 61 -1200 240/11G21 RMK AO2
14840KMKG MKG20071124040511111/24/07 04:05:31  5-MIN KMKG 240905Z 24013G21KT 10SM FEW029 SCT036 02/M05 A3027 310 61 -1200 250/13G21 RMK AO2
14840KMKG MKG20071124041010411/24/07 04:10:31  5-MIN KMKG 240910Z 23016G23KT 10SM SCT032 02/M05 A3027 310 61 -1100 240/16G23 RMK AO2
14840KMKG MKG20071124041511111/24/07 04:15:31  5-MIN KMKG 240915Z 24010G23KT 10SM SCT029 SCT035 02/M05 A3027 310 61 -1100 250/10G23 RMK AO2
14840KMKG MKG20071124042011111/24/07 04:20:31  5-MIN KMKG 240920Z 24012G23KT 10SM FEW029 SCT035 02/M05 A3027 310 61 -1200 240/12G23 RMK AO2
14840KMKG MKG20071124042510411/24/07 04:25:31  5-MIN KMKG 240925Z 24013G20KT 10SM SCT031 02/M05 A3027 310 61 -1200 240/13G20 RMK AO2
14840KMKG MKG20071124043010411/24/07 04:30:31  5-MIN KMKG 240930Z 24014G20KT 10SM SCT031 02/M05 A3027 310 61 -1100 240/14G20 RMK AO2
14840KMKG MKG20071124043511111/24/07 04:35:31  5-MIN KMKG 240935Z 23013G20KT 10SM SCT031 BKN120 02/M05 A3027 310 61 -1100 240/13G20 RMK AO2
14840KMKG MKG20071124044012611/24/07 04:40:31  5-MIN KMKG 240940Z 25013G20KT 10SM SCT031 BKN120 02/M05 A3027 310 61 -1100 250/13G20 RMK AO2 CIG 033 RWY 14
14840KMKG MKG20071124044512611/24/07 04:45:31  5-MIN KMKG 240945Z 23015G20KT 10SM SCT033 BKN120 02/M05 A3026 310 61 -1100 230/15G20 RMK AO2 CIG 033 RWY 14
14840KMKG MKG20071124045014311/24/07 04:50:31  5-MIN KMKG 240950Z 24012G22KT 10SM SCT033 OVC120 02/M05 A3026 310 61 -1100 250/12G22 RMK AO2 CIG 031 RWY 14 SLP256 T00171050
14840KMKG MKG20071124045512811/24/07 04:55:31  5-MIN KMKG 240955Z 24014G22KT 10SM BKN033 OVC120 02/M05 A3026 310 61 -1100 240/14G22 RMK AO2 SLP256 T00171050
14840KMKG MKG20071124050011811/24/07 05:00:31  5-MIN KMKG 241000Z 24013G19KT 10SM BKN031 BKN038 OVC120 02/M04 A3027 310 64 -1100 250/13G19 RMK AO2
14840KMKG MKG20071124050511811/24/07 05:05:31  5-MIN KMKG 241005Z 24015G24KT 10SM SCT031 BKN037 OVC120 02/M05 A3027 310 61 -1100 240/15G24 RMK AO2
14840KMKG MKG20071124051013311/24/07 05:10:31  5-MIN KMKG 241010Z 24013G24KT 10SM SCT031 BKN039 BKN120 02/M05 A3026 310 61 -1100 240/13G24 RMK AO2 CIG 029 RWY 14
14840KMKG MKG20071124051511811/24/07 05:15:31  5-MIN KMKG 241015Z 24017G24KT 10SM BKN031 BKN039 BKN120 02/M06 A3027 310 59 -1100 250/17G24 RMK AO2
14840KMKG MKG20071124052011111/24/07 05:20:31  5-MIN KMKG 241020Z 24016G23KT 10SM BKN031 BKN039 02/M06 A3026 310 59 -1100 240/16G23 RMK AO2
14840KMKG MKG20071124052510411/24/07 05:25:31  5-MIN KMKG 241025Z 24015G23KT 10SM BKN033 02/M06 A3026 320 59 -1100 240/15G23 RMK AO2
14840KMKG MKG20071124053011111/24/07 05:30:31  5-MIN KMKG 241030Z 24012G22KT 10SM SCT032 BKN039 02/M05 A3026 320 61 -1100 250/12G22 RMK AO2
14840KMKG MKG20071124053510411/24/07 05:35:31  5-MIN KMKG 241035Z 24010G18KT 10SM SCT030 02/M05 A3026 320 61 -1100 250/10G18 RMK AO2
14840KMKG MKG20071124054010411/24/07 05:40:31  5-MIN KMKG 241040Z 23015G20KT 10SM SCT030 02/M05 A3026 320 61 -1100 230/15G20 RMK AO2
14840KMKG MKG20071124054510411/24/07 05:45:31  5-MIN KMKG 241045Z 24013G20KT 10SM SCT030 02/M05 A3026 320 61 -1100 250/13G20 RMK AO2
14840KMKG MKG20071124055012111/24/07 05:50:31  5-MIN KMKG 241050Z 24015G21KT 10SM SCT030 02/M05 A3026 320 61 -1100 250/15G21 RMK AO2 SLP256 T00171050
14840KMKG MKG20071124055512111/24/07 05:55:31  5-MIN KMKG 241055Z 24012G22KT 10SM BKN030 02/M05 A3026 320 61 -1100 240/12G22 RMK AO2 SLP255 T00171050
14840KMKG MKG20071124060010411/24/07 06:00:31  5-MIN KMKG 241100Z 23015G22KT 10SM BKN032 02/M05 A3026 320 61 -1100 240/15G22 RMK AO2
14840KMKG MKG20071124060510411/24/07 06:05:31  5-MIN KMKG 241105Z 25015G21KT 10SM BKN032 02/M05 A3026 320 61 -1100 250/15G21 RMK AO2
14840KMKG MKG20071124061010411/24/07 06:10:31  5-MIN KMKG 241110Z 24015G21KT 10SM BKN032 02/M05 A3026 320 61 -1100 250/15G21 RMK AO2
14840KMKG MKG20071124061510411/24/07 06:15:31  5-MIN KMKG 241115Z 24014G21KT 10SM SCT032 02/M05 A3026 320 61 -1100 240/14G21 RMK AO2
14840KMKG MKG20071124062010411/24/07 06:20:31  5-MIN KMKG 241120Z 23015G22KT 10SM SCT032 02/M06 A3026 320 59 -1100 240/15G22 RMK AO2
14840KMKG MKG20071124062512211/24/07 06:25:31  5-MIN KMKG 241125Z 24016G27KT 10SM SCT032 02/M06 A3025 320 59 -1100 240/16G27 RMK AO2 PK WND 23027/1123
14840KMKG MKG20071124063012211/24/07 06:30:31  5-MIN KMKG 241130Z 24016G27KT 10SM FEW032 02/M06 A3025 320 59 -1100 240/16G27 RMK AO2 PK WND 23027/1123
14840KMKG MKG20071124063512211/24/07 06:35:31  5-MIN KMKG 241135Z 24015G24KT 10SM FEW032 02/M06 A3025 330 59 -1100 240/15G24 RMK AO2 PK WND 23027/1123
14840KMKG MKG20071124064012211/24/07 06:40:31  5-MIN KMKG 241140Z 24017G24KT 10SM FEW034 02/M06 A3026 320 59 -1100 240/17G24 RMK AO2 PK WND 23027/1123
14840KMKG MKG20071124064512211/24/07 06:45:31  5-MIN KMKG 241145Z 24014G24KT 10SM FEW034 02/M06 A3026 320 59 -1100 240/14G24 RMK AO2 PK WND 23027/1123
14840KMKG MKG20071124065016311/24/07 06:50:31  5-MIN KMKG 241150Z 24014G21KT 10SM FEW034 02/M06 A3025 320 59 -1100 240/14G21 RMK AO2 PK WND 23027/1123 SLP252 70001 T00171056 10017 20011 56007
14840KMKG MKG20071124065516311/24/07 06:55:31  5-MIN KMKG 241155Z 24018G25KT 10SM FEW034 02/M06 A3025 330 59 -1100 240/18G25 RMK AO2 PK WND 23027/1123 SLP252 70001 T00171056 10017 20011 58007
14840KMKG MKG20071124070010411/24/07 07:00:31  5-MIN KMKG 241200Z 24016G25KT 10SM FEW034 02/M06 A3025 320 59 -1100 250/16G25 RMK AO2
14840KMKG MKG20071124070510411/24/07 07:05:31  5-MIN KMKG 241205Z 23016G24KT 10SM SCT034 02/M06 A3025 320 59 -1100 240/16G24 RMK AO2
14840KMKG MKG20071124071010411/24/07 07:10:31  5-MIN KMKG 241210Z 23016G22KT 10SM SCT032 02/M06 A3025 330 59 -1100 240/16G22 RMK AO2
14840KMKG MKG20071124071510411/24/07 07:15:31  5-MIN KMKG 241215Z 22017G23KT 10SM SCT032 02/M06 A3025 330 59 -1100 230/17G23 RMK AO2
14840KMKG MKG20071124072010411/24/07 07:20:31  5-MIN KMKG 241220Z 23017G23KT 10SM BKN032 02/M06 A3025 320 59 -1100 230/17G23 RMK AO2
14840KMKG MKG20071124072510411/24/07 07:25:31  5-MIN KMKG 241225Z 23013G22KT 10SM BKN032 02/M05 A3025 330 61 -1100 230/13G22 RMK AO2
14840KMKG MKG20071124073010411/24/07 07:30:31  5-MIN KMKG 241230Z 23016G22KT 10SM BKN032 02/M05 A3025 330 61 -1100 230/16G22 RMK AO2
14840KMKG MKG20071124073510411/24/07 07:35:31  5-MIN KMKG 241235Z 23014G22KT 10SM BKN032 02/M05 A3025 330 61 -1100 230/14G22 RMK AO2
14840KMKG MKG20071124074010411/24/07 07:40:31  5-MIN KMKG 241240Z 23013G22KT 10SM BKN032 02/M05 A3024 330 61 -1100 230/13G22 RMK AO2
14840KMKG MKG20071124074510411/24/07 07:45:31  5-MIN KMKG 241245Z 23014G22KT 10SM SCT032 02/M05 A3024 330 61 -1100 240/14G22 RMK AO2
14840KMKG MKG20071124075012111/24/07 07:50:31  5-MIN KMKG 241250Z 22017G21KT 10SM SCT030 02/M04 A3024 330 64 -1100 220/17G21 RMK AO2 SLP249 T00171044
14840KMKG MKG20071124075512111/24/07 07:55:31  5-MIN KMKG 241255Z 23018G22KT 10SM SCT030 02/M05 A3024 330 61 -1100 230/18G22 RMK AO2 SLP249 T00171050
14840KMKG MKG20071124080010411/24/07 08:00:31  5-MIN KMKG 241300Z 24016G22KT 10SM SCT030 02/M04 A3024 330 64 -1100 240/16G22 RMK AO2
14840KMKG MKG20071124080510411/24/07 08:05:31  5-MIN KMKG 241305Z 23017G24KT 10SM SCT030 02/M05 A3024 330 61 -1100 240/17G24 RMK AO2
14840KMKG MKG20071124081010411/24/07 08:10:31  5-MIN KMKG 241310Z 22017G24KT 10SM SCT030 02/M05 A3024 330 61 -1100 230/17G24 RMK AO2
14840KMKG MKG20071124081510411/24/07 08:15:31  5-MIN KMKG 241315Z 22016G24KT 10SM SCT028 02/M05 A3024 340 61 -1100 230/16G24 RMK AO2
14840KMKG MKG20071124082010411/24/07 08:20:31  5-MIN KMKG 241320Z 21020G25KT 10SM FEW028 02/M05 A3023 340 61 -1100 220/20G25 RMK AO2
14840KMKG MKG20071124082512211/24/07 08:25:31  5-MIN KMKG 241325Z 22020G27KT 10SM FEW030 02/M05 A3024 340 61 -1100 230/20G27 RMK AO2 PK WND 23027/1324
14840KMKG MKG20071124083012211/24/07 08:30:31  5-MIN KMKG 241330Z 22019G27KT 10SM FEW030 02/M05 A3024 340 61 -1100 230/19G27 RMK AO2 PK WND 23027/1324
14840KMKG MKG20071124083512211/24/07 08:35:31  5-MIN KMKG 241335Z 22021G26KT 10SM FEW030 02/M05 A3023 340 61 -1100 220/21G26 RMK AO2 PK WND 23027/1324
14840KMKG MKG20071124084012211/24/07 08:40:31  5-MIN KMKG 241340Z 23017G26KT 10SM SCT030 02/M04 A3024 340 64 -1100 230/17G26 RMK AO2 PK WND 23027/1324
14840KMKG MKG20071124084512911/24/07 08:45:31  5-MIN KMKG 241345Z 23018G25KT 10SM SCT028 SCT033 02/M04 A3023 340 64 -1100 230/18G25 RMK AO2 PK WND 23027/1324
14840KMKG MKG20071124085013911/24/07 08:50:31  5-MIN KMKG 241350Z 23019G25KT 10SM SCT030 02/M04 A3023 340 61 -1000 230/19G25 RMK AO2 PK WND 23027/1324 SLP245 T00221044
14840KMKG MKG20071124085514611/24/07 08:55:31  5-MIN KMKG 241355Z 22018G25KT 10SM SCT028 SCT034 02/M04 A3024 340 61 -1000 230/18G25 RMK AO2 PK WND 23027/1324 SLP246 T00221044
14840KMKG MKG20071124090011111/24/07 09:00:31  5-MIN KMKG 241400Z 22018G24KT 10SM SCT028 BKN034 02/M04 A3024 340 61 -1000 230/18G24 RMK AO2
14840KMKG MKG20071124090511111/24/07 09:05:31  5-MIN KMKG 241405Z 23016G25KT 10SM SCT028 BKN033 02/M05 A3024 340 59 -1000 230/16G25 RMK AO2
14840KMKG MKG20071124091012911/24/07 09:10:31  5-MIN KMKG 241410Z 22016G27KT 10SM SCT028 SCT033 02/M05 A3024 340 59 -1000 230/16G27 RMK AO2 PK WND 23027/1407
14840KMKG MKG20071124091512211/24/07 09:15:31  5-MIN KMKG 241415Z 22020G27KT 10SM BKN030 02/M05 A3024 340 59 -1000 230/20G27 RMK AO2 PK WND 22027/1412
14840KMKG MKG20071124092012211/24/07 09:20:31  5-MIN KMKG 241420Z 23018G28KT 10SM BKN030 02/M05 A3023 340 59 -1000 230/18G28 RMK AO2 PK WND 21028/1417
14840KMKG MKG20071124092512211/24/07 09:25:31  5-MIN KMKG 241425Z 23020G28KT 10SM BKN030 02/M04 A3024 340 61 -1000 230/20G28 RMK AO2 PK WND 21028/1417
14840KMKG MKG20071124093012911/24/07 09:30:31  5-MIN KMKG 241430Z 23019G27KT 10SM BKN030 BKN037 02/M04 A3023 340 61 -1000 230/19G27 RMK AO2 PK WND 21028/1417
14840KMKG MKG20071124093512911/24/07 09:35:31  5-MIN KMKG 241435Z 23022G27KT 10SM BKN030 BKN037 02/M04 A3023 340 61 -1000 230/22G27 RMK AO2 PK WND 21028/1417
14840KMKG MKG20071124094012911/24/07 09:40:31  5-MIN KMKG 241440Z 22022G28KT 10SM BKN030 BKN037 02/M04 A3023 340 61 -1000 230/22G28 RMK AO2 PK WND 22028/1439
14840KMKG MKG20071124094512911/24/07 09:45:31  5-MIN KMKG 241445Z 22019G28KT 10SM BKN030 BKN037 02/M04 A3023 340 61 -1000 230/19G28 RMK AO2 PK WND 22028/1439
14840KMKG MKG20071124095015211/24/07 09:50:31  5-MIN KMKG 241450Z 23021G31KT 10SM BKN030 BKN037 03/M04 A3023 350 59 -1000 230/21G31 RMK AO2 PK WND 22031/1449 SLP243 T00281044 58007
14840KMKG MKG20071124095515211/24/07 09:55:31  5-MIN KMKG 241455Z 23019G31KT 10SM BKN030 BKN037 02/M04 A3023 350 61 -1000 240/19G31 RMK AO2 PK WND 22031/1449 SLP243 T00221044 58008
14840KMKG MKG20071124100012611/24/07 10:00:31  5-MIN KMKG 241500Z 23019G25KT 10SM SCT028 BKN035 02/M04 A3023 350 61 -1000 230/19G25 RMK AO2 CIG 030 RWY 14
14840KMKG MKG20071124100514411/24/07 10:05:31  5-MIN KMKG 241505Z 23019G27KT 10SM SCT028 BKN035 02/M04 A3023 350 61 -1000 230/19G27 RMK AO2 PK WND 23027/1503 CIG 030 RWY 14
14840KMKG MKG20071124101012911/24/07 10:10:31  5-MIN KMKG 241510Z 24016G27KT 10SM SCT028 BKN035 02/M04 A3023 350 61 -1000 240/16G27 RMK AO2 PK WND 24027/1507
14840KMKG MKG20071124101512911/24/07 10:15:31  5-MIN KMKG 241515Z 23020G27KT 10SM SCT028 BKN035 02/M04 A3023 350 61 -1000 230/20G27 RMK AO2 PK WND 24027/1507
14840KMKG MKG20071124102012911/24/07 10:20:31  5-MIN KMKG 241520Z 23020G29KT 10SM BKN030 BKN035 02/M04 A3023 350 61 -1000 240/20G29 RMK AO2 PK WND 22029/1517
14840KMKG MKG20071124102512211/24/07 10:25:31  5-MIN KMKG 241525Z 22020G29KT 10SM BKN032 03/M04 A3022 350 61 -1000 230/20G29 RMK AO2 PK WND 22029/1517
14840KMKG MKG20071124103012211/24/07 10:30:31  5-MIN KMKG 241530Z 23020G26KT 10SM BKN032 03/M04 A3023 340 59 -1000 240/20G26 RMK AO2 PK WND 22029/1517
14840KMKG MKG20071124103512211/24/07 10:35:31  5-MIN KMKG 241535Z 23020G26KT 10SM SCT032 03/M04 A3022 350 59 -1000 230/20G26 RMK AO2 PK WND 22029/1517
14840KMKG MKG20071124104012911/24/07 10:40:31  5-MIN KMKG 241540Z 22020G26KT 10SM FEW030 SCT035 03/M04 A3023 350 59 -1000 230/20G26 RMK AO2 PK WND 22029/1517
14840KMKG MKG20071124104512911/24/07 10:45:31  5-MIN KMKG 241545Z 22023G31KT 10SM SCT030 SCT035 03/M04 A3022 350 59 -1000 220/23G31 RMK AO2 PK WND 21031/1544
14840KMKG MKG20071124105014611/24/07 10:50:31  5-MIN KMKG 241550Z 23020G31KT 10SM FEW026 BKN032 03/M04 A3022 350 61 -1000 230/20G31 RMK AO2 PK WND 21031/1544 SLP241 T00281039
14840KMKG MKG20071124105513911/24/07 10:55:31  5-MIN KMKG 241555Z 23020G27KT 10SM BKN029 02/M04 A3022 350 64 -1000 230/20G27 RMK AO2 PK WND 21031/1544 SLP241 T00221039
14840KMKG MKG20071124110013611/24/07 11:00:31  5-MIN KMKG 241600Z 23020G27KT 10SM BKN027 BKN033 BKN120 03/M04 A3022 350 59 -1000 230/20G27 RMK AO2 PK WND 22027/1557
14840KMKG MKG20071124110512911/24/07 11:05:31  5-MIN KMKG 241605Z 23020G27KT 10SM BKN029 BKN110 03/M04 A3022 350 61 -1000 230/20G27 RMK AO2 PK WND 22027/1557
14840KMKG MKG20071124111012911/24/07 11:10:31  5-MIN KMKG 241610Z 23019G28KT 10SM BKN029 BKN034 03/M04 A3022 350 59 -1000 230/19G28 RMK AO2 PK WND 23028/1608
14840KMKG MKG20071124111512911/24/07 11:15:31  5-MIN KMKG 241615Z 23019G30KT 10SM BKN029 BKN110 03/M04 A3022 350 59 -1000 230/19G30 RMK AO2 PK WND 22030/1613
14840KMKG MKG20071124112012911/24/07 11:20:31  5-MIN KMKG 241620Z 23020G30KT 10SM BKN029 OVC110 03/M04 A3022 360 59 -1000 240/20G30 RMK AO2 PK WND 22030/1613
14840KMKG MKG20071124112513511/24/07 11:25:31  5-MIN KMKG 241625Z 22021G28KT 10SM BKN029 BKN033 OVC110 03/M04 A3021 360 61 -900 230/21G28 RMK AO2 PK WND 22030/1613
14840KMKG MKG20071124113013511/24/07 11:30:31  5-MIN KMKG 241630Z 23018G26KT 10SM BKN029 BKN033 OVC110 03/M04 A3021 360 61 -900 230/18G26 RMK AO2 PK WND 22030/1613
14840KMKG MKG20071124113513511/24/07 11:35:31  5-MIN KMKG 241635Z 22019G27KT 10SM BKN027 BKN033 OVC110 03/M04 A3021 370 61 -900 230/19G27 RMK AO2 PK WND 22030/1613
14840KMKG MKG20071124114013511/24/07 11:40:31  5-MIN KMKG 241640Z 24019G27KT 10SM BKN027 BKN031 BKN110 03/M04 A3021 370 59 -900 250/19G27 RMK AO2 PK WND 22030/1613
14840KMKG MKG20071124114513511/24/07 11:45:31  5-MIN KMKG 241645Z 24014G27KT 10SM BKN027 BKN033 BKN110 03/M04 A3021 370 61 -900 240/14G27 RMK AO2 PK WND 22030/1613
14840KMKG MKG20071124115015211/24/07 11:50:31  5-MIN KMKG 241650Z 23018G27KT 10SM BKN027 BKN033 BKN110 03/M04 A3020 370 61 -900 230/18G27 RMK AO2 PK WND 22030/1613 SLP234 T00281039
14840KMKG MKG20071124115514511/24/07 11:55:31  5-MIN KMKG 241655Z 23020G27KT 10SM BKN027 BKN033 03/M04 A3020 370 59 -900 230/20G27 RMK AO2 PK WND 22030/1613 SLP233 T00281044
14840KMKG MKG20071124120011011/24/07 12:00:31  5-MIN KMKG 241700Z 23020G26KT 10SM BKN028 BKN033 03/M04 A3019 380 59 -900 240/20G26 RMK AO2
14840KMKG MKG20071124120512511/24/07 12:05:31  5-MIN KMKG 241705Z 23019G25KT 10SM SCT028 BKN033 03/M04 A3019 380 61 -900 240/19G25 RMK AO2 CIG 027 RWY 14
14840KMKG MKG20071124121012511/24/07 12:10:31  5-MIN KMKG 241710Z 24019G25KT 10SM SCT028 BKN034 03/M04 A3019 380 61 -900 240/19G25 RMK AO2 CIG 029 RWY 14
14840KMKG MKG20071124121512811/24/07 12:15:31  5-MIN KMKG 241715Z 24019G27KT 10SM BKN025 BKN031 03/M04 A3019 380 59 -900 240/19G27 RMK AO2 PK WND 23027/1713
14840KMKG MKG20071124122012111/24/07 12:20:31  5-MIN KMKG 241720Z 23018G27KT 10SM BKN027 03/M04 A3019 380 59 -800 230/18G27 RMK AO2 PK WND 22027/1718
14840KMKG MKG20071124122512111/24/07 12:25:31  5-MIN KMKG 241725Z 22020G28KT 10SM BKN027 03/M04 A3018 390 61 -900 220/20G28 RMK AO2 PK WND 21028/1725
14840KMKG MKG20071124123012811/24/07 12:30:31  5-MIN KMKG 241730Z 23018G28KT 10SM BKN027 BKN110 03/M04 A3018 390 61 -900 240/18G28 RMK AO2 PK WND 23028/1730
14840KMKG MKG20071127084515511/27/07 08:45:31  5-MIN KMKG 271345Z 26023G34KT 10SM SCT032 BKN040 OVC070 03/M04 A2999 560 61 -700 270/23G34 RMK AO2 PK WND 27034/1345 RAB05E18SNE05 P0000
14840KMKG MKG20071127085017211/27/07 08:50:31  5-MIN KMKG 271350Z 27026G35KT 10SM BKN032 BKN040 OVC070 03/M04 A3000 560 61 -700 280/26G35 RMK AO2 PK WND 28035/1349 RAB05E18SNE05 SLP163 P0000 T00281039
14840KMKG MKG20071127085517211/27/07 08:55:31  5-MIN KMKG 271355Z 28023G35KT 10SM BKN033 BKN040 OVC070 03/M04 A3000 560 61 -700 280/23G35 RMK AO2 PK WND 28035/1349 RAB05E18SNE05 SLP163 P0000 T00281039
14840KMKG MKG20071127090012811/27/07 09:00:31  5-MIN KMKG 271400Z 27024G36KT 10SM BKN033 OVC042 03/M04 A3000 560 59 -700 270/24G36 RMK AO2 PK WND 27036/1400
14840KMKG MKG20071127090512811/27/07 09:05:31  5-MIN KMKG 271405Z 27023G36KT 10SM BKN036 OVC044 03/M04 A3000 560 59 -700 280/23G36 RMK AO2 PK WND 27036/1400
14840KMKG MKG20071127091012811/27/07 09:10:31  5-MIN KMKG 271410Z 26025G35KT 10SM BKN035 OVC044 03/M04 A3000 560 59 -700 260/25G35 RMK AO2 PK WND 27036/1400
14840KMKG MKG20071127091512811/27/07 09:15:31  5-MIN KMKG 271415Z 27024G35KT 10SM BKN035 OVC046 03/M05 A3001 550 56 -700 280/24G35 RMK AO2 PK WND 27036/1400
14840KMKG MKG20071127092014311/27/07 09:20:31  5-MIN KMKG 271420Z 27020G30KT 10SM SCT035 OVC046 03/M05 A3001 540 56 -700 270/20G30 RMK AO2 PK WND 27036/1400 CIG 035 RWY 14
14840KMKG MKG20071127092513511/27/07 09:25:31  5-MIN KMKG 271425Z 27020G33KT 10SM SCT035 BKN048 OVC055 03/M06 A3001 550 54 -700 280/20G33 RMK AO2 PK WND 27036/1400
14840KMKG MKG20071127093012811/27/07 09:30:31  5-MIN KMKG 271430Z 27020G33KT 10SM FEW035 OVC050 03/M06 A3002 540 52 -700 280/20G33 RMK AO2 PK WND 27036/1400
14840KMKG MKG20071127093513511/27/07 09:35:31  5-MIN KMKG 271435Z 28029G39KT 10SM FEW035 BKN047 OVC055 03/M06 A3001 540 52 -700 290/29G39 RMK AO2 PK WND 27039/1434
14840KMKG MKG20071127094015911/27/07 09:40:31  5-MIN KMKG 271440Z 29027G39KT 10SM -SN SCT041 OVC050 02/M06 A3002 540 56 -900 300/27G39 RMK AO2 PK WND 27039/1434 CIG 042 RWY 14 SNB37 P0000
14840KMKG MKG20071127094515011/27/07 09:45:31  5-MIN KMKG 271445Z 29023G40KT 9SM -SN FEW038 BKN048 OVC055 01/M08 A3002 540 49 -900 300/23G40 RMK AO2 PK WND 31040/1442 SNB37 P0000
14840KMKG MKG20071127095018711/27/07 09:50:31  5-MIN KMKG 271450Z 29025G40KT 9SM -SN FEW041 BKN048 BKN055 01/M09 A3004 520 45 -1000 300/25G40 RMK AO2 PK WND 31040/1442 PRESRR SLP178 SNB37 P0000 60000 T00111094 58017
14840KMKG MKG20071127095518611/27/07 09:55:31  5-MIN KMKG 271455Z 30027G39KT 9SM FEW041 SCT048 SCT055 01/M10 A3004 520 45 -1000 300/27G39 RMK AO2 PK WND 31040/1442 PRESRR SLP180 SNB37E53 P0000 60000 T00061100 53022
14840KMKG MKG20071127100013611/27/07 10:00:31  5-MIN KMKG 271500Z 30024G38KT 10SM FEW041 SCT048 01/M09 A3006 500 47 -1000 300/24G38 RMK AO2 PK WND 31032/1459 PRESRR
14840KMKG MKG20071127100512211/27/07 10:05:31  5-MIN KMKG 271505Z 29018G32KT 10SM FEW049 00/M09 A3005 510 51 -1100 300/18G32 RMK AO2 PK WND 31032/1501
14840KMKG MKG20071127101012211/27/07 10:10:31  5-MIN KMKG 271510Z 30022G32KT 10SM FEW049 00/M09 A3007 490 51 -1100 300/22G32 RMK AO2 PK WND 28032/1508
14840KMKG MKG20071127101513011/27/07 10:15:31  5-MIN KMKG 271515Z 30022G33KT 10SM FEW036 M01/M09 A3008 490 53 -1200 300/22G33 RMK AO2 PK WND 29033/1513 PRESRR
14840KMKG MKG20071127102013011/27/07 10:20:31  5-MIN KMKG 271520Z 29023G34KT 10SM FEW036 M01/M11 A3008 480 47 -1200 290/23G34 RMK AO2 PK WND 29034/1518 PRESRR
14840KMKG MKG20071127102513011/27/07 10:25:31  5-MIN KMKG 271525Z 30017G34KT 10SM FEW036 M01/M11 A3009 470 45 -1200 300/17G34 RMK AO2 PK WND 29034/1518 PRESRR
14840KMKG MKG20071127103012311/27/07 10:30:31  5-MIN KMKG 271530Z 30018G34KT 10SM FEW036 M01/M11 A3009 470 49 -1300 300/18G34 RMK AO2 PK WND 29034/1527
14840KMKG MKG20071127103513011/27/07 10:35:31  5-MIN KMKG 271535Z 30015G34KT 10SM FEW038 M01/M11 A3010 460 49 -1300 310/15G34 RMK AO2 PK WND 29034/1527 PRESRR
14840KMKG MKG20071127104012311/27/07 10:40:31  5-MIN KMKG 271540Z 30022G32KT 10SM SCT038 M01/M11 A3011 460 49 -1300 300/22G32 RMK AO2 PK WND 29034/1527
14840KMKG MKG20071127104512311/27/07 10:45:31  5-MIN KMKG 271545Z 30021G32KT 10SM SCT038 M02/M11 A3010 460 51 -1400 300/21G32 RMK AO2 PK WND 29034/1527
14840KMKG MKG20071127105014011/27/07 10:50:31  5-MIN KMKG 271550Z 30022G32KT 10SM SCT038 M02/M11 A3010 460 51 -1400 310/22G32 RMK AO2 PK WND 29034/1527 SLP202 T10171106
14840KMKG MKG20071127105514011/27/07 10:55:31  5-MIN KMKG 271555Z 31021G33KT 10SM SCT036 M02/M10 A3012 440 53 -1400 310/21G33 RMK AO2 PK WND 29034/1527 SLP208 T10171100
14840KMKG MKG20071127110013011/27/07 11:00:31  5-MIN KMKG 271600Z 30015G33KT 10SM BKN036 M01/M10 A3013 430 51 -1300 300/15G33 RMK AO2 PK WND 29026/1556 PRESRR
14840KMKG MKG20071127110512311/27/07 11:05:31  5-MIN KMKG 271605Z 30020G30KT 10SM BKN036 M02/M10 A3013 430 53 -1400 300/20G30 RMK AO2 PK WND 30030/1604
14840KMKG MKG20071127111012311/27/07 11:10:31  5-MIN KMKG 271610Z 30020G30KT 10SM BKN036 M02/M10 A3013 430 53 -1400 300/20G30 RMK AO2 PK WND 30030/1604
14840KMKG MKG20071127111512311/27/07 11:15:31  5-MIN KMKG 271615Z 30019G29KT 10SM BKN036 M02/M10 A3014 430 53 -1400 300/19G29 RMK AO2 PK WND 30030/1604
14840KMKG MKG20071127112012311/27/07 11:20:31  5-MIN KMKG 271620Z 31013G29KT 10SM BKN036 M02/M10 A3013 430 53 -1400 310/13G29 RMK AO2 PK WND 30030/1604
14840KMKG MKG20071127112513011/27/07 11:25:31  5-MIN KMKG 271625Z 31016G27KT 10SM BKN036 OVC043 M02/M10 A3014 420 55 -1500 310/16G27 RMK AO2 PK WND 30030/1604
14840KMKG MKG20071127113013011/27/07 11:30:31  5-MIN KMKG 271630Z 30020G28KT 10SM BKN036 OVC043 M02/M10 A3014 420 53 -1400 310/20G28 RMK AO2 PK WND 30030/1604
14840KMKG MKG20071127113512311/27/07 11:35:31  5-MIN KMKG 271635Z 30017G35KT 10SM OVC036 M02/M10 A3015 420 55 -1500 300/17G35 RMK AO2 PK WND 30035/1631
14840KMKG MKG20071127114013011/27/07 11:40:31  5-MIN KMKG 271640Z 31022G35KT 10SM BKN033 OVC040 M02/M11 A3015 420 53 -1500 320/22G35 RMK AO2 PK WND 30035/1631
14840KMKG MKG20071127114512311/27/07 11:45:31  5-MIN KMKG 271645Z 30012G31KT 10SM OVC035 M02/M10 A3015 420 55 -1500 300/12G31 RMK AO2 PK WND 30035/1631
14840KMKG MKG20071127115014011/27/07 11:50:31  5-MIN KMKG 271650Z 30016G27KT 10SM OVC035 M02/M09 A3015 420 58 -1500 310/16G27 RMK AO2 PK WND 30035/1631 SLP216 T10221094
14840KMKG MKG20071127115514011/27/07 11:55:31  5-MIN KMKG 271655Z 32025G33KT 10SM BKN035 M02/M10 A3016 410 55 -1500 320/25G33 RMK AO2 PK WND 30035/1631 SLP219 T10221100
14840KMKG MKG20071127120013011/27/07 12:00:31  5-MIN KMKG 271700Z 31013G33KT 10SM BKN033 OVC040 M02/M10 A3016 410 53 -1400 310/13G33 RMK AO2 PK WND 33028/1656
14840KMKG MKG20071127120513011/27/07 12:05:31  5-MIN KMKG 271705Z 30018G28KT 10SM BKN033 BKN040 M02/M10 A3015 420 55 -1500 310/18G28 RMK AO2 PK WND 33028/1656
14840KMKG MKG20071127121012311/27/07 12:10:31  5-MIN KMKG 271710Z 31019G26KT 10SM BKN033 M02/M11 A3016 410 53 -1500 320/19G26 RMK AO2 PK WND 33028/1656
14840KMKG MKG20071127121512311/27/07 12:15:31  5-MIN KMKG 271715Z 31015G29KT 10SM BKN033 M02/M10 A3016 410 55 -1500 310/15G29 RMK AO2 PK WND 33029/1713
14840KMKG MKG20071127122013011/27/07 12:20:31  5-MIN KMKG 271720Z 29016G29KT 10SM BKN033 BKN040 M02/M10 A3016 410 53 -1400 300/16G29 RMK AO2 PK WND 33029/1713
14840KMKG MKG20071127122513011/27/07 12:25:31  5-MIN KMKG 271725Z 32021G31KT 10SM BKN033 BKN040 M02/M10 A3017 400 53 -1500 320/21G31 RMK AO2 PK WND 33031/1725
14840KMKG MKG20071127123013011/27/07 12:30:31  5-MIN KMKG 271730Z 31017G31KT 10SM BKN033 BKN040 M02/M11 A3017 400 53 -1500 320/17G31 RMK AO2 PK WND 33031/1725
14840KMKG MKG20071127123515211/27/07 12:35:31  5-MIN KMKG 271735Z 31020G33KT 10SM SCT033 BKN040 BKN049 M02/M11 A3018 390 53 -1500 310/20G33 RMK AO2 PK WND 33033/1733 CIG 033 RWY 14
14840KMKG MKG20071127124015211/27/07 12:40:31  5-MIN KMKG 271740Z 30021G33KT 10SM SCT033 BKN040 BKN049 M02/M11 A3018 390 53 -1500 300/21G33 RMK AO2 PK WND 30033/1740 CIG 033 RWY 14
14840KMKG MKG20071127124514511/27/07 12:45:31  5-MIN KMKG 271745Z 32020G33KT 10SM SCT035 BKN045 M02/M11 A3018 390 51 -1500 320/20G33 RMK AO2 PK WND 30033/1740 CIG 033 RWY 14
14840KMKG MKG20071127125017111/27/07 12:50:31  5-MIN KMKG 271750Z 31020G29KT 10SM SCT035 BKN045 M02/M11 A3019 390 53 -1500 310/20G29 RMK AO2 PK WND 30033/1740 SLP229 60000 T10221106 10044 21022 53022
14840KMKG MKG20071127125517111/27/07 12:55:31  5-MIN KMKG 271755Z 31017G29KT 10SM SCT035 BKN045 M02/M11 A3019 380 53 -1500 310/17G29 RMK AO2 PK WND 30033/1740 SLP230 60000 T10221106 10044 21028 51047
14840KMKG MKG20071127130013011/27/07 13:00:31  5-MIN KMKG 271800Z 30018G27KT 10SM SCT035 BKN045 M02/M11 A3019 380 53 -1600 300/18G27 RMK AO2 PK WND 30027/1759
14840KMKG MKG20071127130513011/27/07 13:05:31  5-MIN KMKG 271805Z 30021G31KT 10SM SCT035 SCT045 M02/M10 A3019 380 55 -1600 300/21G31 RMK AO2 PK WND 29031/1805
14840KMKG MKG20071127131014511/27/07 13:10:31  5-MIN KMKG 271810Z 30018G31KT 10SM SCT035 BKN045 M02/M11 A3020 370 53 -1600 300/18G31 RMK AO2 PK WND 29031/1805 CIG 033 RWY 14
14840KMKG MKG20071127131512311/27/07 13:15:31  5-MIN KMKG 271815Z 30021G31KT 10SM SCT035 M02/M11 A3020 370 53 -1600 300/21G31 RMK AO2 PK WND 29031/1814
14840KMKG MKG20071127132012311/27/07 13:20:31  5-MIN KMKG 271820Z 31018G31KT 10SM SCT035 M02/M11 A3021 370 51 -1500 310/18G31 RMK AO2 PK WND 29031/1814
14840KMKG MKG20071127132512311/27/07 13:25:31  5-MIN KMKG 271825Z 30018G28KT 10SM SCT035 M02/M11 A3020 370 51 -1500 300/18G28 RMK AO2 PK WND 29031/1814
14840KMKG MKG20071127133012311/27/07 13:30:31  5-MIN KMKG 271830Z 32019G27KT 10SM SCT035 M02/M11 A3022 360 51 -1500 320/19G27 RMK AO2 PK WND 29031/1814
14840KMKG MKG20071127133512311/27/07 13:35:31  5-MIN KMKG 271835Z 30017G26KT 10SM SCT035 M02/M11 A3021 360 51 -1600 300/17G26 RMK AO2 PK WND 29031/1814
14840KMKG MKG20071127134012311/27/07 13:40:31  5-MIN KMKG 271840Z 31020G28KT 10SM SCT035 M02/M11 A3022 360 51 -1500 320/20G28 RMK AO2 PK WND 29031/1814
14840KMKG MKG20071127134513011/27/07 13:45:31  5-MIN KMKG 271845Z 30014G28KT 10SM SCT035 SCT042 M02/M11 A3022 360 51 -1500 300/14G28 RMK AO2 PK WND 29031/1814
14840KMKG MKG20071127135014011/27/07 13:50:31  5-MIN KMKG 271850Z 30016G26KT 10SM BKN037 M02/M11 A3022 360 49 -1500 310/16G26 RMK AO2 PK WND 29031/1814 SLP241 T10171111
14840KMKG MKG20071127135514011/27/07 13:55:31  5-MIN KMKG 271855Z 30021G30KT 10SM BKN039 M02/M12 A3022 360 48 -1600 310/21G30 RMK AO2 PK WND 29031/1814 SLP241 T10221117
14840KMKG MKG20071127140013011/27/07 14:00:31  5-MIN KMKG 271900Z 31018G30KT 10SM SCT035 BKN042 M02/M11 A3022 350 49 -1500 310/18G30 RMK AO2 PK WND 30028/1859
14840KMKG MKG20071127140513011/27/07 14:05:31  5-MIN KMKG 271905Z 30019G28KT 10SM BKN038 BKN044 M02/M11 A3022 350 49 -1500 310/19G28 RMK AO2 PK WND 30028/1859
14840KMKG MKG20071127141012311/27/07 14:10:31  5-MIN KMKG 271910Z 31016G29KT 10SM BKN038 M02/M12 A3023 340 46 -1600 320/16G29 RMK AO2 PK WND 31029/1907
14840KMKG MKG20071127141513011/27/07 14:15:31  5-MIN KMKG 271915Z 32020G29KT 10SM BKN038 BKN044 M02/M12 A3023 340 46 -1600 320/20G29 RMK AO2 PK WND 31029/1907
14840KMKG MKG20071127142012311/27/07 14:20:31  5-MIN KMKG 271920Z 30018G28KT 10SM BKN040 M02/M12 A3023 350 48 -1600 310/18G28 RMK AO2 PK WND 31029/1907
14840KMKG MKG20071127142512311/27/07 14:25:31  5-MIN KMKG 271925Z 30019G28KT 10SM BKN040 M02/M12 A3023 350 48 -1600 310/19G28 RMK AO2 PK WND 31029/1907
14840KMKG MKG20071127143012311/27/07 14:30:31  5-MIN KMKG 271930Z 31018G28KT 10SM BKN040 M02/M13 A3023 340 44 -1600 310/18G28 RMK AO2 PK WND 31029/1907
14840KMKG MKG20071127143512311/27/07 14:35:31  5-MIN KMKG 271935Z 31019G28KT 10SM BKN040 M02/M12 A3023 340 48 -1600 310/19G28 RMK AO2 PK WND 31029/1907
14840KMKG MKG20071127144012311/27/07 14:40:31  5-MIN KMKG 271940Z 30015G31KT 10SM SCT040 M02/M13 A3024 340 44 -1600 310/15G31 RMK AO2 PK WND 30031/1937
14840KMKG MKG20071127144512311/27/07 14:45:31  5-MIN KMKG 271945Z 29017G31KT 10SM SCT040 M02/M12 A3024 330 46 -1500 300/17G31 RMK AO2 PK WND 30031/1937
14840KMKG MKG20071127145014011/27/07 14:50:31  5-MIN KMKG 271950Z 30014G23KT 10SM BKN040 M02/M12 A3024 330 46 -1500 300/14G23 RMK AO2 PK WND 30031/1937 SLP249 T10171117
14840KMKG MKG20071127145514011/27/07 14:55:31  5-MIN KMKG 271955Z 31018G27KT 10SM BKN040 M02/M12 A3025 330 46 -1600 320/18G27 RMK AO2 PK WND 30031/1937 SLP252 T10221122
14840KMKG MKG20071127150010511/27/07 15:00:31  5-MIN KMKG 272000Z 30014G27KT 10SM SCT040 M02/M12 A3026 320 46 -1600 310/14G27 RMK AO2
14840KMKG MKG20071127150512311/27/07 15:05:31  5-MIN KMKG 272005Z 31017G26KT 10SM SCT038 M02/M12 A3026 320 48 -1600 310/17G26 RMK AO2 PK WND 31026/2002
14840KMKG MKG20071127151012311/27/07 15:10:31  5-MIN KMKG 272010Z 30017G26KT 10SM BKN038 M02/M12 A3025 320 48 -1600 300/17G26 RMK AO2 PK WND 31026/2002
14840KMKG MKG20071127151512311/27/07 15:15:31  5-MIN KMKG 272015Z 31018G23KT 10SM BKN038 M02/M12 A3026 320 48 -1600 320/18G23 RMK AO2 PK WND 31026/2002
14840KMKG MKG20071127152012311/27/07 15:20:31  5-MIN KMKG 272020Z 32021G27KT 10SM SCT038 M02/M12 A3027 310 46 -1600 330/21G27 RMK AO2 PK WND 31027/2016
14840KMKG MKG20071127152512311/27/07 15:25:31  5-MIN KMKG 272025Z 30016G29KT 10SM SCT038 M02/M12 A3026 310 48 -1600 300/16G29 RMK AO2 PK WND 32029/2021
14840KMKG MKG20071127153012311/27/07 15:30:31  5-MIN KMKG 272030Z 31018G29KT 10SM BKN038 M02/M12 A3027 310 48 -1600 310/18G29 RMK AO2 PK WND 32029/2021
14840KMKG MKG20071127153512311/27/07 15:35:31  5-MIN KMKG 272035Z 31015G26KT 10SM BKN038 M02/M12 A3027 310 48 -1600 310/15G26 RMK AO2 PK WND 32029/2021
14840KMKG MKG20071127154012311/27/07 15:40:31  5-MIN KMKG 272040Z 31014G27KT 10SM BKN038 M02/M12 A3027 300 48 -1600 320/14G27 RMK AO2 PK WND 32029/2021
14840KMKG MKG20071127154512311/27/07 15:45:31  5-MIN KMKG 272045Z 32017G27KT 10SM BKN038 M02/M11 A3028 300 51 -1700 320/17G27 RMK AO2 PK WND 32029/2021
14840KMKG MKG20071127155014611/27/07 15:50:31  5-MIN KMKG 272050Z 31015G25KT 10SM BKN038 M02/M12 A3028 300 48 -1700 320/15G25 RMK AO2 PK WND 32029/2021 SLP261 T10221117 51047
14840KMKG MKG20071127155514611/27/07 15:55:31  5-MIN KMKG 272055Z 31012G22KT 10SM SCT038 M02/M12 A3028 300 48 -1700 310/12G22 RMK AO2 PK WND 32029/2021 SLP261 T10221117 51030
14840KMKG MKG20071127160010511/27/07 16:00:31  5-MIN KMKG 272100Z 31015G23KT 10SM SCT038 M03/M12 A3028 300 50 -1700 310/15G23 RMK AO2
14840KMKG MKG20071127160510511/27/07 16:05:31  5-MIN KMKG 272105Z 31016G23KT 10SM SCT038 M03/M12 A3029 290 50 -1700 310/16G23 RMK AO2
14840KMKG MKG20071127161011211/27/07 16:10:31  5-MIN KMKG 272110Z 32016G21KT 10SM FEW038 M03/M12 A3030 280 50 -1700 320/16G21 RMK AO2 PRESRR
14840KMKG MKG20071127161511211/27/07 16:15:31  5-MIN KMKG 272115Z 33015G21KT 10SM FEW038 M03/M12 A3031 280 50 -1800 330/15G21 RMK AO2 PRESRR
14840KMKG MKG20071127162010511/27/07 16:20:31  5-MIN KMKG 272120Z 31015G21KT 10SM SCT038 M03/M11 A3031 270 53 -1800 320/15G21 RMK AO2
14840KMKG MKG20071127162510511/27/07 16:25:31  5-MIN KMKG 272125Z 31015G23KT 10SM BKN038 M02/M11 A3031 270 51 -1700 310/15G23 RMK AO2
14840KMKG MKG20071127163010511/27/07 16:30:31  5-MIN KMKG 272130Z 31014G23KT 10SM SCT038 M03/M12 A3032 270 50 -1800 310/14G23 RMK AO2
14840KMKG MKG20071127163510511/27/07 16:35:31  5-MIN KMKG 272135Z 32016G24KT 10SM SCT038 M03/M12 A3032 270 50 -1800 320/16G24 RMK AO2
14840KMKG MKG20071127164010511/27/07 16:40:31  5-MIN KMKG 272140Z 32015G24KT 10SM SCT038 M03/M12 A3032 270 50 -1800 320/15G24 RMK AO2
14840KMKG MKG20071127164510511/27/07 16:45:31  5-MIN KMKG 272145Z 32015G22KT 10SM SCT038 M03/M11 A3032 260 53 -1800 320/15G22 RMK AO2
14840KMKG MKG20071127165012211/27/07 16:50:31  5-MIN KMKG 272150Z 32016G23KT 10SM SCT038 M03/M11 A3032 260 53 -1800 330/16G23 RMK AO2 SLP275 T10281111
14840KMKG MKG20071127165512211/27/07 16:55:31  5-MIN KMKG 272155Z 32014G23KT 10SM FEW038 M03/M11 A3032 260 53 -1800 330/14G23 RMK AO2 SLP274 T10281111
14840KMKG MKG20071127170010511/27/07 17:00:31  5-MIN KMKG 272200Z 33013G22KT 10SM FEW038 M03/M11 A3031 270 53 -1800 330/13G22 RMK AO2
14840KMKG MKG20071127170509911/27/07 17:05:31  5-MIN KMKG 272205Z 33013KT 10SM SCT036 M03/M11 A3032 260 55 -1800 330/13 RMK AO2
14840KMKG MKG20071127171009911/27/07 17:10:31  5-MIN KMKG 272210Z 32014KT 10SM SCT036 M03/M11 A3032 260 55 -1800 320/14 RMK AO2
14840KMKG MKG20071127171509911/27/07 17:15:31  5-MIN KMKG 272215Z 33014KT 10SM SCT036 M03/M11 A3032 260 55 -1800 330/14 RMK AO2
14840KMKG MKG20071127172010511/27/07 17:20:31  5-MIN KMKG 272220Z 32010G20KT 10SM BKN036 M03/M11 A3033 250 55 -1900 330/10G20 RMK AO2
14840KMKG MKG20071127172509911/27/07 17:25:31  5-MIN KMKG 272225Z 32013KT 10SM BKN038 M03/M11 A3033 250 55 -1900 320/13 RMK AO2
14840KMKG MKG20071127173009911/27/07 17:30:31  5-MIN KMKG 272230Z 32013KT 10SM BKN038 M03/M11 A3033 250 55 -1900 320/13 RMK AO2
14840KMKG MKG20071127173510511/27/07 17:35:31  5-MIN KMKG 272235Z 33012G19KT 10SM BKN038 M03/M12 A3034 250 53 -1900 330/12G19 RMK AO2
14840KMKG MKG20071127174009911/27/07 17:40:31  5-MIN KMKG 272240Z 32012KT 10SM BKN038 M03/M12 A3034 240 53 -1900 330/12 RMK AO2
14840KMKG MKG20071127174510511/27/07 17:45:31  5-MIN KMKG 272245Z 33011G17KT 10SM BKN038 M03/M12 A3034 250 53 -1900 330/11G17 RMK AO2
14840KMKG MKG20071127175011611/27/07 17:50:31  5-MIN KMKG 272250Z 34012KT 10SM BKN038 M03/M12 A3034 240 53 -1900 340/12 RMK AO2 SLP283 T10331117
14840KMKG MKG20071127175511611/27/07 17:55:31  5-MIN KMKG 272255Z 35012KT 10SM BKN038 M03/M12 A3034 240 53 -1900 350/12 RMK AO2 SLP283 T10331117
14840KMKG MKG20071127180009911/27/07 18:00:31  5-MIN KMKG 272300Z 35010KT 10SM BKN038 M03/M12 A3034 240 53 -1900 350/10 RMK AO2
14840KMKG MKG20071127180510511/27/07 18:05:31  5-MIN KMKG 272305Z 34008G17KT 10SM BKN038 M03/M12 A3034 240 53 -1900 340/08G17 RMK AO2
14840KMKG MKG20071127181009911/27/07 18:10:31  5-MIN KMKG 272310Z 35009KT 10SM OVC038 M03/M12 A3034 240 53 -1900 350/09 RMK AO2
14840KMKG MKG20071127181509911/27/07 18:15:31  5-MIN KMKG 272315Z 35009KT 10SM OVC036 M03/M12 A3034 240 53 -1900 350/09 RMK AO2
14840KMKG MKG20071127182009911/27/07 18:20:31  5-MIN KMKG 272320Z 34011KT 10SM BKN036 M03/M12 A3034 240 53 -1900 340/11 RMK AO2
14840KMKG MKG20071127182509911/27/07 18:25:31  5-MIN KMKG 272325Z 35007KT 10SM BKN036 M03/M12 A3035 240 53 -1900 350/07 RMK AO2
14840KMKG MKG20071127183009911/27/07 18:30:31  5-MIN KMKG 272330Z 34007KT 10SM BKN036 M04/M11 A3035 240 57 -1900 350/07 RMK AO2
14840KMKG MKG20071127183509911/27/07 18:35:31  5-MIN KMKG 272335Z 33009KT 10SM BKN036 M03/M11 A3035 230 55 -1900 330/09 RMK AO2
14840KMKG MKG20071127184009911/27/07 18:40:31  5-MIN KMKG 272340Z 35006KT 10SM BKN036 M03/M11 A3036 230 55 -1900 350/06 RMK AO2
14840KMKG MKG20071127184509911/27/07 18:45:31  5-MIN KMKG 272345Z 35007KT 10SM BKN036 M03/M11 A3036 220 55 -1900 360/07 RMK AO2
14840KMKG MKG20071127185013411/27/07 18:50:31  5-MIN KMKG 272350Z 36004KT 10SM BKN036 M03/M11 A3037 220 55 -1900 360/04 RMK AO2 SLP291 T10331111 11017 21039 51030
14840KMKG MKG20071127185513411/27/07 18:55:31  5-MIN KMKG 272355Z 35005KT 10SM BKN036 M04/M11 A3037 220 57 -2000 350/05 RMK AO2 SLP293 T10391111 11017 21039 51031
14840KMKG MKG20071127190009911/27/07 19:00:31  5-MIN KMKG 280000Z 35007KT 10SM BKN036 M04/M11 A3037 210 57 -2000 360/07 RMK AO2
14840KMKG MKG20071127190509911/27/07 19:05:31  5-MIN KMKG 280005Z 35008KT 10SM BKN036 M04/M11 A3038 210 57 -2000 350/08 RMK AO2
14840KMKG MKG20071127191009911/27/07 19:10:31  5-MIN KMKG 280010Z 35007KT 10SM BKN036 M04/M12 A3037 210 55 -2000 350/07 RMK AO2
14840KMKG MKG20071127191509911/27/07 19:15:31  5-MIN KMKG 280015Z 36007KT 10SM BKN038 M03/M12 A3037 210 53 -1900 010/07 RMK AO2
14840KMKG MKG20071127192009911/27/07 19:20:31  5-MIN KMKG 280020Z 36008KT 10SM BKN038 M03/M12 A3037 220 53 -1900 360/08 RMK AO2
14840KMKG MKG20071127192509911/27/07 19:25:31  5-MIN KMKG 280025Z 36007KT 10SM BKN036 M04/M12 A3037 220 55 -2000 010/07 RMK AO2
14840KMKG MKG20071127193009911/27/07 19:30:31  5-MIN KMKG 280030Z 01007KT 10SM BKN036 M04/M12 A3038 210 55 -2000 010/07 RMK AO2
14840KMKG MKG20071127193509911/27/07 19:35:31  5-MIN KMKG 280035Z 36007KT 10SM BKN036 M04/M12 A3038 210 55 -2000 360/07 RMK AO2
14840KMKG MKG20071127194009911/27/07 19:40:31  5-MIN KMKG 280040Z 36007KT 10SM BKN036 M04/M12 A3038 210 55 -2000 360/07 RMK AO2
14840KMKG MKG20071127194509911/27/07 19:45:31  5-MIN KMKG 280045Z 35006KT 10SM BKN036 M04/M12 A3038 210 55 -2000 360/06 RMK AO2
14840KMKG MKG20071127195011611/27/07 19:50:31  5-MIN KMKG 280050Z 36006KT 10SM BKN036 M04/M12 A3037 220 55 -2000 010/06 RMK AO2 SLP291 T10391117
14840KMKG MKG20071127195511611/27/07 19:55:31  5-MIN KMKG 280055Z 01006KT 10SM BKN036 M04/M12 A3037 220 55 -2000 010/06 RMK AO2 SLP291 T10391117
14840KMKG MKG20071127200009911/27/07 20:00:31  5-MIN KMKG 280100Z 01006KT 10SM SCT036 M04/M12 A3037 220 52 -2000 010/06 RMK AO2
14840KMKG MKG20071127200509911/27/07 20:05:31  5-MIN KMKG 280105Z 02005KT 10SM SCT036 M04/M12 A3037 220 52 -2000 020/05 RMK AO2
14840KMKG MKG20071127201009911/27/07 20:10:31  5-MIN KMKG 280110Z 03005KT 10SM FEW036 M04/M12 A3037 220 52 -2000 030/05 RMK AO2
14840KMKG MKG20071127201509611/27/07 20:15:31  5-MIN KMKG 280115Z 02004KT 10SM CLR M04/M12 A3037 220 57 -2000 030/04 RMK AO2
14840KMKG MKG20071127202009611/27/07 20:20:31  5-MIN KMKG 280120Z 01004KT 10SM CLR M04/M12 A3037 220 57 -2000 020/04 RMK AO2
14840KMKG MKG20071127202509611/27/07 20:25:31  5-MIN KMKG 280125Z 01003KT 10SM CLR M04/M12 A3038 210 55 -2100 020/03 RMK AO2
14840KMKG MKG20071127203010311/27/07 20:30:31  5-MIN KMKG 280130Z 01003KT 10SM CLR M04/M12 A3039 200 55 -2100 010/03 RMK AO2 PRESRR
14840KMKG MKG20071127203509911/27/07 20:35:31  5-MIN KMKG 280135Z 02003KT 10SM FEW036 M04/M12 A3039 200 55 -2100 020/03 RMK AO2
14840KMKG MKG20071127204009911/27/07 20:40:31  5-MIN KMKG 280140Z 02003KT 10SM FEW036 M04/M12 A3039 200 52 -2000 020/03 RMK AO2
14840KMKG MKG20071127204509911/27/07 20:45:31  5-MIN KMKG 280145Z 02003KT 10SM FEW036 M04/M12 A3039 200 55 -2100 030/03 RMK AO2
14840KMKG MKG20071127205011611/27/07 20:50:31  5-MIN KMKG 280150Z 00000KT 10SM FEW036 M04/M12 A3039 200 57 -2100 000/00 RMK AO2 SLP300 T10441117
14840KMKG MKG20071127205511611/27/07 20:55:31  5-MIN KMKG 280155Z 00000KT 10SM FEW036 M04/M12 A3039 200 57 -2100 000/00 RMK AO2 SLP299 T10441117
14840KMKG MKG20071127210009611/27/07 21:00:31  5-MIN KMKG 280200Z 00000KT 10SM CLR M04/M12 A3039 200 57 -2100 000/00 RMK AO2
14840KMKG MKG20071127210509611/27/07 21:05:31  5-MIN KMKG 280205Z 00000KT 10SM CLR M04/M12 A3040 190 57 -2100 000/00 RMK AO2
14840KMKG MKG20071127211009611/27/07 21:10:31  5-MIN KMKG 280210Z 00000KT 10SM CLR M05/M12 A3039 200 60 -2100 000/00 RMK AO2
14840KMKG MKG20071127211509611/27/07 21:15:31  5-MIN KMKG 280215Z 00000KT 10SM CLR M06/M11 A3039 200 65 -2200 000/00 RMK AO2
14840KMKG MKG20071127212009611/27/07 21:20:31  5-MIN KMKG 280220Z 00000KT 10SM CLR M06/M11 A3039 190 65 -2200 000/00 RMK AO2
14840KMKG MKG20071127212509911/27/07 21:25:31  5-MIN KMKG 280225Z 11003KT 10SM FEW036 M06/M11 A3040 190 65 -2200 120/03 RMK AO2
14840KMKG MKG20071127213009911/27/07 21:30:31  5-MIN KMKG 280230Z 00000KT 10SM FEW036 M06/M11 A3040 190 65 -2200 000/00 RMK AO2
14840KMKG MKG20071127213509611/27/07 21:35:31  5-MIN KMKG 280235Z 00000KT 10SM CLR M06/M11 A3040 190 65 -2200 000/00 RMK AO2
14840KMKG MKG20071127214009611/27/07 21:40:31  5-MIN KMKG 280240Z 00000KT 10SM CLR M06/M11 A3040 190 65 -2200 000/00 RMK AO2
14840KMKG MKG20071127214509611/27/07 21:45:31  5-MIN KMKG 280245Z 00000KT 10SM CLR M07/M11 A3040 190 71 -2400 000/00 RMK AO2
14840KMKG MKG20071127215011911/27/07 21:50:31  5-MIN KMKG 280250Z 00000KT 10SM CLR M07/M11 A3040 190 71 -2400 000/00 RMK AO2 SLP302 T10671111 51031
14840KMKG MKG20071127215511911/27/07 21:55:31  5-MIN KMKG 280255Z 08003KT 10SM CLR M06/M11 A3039 200 68 -2300 090/03 RMK AO2 SLP300 T10611111 53006
14840KMKG MKG20071127220009611/27/07 22:00:31  5-MIN KMKG 280300Z 09004KT 10SM CLR M07/M11 A3039 200 71 -2300 090/04 RMK AO2
14840KMKG MKG20071127220509611/27/07 22:05:31  5-MIN KMKG 280305Z 09005KT 10SM CLR M07/M12 A3039 200 71 -2400 100/05 RMK AO2
14840KMKG MKG20071127221009611/27/07 22:10:31  5-MIN KMKG 280310Z 09004KT 10SM CLR M07/M12 A3039 200 71 -2400 090/04 RMK AO2
14840KMKG MKG20071127221509611/27/07 22:15:31  5-MIN KMKG 280315Z 10003KT 10SM CLR M07/M12 A3039 200 68 -2400 100/03 RMK AO2
14840KMKG MKG20071127222009611/27/07 22:20:31  5-MIN KMKG 280320Z 08003KT 10SM CLR M06/M12 A3039 200 65 -2300 080/03 RMK AO2
14840KMKG MKG20071127222509611/27/07 22:25:31  5-MIN KMKG 280325Z 07003KT 10SM CLR M07/M11 A3039 200 71 -2400 080/03 RMK AO2
14840KMKG MKG20071127223009611/27/07 22:30:31  5-MIN KMKG 280330Z 08003KT 10SM CLR M07/M12 A3039 200 68 -2400 090/03 RMK AO2
14840KMKG MKG20071127223509611/27/07 22:35:31  5-MIN KMKG 280335Z 07003KT 10SM CLR M07/M12 A3038 200 68 -2300 070/03 RMK AO2
14840KMKG MKG20071127224009611/27/07 22:40:31  5-MIN KMKG 280340Z 08004KT 10SM CLR M07/M12 A3039 200 68 -2300 080/04 RMK AO2
14840KMKG MKG20071127224509611/27/07 22:45:31  5-MIN KMKG 280345Z 09003KT 10SM CLR M07/M12 A3039 200 71 -2400 090/03 RMK AO2
14840KMKG MKG20071127225011311/27/07 22:50:31  5-MIN KMKG 280350Z 00000KT 10SM CLR M07/M12 A3039 200 68 -2400 000/00 RMK AO2 SLP302 T10671117
14840KMKG MKG20071127225511311/27/07 22:55:31  5-MIN KMKG 280355Z 00000KT 10SM CLR M07/M12 A3040 190 68 -2400 000/00 RMK AO2 SLP304 T10671117
14840KMKG MKG20071127230009611/27/07 23:00:31  5-MIN KMKG 280400Z 08003KT 10SM CLR M07/M12 A3040 190 68 -2400 080/03 RMK AO2
14840KMKG MKG20071127230509611/27/07 23:05:31  5-MIN KMKG 280405Z 08003KT 10SM CLR M07/M12 A3039 190 68 -2400 090/03 RMK AO2
14840KMKG MKG20071127231009611/27/07 23:10:31  5-MIN KMKG 280410Z 00000KT 10SM CLR M07/M12 A3040 190 68 -2400 000/00 RMK AO2
14840KMKG MKG20071127231509611/27/07 23:15:31  5-MIN KMKG 280415Z 12003KT 10SM CLR M07/M12 A3040 190 68 -2400 120/03 RMK AO2
14840KMKG MKG20071127232009611/27/07 23:20:31  5-MIN KMKG 280420Z 12003KT 10SM CLR M07/M12 A3040 190 71 -2400 120/03 RMK AO2
14840KMKG MKG20071127232509611/27/07 23:25:31  5-MIN KMKG 280425Z 13004KT 10SM CLR M08/M12 A3041 180 74 -2500 140/04 RMK AO2
14840KMKG MKG20071127233009611/27/07 23:30:31  5-MIN KMKG 280430Z 13004KT 10SM CLR M07/M12 A3040 190 71 -2400 130/04 RMK AO2
14840KMKG MKG20071127233509611/27/07 23:35:31  5-MIN KMKG 280435Z 12004KT 10SM CLR M07/M12 A3041 180 71 -2400 120/04 RMK AO2
14840KMKG MKG20071127234009611/27/07 23:40:31  5-MIN KMKG 280440Z 12003KT 10SM CLR M07/M12 A3040 190 71 -2400 120/03 RMK AO2
14840KMKG MKG20071127234509611/27/07 23:45:31  5-MIN KMKG 280445Z 00000KT 10SM CLR M07/M12 A3040 190 68 -2400 000/00 RMK AO2
14840KMKG MKG20071127235012311/27/07 23:50:31  5-MIN KMKG 280450Z 00000KT 10SM CLR M07/M11 A3041 180 74 -2400 000/00 RMK AO2 SLP306 T10721111 400441078
14840KMKG MKG20071127235512311/27/07 23:55:31  5-MIN KMKG 280455Z 00000KT 10SM CLR M07/M12 A3041 180 68 -2400 000/00 RMK AO2 SLP307 T10671117 400441078
14840KMKG MKG20071128000009611/28/07 00:00:32  5-MIN KMKG 280500Z 12003KT 10SM CLR M07/M12 A3041 180 71 -2400 120/03 RMK AO2
14840KMKG MKG20071128000509611/28/07 00:05:31  5-MIN KMKG 280505Z 11003KT 10SM CLR M07/M12 A3041 180 71 -2400 120/03 RMK AO2
14840KMKG MKG20071128001009611/28/07 00:10:31  5-MIN KMKG 280510Z 12003KT 10SM CLR M08/M12 A3041 180 74 -2500 120/03 RMK AO2
14840KMKG MKG20071128001509611/28/07 00:15:31  5-MIN KMKG 280515Z 12004KT 10SM CLR M08/M12 A3041 180 74 -2500 130/04 RMK AO2
14840KMKG MKG20071128002009611/28/07 00:20:31  5-MIN KMKG 280520Z 11005KT 10SM CLR M07/M12 A3041 180 71 -2400 110/05 RMK AO2
14840KMKG MKG20071128002509611/28/07 00:25:31  5-MIN KMKG 280525Z 11004KT 10SM CLR M07/M12 A3041 180 71 -2400 110/04 RMK AO2
14840KMKG MKG20071128003009611/28/07 00:30:31  5-MIN KMKG 280530Z 12004KT 10SM CLR M07/M12 A3041 180 71 -2400 130/04 RMK AO2
14840KMKG MKG20071128003509611/28/07 00:35:31  5-MIN KMKG 280535Z 13004KT 10SM CLR M07/M12 A3042 180 71 -2500 140/04 RMK AO2
14840KMKG MKG20071128004009611/28/07 00:40:31  5-MIN KMKG 280540Z 13004KT 10SM CLR M07/M12 A3041 180 68 -2400 130/04 RMK AO2
14840KMKG MKG20071128004509611/28/07 00:45:31  5-MIN KMKG 280545Z 13004KT 10SM CLR M07/M12 A3042 170 68 -2400 140/04 RMK AO2
14840KMKG MKG20071128005013111/28/07 00:50:31  5-MIN KMKG 280550Z 13005KT 10SM CLR M07/M12 A3041 180 71 -2500 130/05 RMK AO2 SLP309 T10721117 11033 21078 53006
14840KMKG MKG20071128005513111/28/07 00:55:31  5-MIN KMKG 280555Z 12005KT 10SM CLR M08/M12 A3041 180 74 -2500 130/05 RMK AO2 SLP308 T10781117 11033 21078 51007
14840KMKG MKG20071128010009611/28/07 01:00:31  5-MIN KMKG 280600Z 13005KT 10SM CLR M08/M12 A3041 180 74 -2500 130/05 RMK AO2
14840KMKG MKG20071128010509611/28/07 01:05:31  5-MIN KMKG 280605Z 13005KT 10SM CLR M08/M12 A3040 190 74 -2500 130/05 RMK AO2
14840KMKG MKG20071128011009611/28/07 01:10:31  5-MIN KMKG 280610Z 12006KT 10SM CLR M08/M12 A3040 190 74 -2500 120/06 RMK AO2
14840KMKG MKG20071128011508611/28/07 01:15:31  5-MIN KMKG 280615Z 10SM CLR M08/M12 A3039 190 77 -2600 M /M RMK AO2
14840KMKG MKG20071128012009811/28/07 01:20:31  5-MIN KMKG 280620Z 11005KT 10SM CLR M08/M12 A3039 200 77 -2600 110/05 RMK AO2 $
14840KMKG MKG20071128012509811/28/07 01:25:31  5-MIN KMKG 280625Z 12006KT 10SM CLR M08/M12 A3039 200 74 -2500 130/06 RMK AO2 $
14840KMKG MKG20071128013009811/28/07 01:30:31  5-MIN KMKG 280630Z 13007KT 10SM CLR M08/M12 A3039 200 74 -2500 130/07 RMK AO2 $
14840KMKG MKG20071128013509811/28/07 01:35:31  5-MIN KMKG 280635Z 13007KT 10SM CLR M07/M12 A3038 200 71 -2400 130/07 RMK AO2 $
14840KMKG MKG20071128014009811/28/07 01:40:31  5-MIN KMKG 280640Z 13007KT 10SM CLR M07/M12 A3038 210 71 -2400 130/07 RMK AO2 $
14840KMKG MKG20071128014509811/28/07 01:45:31  5-MIN KMKG 280645Z 12007KT 10SM CLR M07/M12 A3038 210 71 -2400 130/07 RMK AO2 $
14840KMKG MKG20071128015011511/28/07 01:50:31  5-MIN KMKG 280650Z 12007KT 10SM CLR M08/M12 A3037 210 74 -2500 130/07 RMK AO2 SLP295 T10781117 $
14840KMKG MKG20071128015511511/28/07 01:55:31  5-MIN KMKG 280655Z 12007KT 10SM CLR M08/M12 A3037 220 74 -2500 120/07 RMK AO2 SLP293 T10781117 $
14840KMKG MKG20071128020009811/28/07 02:00:31  5-MIN KMKG 280700Z 12007KT 10SM CLR M07/M12 A3036 230 71 -2400 130/07 RMK AO2 $
14840KMKG MKG20071128020510511/28/07 02:05:31  5-MIN KMKG 280705Z 12006KT 10SM CLR M07/M12 A3035 230 71 -2400 120/06 RMK AO2 PRESFR $
14840KMKG MKG20071128021009811/28/07 02:10:31  5-MIN KMKG 280710Z 12007KT 10SM CLR M07/M12 A3035 230 71 -2400 130/07 RMK AO2 $
14840KMKG MKG20071128021509811/28/07 02:15:31  5-MIN KMKG 280715Z 13006KT 10SM CLR M07/M12 A3035 230 71 -2400 140/06 RMK AO2 $
14840KMKG MKG20071128022009811/28/07 02:20:31  5-MIN KMKG 280720Z 13006KT 10SM CLR M07/M12 A3036 230 71 -2400 140/06 RMK AO2 $
14840KMKG MKG20071128022509811/28/07 02:25:31  5-MIN KMKG 280725Z 14006KT 10SM CLR M07/M12 A3036 230 71 -2400 140/06 RMK AO2 $
14840KMKG MKG20071128023009811/28/07 02:30:31  5-MIN KMKG 280730Z 14006KT 10SM CLR M07/M12 A3035 230 71 -2400 140/06 RMK AO2 $
14840KMKG MKG20071128023509811/28/07 02:35:31  5-MIN KMKG 280735Z 13007KT 10SM CLR M07/M12 A3034 240 68 -2300 130/07 RMK AO2 $
14840KMKG MKG20071128024009811/28/07 02:40:31  5-MIN KMKG 280740Z 13005KT 10SM CLR M07/M12 A3035 240 71 -2400 130/05 RMK AO2 $
14840KMKG MKG20071128024509811/28/07 02:45:31  5-MIN KMKG 280745Z 14005KT 10SM CLR M07/M12 A3035 230 71 -2400 140/05 RMK AO2 $
14840KMKG MKG20071128025011511/28/07 02:50:31  5-MIN KMKG 280750Z 14005KT 10SM CLR M07/M12 A3035 230 68 -2300 140/05 RMK AO2 SLP289 T10671117 $
14840KMKG MKG20071128025511511/28/07 02:55:31  5-MIN KMKG 280755Z 13005KT 10SM CLR M07/M12 A3035 230 68 -2300 140/05 RMK AO2 SLP289 T10671117 $
14840KMKG MKG20071128030009811/28/07 03:00:31  5-MIN KMKG 280800Z 13005KT 10SM CLR M07/M12 A3035 230 71 -2400 130/05 RMK AO2 $
14840KMKG MKG20071128030509811/28/07 03:05:31  5-MIN KMKG 280805Z 12006KT 10SM CLR M07/M12 A3034 240 71 -2400 120/06 RMK AO2 $
14840KMKG MKG20071128031009811/28/07 03:10:31  5-MIN KMKG 280810Z 12006KT 10SM CLR M07/M12 A3034 250 71 -2400 120/06 RMK AO2 $
14840KMKG MKG20071128031509811/28/07 03:15:31  5-MIN KMKG 280815Z 12006KT 10SM CLR M07/M12 A3034 250 71 -2400 120/06 RMK AO2 $
14840KMKG MKG20071128032009811/28/07 03:20:31  5-MIN KMKG 280820Z 12005KT 10SM CLR M07/M12 A3034 250 71 -2400 120/05 RMK AO2 $
14840KMKG MKG20071128032509811/28/07 03:25:31  5-MIN KMKG 280825Z 12004KT 10SM CLR M07/M12 A3034 240 71 -2400 120/04 RMK AO2 $
14840KMKG MKG20071128033009811/28/07 03:30:31  5-MIN KMKG 280830Z 11005KT 10SM CLR M07/M12 A3034 240 71 -2400 120/05 RMK AO2 $
14840KMKG MKG20071128033509811/28/07 03:35:31  5-MIN KMKG 280835Z 11005KT 10SM CLR M07/M12 A3034 240 71 -2400 110/05 RMK AO2 $
14840KMKG MKG20071128034009811/28/07 03:40:31  5-MIN KMKG 280840Z 11005KT 10SM CLR M07/M12 A3035 240 68 -2300 110/05 RMK AO2 $
14840KMKG MKG20071128034509811/28/07 03:45:31  5-MIN KMKG 280845Z 10005KT 10SM CLR M07/M12 A3035 240 71 -2400 110/05 RMK AO2 $
14840KMKG MKG20071128035012111/28/07 03:50:31  5-MIN KMKG 280850Z 11004KT 10SM CLR M07/M11 A3035 240 71 -2300 110/04 RMK AO2 SLP287 T10671111 51007 $
14840KMKG MKG20071128035512111/28/07 03:55:31  5-MIN KMKG 280855Z 12004KT 10SM CLR M07/M11 A3035 230 71 -2300 120/04 RMK AO2 SLP288 T10671111 56020 $
14840KMKG MKG20071128040009811/28/07 04:00:31  5-MIN KMKG 280900Z 12004KT 10SM CLR M07/M11 A3035 230 71 -2300 120/04 RMK AO2 $
14840KMKG MKG20071128040509811/28/07 04:05:31  5-MIN KMKG 280905Z 11003KT 10SM CLR M07/M11 A3035 230 74 -2300 120/03 RMK AO2 $
14840KMKG MKG20071128041009811/28/07 04:10:31  5-MIN KMKG 280910Z 11005KT 10SM CLR M07/M11 A3035 240 74 -2300 120/05 RMK AO2 $
14840KMKG MKG20071128041509811/28/07 04:15:31  5-MIN KMKG 280915Z 11005KT 10SM CLR M07/M11 A3035 230 74 -2300 120/05 RMK AO2 $
14840KMKG MKG20071128042009811/28/07 04:20:31  5-MIN KMKG 280920Z 11006KT 10SM CLR M06/M11 A3035 230 71 -2200 110/06 RMK AO2 $
14840KMKG MKG20071128042509811/28/07 04:25:31  5-MIN KMKG 280925Z 11006KT 10SM CLR M06/M11 A3035 240 71 -2200 110/06 RMK AO2 $
14840KMKG MKG20071128043009811/28/07 04:30:31  5-MIN KMKG 280930Z 11007KT 10SM CLR M06/M11 A3034 250 71 -2200 120/07 RMK AO2 $
14840KMKG MKG20071128043509811/28/07 04:35:31  5-MIN KMKG 280935Z 11007KT 10SM CLR M06/M11 A3033 250 71 -2200 120/07 RMK AO2 $
14840KMKG MKG20071128044009811/28/07 04:40:31  5-MIN KMKG 280940Z 11007KT 10SM CLR M06/M11 A3033 260 71 -2200 120/07 RMK AO2 $
14840KMKG MKG20071128044509811/28/07 04:45:31  5-MIN KMKG 280945Z 12008KT 10SM CLR M06/M11 A3033 250 71 -2200 120/08 RMK AO2 $
14840KMKG MKG20071128045011511/28/07 04:50:31  5-MIN KMKG 280950Z 12008KT 10SM CLR M06/M11 A3033 260 71 -2200 130/08 RMK AO2 SLP279 T10611106 $
14840KMKG MKG20071128045511511/28/07 04:55:31  5-MIN KMKG 280955Z 12008KT 10SM CLR M06/M11 A3032 260 71 -2200 130/08 RMK AO2 SLP278 T10611106 $
14840KMKG MKG20071128050009811/28/07 05:00:31  5-MIN KMKG 281000Z 12009KT 10SM CLR M07/M11 A3031 270 74 -2300 130/09 RMK AO2 $
14840KMKG MKG20071128050509811/28/07 05:05:31  5-MIN KMKG 281005Z 12009KT 10SM CLR M07/M11 A3031 270 74 -2300 130/09 RMK AO2 $
14840KMKG MKG20071128051009811/28/07 05:10:31  5-MIN KMKG 281010Z 13010KT 10SM CLR M06/M11 A3031 270 68 -2200 130/10 RMK AO2 $
14840KMKG MKG20071128051509811/28/07 05:15:31  5-MIN KMKG 281015Z 13010KT 10SM CLR M06/M11 A3031 270 68 -2200 140/10 RMK AO2 $
14840KMKG MKG20071128052009811/28/07 05:20:31  5-MIN KMKG 281020Z 13010KT 10SM CLR M06/M11 A3031 270 68 -2200 130/10 RMK AO2 $
14840KMKG MKG20071128052509811/28/07 05:25:31  5-MIN KMKG 281025Z 13010KT 10SM CLR M06/M11 A3031 270 68 -2200 130/10 RMK AO2 $
14840KMKG MKG20071128053009811/28/07 05:30:31  5-MIN KMKG 281030Z 13010KT 10SM CLR M06/M11 A3031 270 68 -2200 130/10 RMK AO2 $
14840KMKG MKG20071128053509811/28/07 05:35:31  5-MIN KMKG 281035Z 13010KT 10SM CLR M06/M11 A3031 270 68 -2200 130/10 RMK AO2 $
14840KMKG MKG20071128054009811/28/07 05:40:31  5-MIN KMKG 281040Z 12009KT 10SM CLR M06/M11 A3031 280 68 -2200 130/09 RMK AO2 $
14840KMKG MKG20071128054509811/28/07 05:45:31  5-MIN KMKG 281045Z 12009KT 10SM CLR M06/M11 A3031 270 68 -2200 120/09 RMK AO2 $
14840KMKG MKG20071128055011511/28/07 05:50:31  5-MIN KMKG 281050Z 12009KT 10SM CLR M06/M11 A3031 270 68 -2200 120/09 RMK AO2 SLP273 T10611111 $
14840KMKG MKG20071128055511511/28/07 05:55:31  5-MIN KMKG 281055Z 12009KT 10SM CLR M06/M11 A3031 270 68 -2200 130/09 RMK AO2 SLP273 T10611111 $
14840KMKG MKG20071128060009811/28/07 06:00:31  5-MIN KMKG 281100Z 12008KT 10SM CLR M06/M11 A3030 280 68 -2200 130/08 RMK AO2 $
14840KMKG MKG20071128060509811/28/07 06:05:31  5-MIN KMKG 281105Z 13011KT 10SM CLR M06/M11 A3030 280 68 -2200 130/11 RMK AO2 $
14840KMKG MKG20071128061009811/28/07 06:10:31  5-MIN KMKG 281110Z 13011KT 10SM CLR M06/M11 A3029 290 68 -2200 130/11 RMK AO2 $
14840KMKG MKG20071128061509811/28/07 06:15:31  5-MIN KMKG 281115Z 13010KT 10SM CLR M06/M11 A3029 290 65 -2100 130/10 RMK AO2 $
14840KMKG MKG20071128062009811/28/07 06:20:31  5-MIN KMKG 281120Z 12011KT 10SM CLR M06/M11 A3028 300 65 -2100 120/11 RMK AO2 $
14840KMKG MKG20071128062510511/28/07 06:25:31  5-MIN KMKG 281125Z 11012KT 10SM CLR M06/M11 A3027 300 65 -2100 120/12 RMK AO2 PRESFR $
14840KMKG MKG20071128063009811/28/07 06:30:31  5-MIN KMKG 281130Z 11011KT 10SM CLR M06/M11 A3027 310 65 -2100 120/11 RMK AO2 $
14840KMKG MKG20071128063510411/28/07 06:35:31  5-MIN KMKG 281135Z 12010G17KT 10SM CLR M06/M11 A3028 300 65 -2100 120/10G17 RMK AO2 $
14840KMKG MKG20071128064009811/28/07 06:40:31  5-MIN KMKG 281140Z 12011KT 10SM CLR M06/M11 A3027 310 65 -2100 120/11 RMK AO2 $
14840KMKG MKG20071128064509811/28/07 06:45:31  5-MIN KMKG 281145Z 12008KT 10SM CLR M06/M11 A3028 300 65 -2100 120/08 RMK AO2 $
14840KMKG MKG20071128065013311/28/07 06:50:31  5-MIN KMKG 281150Z 12009KT 10SM CLR M06/M11 A3028 300 65 -2100 120/09 RMK AO2 SLP265 T10561111 11056 21083 56020 $
14840KMKG MKG20071128065513611/28/07 06:55:31  5-MIN KMKG 281155Z 12011KT 10SM FEW031 M05/M11 A3028 300 62 -2000 130/11 RMK AO2 SLP263 T10501111 11050 21083 57024 $
14840KMKG MKG20071128070010111/28/07 07:00:31  5-MIN KMKG 281200Z 12011KT 10SM SCT031 M05/M11 A3028 300 62 -2000 120/11 RMK AO2 $
14840KMKG MKG20071128070510111/28/07 07:05:31  5-MIN KMKG 281205Z 12011KT 10SM SCT031 M05/M11 A3028 300 62 -2000 130/11 RMK AO2 $
14840KMKG MKG20071128071010111/28/07 07:10:31  5-MIN KMKG 281210Z 12013KT 10SM BKN031 M05/M11 A3027 310 62 -2000 130/13 RMK AO2 $
14840KMKG MKG20071128071510111/28/07 07:15:31  5-MIN KMKG 281215Z 12011KT 10SM BKN031 M05/M11 A3027 310 62 -2000 130/11 RMK AO2 $
14840KMKG MKG20071128072010711/28/07 07:20:31  5-MIN KMKG 281220Z 12013G19KT 10SM BKN031 M05/M11 A3026 310 62 -2000 120/13G19 RMK AO2 $
14840KMKG MKG20071128072510111/28/07 07:25:31  5-MIN KMKG 281225Z 12012KT 10SM BKN031 M05/M11 A3027 310 62 -2000 130/12 RMK AO2 $
14840KMKG MKG20071128073010111/28/07 07:30:31  5-MIN KMKG 281230Z 12010KT 10SM SCT031 M05/M11 A3027 310 65 -2000 130/10 RMK AO2 $
14840KMKG MKG20071128073510111/28/07 07:35:31  5-MIN KMKG 281235Z 12013KT 10SM SCT031 M05/M11 A3027 310 65 -2000 130/13 RMK AO2 $
14840KMKG MKG20071128074010111/28/07 07:40:31  5-MIN KMKG 281240Z 12014KT 10SM FEW031 M05/M11 A3026 320 65 -2000 120/14 RMK AO2 $
14840KMKG MKG20071128074510511/28/07 07:45:31  5-MIN KMKG 281245Z 12013KT 10SM CLR M05/M11 A3024 330 65 -2000 120/13 RMK AO2 PRESFR $
14840KMKG MKG20071128075011511/28/07 07:50:31  5-MIN KMKG 281250Z 12013KT 10SM CLR M05/M11 A3025 330 65 -2000 120/13 RMK AO2 SLP253 T10501106 $
14840KMKG MKG20071128075511311/28/07 07:55:31  5-MIN KMKG 281255Z 11012KT 10SM CLR M05/M11 A3025 330 65 -2000 120/12 RMK AO2 SLP252 T10501106
14840KMKG MKG20071128080009611/28/07 08:00:31  5-MIN KMKG 281300Z 12011KT 10SM CLR M04/M11 A3024 330 62 -1900 120/11 RMK AO2
14840KMKG MKG20071128080509611/28/07 08:05:31  5-MIN KMKG 281305Z 12014KT 10SM CLR M04/M11 A3024 330 62 -1900 120/14 RMK AO2
14840KMKG MKG20071128081009611/28/07 08:10:31  5-MIN KMKG 281310Z 12013KT 10SM CLR M04/M11 A3024 330 62 -1900 120/13 RMK AO2
14840KMKG MKG20071128081509611/28/07 08:15:31  5-MIN KMKG 281315Z 12014KT 10SM CLR M04/M11 A3023 340 62 -1900 130/14 RMK AO2
14840KMKG MKG20071128082009611/28/07 08:20:31  5-MIN KMKG 281320Z 12014KT 10SM CLR M04/M11 A3023 340 62 -1900 130/14 RMK AO2
14840KMKG MKG20071128082509611/28/07 08:25:31  5-MIN KMKG 281325Z 12014KT 10SM CLR M04/M11 A3023 350 62 -1900 130/14 RMK AO2
14840KMKG MKG20071128083009611/28/07 08:30:31  5-MIN KMKG 281330Z 12015KT 10SM CLR M04/M11 A3022 350 62 -1900 130/15 RMK AO2
14840KMKG MKG20071128083509611/28/07 08:35:31  5-MIN KMKG 281335Z 12016KT 10SM CLR M04/M11 A3021 360 62 -1900 130/16 RMK AO2
14840KMKG MKG20071128084010311/28/07 08:40:31  5-MIN KMKG 281340Z 12016KT 10SM CLR M04/M11 A3020 370 60 -1800 130/16 RMK AO2 PRESFR
14840KMKG MKG20071128084510211/28/07 08:45:31  5-MIN KMKG 281345Z 13019G23KT 10SM CLR M04/M11 A3020 370 60 -1800 130/19G23 RMK AO2
14840KMKG MKG20071128085011911/28/07 08:50:31  5-MIN KMKG 281350Z 13015G23KT 10SM CLR M04/M11 A3020 370 60 -1800 130/15G23 RMK AO2 SLP237 T10391106
14840KMKG MKG20071128085511911/28/07 08:55:31  5-MIN KMKG 281355Z 13018G23KT 10SM CLR M04/M11 A3020 380 60 -1800 130/18G23 RMK AO2 SLP235 T10391106
14840KMKG MKG20071128090009611/28/07 09:00:31  5-MIN KMKG 281400Z 13016KT 10SM CLR M04/M11 A3019 380 60 -1800 130/16 RMK AO2
14840KMKG MKG20071128090509611/28/07 09:05:31  5-MIN KMKG 281405Z 13016KT 10SM CLR M04/M11 A3019 380 60 -1800 130/16 RMK AO2
14840KMKG MKG20071128091010211/28/07 09:10:31  5-MIN KMKG 281410Z 12018G23KT 10SM CLR M03/M11 A3018 390 57 -1700 130/18G23 RMK AO2
14840KMKG MKG20071128091510211/28/07 09:15:31  5-MIN KMKG 281415Z 13015G23KT 10SM CLR M03/M11 A3019 380 57 -1700 130/15G23 RMK AO2
14840KMKG MKG20071128092009611/28/07 09:20:31  5-MIN KMKG 281420Z 13016KT 10SM CLR M03/M10 A3018 390 60 -1700 130/16 RMK AO2
14840KMKG MKG20071128092509611/28/07 09:25:31  5-MIN KMKG 281425Z 12015KT 10SM CLR M03/M10 A3018 390 60 -1700 130/15 RMK AO2
14840KMKG MKG20071128093009611/28/07 09:30:31  5-MIN KMKG 281430Z 13017KT 10SM CLR M03/M10 A3018 390 60 -1700 130/17 RMK AO2
14840KMKG MKG20071128093510311/28/07 09:35:31  5-MIN KMKG 281435Z 13018KT 10SM CLR M03/M10 A3017 400 60 -1700 130/18 RMK AO2 PRESFR
14840KMKG MKG20071128094010211/28/07 09:40:31  5-MIN KMKG 281440Z 12017G22KT 10SM CLR M03/M10 A3016 400 60 -1700 130/17G22 RMK AO2
14840KMKG MKG20071128094510211/28/07 09:45:31  5-MIN KMKG 281445Z 13016G23KT 10SM CLR M03/M10 A3016 410 60 -1700 130/16G23 RMK AO2
14840KMKG MKG20071128095012511/28/07 09:50:31  5-MIN KMKG 281450Z 13016G23KT 10SM CLR M03/M10 A3016 410 58 -1600 140/16G23 RMK AO2 SLP224 T10281100 57024
14840KMKG MKG20071128095512511/28/07 09:55:31  5-MIN KMKG 281455Z 13018G23KT 10SM CLR M03/M09 A3015 420 60 -1600 140/18G23 RMK AO2 SLP220 T10281094 58042
14840KMKG MKG20071128100010211/28/07 10:00:31  5-MIN KMKG 281500Z 13016G23KT 10SM CLR M03/M09 A3015 420 60 -1600 140/16G23 RMK AO2
14840KMKG MKG20071128100509611/28/07 10:05:31  5-MIN KMKG 281505Z 13015KT 10SM CLR M03/M09 A3015 410 60 -1600 140/15 RMK AO2
14840KMKG MKG20071128101010211/28/07 10:10:31  5-MIN KMKG 281510Z 14016G23KT 10SM CLR M03/M09 A3015 420 60 -1600 140/16G23 RMK AO2
14840KMKG MKG20071128101510211/28/07 10:15:31  5-MIN KMKG 281515Z 14015G23KT 10SM CLR M02/M09 A3015 420 58 -1500 140/15G23 RMK AO2
14840KMKG MKG20071128102009611/28/07 10:20:31  5-MIN KMKG 281520Z 13015KT 10SM CLR M02/M09 A3015 420 60 -1500 140/15 RMK AO2
14840KMKG MKG20071128102510211/28/07 10:25:31  5-MIN KMKG 281525Z 14015G21KT 10SM CLR M02/M09 A3014 420 60 -1500 140/15G21 RMK AO2
14840KMKG MKG20071128103010211/28/07 10:30:31  5-MIN KMKG 281530Z 13015G22KT 10SM CLR M02/M09 A3014 430 60 -1500 140/15G22 RMK AO2
14840KMKG MKG20071128103510211/28/07 10:35:31  5-MIN KMKG 281535Z 13015G22KT 10SM CLR M02/M09 A3013 430 58 -1400 140/15G22 RMK AO2
14840KMKG MKG20071128104010211/28/07 10:40:31  5-MIN KMKG 281540Z 14013G22KT 10SM CLR M02/M08 A3013 440 60 -1400 140/13G22 RMK AO2
14840KMKG MKG20071128104510211/28/07 10:45:31  5-MIN KMKG 281545Z 14016G22KT 10SM CLR M01/M08 A3013 440 58 -1300 140/16G22 RMK AO2
14840KMKG MKG20071128105011911/28/07 10:50:31  5-MIN KMKG 281550Z 14016G22KT 10SM CLR M02/M08 A3012 440 60 -1400 140/16G22 RMK AO2 SLP210 T10171083
14840KMKG MKG20071128105511611/28/07 10:55:31  5-MIN KMKG 281555Z 14015KT 10SM SCT090 M02/M08 A3012 450 60 -1400 140/15 RMK AO2 SLP209 T10171083
14840KMKG MKG20071128110010211/28/07 11:00:31  5-MIN KMKG 281600Z 14013G22KT 10SM CLR M01/M08 A3012 450 58 -1300 150/13G22 RMK AO2
14840KMKG MKG20071128110510511/28/07 11:05:31  5-MIN KMKG 281605Z 15012G22KT 10SM FEW095 M01/M08 A3012 450 58 -1300 150/12G22 RMK AO2
14840KMKG MKG20071128111009911/28/07 11:10:31  5-MIN KMKG 281610Z 14014KT 10SM FEW095 M01/M08 A3011 460 60 -1300 150/14 RMK AO2
14840KMKG MKG20071128111510211/28/07 11:15:31  5-MIN KMKG 281615Z 14010G18KT 10SM CLR M01/M08 A3011 460 60 -1300 140/10G18 RMK AO2
14840KMKG MKG20071128112010211/28/07 11:20:31  5-MIN KMKG 281620Z 15012G18KT 10SM CLR M01/M08 A3011 460 58 -1200 150/12G18 RMK AO2
14840KMKG MKG20071128112510511/28/07 11:25:31  5-MIN KMKG 281625Z 14013G18KT 10SM FEW090 M01/M08 A3010 470 58 -1200 150/13G18 RMK AO2
14840KMKG MKG20071128113010211/28/07 11:30:31  5-MIN KMKG 281630Z 15010G20KT 10SM CLR M01/M07 A3010 470 61 -1200 150/10G20 RMK AO2
14840KMKG MKG20071128113510211/28/07 11:35:31  5-MIN KMKG 281635Z 15013G20KT 10SM CLR M01/M07 A3009 470 61 -1200 160/13G20 RMK AO2
14840KMKG MKG20071128114009611/28/07 11:40:31  5-MIN KMKG 281640Z 14012KT 10SM CLR M01/M07 A3008 480 61 -1200 150/12 RMK AO2
14840KMKG MKG20071128114510411/28/07 11:45:31  5-MIN KMKG 281645Z 15015G21KT 10SM SCT085 00/M07 A3008 490 58 -1100 150/15G21 RMK AO2
14840KMKG MKG20071128115012111/28/07 11:50:31  5-MIN KMKG 281650Z 15013G21KT 10SM SCT085 00/M07 A3007 490 58 -1100 150/13G21 RMK AO2 SLP193 T00001072
14840KMKG MKG20071128115512211/28/07 11:55:31  5-MIN KMKG 281655Z 16012KT 10SM SCT085 00/M07 A3006 500 58 -1100 160/12 RMK AO2 PRESFR SLP190 T00001072
14840KMKG MKG20071128120010111/28/07 12:00:31  5-MIN KMKG 281700Z 14015G20KT 10SM CLR 01/M07 A3006 500 58 -1000 150/15G20 RMK AO2
14840KMKG MKG20071128120510811/28/07 12:05:31  5-MIN KMKG 281705Z 15012G20KT 10SM CLR 01/M07 A3005 510 58 -1000 150/12G20 RMK AO2 PRESFR
14840KMKG MKG20071128121010811/28/07 12:10:31  5-MIN KMKG 281710Z 15012G21KT 10SM CLR 01/M07 A3004 520 58 -1000 150/12G21 RMK AO2 PRESFR
14840KMKG MKG20071128121510111/28/07 12:15:31  5-MIN KMKG 281715Z 16012G21KT 10SM CLR 01/M07 A3005 510 58 -1000 160/12G21 RMK AO2
14840KMKG MKG20071128122010111/28/07 12:20:31  5-MIN KMKG 281720Z 15015G22KT 10SM CLR 01/M07 A3003 530 56 -1000 150/15G22 RMK AO2
14840KMKG MKG20071128122510011/28/07 12:25:31  5-MIN KMKG 281725Z 15012G22KT 10SM CLR 01/M06 A3003 530 58 -900 150/12G22 RMK AO2
14840KMKG MKG20071128123010011/28/07 12:30:31  5-MIN KMKG 281730Z 16014G19KT 10SM CLR 01/M06 A3003 530 58 -900 160/14G19 RMK AO2
14840KMKG MKG20071128123510011/28/07 12:35:31  5-MIN KMKG 281735Z 16010G19KT 10SM CLR 01/M06 A3002 540 58 -900 160/10G19 RMK AO2
14840KMKG MKG20071128124010711/28/07 12:40:31  5-MIN KMKG 281740Z 15016G25KT 10SM CLR 02/M06 A3000 560 56 -800 160/16G25 RMK AO2 PRESFR
14840KMKG MKG20071128124510011/28/07 12:45:31  5-MIN KMKG 281745Z 16015G25KT 10SM CLR 01/M06 A3000 560 58 -900 170/15G25 RMK AO2
14840KMKG MKG20071128125013811/28/07 12:50:31  5-MIN KMKG 281750Z 16013G22KT 10SM FEW100 02/M06 A3000 560 56 -800 170/13G22 RMK AO2 SLP167 T00171061 10017 21050 58042
14840KMKG MKG20071128125513811/28/07 12:55:31  5-MIN KMKG 281755Z 16013G17KT 10SM SCT100 02/M06 A3000 560 56 -800 160/13G17 RMK AO2 SLP167 T00171061 10017 21050 58051
14840KMKG MKG20071128130010311/28/07 13:00:31  5-MIN KMKG 281800Z 15013G18KT 10SM SCT100 02/M06 A2999 560 59 -800 150/13G18 RMK AO2
14840KMKG MKG20071128130509711/28/07 13:05:31  5-MIN KMKG 281805Z 16014KT 10SM SCT100 02/M06 A3000 560 56 -800 170/14 RMK AO2
14840KMKG MKG20071128131009711/28/07 13:10:31  5-MIN KMKG 281810Z 16011KT 10SM SCT100 02/M06 A2999 570 56 -800 160/11 RMK AO2
14840KMKG MKG20071128131509711/28/07 13:15:31  5-MIN KMKG 281815Z 16012KT 10SM BKN100 02/M06 A2998 570 56 -800 170/12 RMK AO2
14840KMKG MKG20071128132009711/28/07 13:20:31  5-MIN KMKG 281820Z 16011KT 10SM BKN095 02/M06 A2998 580 56 -700 160/11 RMK AO2
14840KMKG MKG20071128132511011/28/07 13:25:31  5-MIN KMKG 281825Z 16009G16KT 10SM BKN090 02/M06 A2997 580 56 -700 160/09G16 RMK AO2 PRESFR
14840KMKG MKG20071128133011711/28/07 13:30:31  5-MIN KMKG 281830Z 16008G16KT 10SM SCT080 BKN095 02/M06 A2996 590 56 -700 160/08G16 RMK AO2 PRESFR
14840KMKG MKG20071128133510411/28/07 13:35:31  5-MIN KMKG 281835Z 17008KT 10SM SCT080 BKN090 02/M05 A2997 590 59 -700 170/08 RMK AO2
14840KMKG MKG20071128134011011/28/07 13:40:31  5-MIN KMKG 281840Z 17012G16KT 10SM BKN080 BKN090 03/M05 A2996 600 56 -700 170/12G16 RMK AO2
14840KMKG MKG20071128134511011/28/07 13:45:31  5-MIN KMKG 281845Z 16013G17KT 10SM BKN080 BKN090 03/M05 A2995 600 54 -600 170/13G17 RMK AO2
14840KMKG MKG20071128135012011/28/07 13:50:31  5-MIN KMKG 281850Z 17012G18KT 10SM BKN080 03/M05 A2994 610 54 -600 170/12G18 RMK AO2 SLP149 T00331050
14840KMKG MKG20071128135512011/28/07 13:55:31  5-MIN KMKG 281855Z 18013G21KT 10SM OVC080 04/M04 A2995 600 54 -500 180/13G21 RMK AO2 SLP150 T00391044
14840KMKG MKG20071128140010311/28/07 14:00:31  5-MIN KMKG 281900Z 17013G21KT 10SM OVC075 04/M04 A2995 610 54 -500 180/13G21 RMK AO2
14840KMKG MKG20071128140510311/28/07 14:05:31  5-MIN KMKG 281905Z 18013G19KT 10SM OVC075 04/M04 A2994 610 54 -500 180/13G19 RMK AO2
14840KMKG MKG20071128141009711/28/07 14:10:31  5-MIN KMKG 281910Z 17014KT 10SM OVC075 04/M04 A2994 620 54 -500 180/14 RMK AO2
14840KMKG MKG20071128141510311/28/07 14:15:31  5-MIN KMKG 281915Z 18015G22KT 10SM OVC075 04/M04 A2993 620 55 -400 180/15G22 RMK AO2
14840KMKG MKG20071128142011011/28/07 14:20:31  5-MIN KMKG 281920Z 17015G25KT 10SM OVC070 04/M04 A2992 630 55 -400 170/15G25 RMK AO2 PRESFR
14840KMKG MKG20071128142512111/28/07 14:25:31  5-MIN KMKG 281925Z 18017G26KT 10SM OVC070 04/M04 A2992 630 55 -400 180/17G26 RMK AO2 PK WND 18026/1922
14840KMKG MKG20071128143012111/28/07 14:30:31  5-MIN KMKG 281930Z 17015G26KT 10SM OVC070 04/M04 A2991 640 55 -400 180/15G26 RMK AO2 PK WND 18026/1922
14840KMKG MKG20071128143512111/28/07 14:35:31  5-MIN KMKG 281935Z 17017G22KT 10SM OVC070 04/M04 A2991 640 55 -400 180/17G22 RMK AO2 PK WND 18026/1922
14840KMKG MKG20071128144012111/28/07 14:40:31  5-MIN KMKG 281940Z 18014G24KT 10SM OVC070 05/M04 A2991 640 52 -300 180/14G24 RMK AO2 PK WND 18026/1922
14840KMKG MKG20071128144512111/28/07 14:45:31  5-MIN KMKG 281945Z 18015G24KT 10SM OVC065 05/M04 A2991 640 52 -300 180/15G24 RMK AO2 PK WND 18026/1922
14840KMKG MKG20071128145013911/28/07 14:50:31  5-MIN KMKG 281950Z 18016KT 10SM SCT055 OVC070 05/M03 A2990 650 55 -300 180/16 RMK AO2 PK WND 18026/1922 SLP134 T00501033
14840KMKG MKG20071128145514511/28/07 14:55:31  5-MIN KMKG 281955Z 18016G26KT 10SM BKN050 OVC070 05/M03 A2991 640 55 -300 190/16G26 RMK AO2 PK WND 18026/1951 SLP135 T00501033
14840KMKG MKG20071128150011011/28/07 15:00:31  5-MIN KMKG 282000Z 18016G26KT 10SM BKN050 OVC070 05/M03 A2990 650 55 -300 180/16G26 RMK AO2
14840KMKG MKG20071128150511011/28/07 15:05:31  5-MIN KMKG 282005Z 18016G22KT 10SM BKN050 OVC070 05/M03 A2990 650 55 -300 180/16G22 RMK AO2
14840KMKG MKG20071128151009711/28/07 15:10:31  5-MIN KMKG 282010Z 17014KT 10SM OVC050 05/M03 A2989 660 57 -300 180/14 RMK AO2
14840KMKG MKG20071128151511011/28/07 15:15:31  5-MIN KMKG 282015Z 18014G25KT 10SM OVC050 06/M03 A2988 660 55 -200 180/14G25 RMK AO2 PRESFR
14840KMKG MKG20071128152010311/28/07 15:20:31  5-MIN KMKG 282020Z 18014G25KT 10SM OVC050 06/M02 A2989 660 57 -200 180/14G25 RMK AO2
14840KMKG MKG20071128152510311/28/07 15:25:31  5-MIN KMKG 282025Z 18014G22KT 10SM OVC050 06/M02 A2989 660 57 -200 180/14G22 RMK AO2
14840KMKG MKG20071128153010311/28/07 15:30:31  5-MIN KMKG 282030Z 19013G22KT 10SM OVC050 06/M02 A2989 660 57 -200 190/13G22 RMK AO2
14840KMKG MKG20071128153510311/28/07 15:35:31  5-MIN KMKG 282035Z 19012G25KT 10SM OVC050 06/M02 A2988 660 57 -200 190/12G25 RMK AO2
14840KMKG MKG20071128154010311/28/07 15:40:31  5-MIN KMKG 282040Z 19015G25KT 10SM OVC050 06/M02 A2988 670 57 -200 190/15G25 RMK AO2
14840KMKG MKG20071128154510311/28/07 15:45:31  5-MIN KMKG 282045Z 19017G23KT 10SM OVC050 06/M02 A2988 670 57 -200 190/17G23 RMK AO2
14840KMKG MKG20071128155012611/28/07 15:50:31  5-MIN KMKG 282050Z 19016G23KT 10SM OVC050 06/M02 A2988 670 57 -200 200/16G23 RMK AO2 SLP125 T00611017 58051
14840KMKG MKG20071128155512611/28/07 15:55:31  5-MIN KMKG 282055Z 19013G24KT 10SM OVC048 06/M02 A2988 670 57 -200 190/13G24 RMK AO2 SLP124 T00611017 56041
14840KMKG MKG20071128160010311/28/07 16:00:31  5-MIN KMKG 282100Z 19015G24KT 10SM OVC048 06/M01 A2988 670 60 -100 190/15G24 RMK AO2
14840KMKG MKG20071128160510311/28/07 16:05:31  5-MIN KMKG 282105Z 18016G21KT 10SM OVC048 06/M01 A2987 670 60 -100 190/16G21 RMK AO2
14840KMKG MKG20071128161010311/28/07 16:10:31  5-MIN KMKG 282110Z 19015G23KT 10SM OVC048 06/M01 A2987 680 60 -100 190/15G23 RMK AO2
14840KMKG MKG20071128161510311/28/07 16:15:31  5-MIN KMKG 282115Z 19015G23KT 10SM OVC048 06/M01 A2987 680 62 -100 190/15G23 RMK AO2
14840KMKG MKG20071128162010311/28/07 16:20:31  5-MIN KMKG 282120Z 18013G22KT 10SM OVC048 06/M01 A2987 680 62 -100 190/13G22 RMK AO2
14840KMKG MKG20071128162510311/28/07 16:25:31  5-MIN KMKG 282125Z 18012G22KT 10SM OVC048 06/M01 A2987 680 62 -100 190/12G22 RMK AO2
14840KMKG MKG20071128163010311/28/07 16:30:31  5-MIN KMKG 282130Z 18012G20KT 10SM OVC048 06/M01 A2986 680 62 -100 190/12G20 RMK AO2
14840KMKG MKG20071128163510211/28/07 16:35:31  5-MIN KMKG 282135Z 18012G19KT 10SM OVC048 06/00 A2986 690 65 -100 190/12G19 RMK AO2
14840KMKG MKG20071128164010211/28/07 16:40:31  5-MIN KMKG 282140Z 20015G23KT 10SM OVC048 07/00 A2986 680 62 -100 200/15G23 RMK AO2
14840KMKG MKG20071128164510211/28/07 16:45:31  5-MIN KMKG 282145Z 19016G23KT 10SM OVC048 07/00 A2986 690 62 -100 190/16G23 RMK AO2
14840KMKG MKG20071128165011611/28/07 16:50:31  5-MIN KMKG 282150Z 19017G23KT 10SM OVC048 07/00 A2986 690 60 0 200/17G23 RMK AO2 SLP118 T00720000
14840KMKG MKG20071128165511611/28/07 16:55:31  5-MIN KMKG 282155Z 19014G23KT 10SM OVC046 07/00 A2985 690 60 0 200/14G23 RMK AO2 SLP116 T00720000
14840KMKG MKG20071128170013511/28/07 17:00:31  5-MIN KMKG 282200Z 20017G26KT 10SM -RA OVC046 07/01 A2985 690 62 0 200/17G26 RMK AO2 PK WND 20026/2158 RAB2156 P0000
14840KMKG MKG20071128170513511/28/07 17:05:31  5-MIN KMKG 282205Z 20013G26KT 10SM -RA OVC046 07/01 A2985 700 62 0 200/13G26 RMK AO2 PK WND 20026/2158 RAB2156 P0000
14840KMKG MKG20071128171013511/28/07 17:10:31  5-MIN KMKG 282210Z 20017G23KT 10SM -RA OVC046 07/01 A2984 700 62 0 200/17G23 RMK AO2 PK WND 20026/2158 RAB2156 P0000
14840KMKG MKG20071128171513511/28/07 17:15:31  5-MIN KMKG 282215Z 20014G23KT 10SM -RA OVC044 07/01 A2984 700 65 0 210/14G23 RMK AO2 PK WND 20026/2158 RAB2156 P0001
14840KMKG MKG20071128172013511/28/07 17:20:31  5-MIN KMKG 282220Z 19015G22KT 10SM -RA OVC044 07/01 A2984 700 65 0 200/15G22 RMK AO2 PK WND 20026/2158 RAB2156 P0001
14840KMKG MKG20071128172513511/28/07 17:25:31  5-MIN KMKG 282225Z 20014G22KT 10SM -RA OVC042 07/02 A2985 700 68 0 200/14G22 RMK AO2 PK WND 20026/2158 RAB2156 P0001
14840KMKG MKG20071128173013811/28/07 17:30:31  5-MIN KMKG 282230Z 20015G21KT 10SM -RA OVC040 07/02 A2985 700 70 -100 210/15G21 RMK AO2 PK WND 20026/2158 RAB2156 P0001
14840KMKG MKG20071128173514211/28/07 17:35:31  5-MIN KMKG 282235Z 21016G24KT 10SM -RA BKN036 OVC043 07/02 A2985 700 70 0 210/16G24 RMK AO2 PK WND 20026/2158 RAB2156 P0001
14840KMKG MKG20071128174014211/28/07 17:40:31  5-MIN KMKG 282240Z 20015G24KT 10SM -RA BKN036 OVC043 07/02 A2984 700 73 0 210/15G24 RMK AO2 PK WND 20026/2158 RAB2156 P0002
14840KMKG MKG20071128174513411/28/07 17:45:31  5-MIN KMKG 282245Z 22018G25KT 9SM -RA OVC036 07/02 A2984 700 73 0 230/18G25 RMK AO2 PK WND 20026/2158 RAB2156 P0002
14840KMKG MKG20071128175015411/28/07 17:50:31  5-MIN KMKG 282250Z 22020G27KT 9SM -RA OVC036 07/03 A2985 690 76 -100 230/20G27 RMK AO2 PK WND 20027/2249 RAB2156 SLP116 P0002 T00670028
14840KMKG MKG20071128175515111/28/07 17:55:31  5-MIN KMKG 282255Z 23020G27KT 9SM -RA OVC036 07/02 A2984 710 73 0 230/20G27 RMK AO2 PK WND 24027/2255 RAB2156 SLP112 P0002 T00670022
14840KMKG MKG20071128180010811/28/07 18:00:31  5-MIN KMKG 282300Z 23018G27KT 9SM -RA OVC036 07/02 A2984 700 73 0 230/18G27 RMK AO2 P0000
14840KMKG MKG20071128180512611/28/07 18:05:31  5-MIN KMKG 282305Z 23015G26KT 8SM -RA OVC036 07/02 A2984 700 73 0 240/15G26 RMK AO2 PK WND 22026/2301 P0001
14840KMKG MKG20071128181012711/28/07 18:10:31  5-MIN KMKG 282310Z 22019G26KT 10SM -RA OVC036 07/02 A2984 710 73 0 220/19G26 RMK AO2 PK WND 22026/2308 P0001
14840KMKG MKG20071128181512711/28/07 18:15:31  5-MIN KMKG 282315Z 23017G26KT 10SM -RA OVC037 07/02 A2984 700 73 0 230/17G26 RMK AO2 PK WND 22026/2308 P0001
14840KMKG MKG20071128182013411/28/07 18:20:31  5-MIN KMKG 282320Z 22015G24KT 10SM -RA BKN034 OVC042 07/02 A2984 710 73 0 230/15G24 RMK AO2 PK WND 22026/2308 P0001
14840KMKG MKG20071128182512711/28/07 18:25:31  5-MIN KMKG 282325Z 23016G23KT 10SM -RA OVC037 07/02 A2984 710 73 0 240/16G23 RMK AO2 PK WND 22026/2308 P0001
14840KMKG MKG20071128183012711/28/07 18:30:31  5-MIN KMKG 282330Z 22012G20KT 10SM -RA OVC037 07/02 A2983 710 70 0 230/12G20 RMK AO2 PK WND 22026/2308 P0001
14840KMKG MKG20071128183513411/28/07 18:35:31  5-MIN KMKG 282335Z 22015G25KT 10SM -RA BKN039 OVC047 07/02 A2983 720 73 0 230/15G25 RMK AO2 PK WND 22026/2308 P0001
14840KMKG MKG20071129043512311/29/07 04:35:31  5-MIN KMKG 290935Z 26014G27KT 10SM OVC029 M02/M08 A2992 630 60 -1200 270/14G27 RMK AO2 PK WND 27027/0930
14840KMKG MKG20071129044012311/29/07 04:40:31  5-MIN KMKG 290940Z 28013G25KT 10SM OVC031 M01/M08 A2992 630 58 -1100 280/13G25 RMK AO2 PK WND 27027/0930
14840KMKG MKG20071129044512311/29/07 04:45:31  5-MIN KMKG 290945Z 28012G25KT 10SM OVC031 M01/M08 A2992 630 58 -1100 280/12G25 RMK AO2 PK WND 27027/0930
14840KMKG MKG20071129045013411/29/07 04:50:31  5-MIN KMKG 290950Z 27012KT 10SM OVC031 M01/M08 A2992 630 58 -1100 280/12 RMK AO2 PK WND 27027/0930 SLP136 T10111083
14840KMKG MKG20071129045514011/29/07 04:55:31  5-MIN KMKG 290955Z 27015G22KT 10SM OVC031 M01/M08 A2992 630 58 -1100 270/15G22 RMK AO2 PK WND 27027/0930 SLP138 T10111083
14840KMKG MKG20071129050010511/29/07 05:00:31  5-MIN KMKG 291000Z 27014G22KT 10SM OVC031 M01/M08 A2993 620 58 -1100 280/14G22 RMK AO2
14840KMKG MKG20071129050510511/29/07 05:05:31  5-MIN KMKG 291005Z 26016G21KT 10SM OVC031 M01/M08 A2993 620 58 -1100 270/16G21 RMK AO2
14840KMKG MKG20071129051010511/29/07 05:10:31  5-MIN KMKG 291010Z 27019G25KT 10SM OVC031 M01/M08 A2993 620 58 -1100 270/19G25 RMK AO2
14840KMKG MKG20071129051512311/29/07 05:15:31  5-MIN KMKG 291015Z 26014G29KT 10SM OVC033 M02/M09 A2993 620 58 -1200 260/14G29 RMK AO2 PK WND 27029/1011
14840KMKG MKG20071129052012311/29/07 05:20:31  5-MIN KMKG 291020Z 26017G29KT 10SM OVC033 M02/M09 A2993 620 58 -1200 270/17G29 RMK AO2 PK WND 27029/1011
14840KMKG MKG20071129052512311/29/07 05:25:31  5-MIN KMKG 291025Z 27016G28KT 10SM OVC033 M02/M09 A2993 620 58 -1200 270/16G28 RMK AO2 PK WND 27029/1011
14840KMKG MKG20071129053012311/29/07 05:30:31  5-MIN KMKG 291030Z 27018G25KT 10SM OVC033 M02/M09 A2994 620 58 -1200 280/18G25 RMK AO2 PK WND 27029/1011
14840KMKG MKG20071129053512311/29/07 05:35:31  5-MIN KMKG 291035Z 27018G25KT 10SM OVC033 M02/M09 A2994 620 55 -1200 280/18G25 RMK AO2 PK WND 27029/1011
14840KMKG MKG20071129054012311/29/07 05:40:31  5-MIN KMKG 291040Z 26012G25KT 10SM OVC033 M02/M09 A2994 610 58 -1300 270/12G25 RMK AO2 PK WND 27029/1011
14840KMKG MKG20071129054512311/29/07 05:45:31  5-MIN KMKG 291045Z 26015G23KT 10SM OVC033 M02/M09 A2994 610 55 -1200 270/15G23 RMK AO2 PK WND 27029/1011
14840KMKG MKG20071129055014011/29/07 05:50:31  5-MIN KMKG 291050Z 26018G24KT 10SM OVC033 M02/M09 A2995 610 58 -1300 260/18G24 RMK AO2 PK WND 27029/1011 SLP147 T10221094
14840KMKG MKG20071129055514011/29/07 05:55:31  5-MIN KMKG 291055Z 27014G27KT 10SM OVC033 M02/M09 A2995 600 60 -1300 270/14G27 RMK AO2 PK WND 27029/1011 SLP148 T10221089
14840KMKG MKG20071129060010511/29/07 06:00:31  5-MIN KMKG 291100Z 27015G27KT 10SM OVC031 M02/M09 A2995 600 60 -1300 280/15G27 RMK AO2
14840KMKG MKG20071129060512311/29/07 06:05:31  5-MIN KMKG 291105Z 27019G26KT 10SM OVC031 M03/M09 A2996 590 63 -1400 270/19G26 RMK AO2 PK WND 28026/1101
14840KMKG MKG20071129061012311/29/07 06:10:31  5-MIN KMKG 291110Z 27016G28KT 10SM OVC031 M03/M09 A2996 590 63 -1400 280/16G28 RMK AO2 PK WND 28028/1106
14840KMKG MKG20071129061513011/29/07 06:15:31  5-MIN KMKG 291115Z 27015G29KT 10SM BKN028 OVC033 M03/M09 A2997 590 63 -1400 280/15G29 RMK AO2 PK WND 28029/1111
14840KMKG MKG20071129062013011/29/07 06:20:31  5-MIN KMKG 291120Z 28013G29KT 10SM BKN026 OVC032 M03/M09 A2997 580 63 -1400 280/13G29 RMK AO2 PK WND 28029/1111
14840KMKG MKG20071129062512311/29/07 06:25:31  5-MIN KMKG 291125Z 28018G27KT 10SM OVC026 M03/M09 A2998 580 63 -1400 290/18G27 RMK AO2 PK WND 28029/1111
14840KMKG MKG20071129063012311/29/07 06:30:31  5-MIN KMKG 291130Z 27017G27KT 10SM OVC026 M03/M09 A2998 570 63 -1400 280/17G27 RMK AO2 PK WND 28029/1111
14840KMKG MKG20071129063513011/29/07 06:35:31  5-MIN KMKG 291135Z 28022G31KT 10SM BKN026 OVC034 M03/M09 A2999 570 63 -1500 280/22G31 RMK AO2 PK WND 28031/1131
14840KMKG MKG20071129064013011/29/07 06:40:31  5-MIN KMKG 291140Z 27020G31KT 10SM BKN028 OVC034 M03/M10 A2999 570 60 -1500 280/20G31 RMK AO2 PK WND 29031/1138
14840KMKG MKG20071129064513011/29/07 06:45:31  5-MIN KMKG 291145Z 27021G31KT 10SM BKN028 OVC034 M03/M11 A2999 560 57 -1500 280/21G31 RMK AO2 PK WND 29031/1145
14840KMKG MKG20071129065012311/29/07 06:50:31  5-MIN KMKG 291150Z 27021G31KT 10SM OVC030 M03/M10 A3000 560 60 -1500 270/21G31 RMK AO2 PK WND 29031/1145
14840KMKG MKG20071129065516411/29/07 06:55:31  5-MIN KMKG 291155Z 27018G28KT 10SM OVC030 M03/M11 A3000 560 57 -1500 270/18G28 RMK AO2 PK WND 29031/1145 SLP165 70006 T10331106 10017 21033 51025
14840KMKG MKG20071129070012311/29/07 07:00:31  5-MIN KMKG 291200Z 27017G28KT 10SM OVC030 M04/M11 A3000 560 60 -1500 270/17G28 RMK AO2 PK WND 27026/1200
14840KMKG MKG20071129070512311/29/07 07:05:31  5-MIN KMKG 291205Z 28020G28KT 10SM OVC030 M04/M11 A3000 550 60 -1500 290/20G28 RMK AO2 PK WND 27028/1204
14840KMKG MKG20071129071013011/29/07 07:10:31  5-MIN KMKG 291210Z 28020G28KT 10SM BKN030 OVC036 M04/M11 A3001 550 60 -1600 280/20G28 RMK AO2 PK WND 27028/1204
14840KMKG MKG20071129071513011/29/07 07:15:31  5-MIN KMKG 291215Z 28018G30KT 10SM BKN030 OVC037 M04/M11 A3001 550 60 -1600 280/18G30 RMK AO2 PK WND 28030/1211
14840KMKG MKG20071129072013011/29/07 07:20:31  5-MIN KMKG 291220Z 28017G30KT 10SM BKN030 OVC037 M04/M11 A3001 550 60 -1600 280/17G30 RMK AO2 PK WND 28030/1211
14840KMKG MKG20071129072513011/29/07 07:25:31  5-MIN KMKG 291225Z 28017G29KT 10SM BKN028 OVC035 M04/M10 A3002 540 63 -1600 290/17G29 RMK AO2 PK WND 28030/1211
14840KMKG MKG20071129073013011/29/07 07:30:31  5-MIN KMKG 291230Z 28017G29KT 10SM BKN028 OVC035 M04/M11 A3002 540 60 -1600 290/17G29 RMK AO2 PK WND 28030/1211
14840KMKG MKG20071129073513011/29/07 07:35:31  5-MIN KMKG 291235Z 29021G27KT 10SM BKN028 OVC037 M04/M11 A3002 530 60 -1600 290/21G27 RMK AO2 PK WND 28030/1211
14840KMKG MKG20071129074013011/29/07 07:40:31  5-MIN KMKG 291240Z 28019G27KT 10SM BKN028 OVC037 M04/M11 A3003 530 60 -1600 280/19G27 RMK AO2 PK WND 28030/1211
14840KMKG MKG20071129074513011/29/07 07:45:31  5-MIN KMKG 291245Z 28017G31KT 10SM BKN028 OVC035 M04/M11 A3003 530 60 -1600 280/17G31 RMK AO2 PK WND 28031/1243
14840KMKG MKG20071129075012311/29/07 07:50:31  5-MIN KMKG 291250Z 28019G31KT 10SM OVC030 M04/M11 A3003 530 60 -1600 280/19G31 RMK AO2 PK WND 28031/1243
14840KMKG MKG20071129075514011/29/07 07:55:31  5-MIN KMKG 291255Z 28018G28KT 10SM OVC030 M04/M11 A3003 530 60 -1600 280/18G28 RMK AO2 PK WND 28031/1243 SLP175 T10391106
14840KMKG MKG20071129080012311/29/07 08:00:31  5-MIN KMKG 291300Z 28018G29KT 10SM OVC030 M04/M11 A3003 530 60 -1600 280/18G29 RMK AO2 PK WND 29029/1257
14840KMKG MKG20071129080512311/29/07 08:05:31  5-MIN KMKG 291305Z 28020G29KT 10SM OVC028 M04/M11 A3003 530 57 -1600 290/20G29 RMK AO2 PK WND 29029/1257
14840KMKG MKG20071129081013011/29/07 08:10:31  5-MIN KMKG 291310Z 28016G30KT 10SM BKN028 OVC034 M04/M11 A3003 530 60 -1600 290/16G30 RMK AO2 PK WND 29030/1309
14840KMKG MKG20071129081512311/29/07 08:15:31  5-MIN KMKG 291315Z 28022G30KT 10SM OVC028 M04/M11 A3003 530 60 -1600 280/22G30 RMK AO2 PK WND 29030/1309
14840KMKG MKG20071129082012311/29/07 08:20:31  5-MIN KMKG 291320Z 28012G29KT 10SM OVC026 M04/M10 A3005 520 63 -1600 290/12G29 RMK AO2 PK WND 29030/1309
14840KMKG MKG20071129082513011/29/07 08:25:31  5-MIN KMKG 291325Z 28015G25KT 10SM OVC026 M04/M10 A3005 510 63 -1600 280/15G25 RMK AO2 PK WND 29030/1309 PRESRR
14840KMKG MKG20071129083012311/29/07 08:30:31  5-MIN KMKG 291330Z 28014G22KT 10SM OVC026 M04/M10 A3005 510 65 -1700 280/14G22 RMK AO2 PK WND 29030/1309
14840KMKG MKG20071129083513011/29/07 08:35:31  5-MIN KMKG 291335Z 28019G26KT 10SM BKN026 OVC032 M04/M11 A3005 510 60 -1700 280/19G26 RMK AO2 PK WND 29030/1309
14840KMKG MKG20071129084014511/29/07 08:40:31  5-MIN KMKG 291340Z 27020G29KT 10SM UP BKN026 OVC032 M04/M11 A3005 510 62 -1700 280/20G29 RMK AO2 PK WND 29030/1309 UPB40 P0000
14840KMKG MKG20071129084513911/29/07 08:45:31  5-MIN KMKG 291345Z 28020G31KT 10SM -SN OVC026 M04/M11 A3006 500 62 -1700 280/20G31 RMK AO2 PK WND 29031/1344 SNB40 P0000
14840KMKG MKG20071129085015511/29/07 08:50:31  5-MIN KMKG 291350Z 27022G31KT 9SM -SN OVC029 M04/M11 A3007 500 60 -1700 280/22G31 RMK AO2 PK WND 29031/1344 SLP188 SNB40 P0000 T10441111
14840KMKG MKG20071129085515511/29/07 08:55:31  5-MIN KMKG 291355Z 28019G27KT 9SM -SN OVC029 M04/M11 A3006 500 60 -1700 290/19G27 RMK AO2 PK WND 29031/1344 SLP187 SNB40 P0000 T10441111
14840KMKG MKG20071129090013211/29/07 09:00:31  5-MIN KMKG 291400Z 28020G29KT 9SM -SN OVC029 M04/M12 A3007 490 57 -1700 290/20G29 RMK AO2 PK WND 28029/1358 P0000
14840KMKG MKG20071129090513911/29/07 09:05:31  5-MIN KMKG 291405Z 28014G29KT 9SM -SN BKN029 OVC033 M05/M12 A3007 490 60 -1800 280/14G29 RMK AO2 PK WND 28029/1358 P0000
14840KMKG MKG20071129091013911/29/07 09:10:31  5-MIN KMKG 291410Z 28020G27KT 9SM -SN BKN029 OVC033 M04/M11 A3007 490 60 -1700 280/20G27 RMK AO2 PK WND 28029/1358 P0000
14840KMKG MKG20071129091513911/29/07 09:15:31  5-MIN KMKG 291415Z 27015G27KT 9SM -SN BKN027 OVC033 M04/M11 A3008 480 62 -1700 280/15G27 RMK AO2 PK WND 28029/1358 P0000
14840KMKG MKG20071129092013911/29/07 09:20:31  5-MIN KMKG 291420Z 27011G26KT 8SM -SN BKN025 OVC033 M04/M10 A3008 480 65 -1700 270/11G26 RMK AO2 PK WND 28029/1358 P0000
14840KMKG MKG20071129092513911/29/07 09:25:31  5-MIN KMKG 291425Z 27015G22KT 7SM -SN BKN023 OVC032 M04/M09 A3008 480 68 -1700 270/15G22 RMK AO2 PK WND 28029/1358 P0000
14840KMKG MKG20071129093013911/29/07 09:30:31  5-MIN KMKG 291430Z 28016G24KT 7SM -SN BKN023 OVC029 M04/M09 A3008 480 68 -1700 280/16G24 RMK AO2 PK WND 28029/1358 P0000
14840KMKG MKG20071129093513911/29/07 09:35:31  5-MIN KMKG 291435Z 29017G27KT 9SM -SN BKN023 OVC029 M04/M10 A3008 480 65 -1700 300/17G27 RMK AO2 PK WND 28029/1358 P0000
14840KMKG MKG20071129094013211/29/07 09:40:31  5-MIN KMKG 291440Z 29020G27KT 9SM -SN OVC023 M04/M11 A3009 480 62 -1700 290/20G27 RMK AO2 PK WND 28029/1358 P0000
14840KMKG MKG20071129094513211/29/07 09:45:31  5-MIN KMKG 291445Z 27019G27KT 9SM -SN OVC023 M05/M11 A3009 480 65 -1800 280/19G27 RMK AO2 PK WND 28029/1358 P0000
14840KMKG MKG20071129095016111/29/07 09:50:31  5-MIN KMKG 291450Z 27017G29KT 9SM -SN OVC023 M05/M11 A3009 470 65 -1800 280/17G29 RMK AO2 PK WND 26029/1446 SLP198 P0000 60000 T10501106 51025
14840KMKG MKG20071129095516111/29/07 09:55:31  5-MIN KMKG 291455Z 28020G29KT 9SM -SN OVC023 M05/M11 A3009 470 65 -1800 290/20G29 RMK AO2 PK WND 29029/1453 SLP198 P0000 60000 T10501106 53032
14840KMKG MKG20071129100011411/29/07 10:00:31  5-MIN KMKG 291500Z 28017G29KT 9SM -SN OVC023 M05/M11 A3010 470 65 -1800 280/17G29 RMK AO2 P0000
14840KMKG MKG20071129100513211/29/07 10:05:31  5-MIN KMKG 291505Z 27019G32KT 8SM -SN OVC025 M05/M11 A3010 460 62 -1800 280/19G32 RMK AO2 PK WND 29032/1504 P0000
14840KMKG MKG20071129101013211/29/07 10:10:31  5-MIN KMKG 291510Z 27020G32KT 7SM -SN OVC025 M05/M11 A3010 460 62 -1800 280/20G32 RMK AO2 PK WND 29032/1504 P0000
14840KMKG MKG20071129101513211/29/07 10:15:31  5-MIN KMKG 291515Z 27020G29KT 7SM -SN OVC025 M05/M11 A3010 460 62 -1800 280/20G29 RMK AO2 PK WND 29032/1504 P0000
14840KMKG MKG20071129102013211/29/07 10:20:31  5-MIN KMKG 291520Z 27017G27KT 8SM -SN OVC025 M05/M11 A3011 460 65 -1800 280/17G27 RMK AO2 PK WND 29032/1504 P0000
14840KMKG MKG20071129102513911/29/07 10:25:31  5-MIN KMKG 291525Z 28015G26KT 9SM -SN BKN025 OVC030 M05/M11 A3011 450 65 -1800 290/15G26 RMK AO2 PK WND 29032/1504 P0000
14840KMKG MKG20071129103013211/29/07 10:30:31  5-MIN KMKG 291530Z 29017G26KT 8SM -SN OVC028 M05/M11 A3011 450 62 -1800 290/17G26 RMK AO2 PK WND 29032/1504 P0000
14840KMKG MKG20071129103513211/29/07 10:35:31  5-MIN KMKG 291535Z 28017G26KT 8SM -SN OVC028 M05/M12 A3012 450 60 -1800 280/17G26 RMK AO2 PK WND 29032/1504 P0000
14840KMKG MKG20071129104013211/29/07 10:40:31  5-MIN KMKG 291540Z 28017G27KT 9SM -SN OVC029 M05/M11 A3012 450 62 -1800 290/17G27 RMK AO2 PK WND 29032/1504 P0000
14840KMKG MKG20071129104513211/29/07 10:45:31  5-MIN KMKG 291545Z 27017G27KT 9SM -SN OVC028 M05/M11 A3012 440 62 -1800 270/17G27 RMK AO2 PK WND 29032/1504 P0000
14840KMKG MKG20071129105015611/29/07 10:50:31  5-MIN KMKG 291550Z 27019G27KT 8SM -SN BKN028 OVC033 M05/M11 A3013 440 62 -1800 280/19G27 RMK AO2 PK WND 29032/1504 SLP209 P0000 T10501111
14840KMKG MKG20071129105514911/29/07 10:55:31  5-MIN KMKG 291555Z 28016G27KT 8SM -SN OVC030 M05/M11 A3013 440 62 -1800 280/16G27 RMK AO2 PK WND 29032/1504 SLP210 P0000 T10501111
14840KMKG MKG20071129110011411/29/07 11:00:31  5-MIN KMKG 291600Z 28016G25KT 9SM -SN OVC030 M05/M12 A3013 430 60 -1800 280/16G25 RMK AO2 P0000
14840KMKG MKG20071129110511411/29/07 11:05:31  5-MIN KMKG 291605Z 28015G23KT 8SM -SN OVC030 M05/M12 A3013 430 60 -1800 290/15G23 RMK AO2 P0000
14840KMKG MKG20071129111012111/29/07 11:10:31  5-MIN KMKG 291610Z 29018G23KT 7SM -SN BKN028 OVC033 M05/M11 A3013 430 62 -1800 290/18G23 RMK AO2 P0000
14840KMKG MKG20071129111512111/29/07 11:15:31  5-MIN KMKG 291615Z 28015G23KT 7SM -SN BKN026 OVC033 M05/M12 A3014 430 60 -1800 290/15G23 RMK AO2 P0000
14840KMKG MKG20071129112012111/29/07 11:20:31  5-MIN KMKG 291620Z 29019G24KT 6SM -SN BKN028 OVC033 M05/M11 A3014 430 62 -1800 300/19G24 RMK AO2 P0000
14840KMKG MKG20071129112511411/29/07 11:25:31  5-MIN KMKG 291625Z 27015G24KT 6SM -SN OVC030 M05/M11 A3014 430 62 -1800 280/15G24 RMK AO2 P0000
14840KMKG MKG20071129113013211/29/07 11:30:31  5-MIN KMKG 291630Z 28019G29KT 7SM -SN OVC028 M05/M11 A3014 430 62 -1900 290/19G29 RMK AO2 PK WND 27029/1628 P0000
14840KMKG MKG20071129113513911/29/07 11:35:31  5-MIN KMKG 291635Z 27016G29KT 7SM -SN BKN028 OVC036 M05/M11 A3014 420 62 -1900 280/16G29 RMK AO2 PK WND 27029/1628 P0000
14840KMKG MKG20071129114013911/29/07 11:40:31  5-MIN KMKG 291640Z 28012G22KT 9SM -SN BKN028 OVC036 M05/M11 A3015 420 62 -1900 280/12G22 RMK AO2 PK WND 27029/1628 P0000
14840KMKG MKG20071129114513911/29/07 11:45:31  5-MIN KMKG 291645Z 29019G24KT 9SM -SN BKN028 OVC035 M05/M11 A3015 420 62 -1900 290/19G24 RMK AO2 PK WND 27029/1628 P0000
14840KMKG MKG20071129115015611/29/07 11:50:31  5-MIN KMKG 291650Z 27018G27KT 9SM -SN BKN028 OVC035 M05/M12 A3015 420 60 -1900 280/18G27 RMK AO2 PK WND 27029/1628 SLP216 P0000 T10501117
14840KMKG MKG20071129115515611/29/07 11:55:31  5-MIN KMKG 291655Z 28017G27KT 8SM -SN BKN028 OVC035 M05/M12 A3015 420 60 -1900 290/17G27 RMK AO2 PK WND 27029/1628 SLP217 P0000 T10501117
14840KMKG MKG20071129120011411/29/07 12:00:31  5-MIN KMKG 291700Z 28015G23KT 8SM -SN OVC030 M05/M11 A3014 420 62 -1900 290/15G23 RMK AO2 P0000
14840KMKG MKG20071129120511411/29/07 12:05:31  5-MIN KMKG 291705Z 29016G22KT 9SM -SN OVC030 M05/M12 A3014 420 57 -1900 300/16G22 RMK AO2 P0000
14840KMKG MKG20071129121012111/29/07 12:10:31  5-MIN KMKG 291710Z 27016G22KT 7SM -SN BKN031 OVC038 M05/M12 A3014 420 60 -1900 280/16G22 RMK AO2 P0000
14840KMKG MKG20071129121513611/29/07 12:15:31  5-MIN KMKG 291715Z 29016G22KT 7SM -SN SCT026 OVC033 M05/M11 A3014 420 62 -1900 290/16G22 RMK AO2 CIG 028 RWY 14 P0000
14840KMKG MKG20071129122012111/29/07 12:20:31  5-MIN KMKG 291720Z 29015G22KT 9SM -SN BKN029 OVC033 M05/M12 A3014 420 60 -1900 290/15G22 RMK AO2 P0000
14840KMKG MKG20071129122512111/29/07 12:25:31  5-MIN KMKG 291725Z 27016G22KT 9SM -SN BKN028 OVC033 M05/M12 A3014 430 60 -1800 280/16G22 RMK AO2 P0000
14840KMKG MKG20071129123012111/29/07 12:30:31  5-MIN KMKG 291730Z 27014G22KT 8SM -SN BKN028 OVC033 M05/M11 A3014 430 62 -1800 280/14G22 RMK AO2 P0000
14840KMKG MKG20071129123513911/29/07 12:35:31  5-MIN KMKG 291735Z 28015G26KT 8SM -SN BKN028 OVC033 M05/M12 A3013 440 60 -1800 280/15G26 RMK AO2 PK WND 28026/1731 P0000
14840KMKG MKG20071129124013211/29/07 12:40:31  5-MIN KMKG 291740Z 28016G26KT 8SM -SN OVC028 M05/M11 A3013 430 62 -1800 280/16G26 RMK AO2 PK WND 28026/1731 P0000
14840KMKG MKG20071129124513211/29/07 12:45:31  5-MIN KMKG 291745Z 28014G21KT 8SM -SN OVC028 M04/M11 A3014 430 60 -1800 290/14G21 RMK AO2 PK WND 28026/1731 P0000
14840KMKG MKG20071129125013211/29/07 12:50:31  5-MIN KMKG 291750Z 28015G21KT 9SM -SN OVC030 M04/M11 A3013 440 60 -1800 280/15G21 RMK AO2 PK WND 28026/1731 P0000
14840KMKG MKG20071129125518011/29/07 12:55:31  5-MIN KMKG 291755Z 27014G21KT 9SM -SN BKN028 OVC034 M04/M11 A3013 430 60 -1800 280/14G21 RMK AO2 PK WND 28026/1731 SLP213 P0000 60000 T10441111 11039 21050 50013
14840KMKG MKG20071129130011411/29/07 13:00:31  5-MIN KMKG 291800Z 29014G23KT 9SM -SN OVC030 M04/M12 A3014 430 57 -1800 290/14G23 RMK AO2 P0000
14840KMKG MKG20071129130511411/29/07 13:05:31  5-MIN KMKG 291805Z 28012G23KT 9SM -SN OVC030 M04/M11 A3013 430 60 -1800 280/12G23 RMK AO2 P0000
14840KMKG MKG20071129131012111/29/07 13:10:31  5-MIN KMKG 291810Z 27011G18KT 9SM -SN BKN028 OVC035 M04/M11 A3014 430 60 -1800 280/11G18 RMK AO2 P0000
14840KMKG MKG20071129131512111/29/07 13:15:31  5-MIN KMKG 291815Z 27017G23KT 9SM -SN BKN028 OVC036 M04/M11 A3014 430 60 -1800 280/17G23 RMK AO2 P0000
14840KMKG MKG20071129132012111/29/07 13:20:31  5-MIN KMKG 291820Z 27013G23KT 9SM -SN BKN026 OVC032 M04/M11 A3015 420 60 -1800 280/13G23 RMK AO2 P0000
14840KMKG MKG20071129132512111/29/07 13:25:31  5-MIN KMKG 291825Z 28014G22KT 9SM -SN BKN028 OVC033 M04/M11 A3014 420 60 -1800 280/14G22 RMK AO2 P0000
14840KMKG MKG20071129133012111/29/07 13:30:31  5-MIN KMKG 291830Z 28014G22KT 9SM -SN BKN028 OVC034 M04/M11 A3014 420 60 -1800 280/14G22 RMK AO2 P0000
14840KMKG MKG20071129133512111/29/07 13:35:31  5-MIN KMKG 291835Z 28015G21KT 9SM -SN BKN028 OVC034 M04/M11 A3014 420 60 -1800 290/15G21 RMK AO2 P0000
14840KMKG MKG20071129134012111/29/07 13:40:31  5-MIN KMKG 291840Z 28012G21KT 9SM -SN BKN028 OVC034 M04/M11 A3014 420 60 -1800 280/12G21 RMK AO2 P0000
14840KMKG MKG20071129134511411/29/07 13:45:31  5-MIN KMKG 291845Z 27013G19KT 9SM -SN OVC028 M04/M11 A3014 420 60 -1800 280/13G19 RMK AO2 P0000
14840KMKG MKG20071129135013111/29/07 13:50:31  5-MIN KMKG 291850Z 28013G21KT 9SM -SN OVC028 M04/M11 A3015 420 60 -1800 290/13G21 RMK AO2 SLP217 P0000 T10441111
14840KMKG MKG20071129135513811/29/07 13:55:31  5-MIN KMKG 291855Z 28012G21KT 9SM -SN BKN028 OVC036 M04/M11 A3015 420 57 -1700 280/12G21 RMK AO2 SLP218 P0000 T10391111
14840KMKG MKG20071129140011511/29/07 14:00:31  5-MIN KMKG 291900Z 27011KT 9SM -SN BKN028 OVC036 M04/M11 A3014 420 60 -1800 280/11 RMK AO2 P0000
14840KMKG MKG20071129140512111/29/07 14:05:31  5-MIN KMKG 291905Z 27013G20KT 9SM -SN BKN028 OVC036 M04/M11 A3015 420 57 -1700 280/13G20 RMK AO2 P0000
14840KMKG MKG20071129141012311/29/07 14:10:31  5-MIN KMKG 291910Z 28012G20KT 9SM BKN028 OVC036 M04/M11 A3015 420 57 -1700 290/12G20 RMK AO2 SNE09 P0000
14840KMKG MKG20071129141512411/29/07 14:15:31  5-MIN KMKG 291915Z 28015G19KT 10SM BKN030 OVC036 M04/M11 A3015 420 60 -1700 280/15G19 RMK AO2 SNE09 P0000
14840KMKG MKG20071129142012411/29/07 14:20:31  5-MIN KMKG 291920Z 28015G22KT 10SM BKN030 OVC036 M04/M11 A3015 420 57 -1700 290/15G22 RMK AO2 SNE09 P0000
14840KMKG MKG20071129142512411/29/07 14:25:31  5-MIN KMKG 291925Z 28012G22KT 10SM BKN028 OVC036 M03/M11 A3015 420 57 -1600 280/12G22 RMK AO2 SNE09 P0000
14840KMKG MKG20071129143011711/29/07 14:30:31  5-MIN KMKG 291930Z 27015G23KT 10SM OVC028 M03/M11 A3015 420 55 -1600 280/15G23 RMK AO2 SNE09 P0000
14840KMKG MKG20071129143512411/29/07 14:35:31  5-MIN KMKG 291935Z 27014G23KT 10SM BKN028 OVC036 M03/M11 A3015 420 55 -1600 280/14G23 RMK AO2 SNE09 P0000
14840KMKG MKG20071129144012411/29/07 14:40:31  5-MIN KMKG 291940Z 28016G22KT 10SM BKN028 OVC035 M03/M11 A3015 420 55 -1600 290/16G22 RMK AO2 SNE09 P0000
14840KMKG MKG20071129144512411/29/07 14:45:31  5-MIN KMKG 291945Z 28015G23KT 10SM BKN028 BKN035 M03/M11 A3015 420 55 -1600 280/15G23 RMK AO2 SNE09 P0000
14840KMKG MKG20071129145011711/29/07 14:50:31  5-MIN KMKG 291950Z 26016G23KT 10SM BKN030 M04/M11 A3016 410 57 -1700 270/16G23 RMK AO2 SNE09 P0000
14840KMKG MKG20071129145513411/29/07 14:55:31  5-MIN KMKG 291955Z 26015G20KT 10SM BKN030 M04/M11 A3016 410 57 -1700 270/15G20 RMK AO2 SNE09 SLP222 P0000 T10391111
14840KMKG MKG20071129150010511/29/07 15:00:31  5-MIN KMKG 292000Z 26014G23KT 10SM BKN030 M04/M11 A3016 410 57 -1700 260/14G23 RMK AO2
14840KMKG MKG20071129150510511/29/07 15:05:31  5-MIN KMKG 292005Z 27016G23KT 10SM BKN030 M03/M11 A3016 410 55 -1700 280/16G23 RMK AO2
14840KMKG MKG20071129151010511/29/07 15:10:31  5-MIN KMKG 292010Z 27017G22KT 10SM BKN032 M03/M11 A3016 410 55 -1700 270/17G22 RMK AO2
14840KMKG MKG20071129151510511/29/07 15:15:31  5-MIN KMKG 292015Z 27017G25KT 10SM BKN032 M03/M12 A3016 410 53 -1700 280/17G25 RMK AO2
14840KMKG MKG20071129152010511/29/07 15:20:31  5-MIN KMKG 292020Z 28015G25KT 10SM BKN034 M03/M12 A3017 400 53 -1700 280/15G25 RMK AO2
14840KMKG MKG20071129152510511/29/07 15:25:31  5-MIN KMKG 292025Z 27014G24KT 10SM BKN034 M03/M12 A3016 410 53 -1700 270/14G24 RMK AO2
14840KMKG MKG20071129153010511/29/07 15:30:31  5-MIN KMKG 292030Z 28013G22KT 10SM BKN034 M03/M12 A3016 410 53 -1700 280/13G22 RMK AO2
14840KMKG MKG20071129153510511/29/07 15:35:31  5-MIN KMKG 292035Z 27015G22KT 10SM BKN034 M03/M12 A3016 400 53 -1700 270/15G22 RMK AO2
14840KMKG MKG20071129154010511/29/07 15:40:31  5-MIN KMKG 292040Z 28013G22KT 10SM BKN034 M03/M11 A3017 400 55 -1700 280/13G22 RMK AO2
14840KMKG MKG20071129154510511/29/07 15:45:31  5-MIN KMKG 292045Z 27015G23KT 10SM BKN034 M03/M11 A3017 400 55 -1700 280/15G23 RMK AO2
14840KMKG MKG20071129155013411/29/07 15:50:31  5-MIN KMKG 292050Z 27013G23KT 10SM BKN034 M03/M12 A3017 400 53 -1700 280/13G23 RMK AO2 SLP225 60000 T10331117 50013
14840KMKG MKG20071129155514111/29/07 15:55:31  5-MIN KMKG 292055Z 28015G21KT 10SM BKN034 BKN042 M03/M12 A3018 390 53 -1700 280/15G21 RMK AO2 SLP227 60000 T10331117 53009
14840KMKG MKG20071129160011211/29/07 16:00:31  5-MIN KMKG 292100Z 27013G20KT 10SM BKN036 BKN043 M03/M12 A3018 390 53 -1700 280/13G20 RMK AO2
14840KMKG MKG20071129160510511/29/07 16:05:31  5-MIN KMKG 292105Z 27014G21KT 10SM BKN036 M03/M12 A3018 390 53 -1700 280/14G21 RMK AO2
14840KMKG MKG20071129161010511/29/07 16:10:31  5-MIN KMKG 292110Z 26010G21KT 10SM BKN036 M03/M11 A3018 390 53 -1600 260/10G21 RMK AO2
14840KMKG MKG20071129161511211/29/07 16:15:31  5-MIN KMKG 292115Z 26017G21KT 10SM BKN036 BKN044 M03/M11 A3018 390 53 -1600 270/17G21 RMK AO2
14840KMKG MKG20071129162011211/29/07 16:20:31  5-MIN KMKG 292120Z 28017G21KT 10SM BKN036 BKN044 M03/M12 A3019 380 50 -1600 280/17G21 RMK AO2
14840KMKG MKG20071129162510511/29/07 16:25:31  5-MIN KMKG 292125Z 27016G23KT 10SM BKN038 M03/M12 A3019 380 50 -1600 280/16G23 RMK AO2
14840KMKG MKG20071129163010511/29/07 16:30:31  5-MIN KMKG 292130Z 27015G23KT 10SM BKN038 M03/M12 A3019 380 50 -1600 280/15G23 RMK AO2
14840KMKG MKG20071129164510511/29/07 16:45:31  5-MIN KMKG 292145Z 27018G24KT 10SM BKN038 M03/M12 A3019 380 50 -1600 270/18G24 RMK AO2
14840KMKG MKG20071129165012211/29/07 16:50:31  5-MIN KMKG 292150Z 26016G24KT 10SM BKN038 M03/M12 A3019 380 50 -1600 260/16G24 RMK AO2 SLP232 T10281117
14840KMKG MKG20071129165512211/29/07 16:55:31  5-MIN KMKG 292155Z 27013G21KT 10SM BKN038 M03/M12 A3019 380 50 -1600 270/13G21 RMK AO2 SLP232 T10281117
14840KMKG MKG20071129170010511/29/07 17:00:31  5-MIN KMKG 292200Z 27013G21KT 10SM BKN038 M03/M12 A3019 380 50 -1600 280/13G21 RMK AO2
14840KMKG MKG20071129170510511/29/07 17:05:31  5-MIN KMKG 292205Z 26014G23KT 10SM BKN040 M03/M12 A3019 380 50 -1600 260/14G23 RMK AO2
14840KMKG MKG20071129171010511/29/07 17:10:31  5-MIN KMKG 292210Z 25014G24KT 10SM BKN040 M03/M12 A3019 380 50 -1600 260/14G24 RMK AO2
14840KMKG MKG20071129171510511/29/07 17:15:31  5-MIN KMKG 292215Z 28012G24KT 10SM BKN040 M03/M12 A3019 390 50 -1600 290/12G24 RMK AO2
14840KMKG MKG20071129172010511/29/07 17:20:31  5-MIN KMKG 292220Z 27013G20KT 10SM SCT040 M03/M12 A3018 390 48 -1600 270/13G20 RMK AO2
14840KMKG MKG20071129172510511/29/07 17:25:31  5-MIN KMKG 292225Z 26013G19KT 10SM SCT040 M03/M12 A3018 390 48 -1600 260/13G19 RMK AO2
14840KMKG MKG20071129173010511/29/07 17:30:31  5-MIN KMKG 292230Z 26011G19KT 10SM BKN040 M02/M12 A3019 380 48 -1500 260/11G19 RMK AO2
14840KMKG MKG20071129173510511/29/07 17:35:31  5-MIN KMKG 292235Z 25014G18KT 10SM SCT040 M02/M12 A3019 390 48 -1500 260/14G18 RMK AO2
14840KMKG MKG20071129174009911/29/07 17:40:31  5-MIN KMKG 292240Z 26011KT 10SM SCT040 M02/M12 A3019 380 48 -1500 260/11 RMK AO2
14840KMKG MKG20071129174510511/29/07 17:45:31  5-MIN KMKG 292245Z 26015G20KT 10SM SCT040 M02/M12 A3019 380 46 -1600 270/15G20 RMK AO2
14840KMKG MKG20071129175012211/29/07 17:50:31  5-MIN KMKG 292250Z 26015G22KT 10SM SCT040 M02/M12 A3020 380 48 -1600 270/15G22 RMK AO2 SLP234 T10221117
14840KMKG MKG20071129175512211/29/07 17:55:31  5-MIN KMKG 292255Z 27016G25KT 10SM SCT040 M02/M12 A3019 380 46 -1600 280/16G25 RMK AO2 SLP233 T10221122
14840KMKG MKG20071129180010511/29/07 18:00:31  5-MIN KMKG 292300Z 26014G25KT 10SM FEW040 M02/M12 A3019 380 46 -1600 260/14G25 RMK AO2
14840KMKG MKG20071129180510511/29/07 18:05:31  5-MIN KMKG 292305Z 28012G20KT 10SM FEW042 M02/M12 A3019 380 46 -1600 280/12G20 RMK AO2
14840KMKG MKG20071129181010511/29/07 18:10:31  5-MIN KMKG 292310Z 27016G24KT 10SM FEW042 M02/M13 A3020 370 44 -1600 270/16G24 RMK AO2
14840KMKG MKG20071129181510211/29/07 18:15:31  5-MIN KMKG 292315Z 26012G24KT 10SM CLR M02/M12 A3020 380 46 -1600 270/12G24 RMK AO2
14840KMKG MKG20071129182010211/29/07 18:20:31  5-MIN KMKG 292320Z 27014G21KT 10SM CLR M02/M12 A3020 370 46 -1600 270/14G21 RMK AO2
14840KMKG MKG20071129182510211/29/07 18:25:31  5-MIN KMKG 292325Z 27011G19KT 10SM CLR M02/M12 A3020 370 44 -1500 270/11G19 RMK AO2
14840KMKG MKG20071129183010211/29/07 18:30:31  5-MIN KMKG 292330Z 26012G18KT 10SM CLR M02/M12 A3021 370 48 -1600 270/12G18 RMK AO2
14840KMKG MKG20071129183510211/29/07 18:35:31  5-MIN KMKG 292335Z 26015G22KT 10SM CLR M02/M12 A3021 360 46 -1500 260/15G22 RMK AO2
14840KMKG MKG20071129184010211/29/07 18:40:31  5-MIN KMKG 292340Z 26013G22KT 10SM CLR M02/M12 A3021 360 46 -1500 270/13G22 RMK AO2
14840KMKG MKG20071129184510211/29/07 18:45:31  5-MIN KMKG 292345Z 27016G20KT 10SM CLR M02/M12 A3021 360 46 -1500 270/16G20 RMK AO2
14840KMKG MKG20071129185014611/29/07 18:50:31  5-MIN KMKG 292350Z 27012G20KT 10SM FEW040 M02/M12 A3021 370 44 -1500 280/12G20 RMK AO2 SLP238 60000 T10171122 11017 21044 53009
14840KMKG MKG20071129185514611/29/07 18:55:31  5-MIN KMKG 292355Z 26013G19KT 10SM FEW040 M01/M12 A3021 360 45 -1400 260/13G19 RMK AO2 SLP240 60000 T10111117 11011 21044 53012
14840KMKG MKG20071129190010211/29/07 19:00:31  5-MIN KMKG 300000Z 25015G21KT 10SM CLR M01/M12 A3022 360 43 -1400 260/15G21 RMK AO2
14840KMKG MKG20071129190510211/29/07 19:05:31  5-MIN KMKG 300005Z 26011G21KT 10SM CLR M01/M12 A3021 360 45 -1400 260/11G21 RMK AO2
14840KMKG MKG20071129191010211/29/07 19:10:31  5-MIN KMKG 300010Z 26013G21KT 10SM CLR M01/M11 A3020 370 47 -1400 270/13G21 RMK AO2
14840KMKG MKG20071129191510211/29/07 19:15:31  5-MIN KMKG 300015Z 26016G22KT 10SM CLR M01/M12 A3020 370 45 -1400 260/16G22 RMK AO2
14840KMKG MKG20071129192010211/29/07 19:20:31  5-MIN KMKG 300020Z 25013G22KT 10SM CLR M01/M12 A3021 370 45 -1400 250/13G22 RMK AO2
14840KMKG MKG20071129192510211/29/07 19:25:31  5-MIN KMKG 300025Z 27010G20KT 10SM CLR M01/M12 A3020 370 45 -1400 270/10G20 RMK AO2
14840KMKG MKG20071129193010211/29/07 19:30:31  5-MIN KMKG 300030Z 27013G20KT 10SM CLR M01/M12 A3019 380 45 -1400 270/13G20 RMK AO2
14840KMKG MKG20071129193510211/29/07 19:35:31  5-MIN KMKG 300035Z 26011G20KT 10SM CLR M01/M12 A3019 380 43 -1400 260/11G20 RMK AO2
14840KMKG MKG20071129194010211/29/07 19:40:31  5-MIN KMKG 300040Z 27012G18KT 10SM CLR M01/M12 A3019 380 43 -1400 280/12G18 RMK AO2
14840KMKG MKG20071129194509611/29/07 19:45:31  5-MIN KMKG 300045Z 26011KT 10SM CLR M01/M12 A3019 380 43 -1400 270/11 RMK AO2
14840KMKG MKG20071129195011311/29/07 19:50:31  5-MIN KMKG 300050Z 28012KT 10SM CLR M01/M12 A3019 380 43 -1400 280/12 RMK AO2 SLP233 T10111122
14840KMKG MKG20071129195511311/29/07 19:55:31  5-MIN KMKG 300055Z 28013KT 10SM CLR M01/M12 A3019 380 43 -1400 280/13 RMK AO2 SLP233 T10111122
14840KMKG MKG20071129200009611/29/07 20:00:31  5-MIN KMKG 300100Z 27011KT 10SM CLR M01/M12 A3020 380 43 -1400 280/11 RMK AO2
14840KMKG MKG20071129200510211/29/07 20:05:31  5-MIN KMKG 300105Z 27011G19KT 10SM CLR M01/M12 A3020 370 43 -1400 270/11G19 RMK AO2
14840KMKG MKG20071129201010211/29/07 20:10:31  5-MIN KMKG 300110Z 26011G19KT 10SM CLR M01/M12 A3020 370 45 -1400 270/11G19 RMK AO2
14840KMKG MKG20071129201510211/29/07 20:15:31  5-MIN KMKG 300115Z 26014G19KT 10SM CLR M01/M12 A3020 370 45 -1400 270/14G19 RMK AO2
14840KMKG MKG20071129202010211/29/07 20:20:31  5-MIN KMKG 300120Z 26011G20KT 10SM CLR M01/M12 A3020 370 45 -1400 260/11G20 RMK AO2
14840KMKG MKG20071129202510211/29/07 20:25:31  5-MIN KMKG 300125Z 26010G23KT 10SM CLR M01/M12 A3020 370 43 -1400 270/10G23 RMK AO2
14840KMKG MKG20071129203010211/29/07 20:30:31  5-MIN KMKG 300130Z 27015G23KT 10SM CLR M01/M12 A3020 370 43 -1300 280/15G23 RMK AO2
14840KMKG MKG20071129203510211/29/07 20:35:31  5-MIN KMKG 300135Z 26011G19KT 10SM CLR M01/M12 A3020 380 41 -1300 270/11G19 RMK AO2
14840KMKG MKG20071129204010211/29/07 20:40:31  5-MIN KMKG 300140Z 27011G19KT 10SM CLR M01/M12 A3020 380 41 -1300 270/11G19 RMK AO2
14840KMKG MKG20071129204510211/29/07 20:45:31  5-MIN KMKG 300145Z 27015G19KT 10SM CLR M01/M12 A3019 380 41 -1300 270/15G19 RMK AO2
14840KMKG MKG20071129205011911/29/07 20:50:31  5-MIN KMKG 300150Z 27009G19KT 10SM CLR M01/M12 A3019 380 41 -1300 270/09G19 RMK AO2 SLP233 T10061122
14840KMKG MKG20071129205511311/29/07 20:55:31  5-MIN KMKG 300155Z 26009KT 10SM CLR M01/M12 A3019 380 43 -1400 260/09 RMK AO2 SLP232 T10111122
14840KMKG MKG20071129210010211/29/07 21:00:31  5-MIN KMKG 300200Z 26012G18KT 10SM CLR M01/M12 A3019 380 41 -1300 260/12G18 RMK AO2
14840KMKG MKG20071129210510211/29/07 21:05:31  5-MIN KMKG 300205Z 26009G18KT 10SM CLR M01/M13 A3019 380 39 -1300 270/09G18 RMK AO2
14840KMKG MKG20071129211010211/29/07 21:10:31  5-MIN KMKG 300210Z 26011G17KT 10SM CLR M01/M12 A3020 370 41 -1300 260/11G17 RMK AO2
14840KMKG MKG20071129211510211/29/07 21:15:31  5-MIN KMKG 300215Z 25010G17KT 10SM CLR M01/M12 A3020 370 41 -1400 250/10G17 RMK AO2
14840KMKG MKG20071129212009611/29/07 21:20:31  5-MIN KMKG 300220Z 26011KT 10SM CLR M01/M12 A3020 370 43 -1400 270/11 RMK AO2
14840KMKG MKG20071129212510211/29/07 21:25:31  5-MIN KMKG 300225Z 27016G19KT 10SM CLR M01/M12 A3020 370 41 -1400 280/16G19 RMK AO2
14840KMKG MKG20071129213010211/29/07 21:30:31  5-MIN KMKG 300230Z 25008G19KT 10SM CLR M01/M12 A3020 370 41 -1300 260/08G19 RMK AO2
14840KMKG MKG20071129213509611/29/07 21:35:31  5-MIN KMKG 300235Z 26011KT 10SM CLR M01/M12 A3020 370 41 -1300 260/11 RMK AO2
14840KMKG MKG20071129214009611/29/07 21:40:31  5-MIN KMKG 300240Z 26009KT 10SM CLR M01/M12 A3020 370 43 -1300 260/09 RMK AO2
14840KMKG MKG20071129214509611/29/07 21:45:31  5-MIN KMKG 300245Z 26008KT 10SM CLR M01/M12 A3019 380 43 -1300 270/08 RMK AO2
14840KMKG MKG20071129215011911/29/07 21:50:31  5-MIN KMKG 300250Z 26012KT 10SM CLR M01/M12 A3019 380 41 -1300 270/12 RMK AO2 SLP233 T10061122 53012
14840KMKG MKG20071129215512511/29/07 21:55:31  5-MIN KMKG 300255Z 26013G20KT 10SM CLR M01/M13 A3019 380 39 -1300 270/13G20 RMK AO2 SLP232 T10061128 56007
14840KMKG MKG20071129220010211/29/07 22:00:31  5-MIN KMKG 300300Z 25013G21KT 10SM CLR M01/M13 A3019 380 39 -1300 260/13G21 RMK AO2
14840KMKG MKG20071129220510211/29/07 22:05:31  5-MIN KMKG 300305Z 26014G21KT 10SM CLR M01/M12 A3019 380 41 -1300 260/14G21 RMK AO2
14840KMKG MKG20071129221010211/29/07 22:10:31  5-MIN KMKG 300310Z 25011G20KT 10SM CLR M01/M12 A3019 380 41 -1300 260/11G20 RMK AO2
14840KMKG MKG20071129221510111/29/07 22:15:31  5-MIN KMKG 300315Z 26016G20KT 10SM CLR 00/M12 A3019 380 39 -1300 260/16G20 RMK AO2
14840KMKG MKG20071129222010111/29/07 22:20:31  5-MIN KMKG 300320Z 26013G20KT 10SM CLR 00/M12 A3019 380 39 -1300 270/13G20 RMK AO2
14840KMKG MKG20071129222510111/29/07 22:25:31  5-MIN KMKG 300325Z 25012G19KT 10SM CLR 00/M12 A3019 380 39 -1300 260/12G19 RMK AO2
14840KMKG MKG20071129223010111/29/07 22:30:31  5-MIN KMKG 300330Z 26013G23KT 10SM CLR 00/M13 A3019 380 38 -1300 270/13G23 RMK AO2
14840KMKG MKG20071129223510111/29/07 22:35:31  5-MIN KMKG 300335Z 26010G23KT 10SM CLR 00/M12 A3019 380 41 -1300 260/10G23 RMK AO2
14840KMKG MKG20071129224010111/29/07 22:40:31  5-MIN KMKG 300340Z 27010G19KT 10SM CLR 00/M12 A3019 380 41 -1300 270/10G19 RMK AO2
14840KMKG MKG20071129224510111/29/07 22:45:31  5-MIN KMKG 300345Z 26014G20KT 10SM CLR 00/M12 A3020 380 39 -1300 270/14G20 RMK AO2
14840KMKG MKG20071129225011811/29/07 22:50:31  5-MIN KMKG 300350Z 27008G20KT 10SM CLR 00/M12 A3019 380 41 -1300 270/08G20 RMK AO2 SLP233 T00001117
14840KMKG MKG20071129225511811/29/07 22:55:31  5-MIN KMKG 300355Z 26014G19KT 10SM CLR 00/M12 A3019 380 41 -1300 270/14G19 RMK AO2 SLP231 T00001117
14840KMKG MKG20071129230010111/29/07 23:00:31  5-MIN KMKG 300400Z 27010G19KT 10SM CLR 00/M12 A3019 380 41 -1300 270/10G19 RMK AO2
14840KMKG MKG20071129230510111/29/07 23:05:31  5-MIN KMKG 300405Z 27011G18KT 10SM CLR 00/M12 A3019 390 41 -1300 280/11G18 RMK AO2
14840KMKG MKG20071129231010111/29/07 23:10:31  5-MIN KMKG 300410Z 26011G18KT 10SM CLR 00/M12 A3019 380 41 -1300 270/11G18 RMK AO2
14840KMKG MKG20071129231510411/29/07 23:15:31  5-MIN KMKG 300415Z 26013G18KT 10SM FEW080 00/M12 A3019 380 41 -1300 260/13G18 RMK AO2
14840KMKG MKG20071129232010411/29/07 23:20:31  5-MIN KMKG 300420Z 26012G18KT 10SM SCT080 01/M11 A3019 380 41 -1200 260/12G18 RMK AO2
14840KMKG MKG20071129232510411/29/07 23:25:31  5-MIN KMKG 300425Z 27009G18KT 10SM BKN080 01/M11 A3019 380 41 -1200 270/09G18 RMK AO2
14840KMKG MKG20071129233009811/29/07 23:30:31  5-MIN KMKG 300430Z 26009KT 10SM BKN080 01/M11 A3019 390 41 -1200 260/09 RMK AO2
14840KMKG MKG20071129233509811/29/07 23:35:31  5-MIN KMKG 300435Z 26008KT 10SM BKN080 01/M11 A3018 390 41 -1200 260/08 RMK AO2
14840KMKG MKG20071129234010411/29/07 23:40:31  5-MIN KMKG 300440Z 26013G16KT 10SM OVC080 01/M11 A3018 390 43 -1200 270/13G16 RMK AO2
14840KMKG MKG20071129234510411/29/07 23:45:31  5-MIN KMKG 300445Z 27012G18KT 10SM OVC080 01/M10 A3018 390 45 -1200 280/12G18 RMK AO2
14840KMKG MKG20071129235013111/29/07 23:50:31  5-MIN KMKG 300450Z 25011G19KT 10SM OVC075 01/M11 A3018 390 43 -1200 260/11G19 RMK AO2 SLP229 T00061106 400391050
14840KMKG MKG20071129235513111/29/07 23:55:31  5-MIN KMKG 300455Z 25011G19KT 10SM OVC075 01/M11 A3018 390 43 -1200 260/11G19 RMK AO2 SLP228 T00061106 400391050
14840KMKG MKG20071130000009811/30/07 00:00:32  5-MIN KMKG 300500Z 27010KT 10SM OVC075 01/M11 A3018 390 43 -1200 280/10 RMK AO2
14840KMKG MKG20071130000510411/30/07 00:05:31  5-MIN KMKG 300505Z 27013G18KT 10SM OVC075 01/M10 A3018 390 45 -1200 270/13G18 RMK AO2
14840KMKG MKG20071130001010411/30/07 00:10:31  5-MIN KMKG 300510Z 26011G18KT 10SM OVC070 01/M10 A3018 390 43 -1100 260/11G18 RMK AO2
14840KMKG MKG20071130001509811/30/07 00:15:31  5-MIN KMKG 300515Z 27010KT 10SM OVC070 01/M10 A3018 390 43 -1100 270/10 RMK AO2
14840KMKG MKG20071130002010411/30/07 00:20:31  5-MIN KMKG 300520Z 26010G17KT 10SM OVC070 01/M09 A3018 390 45 -1100 270/10G17 RMK AO2
14840KMKG MKG20071130002510511/30/07 00:25:31  5-MIN KMKG 300525Z 27011KT 10SM FEW055 OVC070 01/M09 A3018 390 47 -1100 280/11 RMK AO2
14840KMKG MKG20071130003011111/30/07 00:30:31  5-MIN KMKG 300530Z 26008G16KT 10SM FEW055 OVC070 01/M08 A3018 390 49 -1100 260/08G16 RMK AO2
14840KMKG MKG20071130003510411/30/07 00:35:31  5-MIN KMKG 300535Z 26010G16KT 10SM OVC070 01/M08 A3018 390 49 -1100 270/10G16 RMK AO2
14840KMKG MKG20071130004011111/30/07 00:40:31  5-MIN KMKG 300540Z 26010G18KT 10SM FEW055 OVC070 01/M08 A3018 400 49 -1100 260/10G18 RMK AO2
14840KMKG MKG20071130004511111/30/07 00:45:31  5-MIN KMKG 300545Z 26010G18KT 10SM BKN060 OVC070 01/M08 A3017 400 49 -1100 270/10G18 RMK AO2
14840KMKG MKG20071130005014611/30/07 00:50:31  5-MIN KMKG 300550Z 27012G17KT 10SM BKN060 OVC075 01/M08 A3017 400 49 -1100 270/12G17 RMK AO2 SLP226 T00111083 10011 21011 56007
14840KMKG MKG20071130005514611/30/07 00:55:31  5-MIN KMKG 300555Z 26012G18KT 10SM BKN060 OVC080 01/M08 A3017 400 49 -1100 260/12G18 RMK AO2 SLP226 T00111083 10011 21011 58007
14840KMKG MKG20071130010010411/30/07 01:00:31  5-MIN KMKG 300600Z 27008G18KT 10SM OVC060 02/M08 A3017 400 49 -1000 270/08G18 RMK AO2
14840KMKG MKG20071130010511111/30/07 01:05:31  5-MIN KMKG 300605Z 26012G17KT 10SM BKN055 OVC070 02/M08 A3017 400 49 -1000 260/12G17 RMK AO2
14840KMKG MKG20071130011011111/30/07 01:10:31  5-MIN KMKG 300610Z 25011G17KT 10SM FEW044 OVC055 02/M08 A3017 400 49 -1000 250/11G17 RMK AO2
14840KMKG MKG20071130011511111/30/07 01:15:31  5-MIN KMKG 300615Z 26010G17KT 10SM BKN050 OVC070 02/M07 A3017 400 52 -1000 260/10G17 RMK AO2
14840KMKG MKG20071130012009811/30/07 01:20:31  5-MIN KMKG 300620Z 26009KT 10SM OVC050 02/M07 A3017 400 52 -1000 260/09 RMK AO2
14840KMKG MKG20071130012510411/30/07 01:25:31  5-MIN KMKG 300625Z 27010G17KT 10SM OVC050 02/M07 A3017 400 52 -1000 270/10G17 RMK AO2
14840KMKG MKG20071130013011111/30/07 01:30:31  5-MIN KMKG 300630Z 27014G18KT 10SM BKN043 OVC050 02/M07 A3017 400 52 -1000 270/14G18 RMK AO2
14840KMKG MKG20071130013512611/30/07 01:35:31  5-MIN KMKG 300635Z 27014G18KT 10SM SCT041 BKN050 02/M07 A3017 400 52 -1000 270/14G18 RMK AO2 CIG 041 RWY 14
14840KMKG MKG20071130014012611/30/07 01:40:31  5-MIN KMKG 300640Z 27014G20KT 10SM SCT041 BKN050 02/M07 A3017 400 52 -1000 280/14G20 RMK AO2 CIG 038 RWY 14
14840KMKG MKG20071130014512611/30/07 01:45:31  5-MIN KMKG 300645Z 27015G20KT 8SM -SN BKN037 BKN050 02/M06 A3017 400 56 -1000 270/15G20 RMK AO2 SNB42 P0000
14840KMKG MKG20071130015014411/30/07 01:50:31  5-MIN KMKG 300650Z 26012KT 7SM -SN FEW029 BKN037 BKN050 01/M06 A3017 400 61 -1100 260/12 RMK AO2 SNB42 SLP225 P0000 T00111056
14840KMKG MKG20071130015515011/30/07 01:55:31  5-MIN KMKG 300655Z 25012G22KT 8SM -SN SCT027 BKN036 BKN045 01/M05 A3017 400 64 -1100 260/12G22 RMK AO2 SNB42 SLP225 P0000 T00111050
14840KMKG MKG20071130020012711/30/07 02:00:31  5-MIN KMKG 300700Z 25014G22KT 8SM -SN FEW020 BKN029 BKN038 01/M04 A3017 400 66 -1100 260/14G22 RMK AO2 P0000
14840KMKG MKG20071130020512711/30/07 02:05:31  5-MIN KMKG 300705Z 27015G21KT 6SM -SN FEW020 BKN029 OVC038 01/M04 A3017 400 66 -1100 270/15G21 RMK AO2 P0000
14840KMKG MKG20071130021012711/30/07 02:10:31  5-MIN KMKG 300710Z 27008G21KT 6SM -SN FEW020 BKN027 BKN035 01/M04 A3017 400 66 -1100 280/08G21 RMK AO2 P0000
14840KMKG MKG20071130021512011/30/07 02:15:31  5-MIN KMKG 300715Z 28011G18KT 8SM -SN BKN025 BKN035 01/M04 A3017 400 69 -1100 280/11G18 RMK AO2 P0000
14840KMKG MKG20071130022012711/30/07 02:20:31  5-MIN KMKG 300720Z 26010G18KT 9SM -SN SCT024 BKN029 BKN037 01/M04 A3016 410 66 -1100 270/10G18 RMK AO2 P0000
14840KMKG MKG20071130022512711/30/07 02:25:31  5-MIN KMKG 300725Z 27014G21KT 5SM -SN SCT015 BKN027 BKN037 01/M04 A3016 410 66 -1100 270/14G21 RMK AO2 P0000
14840KMKG MKG20071130023012711/30/07 02:30:31  5-MIN KMKG 300730Z 27009G21KT 4SM -SN FEW015 BKN027 BKN035 01/M04 A3016 410 69 -1100 270/09G21 RMK AO2 P0000
14840KMKG MKG20071130023511411/30/07 02:35:31  5-MIN KMKG 300735Z 25007KT 7SM -SN FEW015 BKN027 01/M04 A3016 410 69 -1100 250/07 RMK AO2 P0000
14840KMKG MKG20071130024012011/30/07 02:40:31  5-MIN KMKG 300740Z 25015G22KT 5SM -SN FEW015 BKN027 01/M04 A3015 410 69 -1100 250/15G22 RMK AO2 P0000
14840KMKG MKG20071130024512011/30/07 02:45:31  5-MIN KMKG 300745Z 26016G22KT 3SM -SN FEW015 BKN027 01/M03 A3016 410 72 -1100 260/16G22 RMK AO2 P0000
14840KMKG MKG20071130025015411/30/07 02:50:31  5-MIN KMKG 300750Z 25011G21KT 3SM -SN FEW013 BKN024 01/M03 A3016 410 72 -1100 250/11G21 RMK AO2 VIS 2 1/2 RWY 14 SLP221 P0000 T00111033
14840KMKG MKG20071130025514411/30/07 02:55:31  5-MIN KMKG 300755Z 25012G18KT 3SM -SN FEW013 BKN024 BKN029 01/M03 A3015 420 75 -1100 260/12G18 RMK AO2 SLP219 P0000 T00111028
14840KMKG MKG20071130030013111/30/07 03:00:31  5-MIN KMKG 300800Z 26011G18KT 2 1/2SM -SN SCT013 BKN024 OVC029 01/M03 A3015 420 75 -1100 260/11G18 RMK AO2 P0000
14840KMKG MKG20071130030512511/30/07 03:05:31  5-MIN KMKG 300805Z 25009KT 2 1/2SM -SN SCT013 BKN024 OVC029 01/M02 A3015 420 78 -1100 260/09 RMK AO2 P0000
14840KMKG MKG20071130031012511/30/07 03:10:31  5-MIN KMKG 300810Z 25007KT 2 1/2SM -SN SCT013 BKN022 OVC034 01/M02 A3014 430 78 -1100 260/07 RMK AO2 P0000
14840KMKG MKG20071130031512111/30/07 03:15:31  5-MIN KMKG 300815Z 25007KT 3SM -SN FEW013 BKN020 OVC034 01/M02 A3014 430 78 -1100 250/07 RMK AO2 P0000
14840KMKG MKG20071130032012111/30/07 03:20:31  5-MIN KMKG 300820Z 24008KT 5SM -SN FEW013 BKN020 OVC027 01/M02 A3014 430 78 -1100 250/08 RMK AO2 P0000
14840KMKG MKG20071130032512711/30/07 03:25:31  5-MIN KMKG 300825Z 24009G16KT 7SM -SN FEW015 BKN020 OVC033 02/M02 A3013 430 75 -1000 250/09G16 RMK AO2 P0000
14840KMKG MKG20071130033014211/30/07 03:30:31  5-MIN KMKG 300830Z 23013G18KT 7SM -SN SCT020 BKN027 OVC034 02/M02 A3013 440 75 -1000 230/13G18 RMK AO2 CIG 022 RWY 14 P0000
14840KMKG MKG20071130033514111/30/07 03:35:31  5-MIN KMKG 300835Z 24013G18KT 8SM -SN SCT022 BKN029 OVC040 02/M03 A3012 440 69 -900 240/13G18 RMK AO2 CIG 024 RWY 14 P0000
14840KMKG MKG20071130034012811/30/07 03:40:31  5-MIN KMKG 300840Z 24009G18KT 9SM FEW022 BKN029 OVC040 02/M03 A3012 450 67 -900 240/09G18 RMK AO2 SNE40 P0000
14840KMKG MKG20071130034512811/30/07 03:45:31  5-MIN KMKG 300845Z 24010G18KT 9SM SCT026 BKN037 OVC044 02/M03 A3012 450 67 -900 240/10G18 RMK AO2 SNE40 P0000
14840KMKG MKG20071130035015811/30/07 03:50:31  5-MIN KMKG 300850Z 24015G22KT 10SM FEW027 BKN037 OVC044 03/M04 A3011 450 61 -800 240/15G22 RMK AO2 SNE40 SLP205 P0000 60000 T00281039 58007
14840KMKG MKG20071130035515811/30/07 03:55:31  5-MIN KMKG 300855Z 22016G23KT 10SM FEW027 BKN037 OVC049 03/M03 A3010 460 64 -800 220/16G23 RMK AO2 SNE40 SLP202 P0000 60000 T00281033 58022
14840KMKG MKG20071130040012511/30/07 04:00:31  5-MIN KMKG 300900Z 23010G23KT 10SM SCT037 BKN049 03/M04 A3010 460 61 -800 240/10G23 RMK AO2 CIG 039 RWY 14
14840KMKG MKG20071130040511011/30/07 04:05:31  5-MIN KMKG 300905Z 23016G20KT 10SM SCT037 BKN049 03/M03 A3010 460 64 -800 230/16G20 RMK AO2
14840KMKG MKG20071130041011011/30/07 04:10:31  5-MIN KMKG 300910Z 23014G20KT 10SM SCT037 BKN047 03/M03 A3010 470 61 -700 230/14G20 RMK AO2
14840KMKG MKG20071130041512511/30/07 04:15:31  5-MIN KMKG 300915Z 24013G23KT 10SM SCT037 BKN047 03/M04 A3010 470 59 -700 240/13G23 RMK AO2 CIG 039 RWY 14
14840KMKG MKG20071130042010311/30/07 04:20:31  5-MIN KMKG 300920Z 24016G24KT 10SM SCT037 04/M03 A3009 470 59 -700 250/16G24 RMK AO2
14840KMKG MKG20071130042514411/30/07 04:25:31  5-MIN KMKG 300925Z 24015G30KT 10SM -RA FEW019 SCT037 03/M03 A3009 480 61 -700 240/15G30 RMK AO2 PK WND 23030/0922 RAB23 P0000
14840KMKG MKG20071130043015111/30/07 04:30:31  5-MIN KMKG 300930Z 23022G30KT 9SM -SN SCT017 SCT037 03/M03 A3009 480 61 -700 230/22G30 RMK AO2 PK WND 23030/0922 RAB23E29SNB29 P0000
14840KMKG MKG20071130043516611/30/07 04:35:31  5-MIN KMKG 300935Z 24018G29KT 8SM -SN FEW015 BKN037 03/M03 A3009 480 64 -700 240/18G29 RMK AO2 PK WND 23030/0922 RAB23E29SNB29 CIG 022 RWY 14 P0000
14840KMKG MKG20071130044016611/30/07 04:40:31  5-MIN KMKG 300940Z 24015G28KT 8SM -SN SCT015 BKN035 03/M03 A3008 480 67 -800 240/15G28 RMK AO2 PK WND 23030/0922 RAB23E29SNB29 CIG 020 RWY 14 P0000
14840KMKG MKG20071130044516611/30/07 04:45:31  5-MIN KMKG 300945Z 24015G28KT 8SM -SN SCT015 BKN033 03/M03 A3008 480 67 -800 250/15G28 RMK AO2 PK WND 23030/0922 RAB23E29SNB29 CIG 018 RWY 14 P0000
14840KMKG MKG20071130045018711/30/07 04:50:31  5-MIN KMKG 300950Z 25018G25KT 9SM SCT015 BKN033 03/M03 A3008 480 67 -800 250/18G25 RMK AO2 PK WND 23030/0922 RAB23E29UPB49SNB29E49 CIG 018 RWY 14 SLP193 P0000 T00281028
14840KMKG MKG20071130045518411/30/07 04:55:31  5-MIN KMKG 300955Z 24018G25KT 9SM -SN FEW015 BKN033 03/M03 A3007 490 67 -800 240/18G25 RMK AO2 PK WND 23030/0922 CIG 020 RWY 14 RAB23E29 SNB29 SLP193 P0000 T00281028
14840KMKG MKG20071130050011911/30/07 05:00:31  5-MIN KMKG 301000Z 23018G25KT 9SM -SN FEW018 SCT033 03/M03 A3006 500 64 -700 240/18G25 RMK AO2 P0000
14840KMKG MKG20071130050513711/30/07 05:05:31  5-MIN KMKG 301005Z 24012G27KT 9SM -SN FEW024 SCT033 03/M03 A3006 500 61 -700 250/12G27 RMK AO2 PK WND 22027/1001 P0000
14840KMKG MKG20071130051013011/30/07 05:10:31  5-MIN KMKG 301010Z 25014G27KT 9SM -SN SCT034 04/M03 A3006 500 59 -600 250/14G27 RMK AO2 PK WND 22027/1001 P0000
14840KMKG MKG20071130051513711/30/07 05:15:31  5-MIN KMKG 301015Z 24021G28KT 9SM -SN SCT036 SCT043 04/M03 A3006 500 59 -600 250/21G28 RMK AO2 PK WND 25028/1014 P0000
14840KMKG MKG20071130052013711/30/07 05:20:31  5-MIN KMKG 301020Z 25020G32KT 9SM -SN SCT034 BKN043 04/M03 A3006 500 59 -600 260/20G32 RMK AO2 PK WND 24032/1020 P0000
14840KMKG MKG20071130052515311/30/07 05:25:31  5-MIN KMKG 301025Z 26016G32KT 10SM -SN SCT034 BKN043 03/M03 A3006 500 64 -700 270/16G32 RMK AO2 PK WND 24032/1020 CIG 032 RWY 14 P0000
14840KMKG MKG20071130053014511/30/07 05:30:31  5-MIN KMKG 301030Z 26017G29KT 10SM -SN FEW025 BKN032 BKN039 03/M03 A3006 500 67 -800 260/17G29 RMK AO2 PK WND 24032/1020 P0000
14840KMKG MKG20071130053514411/30/07 05:35:31  5-MIN KMKG 301035Z 27015G28KT 9SM -SN FEW019 SCT025 BKN032 03/M02 A3006 500 69 -800 270/15G28 RMK AO2 PK WND 24032/1020 P0000
14840KMKG MKG20071130054017011/30/07 05:40:31  5-MIN KMKG 301040Z 25012G23KT 9SM -RA FEW019 SCT025 BKN032 02/M02 A3006 500 75 -800 260/12G23 RMK AO2 PK WND 24032/1020 RAB40SNE40 CIG 021 RWY 14 P0000
14840KMKG MKG20071130054517111/30/07 05:45:31  5-MIN KMKG 301045Z 24018G25KT 10SM -RA FEW021 SCT028 BKN034 03/M02 A3005 510 69 -800 240/18G25 RMK AO2 PK WND 24032/1020 RAB40SNE40 CIG 021 RWY 14 P0000
14840KMKG MKG20071130055017411/30/07 05:50:31  5-MIN KMKG 301050Z 26013G25KT 10SM -RA FEW019 BKN032 03/M03 A3005 510 67 -800 270/13G25 RMK AO2 PK WND 24032/1020 CIG 026 RWY 14 RAB40SNE40 P0000 T00281028
14840KMKG MKG20071130055516611/30/07 05:55:31  5-MIN KMKG 301055Z 29015G22KT 10SM -RA FEW019 BKN035 03/M02 A3005 510 69 -800 290/15G22 RMK AO2 PK WND 24032/1020 RAB40SNE40 SLP185 P0000 T00281022
14840KMKG MKG20071130060012911/30/07 06:00:31  5-MIN KMKG 301100Z 29011G21KT 10SM FEW019 BKN036 BKN050 02/M02 A3005 510 75 -800 290/11G21 RMK AO2 RAE00 P0000
14840KMKG MKG20071130060512911/30/07 06:05:31  5-MIN KMKG 301105Z 28013G19KT 10SM FEW023 BKN038 BKN047 02/M02 A3005 510 72 -800 280/13G19 RMK AO2 RAE00 P0000
14840KMKG MKG20071130061014411/30/07 06:10:31  5-MIN KMKG 301110Z 27013G20KT 10SM SCT038 SCT047 BKN055 03/M02 A3005 510 69 -800 280/13G20 RMK AO2 RAE00 CIG 044 RWY 14 P0000
14840KMKG MKG20071130061514411/30/07 06:15:31  5-MIN KMKG 301115Z 25012G20KT 10SM SCT038 BKN075 OVC095 03/M03 A3004 520 67 -800 250/12G20 RMK AO2 RAE00 CIG 044 RWY 14 P0000
14840KMKG MKG20071130062014711/30/07 06:20:31  5-MIN KMKG 301120Z 25020G29KT 10SM SCT038 BKN075 OVC095 03/M04 A3004 520 59 -700 250/20G29 RMK AO2 PK WND 25029/1120 RAE00 P0000
14840KMKG MKG20071130062514711/30/07 06:25:31  5-MIN KMKG 301125Z 25020G30KT 10SM SCT040 BKN070 OVC090 03/M06 A3004 520 52 -700 250/20G30 RMK AO2 PK WND 24030/1122 RAE00 P0000
14840KMKG MKG20071130063014711/30/07 06:30:31  5-MIN KMKG 301130Z 25017G30KT 10SM FEW039 BKN065 OVC090 03/M05 A3004 520 54 -700 260/17G30 RMK AO2 PK WND 24030/1122 RAE00 P0000
14840KMKG MKG20071130063514711/30/07 06:35:31  5-MIN KMKG 301135Z 26024G33KT 10SM SCT039 BKN065 OVC090 03/M05 A3004 520 54 -700 260/24G33 RMK AO2 PK WND 27033/1135 RAE00 P0000
14840KMKG MKG20071130064014711/30/07 06:40:31  5-MIN KMKG 301140Z 27017G33KT 10SM SCT039 BKN060 BKN090 03/M05 A3004 520 54 -700 270/17G33 RMK AO2 PK WND 27033/1135 RAE00 P0000
14840KMKG MKG20071130064516411/30/07 06:45:31  5-MIN KMKG 301145Z 26017G31KT 10SM -SN SCT039 BKN055 03/M04 A3004 520 61 -800 260/17G31 RMK AO2 PK WND 27033/1135 RAE00SNB41 CIG 040 RWY 14 P0000
14840KMKG MKG20071130065020211/30/07 06:50:31  5-MIN KMKG 301150Z 27019G31KT 9SM -RA FEW031 BKN041 BKN050 03/M04 A3005 510 61 -800 270/19G31 RMK AO2 PK WND 27033/1135 RAE00B48SNB41E48 SLP182 P0000 60000 T00281039 10039 20011 58022
14840KMKG MKG20071130065521211/30/07 06:55:31  5-MIN KMKG 301155Z 28014G31KT 10SM -SN FEW025 SCT031 BKN041 03/M03 A3005 510 64 -800 290/14G31 RMK AO2 PK WND 27033/1135 CIG 032 RWY 14 SLP184 RAE00SNB41 P0000 60000 T00281033 10039 20011 56017
14840KMKG MKG20071130070013411/30/07 07:00:31  5-MIN KMKG 301200Z 29013G22KT 9SM -SN SCT027 BKN039 02/M03 A3006 500 69 -800 300/13G22 RMK AO2 CIG 032 RWY 14 P0000
14840KMKG MKG20071130070512611/30/07 07:05:31  5-MIN KMKG 301205Z 29017G22KT 6SM -SN FEW024 BKN031 BKN040 02/M02 A3006 500 75 -900 290/17G22 RMK AO2 P0000
14840KMKG MKG20071130071014211/30/07 07:10:31  5-MIN KMKG 301210Z 29015G22KT 3SM -SN FEW017 SCT024 BKN030 01/M02 A3007 490 78 -1000 290/15G22 RMK AO2 CIG 022 RWY 14 P0000
14840KMKG MKG20071130071513411/30/07 07:15:31  5-MIN KMKG 301215Z 30012G21KT 2 1/2SM -SN BR FEW017 BKN024 BKN032 01/M02 A3007 490 85 -1100 300/12G21 RMK AO2 P0000
14840KMKG MKG20071130072013411/30/07 07:20:31  5-MIN KMKG 301220Z 29014G20KT 2 1/2SM -SN BR FEW013 BKN022 OVC030 01/M02 A3007 490 85 -1100 300/14G20 RMK AO2 P0000
14840KMKG MKG20071130072513011/30/07 07:25:31  5-MIN KMKG 301225Z 29015G21KT 2SM -SN BR SCT012 BKN022 OVC030 01/M02 A3008 490 85 -1100 290/15G21 RMK AO2 P0000
14840KMKG MKG20071130073013411/30/07 07:30:31  5-MIN KMKG 301230Z 30012G21KT 1 1/2SM -SN BR FEW009 BKN014 OVC030 00/M02 A3008 480 85 -1100 300/12G21 RMK AO2 P0000
14840KMKG MKG20071130073513411/30/07 07:35:31  5-MIN KMKG 301235Z 30014G20KT 1 1/2SM -SN BR SCT009 BKN014 OVC027 00/M02 A3009 480 85 -1200 310/14G20 RMK AO2 P0000
14840KMKG MKG20071130074013111/30/07 07:40:31  5-MIN KMKG 301240Z 30012G19KT 2SM -SN BR FEW009 BKN014 OVC019 M01/M03 A3009 470 85 -1200 310/12G19 RMK AO2 P0000
14840KMKG MKG20071130074512411/30/07 07:45:31  5-MIN KMKG 301245Z 30012G19KT 5SM -SN BR FEW009 OVC014 M01/M03 A3009 470 85 -1200 310/12G19 RMK AO2 P0000
14840KMKG MKG20071130075012111/30/07 07:50:31  5-MIN KMKG 301250Z 30012G18KT 8SM -SN FEW009 OVC016 M01/M03 A3009 470 81 -1200 310/12G18 RMK AO2 P0000
14840KMKG MKG20071130075514511/30/07 07:55:31  5-MIN KMKG 301255Z 29010G18KT 9SM -SN FEW009 BKN018 OVC025 M01/M03 A3008 480 81 -1200 300/10G18 RMK AO2 SLP195 P0000 T10061033
14840KMKG MKG20071130080012811/30/07 08:00:31  5-MIN KMKG 301300Z 29012G16KT 9SM -SN FEW009 SCT013 BKN018 M01/M04 A3009 480 78 -1200 290/12G16 RMK AO2 P0000
14840KMKG MKG20071130080513711/30/07 08:05:31  5-MIN KMKG 301305Z 28013KT 9SM -SN FEW013 SCT018 BKN024 M01/M04 A3009 470 78 -1200 280/13 RMK AO2 CIG 017 RWY 14 P0000
14840KMKG MKG20071130081012211/30/07 08:10:31  5-MIN KMKG 301310Z 28013KT 9SM -SN SCT015 BKN022 BKN050 M01/M04 A3009 480 78 -1200 280/13 RMK AO2 P0000
14840KMKG MKG20071130081512811/30/07 08:15:31  5-MIN KMKG 301315Z 28014G22KT 9SM -SN BKN019 BKN024 BKN050 M01/M04 A3010 470 78 -1200 280/14G22 RMK AO2 P0000
14840KMKG MKG20071130082014611/30/07 08:20:31  5-MIN KMKG 301320Z 29017G26KT 9SM -SN BKN019 BKN026 OVC050 M01/M04 A3010 460 78 -1200 290/17G26 RMK AO2 PK WND 29026/1319 P0000
14840KMKG MKG20071130082513911/30/07 08:25:31  5-MIN KMKG 301325Z 29019G26KT 9SM -SN BKN019 BKN025 M01/M04 A3011 460 75 -1200 300/19G26 RMK AO2 PK WND 30026/1325 P0000
14840KMKG MKG20071130083013911/30/07 08:30:31  5-MIN KMKG 301330Z 30020G30KT 9SM -SN BKN019 OVC025 M01/M04 A3011 450 75 -1300 300/20G30 RMK AO2 PK WND 29030/1327 P0000
14840KMKG MKG20071130083513911/30/07 08:35:31  5-MIN KMKG 301335Z 30018G30KT 9SM -SN BKN018 OVC025 M01/M04 A3011 460 78 -1200 300/18G30 RMK AO2 PK WND 29030/1327 P0000
14840KMKG MKG20071130084013911/30/07 08:40:31  5-MIN KMKG 301340Z 30016G25KT 9SM -SN BKN018 OVC024 M01/M04 A3012 440 78 -1300 300/16G25 RMK AO2 PK WND 29030/1327 P0000
14840KMKG MKG20071130084513211/30/07 08:45:31  5-MIN KMKG 301345Z 30016G25KT 9SM -SN OVC017 M01/M04 A3013 440 78 -1300 300/16G25 RMK AO2 PK WND 29030/1327 P0000
14840KMKG MKG20071130085015611/30/07 08:50:31  5-MIN KMKG 301350Z 30016G24KT 9SM -SN OVC015 M01/M04 A3013 430 78 -1300 300/16G24 RMK AO2 PK WND 29030/1327 PRESRR SLP212 P0000 T10111044
14840KMKG MKG20071130085514911/30/07 08:55:31  5-MIN KMKG 301355Z 30012G25KT 9SM -SN OVC017 M02/M05 A3014 430 78 -1400 310/12G25 RMK AO2 PK WND 29030/1327 SLP214 P0000 T10171050
14840KMKG MKG20071130090012111/30/07 09:00:31  5-MIN KMKG 301400Z 30014G25KT 9SM -SN OVC017 M02/M06 A3015 420 75 -1400 310/14G25 RMK AO2 PRESRR P0000
14840KMKG MKG20071130090512111/30/07 09:05:31  5-MIN KMKG 301405Z 29013G21KT 9SM -SN BKN017 OVC022 M02/M06 A3014 430 75 -1400 300/13G21 RMK AO2 P0000
14840KMKG MKG20071130091014311/30/07 09:10:31  5-MIN KMKG 301410Z 29018G24KT 9SM -SN SCT015 BKN022 OVC036 M02/M06 A3015 420 72 -1400 290/18G24 RMK AO2 CIG 017 RWY 14 P0000
14840KMKG MKG20071130091514611/30/07 09:15:31  5-MIN KMKG 301415Z 29013G26KT 9SM -SN SCT017 BKN023 OVC038 M02/M07 A3015 420 66 -1400 300/13G26 RMK AO2 PK WND 29026/1412 P0000
14840KMKG MKG20071130092014611/30/07 09:20:31  5-MIN KMKG 301420Z 31020G27KT 9SM -SN SCT019 BKN027 OVC035 M02/M08 A3016 410 63 -1400 320/20G27 RMK AO2 PK WND 31027/1419 P0000
14840KMKG MKG20071130092514611/30/07 09:25:31  5-MIN KMKG 301425Z 29016G27KT 9SM -SN FEW019 BKN030 OVC050 M02/M09 A3016 410 58 -1500 300/16G27 RMK AO2 PK WND 31027/1419 P0000
14840KMKG MKG20071130093014611/30/07 09:30:31  5-MIN KMKG 301430Z 30015G29KT 9SM -SN FEW022 BKN030 OVC050 M02/M09 A3016 410 58 -1500 300/15G29 RMK AO2 PK WND 29029/1427 P0000
14840KMKG MKG20071130093516111/30/07 09:35:31  5-MIN KMKG 301435Z 30016G29KT 9SM -SN FEW024 SCT030 OVC055 M02/M09 A3016 410 58 -1500 310/16G29 RMK AO2 PK WND 29029/1427 CIG 045 RWY 14 P0000
14840KMKG MKG20071130094016311/30/07 09:40:31  5-MIN KMKG 301440Z 30014G26KT 9SM FEW025 SCT030 OVC055 M02/M09 A3017 400 60 -1500 300/14G26 RMK AO2 PK WND 29029/1427 SNE36 CIG 045 RWY 14 P0000
14840KMKG MKG20071130094514211/30/07 09:45:31  5-MIN KMKG 301445Z 30013G22KT 10SM BKN030 OVC055 M02/M08 A3018 390 63 -1500 310/13G22 RMK AO2 PK WND 29029/1427 SNE36 P0000
14840KMKG MKG20071130095015611/30/07 09:50:31  5-MIN KMKG 301450Z 30018G28KT 10SM BKN029 BKN048 BKN055 M02/M09 A3019 380 60 -1600 300/18G28 RMK AO2 PK WND 29029/1427 SNE36 PRESRR P0000
14840KMKG MKG20071130095517811/30/07 09:55:31  5-MIN KMKG 301455Z 29016G28KT 10SM SCT027 BKN033 BKN055 M02/M09 A3018 390 60 -1500 300/16G28 RMK AO2 PK WND 29029/1427 SNE36 SLP230 P0000 60000 T10221089 53043
14840KMKG MKG20071130100013711/30/07 10:00:31  5-MIN KMKG 301500Z 29020G27KT 10SM BKN027 BKN033 BKN055 M03/M09 A3019 380 63 -1600 290/20G27 RMK AO2 PK WND 30027/1459
14840KMKG MKG20071130100513011/30/07 10:05:31  5-MIN KMKG 301505Z 30016G27KT 10SM BKN029 BKN033 M03/M09 A3019 380 63 -1600 300/16G27 RMK AO2 PK WND 30027/1459
14840KMKG MKG20071130101013011/30/07 10:10:31  5-MIN KMKG 301510Z 29017G24KT 10SM BKN027 BKN033 M03/M09 A3019 380 60 -1600 300/17G24 RMK AO2 PK WND 30027/1459
14840KMKG MKG20071130101513011/30/07 10:15:31  5-MIN KMKG 301515Z 29014G22KT 10SM BKN029 BKN035 M03/M10 A3019 380 58 -1600 300/14G22 RMK AO2 PK WND 30027/1459
14840KMKG MKG20071130102013011/30/07 10:20:31  5-MIN KMKG 301520Z 29016G23KT 10SM SCT029 BKN035 M03/M11 A3019 380 57 -1700 300/16G23 RMK AO2 PK WND 30027/1459
14840KMKG MKG20071130102513011/30/07 10:25:31  5-MIN KMKG 301525Z 30018G25KT 10SM SCT029 BKN033 M03/M10 A3020 370 60 -1700 300/18G25 RMK AO2 PK WND 30027/1459
14840KMKG MKG20071130103014511/30/07 10:30:31  5-MIN KMKG 301530Z 29016G25KT 10SM SCT029 BKN036 M03/M10 A3020 370 60 -1700 290/16G25 RMK AO2 PK WND 30027/1459 CIG 030 RWY 14
14840KMKG MKG20071130103512311/30/07 10:35:31  5-MIN KMKG 301535Z 29019G25KT 10SM SCT032 M03/M11 A3020 370 55 -1600 290/19G25 RMK AO2 PK WND 30027/1459
14840KMKG MKG20071130104014511/30/07 10:40:31  5-MIN KMKG 301540Z 29018G25KT 10SM SCT034 BKN041 M03/M11 A3021 370 57 -1700 290/18G25 RMK AO2 PK WND 30027/1459 CIG 032 RWY 14
14840KMKG MKG20071130104513011/30/07 10:45:31  5-MIN KMKG 301545Z 29016G27KT 10SM BKN034 BKN041 M04/M11 A3021 360 57 -1800 290/16G27 RMK AO2 PK WND 29027/1541
14840KMKG MKG20071130105014711/30/07 10:50:31  5-MIN KMKG 301550Z 28018G27KT 10SM BKN034 BKN041 M04/M11 A3021 360 60 -1800 280/18G27 RMK AO2 PK WND 29027/1541 SLP239 T10391106
14840KMKG MKG20071130105514711/30/07 10:55:31  5-MIN KMKG 301555Z 29018G25KT 10SM SCT030 BKN036 M03/M11 A3022 360 57 -1700 290/18G25 RMK AO2 PK WND 29027/1541 SLP242 T10331106
14840KMKG MKG20071130110010511/30/07 11:00:31  5-MIN KMKG 301600Z 29015G24KT 10SM BKN033 M03/M11 A3022 350 57 -1700 300/15G24 RMK AO2
14840KMKG MKG20071130110510511/30/07 11:05:31  5-MIN KMKG 301605Z 29012G22KT 10SM OVC033 M04/M11 A3022 350 57 -1800 300/12G22 RMK AO2
14840KMKG MKG20071130111010511/30/07 11:10:31  5-MIN KMKG 301610Z 30014G22KT 10SM OVC033 M04/M11 A3022 350 57 -1800 300/14G22 RMK AO2
14840KMKG MKG20071130111510511/30/07 11:15:31  5-MIN KMKG 301615Z 29017G23KT 10SM OVC033 M04/M12 A3023 350 55 -1800 300/17G23 RMK AO2
14840KMKG MKG20071130112012811/30/07 11:20:31  5-MIN KMKG 301620Z 29015G23KT 10SM -SN BKN031 OVC039 M04/M11 A3023 350 57 -1800 300/15G23 RMK AO2 SNB19 P0000
14840KMKG MKG20071130112512711/30/07 11:25:31  5-MIN KMKG 301625Z 30014G21KT 9SM -SN BKN031 OVC039 M04/M11 A3023 350 57 -1800 300/14G21 RMK AO2 SNB19 P0000
14840KMKG MKG20071130113012711/30/07 11:30:31  5-MIN KMKG 301630Z 29013G21KT 9SM -SN BKN032 OVC040 M04/M11 A3023 350 57 -1800 290/13G21 RMK AO2 SNB19 P0000
14840KMKG MKG20071130113512711/30/07 11:35:31  5-MIN KMKG 301635Z 30018G23KT 9SM -SN BKN032 OVC040 M04/M11 A3023 350 57 -1800 310/18G23 RMK AO2 SNB19 P0000
14840KMKG MKG20071130114012711/30/07 11:40:31  5-MIN KMKG 301640Z 29016G24KT 9SM -SN BKN032 OVC040 M04/M11 A3023 350 57 -1800 300/16G24 RMK AO2 SNB19 P0000
14840KMKG MKG20071130114512711/30/07 11:45:31  5-MIN KMKG 301645Z 30016G24KT 9SM -SN BKN032 OVC040 M04/M11 A3023 350 57 -1800 300/16G24 RMK AO2 SNB19 P0000
14840KMKG MKG20071130115014411/30/07 11:50:31  5-MIN KMKG 301650Z 29014G24KT 9SM -SN BKN032 OVC042 M04/M11 A3023 350 57 -1800 300/14G24 RMK AO2 SNB19 SLP245 P0000 T10391111
14840KMKG MKG20071130115516211/30/07 11:55:31  5-MIN KMKG 301655Z 29018G26KT 9SM -SN BKN032 OVC041 M04/M12 A3023 350 55 -1800 300/18G26 RMK AO2 PK WND 29026/1651 SNB19 SLP245 P0000 T10391117
14840KMKG MKG20071130120011411/30/07 12:00:31  5-MIN KMKG 301700Z 29019G26KT 9SM -SN OVC034 M04/M12 A3023 350 55 -1800 300/19G26 RMK AO2 P0000
14840KMKG MKG20071130120512111/30/07 12:05:31  5-MIN KMKG 301705Z 30016G24KT 9SM -SN BKN034 OVC043 M04/M12 A3023 350 57 -1900 300/16G24 RMK AO2 P0000
14840KMKG MKG20071130121012111/30/07 12:10:31  5-MIN KMKG 301710Z 29017G23KT 9SM -SN BKN034 OVC043 M04/M12 A3023 340 55 -1800 290/17G23 RMK AO2 P0000
14840KMKG MKG20071130121512111/30/07 12:15:31  5-MIN KMKG 301715Z 29014G23KT 9SM -SN BKN034 OVC043 M04/M11 A3023 350 57 -1800 300/14G23 RMK AO2 P0000
14840KMKG MKG20071130122013911/30/07 12:20:31  5-MIN KMKG 301720Z 30017G26KT 9SM -SN BKN034 OVC042 M04/M12 A3023 340 57 -1900 310/17G26 RMK AO2 PK WND 29026/1717 P0000
14840KMKG MKG20071130122513211/30/07 12:25:31  5-MIN KMKG 301725Z 28019G26KT 9SM -SN OVC034 M04/M12 A3023 340 55 -1900 280/19G26 RMK AO2 PK WND 29026/1721 P0000
14840KMKG MKG20071130123013911/30/07 12:30:31  5-MIN KMKG 301730Z 29017G26KT 9SM -SN SCT030 OVC038 M04/M12 A3023 340 55 -1800 300/17G26 RMK AO2 PK WND 29026/1721 P0000
14840KMKG MKG20071130123513911/30/07 12:35:31  5-MIN KMKG 301735Z 30012G23KT 9SM -SN BKN032 OVC040 M04/M11 A3024 340 57 -1800 300/12G23 RMK AO2 PK WND 29026/1721 P0000
14840KMKG MKG20071130124013911/30/07 12:40:31  5-MIN KMKG 301740Z 29020G26KT 9SM -SN BKN032 OVC039 M04/M12 A3024 340 55 -1800 300/20G26 RMK AO2 PK WND 31026/1738 P0000
14840KMKG MKG20071130124513211/30/07 12:45:31  5-MIN KMKG 301745Z 29019G26KT 9SM -SN OVC034 M04/M12 A3024 340 55 -1800 300/19G26 RMK AO2 PK WND 29026/1745 P0000
14840KMKG MKG20071130125018011/30/07 12:50:31  5-MIN KMKG 301750Z 30014G26KT 9SM -SN BKN032 OVC040 M04/M12 A3024 340 55 -1800 300/14G26 RMK AO2 PK WND 29026/1745 SLP249 P0000 60000 T10391117 10028 21044 53043
14840KMKG MKG20071130125518011/30/07 12:55:31  5-MIN KMKG 301755Z 29016G24KT 9SM -SN BKN030 OVC037 M04/M12 A3024 340 55 -1800 290/16G24 RMK AO2 PK WND 29026/1745 SLP248 P0000 60000 T10391117 10028 21044 51018
14840KMKG MKG20071130130011411/30/07 13:00:31  5-MIN KMKG 301800Z 30014G24KT 9SM -SN OVC032 M04/M12 A3024 330 52 -1800 310/14G24 RMK AO2 P0000
14840KMKG MKG20071130130511411/30/07 13:05:31  5-MIN KMKG 301805Z 30013G22KT 9SM -SN OVC032 M04/M12 A3025 330 55 -1900 310/13G22 RMK AO2 P0000
14840KMKG MKG20071130131011411/30/07 13:10:31  5-MIN KMKG 301810Z 29015G22KT 9SM -SN OVC032 M04/M12 A3025 330 57 -1900 290/15G22 RMK AO2 P0000
14840KMKG MKG20071130131512111/30/07 13:15:31  5-MIN KMKG 301815Z 29016G22KT 9SM -SN BKN030 OVC036 M04/M12 A3025 330 57 -1900 290/16G22 RMK AO2 P0000
14840KMKG MKG20071130132013911/30/07 13:20:31  5-MIN KMKG 301820Z 29016G26KT 9SM -SN BKN033 OVC043 M04/M12 A3025 320 57 -1900 300/16G26 RMK AO2 PK WND 28026/1817 P0000
14840KMKG MKG20071130132513911/30/07 13:25:31  5-MIN KMKG 301825Z 28014G26KT 9SM -SN BKN033 OVC040 M04/M12 A3025 330 55 -1800 290/14G26 RMK AO2 PK WND 28026/1817 P0000
14840KMKG MKG20071130133013911/30/07 13:30:31  5-MIN KMKG 301830Z 28019G26KT 9SM -SN BKN033 OVC040 M04/M12 A3025 330 52 -1800 290/19G26 RMK AO2 PK WND 28026/1826 P0000
14840KMKG MKG20071130133513911/30/07 13:35:31  5-MIN KMKG 301835Z 29016G26KT 9SM -SN BKN033 BKN043 M04/M13 A3025 330 50 -1800 290/16G26 RMK AO2 PK WND 28026/1826 P0000
14840KMKG MKG20071130134013911/30/07 13:40:31  5-MIN KMKG 301840Z 29016G25KT 9SM -SN BKN033 BKN043 M04/M13 A3025 320 48 -1800 290/16G25 RMK AO2 PK WND 28026/1826 P0000
14840KMKG MKG20071130134513911/30/07 13:45:31  5-MIN KMKG 301845Z 30016G25KT 9SM -SN BKN037 BKN046 M04/M13 A3025 320 52 -1900 300/16G25 RMK AO2 PK WND 28026/1826 P0000
14840KMKG MKG20071130135014911/30/07 13:50:31  5-MIN KMKG 301850Z 30017G25KT 9SM -SN BKN037 M04/M13 A3026 320 52 -1900 300/17G25 RMK AO2 PK WND 28026/1826 SLP255 P0000 T10441128
14840KMKG MKG20071130135514911/30/07 13:55:31  5-MIN KMKG 301855Z 30012G25KT 9SM -SN BKN037 M04/M13 A3026 320 50 -1800 300/12G25 RMK AO2 PK WND 28026/1826 SLP256 P0000 T10391128
14840KMKG MKG20071130140013911/30/07 14:00:31  5-MIN KMKG 301900Z 29019G27KT 9SM -SN BKN034 BKN042 M04/M12 A3026 320 55 -1900 300/19G27 RMK AO2 PK WND 29027/1859 P0000
14840KMKG MKG20071130140513911/30/07 14:05:31  5-MIN KMKG 301905Z 30018G28KT 9SM -SN BKN034 OVC042 M04/M12 A3026 320 55 -1900 300/18G28 RMK AO2 PK WND 29028/1901 P0000
14840KMKG MKG20071130141013211/30/07 14:10:31  5-MIN KMKG 301910Z 30013G28KT 9SM -SN OVC036 M04/M12 A3026 320 52 -1800 300/13G28 RMK AO2 PK WND 29028/1901 P0000
14840KMKG MKG20071130141513211/30/07 14:15:31  5-MIN KMKG 301915Z 29015G21KT 9SM -SN OVC036 M04/M12 A3026 310 55 -1900 290/15G21 RMK AO2 PK WND 29028/1901 P0000
14840KMKG MKG20071130142013911/30/07 14:20:31  5-MIN KMKG 301920Z 30012G23KT 9SM -SN BKN032 OVC040 M04/M12 A3027 310 52 -1900 300/12G23 RMK AO2 PK WND 29028/1901 P0000
14840KMKG MKG20071130142513211/30/07 14:25:31  5-MIN KMKG 301925Z 30013G23KT 9SM -SN OVC032 M04/M12 A3027 310 57 -1900 300/13G23 RMK AO2 PK WND 29028/1901 P0000
14840KMKG MKG20071130143013211/30/07 14:30:31  5-MIN KMKG 301930Z 29014G24KT 9SM -SN OVC032 M04/M12 A3027 310 55 -1900 290/14G24 RMK AO2 PK WND 29028/1901 P0000
14840KMKG MKG20071130143513911/30/07 14:35:31  5-MIN KMKG 301935Z 29014G24KT 9SM -SN BKN032 OVC041 M04/M13 A3027 310 52 -1900 290/14G24 RMK AO2 PK WND 29028/1901 P0000
14840KMKG MKG20071130144013911/30/07 14:40:31  5-MIN KMKG 301940Z 29018G23KT 9SM -SN BKN034 BKN041 M05/M13 A3028 300 52 -2000 290/18G23 RMK AO2 PK WND 29028/1901 P0000
14840KMKG MKG20071130144513411/30/07 14:45:31  5-MIN KMKG 301945Z 30014G23KT 9SM BKN034 M04/M13 A3028 300 50 -1900 300/14G23 RMK AO2 PK WND 29028/1901 SNE41 P0000
14840KMKG MKG20071130145015911/30/07 14:50:31  5-MIN KMKG 301950Z 29014G22KT 10SM BKN034 BKN042 M04/M13 A3028 300 52 -1900 300/14G22 RMK AO2 PK WND 29028/1901 SNE41 SLP264 P0000 T10441128
14840KMKG MKG20071130145515911/30/07 14:55:31  5-MIN KMKG 301955Z 30018G22KT 10SM BKN034 BKN042 M04/M13 A3028 300 52 -1900 310/18G22 RMK AO2 PK WND 29028/1901 SNE41 SLP264 P0000 T10441128
14840KMKG MKG20071130150010511/30/07 15:00:31  5-MIN KMKG 302000Z 29015G22KT 10SM BKN035 M04/M13 A3028 300 52 -1900 290/15G22 RMK AO2
14840KMKG MKG20071130150510511/30/07 15:05:31  5-MIN KMKG 302005Z 28017G24KT 10SM BKN035 M04/M13 A3029 290 52 -1900 290/17G24 RMK AO2
14840KMKG MKG20071130151010511/30/07 15:10:31  5-MIN KMKG 302010Z 29018G24KT 10SM OVC035 M04/M12 A3029 290 52 -1900 300/18G24 RMK AO2
14840KMKG MKG20071130151510511/30/07 15:15:31  5-MIN KMKG 302015Z 30015G23KT 10SM OVC035 M04/M12 A3030 290 55 -2000 300/15G23 RMK AO2
14840KMKG MKG20071130152010511/30/07 15:20:31  5-MIN KMKG 302020Z 29016G24KT 10SM OVC035 M04/M13 A3030 280 52 -2000 290/16G24 RMK AO2
14840KMKG MKG20071130152510511/30/07 15:25:31  5-MIN KMKG 302025Z 30015G24KT 10SM OVC033 M04/M13 A3030 280 52 -2000 310/15G24 RMK AO2
14840KMKG MKG20071130153010511/30/07 15:30:31  5-MIN KMKG 302030Z 28014G24KT 10SM OVC035 M04/M13 A3030 280 50 -2000 280/14G24 RMK AO2
14840KMKG MKG20071130153510511/30/07 15:35:31  5-MIN KMKG 302035Z 28017G24KT 10SM OVC035 M04/M13 A3031 270 52 -2000 290/17G24 RMK AO2
14840KMKG MKG20071130154010511/30/07 15:40:31  5-MIN KMKG 302040Z 28019G25KT 10SM OVC033 M04/M13 A3031 270 52 -2000 280/19G25 RMK AO2
14840KMKG MKG20071130154510511/30/07 15:45:31  5-MIN KMKG 302045Z 29016G25KT 10SM OVC033 M04/M13 A3031 270 52 -2000 290/16G25 RMK AO2
14840KMKG MKG20071130155013411/30/07 15:50:31  5-MIN KMKG 302050Z 29017G24KT 10SM OVC035 M04/M13 A3032 260 50 -1900 290/17G24 RMK AO2 SLP274 60000 T10391128 51018
14840KMKG MKG20071130155513411/30/07 15:55:31  5-MIN KMKG 302055Z 29013G24KT 10SM BKN035 M05/M13 A3032 260 52 -2100 300/13G24 RMK AO2 SLP276 60000 T10501133 53027
14840KMKG MKG20071130160010511/30/07 16:00:31  5-MIN KMKG 302100Z 29015G23KT 10SM BKN035 M05/M13 A3032 260 55 -2100 300/15G23 RMK AO2
14840KMKG MKG20071130160510511/30/07 16:05:31  5-MIN KMKG 302105Z 29016G23KT 10SM OVC037 M05/M13 A3033 260 52 -2100 300/16G23 RMK AO2
14840KMKG MKG20071130161010511/30/07 16:10:31  5-MIN KMKG 302110Z 30010G24KT 10SM BKN035 M05/M13 A3033 260 52 -2100 300/10G24 RMK AO2
14840KMKG MKG20071130161510511/30/07 16:15:31  5-MIN KMKG 302115Z 29016G24KT 10SM BKN037 M05/M14 A3033 260 50 -2100 300/16G24 RMK AO2
14840KMKG MKG20071130162010511/30/07 16:20:31  5-MIN KMKG 302120Z 30013G22KT 10SM BKN037 M05/M14 A3033 250 50 -2100 310/13G22 RMK AO2
14840KMKG MKG20071130162510511/30/07 16:25:31  5-MIN KMKG 302125Z 31012G22KT 10SM SCT037 M05/M14 A3033 250 50 -2100 310/12G22 RMK AO2
14840KMKG MKG20071130163010511/30/07 16:30:31  5-MIN KMKG 302130Z 31013G20KT 10SM SCT037 M05/M14 A3033 250 50 -2100 310/13G20 RMK AO2
14840KMKG MKG20071130163510511/30/07 16:35:31  5-MIN KMKG 302135Z 30012G20KT 10SM BKN037 M05/M13 A3033 250 52 -2100 300/12G20 RMK AO2
14840KMKG MKG20071130164010511/30/07 16:40:31  5-MIN KMKG 302140Z 30012G20KT 10SM BKN035 M05/M13 A3033 250 52 -2100 310/12G20 RMK AO2
14840KMKG MKG20071130164510511/30/07 16:45:31  5-MIN KMKG 302145Z 29011G20KT 10SM BKN037 M05/M13 A3033 250 52 -2100 300/11G20 RMK AO2
14840KMKG MKG20071130165011611/30/07 16:50:31  5-MIN KMKG 302150Z 29012KT 10SM BKN035 M05/M13 A3033 250 55 -2100 300/12 RMK AO2 SLP280 T10501128
14840KMKG MKG20071130165512211/30/07 16:55:31  5-MIN KMKG 302155Z 29015G20KT 10SM BKN035 M06/M13 A3034 250 54 -2100 300/15G20 RMK AO2 SLP282 T10561133
14840KMKG MKG20071130170011211/30/07 17:00:31  5-MIN KMKG 302200Z 31013G20KT 10SM BKN035 BKN041 M06/M13 A3033 250 54 -2100 310/13G20 RMK AO2
14840KMKG MKG20071130170510511/30/07 17:05:31  5-MIN KMKG 302205Z 31013G23KT 10SM BKN035 M06/M14 A3034 250 52 -2100 310/13G23 RMK AO2
14840KMKG MKG20071130171010511/30/07 17:10:31  5-MIN KMKG 302210Z 29013G23KT 10SM BKN035 M06/M14 A3034 240 52 -2200 290/13G23 RMK AO2
14840KMKG MKG20071130171510511/30/07 17:15:31  5-MIN KMKG 302215Z 29011G18KT 10SM BKN035 M06/M14 A3034 250 52 -2200 300/11G18 RMK AO2
14840KMKG MKG20071130172010511/30/07 17:20:31  5-MIN KMKG 302220Z 30010G17KT 10SM BKN035 M06/M13 A3034 240 54 -2200 310/10G17 RMK AO2
14840KMKG MKG20071130172510511/30/07 17:25:31  5-MIN KMKG 302225Z 30010G17KT 10SM SCT035 M06/M14 A3034 240 52 -2200 300/10G17 RMK AO2
14840KMKG MKG20071130173010511/30/07 17:30:31  5-MIN KMKG 302230Z 30007G17KT 10SM SCT035 M06/M14 A3035 240 52 -2200 300/07G17 RMK AO2
14840KMKG MKG20071130173510511/30/07 17:35:31  5-MIN KMKG 302235Z 31009G16KT 10SM BKN035 M06/M13 A3034 240 54 -2200 320/09G16 RMK AO2
14840KMKG MKG20071130174010511/30/07 17:40:31  5-MIN KMKG 302240Z 30008G16KT 10SM BKN033 M05/M13 A3035 240 55 -2100 300/08G16 RMK AO2
14840KMKG MKG20071130174509911/30/07 17:45:31  5-MIN KMKG 302245Z 30007KT 10SM BKN033 M05/M12 A3035 240 57 -2100 300/07 RMK AO2
14840KMKG MKG20071130175012211/30/07 17:50:31  5-MIN KMKG 302250Z 29010G14KT 10SM BKN033 M05/M12 A3035 230 57 -2100 300/10G14 RMK AO2 SLP287 T10501122
14840KMKG MKG20071130175512211/30/07 17:55:31  5-MIN KMKG 302255Z 29011G16KT 10SM BKN033 M05/M12 A3035 230 57 -2100 290/11G16 RMK AO2 SLP288 T10501122
14840KMKG MKG20071130180010511/30/07 18:00:31  5-MIN KMKG 302300Z 30008G16KT 10SM OVC033 M05/M12 A3036 230 57 -2100 300/08G16 RMK AO2
14840KMKG MKG20071130180510511/30/07 18:05:31  5-MIN KMKG 302305Z 28012G18KT 10SM OVC033 M05/M12 A3036 230 57 -2100 290/12G18 RMK AO2
14840KMKG MKG20071130181010511/30/07 18:10:31  5-MIN KMKG 302310Z 30012G18KT 10SM BKN033 M05/M12 A3036 230 57 -2100 300/12G18 RMK AO2
14840KMKG MKG20071130181510511/30/07 18:15:31  5-MIN KMKG 302315Z 30013G19KT 10SM BKN033 M05/M13 A3036 230 55 -2100 300/13G19 RMK AO2
14840KMKG MKG20071130182010511/30/07 18:20:31  5-MIN KMKG 302320Z 29010G19KT 10SM BKN033 M06/M13 A3036 220 57 -2200 290/10G19 RMK AO2
14840KMKG MKG20071130182510511/30/07 18:25:31  5-MIN KMKG 302325Z 29011G17KT 10SM BKN033 M06/M13 A3037 220 57 -2200 290/11G17 RMK AO2
14840KMKG MKG20071130183009911/30/07 18:30:31  5-MIN KMKG 302330Z 31009KT 10SM BKN035 M05/M13 A3037 210 52 -2100 310/09 RMK AO2
14840KMKG MKG20071130183509911/30/07 18:35:31  5-MIN KMKG 302335Z 30010KT 10SM SCT035 M05/M13 A3038 210 55 -2100 310/10 RMK AO2
14840KMKG MKG20071130184009911/30/07 18:40:31  5-MIN KMKG 302340Z 29009KT 10SM SCT035 M05/M13 A3038 210 55 -2100 290/09 RMK AO2
14840KMKG MKG20071130184509911/30/07 18:45:31  5-MIN KMKG 302345Z 29010KT 10SM SCT033 M05/M13 A3038 210 55 -2100 300/10 RMK AO2
14840KMKG MKG20071130185014611/30/07 18:50:31  5-MIN KMKG 302350Z 29012G18KT 10SM BKN033 M05/M13 A3038 210 55 -2100 290/12G18 RMK AO2 SLP296 60000 T10501128 11033 21056 53027
14840KMKG MKG20071130185514611/30/07 18:55:31  5-MIN KMKG 302355Z 29010G18KT 10SM BKN033 M05/M13 A3038 210 52 -2100 290/10G18 RMK AO2 SLP297 60000 T10501133 11033 21056 53021
14840KMKG MKG20071130190010511/30/07 19:00:31  5-MIN KMKG 010000Z 30011G18KT 10SM BKN033 M05/M13 A3038 210 55 -2100 300/11G18 RMK AO2
14840KMKG MKG20071130190510511/30/07 19:05:31  5-MIN KMKG 010005Z 30009G18KT 10SM SCT033 M05/M13 A3038 210 55 -2100 300/09G18 RMK AO2
14840KMKG MKG20071130191010511/30/07 19:10:31  5-MIN KMKG 010010Z 29010G18KT 10SM SCT033 M05/M13 A3038 210 55 -2100 290/10G18 RMK AO2
14840KMKG MKG20071130191510511/30/07 19:15:31  5-MIN KMKG 010015Z 29009G18KT 10SM BKN033 M05/M13 A3038 210 55 -2100 290/09G18 RMK AO2
14840KMKG MKG20071130192010511/30/07 19:20:31  5-MIN KMKG 010020Z 29013G17KT 10SM SCT033 M05/M13 A3038 200 55 -2100 300/13G17 RMK AO2
14840KMKG MKG20071130192510511/30/07 19:25:31  5-MIN KMKG 010025Z 30010G17KT 10SM FEW033 M05/M13 A3038 210 52 -2100 310/10G17 RMK AO2
14840KMKG MKG20071130193010511/30/07 19:30:31  5-MIN KMKG 010030Z 30014G20KT 10SM FEW033 M05/M13 A3039 200 52 -2100 300/14G20 RMK AO2
14840KMKG MKG20071130193510511/30/07 19:35:31  5-MIN KMKG 010035Z 30014G20KT 10SM SCT035 M05/M13 A3039 200 52 -2100 300/14G20 RMK AO2
14840KMKG MKG20071130194010511/30/07 19:40:31  5-MIN KMKG 010040Z 29010G19KT 10SM BKN035 M05/M13 A3039 200 55 -2100 290/10G19 RMK AO2
14840KMKG MKG20071130194510511/30/07 19:45:31  5-MIN KMKG 010045Z 29015G19KT 10SM SCT035 M05/M13 A3039 200 55 -2100 300/15G19 RMK AO2
14840KMKG MKG20071130195012211/30/07 19:50:31  5-MIN KMKG 010050Z 29011G19KT 10SM FEW035 M05/M13 A3039 200 52 -2100 290/11G19 RMK AO2 SLP301 T10501133
14840KMKG MKG20071130195511611/30/07 19:55:31  5-MIN KMKG 010055Z 30011KT 10SM SCT035 M05/M13 A3040 190 52 -2100 310/11 RMK AO2 SLP302 T10501133
14840KMKG MKG20071130200010511/30/07 20:00:31  5-MIN KMKG 010100Z 29009G16KT 10SM SCT035 M05/M13 A3040 190 52 -2100 290/09G16 RMK AO2
14840KMKG MKG20071130200510511/30/07 20:05:31  5-MIN KMKG 010105Z 29007G16KT 10SM SCT035 M05/M13 A3040 190 55 -2100 300/07G16 RMK AO2
14840KMKG MKG20071130201010511/30/07 20:10:31  5-MIN KMKG 010110Z 28011G16KT 10SM BKN033 M04/M12 A3039 190 55 -2100 290/11G16 RMK AO2
14840KMKG MKG20071130201510511/30/07 20:15:31  5-MIN KMKG 010115Z 28013G17KT 10SM BKN035 M04/M12 A3040 190 55 -2100 280/13G17 RMK AO2
14840KMKG MKG20071130202010511/30/07 20:20:31  5-MIN KMKG 010120Z 29010G19KT 10SM BKN035 M04/M12 A3040 190 55 -2100 290/10G19 RMK AO2
14840KMKG MKG20071130202510511/30/07 20:25:31  5-MIN KMKG 010125Z 28011G19KT 10SM BKN035 M04/M12 A3040 190 55 -2100 290/11G19 RMK AO2
14840KMKG MKG20071130203010511/30/07 20:30:31  5-MIN KMKG 010130Z 29014G20KT 10SM BKN035 M05/M12 A3040 190 57 -2100 290/14G20 RMK AO2
14840KMKG MKG20071130203510511/30/07 20:35:31  5-MIN KMKG 010135Z 29012G20KT 10SM SCT035 M05/M13 A3040 190 55 -2200 300/12G20 RMK AO2
14840KMKG MKG20071130204009911/30/07 20:40:31  5-MIN KMKG 010140Z 28012KT 10SM SCT035 M05/M13 A3040 190 52 -2200 290/12 RMK AO2
14840KMKG MKG20071130204510511/30/07 20:45:31  5-MIN KMKG 010145Z 29012G20KT 10SM BKN035 M05/M13 A3040 190 55 -2200 290/12G20 RMK AO2
14840KMKG MKG20071130205012211/30/07 20:50:31  5-MIN KMKG 010150Z 29011G20KT 10SM BKN033 M05/M13 A3040 190 55 -2200 290/11G20 RMK AO2 SLP304 T10501128
14840KMKG MKG20071130205511611/30/07 20:55:31  5-MIN KMKG 010155Z 28011KT 10SM FEW033 M05/M13 A3040 190 55 -2200 290/11 RMK AO2 SLP306 T10501128
14840KMKG MKG20071130210009911/30/07 21:00:31  5-MIN KMKG 010200Z 29009KT 10SM FEW033 M05/M13 A3040 190 55 -2200 290/09 RMK AO2
14840KMKG MKG20071130210509911/30/07 21:05:31  5-MIN KMKG 010205Z 29008KT 10SM SCT033 M05/M13 A3041 180 55 -2200 290/08 RMK AO2
14840KMKG MKG20071130211009911/30/07 21:10:31  5-MIN KMKG 010210Z 29012KT 10SM SCT033 M05/M13 A3041 180 55 -2200 300/12 RMK AO2
14840KMKG MKG20071130211509911/30/07 21:15:31  5-MIN KMKG 010215Z 29012KT 10SM SCT033 M05/M13 A3041 180 55 -2200 290/12 RMK AO2
14840KMKG MKG20071130212010511/30/07 21:20:31  5-MIN KMKG 010220Z 29014G17KT 10SM FEW033 M05/M12 A3041 180 57 -2200 290/14G17 RMK AO2
14840KMKG MKG20071130212510511/30/07 21:25:31  5-MIN KMKG 010225Z 28010G17KT 10SM SCT033 M05/M13 A3041 180 55 -2200 290/10G17 RMK AO2
14840KMKG MKG20071130213009911/30/07 21:30:31  5-MIN KMKG 010230Z 28010KT 10SM BKN033 M05/M13 A3041 180 55 -2200 280/10 RMK AO2
14840KMKG MKG20071130213510511/30/07 21:35:31  5-MIN KMKG 010235Z 29013G18KT 10SM BKN033 M04/M12 A3041 180 55 -2100 290/13G18 RMK AO2
14840KMKG MKG20071130214010511/30/07 21:40:31  5-MIN KMKG 010240Z 29013G19KT 10SM BKN033 M04/M13 A3041 180 52 -2100 300/13G19 RMK AO2
14840KMKG MKG20071130214510511/30/07 21:45:31  5-MIN KMKG 010245Z 28012G19KT 10SM BKN035 M04/M13 A3041 180 52 -2100 290/12G19 RMK AO2
14840KMKG MKG20071130215012211/30/07 21:50:31  5-MIN KMKG 010250Z 29009KT 10SM BKN035 M04/M13 A3041 180 52 -2100 300/09 RMK AO2 SLP310 T10441128 53021
14840KMKG MKG20071130215512211/30/07 21:55:31  5-MIN KMKG 010255Z 30011KT 10SM BKN035 M05/M12 A3042 170 57 -2200 300/11 RMK AO2 SLP310 T10501122 51012
14840KMKG MKG20071130220010511/30/07 22:00:31  5-MIN KMKG 010300Z 29013G18KT 10SM BKN035 M04/M12 A3042 170 55 -2100 300/13G18 RMK AO2
14840KMKG MKG20071130220510511/30/07 22:05:31  5-MIN KMKG 010305Z 28010G18KT 10SM OVC035 M04/M12 A3042 170 55 -2100 280/10G18 RMK AO2
14840KMKG MKG20071130221010511/30/07 22:10:31  5-MIN KMKG 010310Z 28012G19KT 10SM OVC035 M04/M12 A3042 170 55 -2100 290/12G19 RMK AO2
14840KMKG MKG20071130221510511/30/07 22:15:31  5-MIN KMKG 010315Z 29013G19KT 10SM BKN035 M04/M13 A3041 180 52 -2100 290/13G19 RMK AO2
14840KMKG MKG20071130222010511/30/07 22:20:31  5-MIN KMKG 010320Z 28012G20KT 10SM BKN035 M04/M12 A3041 180 55 -2100 290/12G20 RMK AO2
14840KMKG MKG20071130222510511/30/07 22:25:31  5-MIN KMKG 010325Z 28011G20KT 10SM BKN035 M04/M13 A3041 180 52 -2100 280/11G20 RMK AO2
14840KMKG MKG20071130223010511/30/07 22:30:31  5-MIN KMKG 010330Z 29011G17KT 10SM BKN035 M05/M13 A3042 170 55 -2200 300/11G17 RMK AO2
14840KMKG MKG20071130223509911/30/07 22:35:31  5-MIN KMKG 010335Z 29011KT 10SM BKN035 M05/M13 A3042 170 52 -2200 290/11 RMK AO2
14840KMKG MKG20071130224009911/30/07 22:40:31  5-MIN KMKG 010340Z 30010KT 10SM SCT035 M05/M13 A3042 170 55 -2200 300/10 RMK AO2
14840KMKG MKG20071130224509911/30/07 22:45:31  5-MIN KMKG 010345Z 29011KT 10SM SCT035 M05/M13 A3043 170 55 -2200 300/11 RMK AO2
14840KMKG MKG20071130225012211/30/07 22:50:31  5-MIN KMKG 010350Z 30011G17KT 10SM SCT035 M05/M13 A3043 160 52 -2200 300/11G17 RMK AO2 SLP314 T10501133
14840KMKG MKG20071130225511611/30/07 22:55:31  5-MIN KMKG 010355Z 30011KT 10SM SCT035 M05/M13 A3043 170 52 -2200 310/11 RMK AO2 SLP313 T10501133
14840KMKG MKG20071130230009911/30/07 23:00:31  5-MIN KMKG 010400Z 30009KT 10SM FEW035 M05/M13 A3042 170 52 -2200 300/09 RMK AO2
14840KMKG MKG20071130230509611/30/07 23:05:31  5-MIN KMKG 010405Z 30011KT 10SM CLR M05/M13 A3042 170 52 -2200 300/11 RMK AO2
14840KMKG MKG20071130231010511/30/07 23:10:31  5-MIN KMKG 010410Z 30007G16KT 10SM FEW036 M05/M13 A3043 160 55 -2200 300/07G16 RMK AO2
14840KMKG MKG20071130231509911/30/07 23:15:31  5-MIN KMKG 010415Z 30009KT 10SM SCT036 M05/M12 A3043 160 57 -2200 300/09 RMK AO2
14840KMKG MKG20071130232010511/30/07 23:20:31  5-MIN KMKG 010420Z 30010G16KT 10SM SCT034 M04/M12 A3043 160 55 -2100 300/10G16 RMK AO2
14840KMKG MKG20071130232509911/30/07 23:25:31  5-MIN KMKG 010425Z 31008KT 10SM SCT034 M04/M12 A3043 160 55 -2100 310/08 RMK AO2
14840KMKG MKG20071130233009911/30/07 23:30:31  5-MIN KMKG 010430Z 31008KT 10SM BKN034 M04/M12 A3043 160 55 -2100 310/08 RMK AO2
14840KMKG MKG20071130233509911/30/07 23:35:31  5-MIN KMKG 010435Z 31009KT 10SM BKN034 M04/M12 A3043 160 55 -2100 310/09 RMK AO2
14840KMKG MKG20071130234010511/30/07 23:40:31  5-MIN KMKG 010440Z 30011G16KT 10SM BKN034 M05/M12 A3044 160 57 -2200 300/11G16 RMK AO2
14840KMKG MKG20071130234510511/30/07 23:45:31  5-MIN KMKG 010445Z 29008G16KT 10SM BKN034 M05/M12 A3044 160 57 -2200 300/08G16 RMK AO2
14840KMKG MKG20071130235012611/30/07 23:50:31  5-MIN KMKG 010450Z 32010KT 10SM BKN034 M05/M12 A3044 160 57 -2200 320/10 RMK AO2 SLP317 T10501122 400391056
14840KMKG MKG20071130235513211/30/07 23:55:31  5-MIN KMKG 010455Z 31013G17KT 10SM BKN032 M05/M12 A3044 150 57 -2200 310/13G17 RMK AO2 SLP319 T10501122 400391056
