14840KMKG MKG20020901000009209/01/02 00:00:32  5-MIN KMKG 010500Z 13005KT 10SM CLR 19/17 A3024 340 87 900 130/05 RMK AO2
14840KMKG MKG20020901000509209/01/02 00:05:31  5-MIN KMKG 010505Z 12005KT 10SM CLR 19/17 A3024 340 87 900 130/05 RMK AO2
14840KMKG MKG20020901001009209/01/02 00:10:31  5-MIN KMKG 010510Z 12005KT 10SM CLR 19/17 A3024 340 87 900 130/05 RMK AO2
14840KMKG MKG20020901001509209/01/02 00:15:31  5-MIN KMKG 010515Z 12005KT 10SM CLR 19/17 A3024 340 87 900 130/05 RMK AO2
14840KMKG MKG20020901002009209/01/02 00:20:31  5-MIN KMKG 010520Z 12005KT 10SM CLR 19/17 A3024 340 87 900 130/05 RMK AO2
14840KMKG MKG20020901002509209/01/02 00:25:31  5-MIN KMKG 010525Z 13004KT 10SM CLR 19/17 A3024 340 87 900 130/04 RMK AO2
14840KMKG MKG20020901003009209/01/02 00:30:31  5-MIN KMKG 010530Z 13004KT 10SM CLR 19/17 A3024 340 87 900 140/04 RMK AO2
14840KMKG MKG20020901003509209/01/02 00:35:31  5-MIN KMKG 010535Z VRB04KT 10SM CLR 19/17 A3023 340 87 900 VRB/04 RMK AO2
14840KMKG MKG20020901004009209/01/02 00:40:31  5-MIN KMKG 010540Z VRB04KT 10SM CLR 19/17 A3023 340 87 900 VRB/04 RMK AO2
14840KMKG MKG20020901004509209/01/02 00:45:31  5-MIN KMKG 010545Z 11004KT 10SM CLR 19/17 A3023 340 87 900 120/04 RMK AO2
14840KMKG MKG20020901005012709/01/02 00:50:31  5-MIN KMKG 010550Z 11005KT 10SM CLR 19/17 A3023 340 87 900 120/05 RMK AO2 SLP234 T01890167 10256 20189 58001
14840KMKG MKG20020901005512709/01/02 00:55:31  5-MIN KMKG 010555Z 11005KT 10SM CLR 18/16 A3023 340 87 800 120/05 RMK AO2 SLP234 T01780156 10256 20178 58008
14840KMKG MKG20020901010009209/01/02 01:00:31  5-MIN KMKG 010600Z 11005KT 10SM CLR 18/15 A3023 350 83 800 120/05 RMK AO2
14840KMKG MKG20020901010509209/01/02 01:05:31  5-MIN KMKG 010605Z 11004KT 10SM CLR 18/15 A3023 350 83 800 120/04 RMK AO2
14840KMKG MKG20020901011009209/01/02 01:10:31  5-MIN KMKG 010610Z 12004KT 10SM CLR 18/15 A3023 350 83 800 120/04 RMK AO2
14840KMKG MKG20020901011509209/01/02 01:15:31  5-MIN KMKG 010615Z 11005KT 10SM CLR 17/15 A3023 350 87 700 120/05 RMK AO2
14840KMKG MKG20020901012009209/01/02 01:20:31  5-MIN KMKG 010620Z 11005KT 10SM CLR 17/15 A3023 350 87 700 120/05 RMK AO2
14840KMKG MKG20020901012509209/01/02 01:25:31  5-MIN KMKG 010625Z 11005KT 10SM CLR 17/15 A3023 350 90 700 110/05 RMK AO2
14840KMKG MKG20020901013009209/01/02 01:30:31  5-MIN KMKG 010630Z 11005KT 10SM CLR 17/15 A3023 350 90 700 110/05 RMK AO2
14840KMKG MKG20020901013509209/01/02 01:35:31  5-MIN KMKG 010635Z 11005KT 10SM CLR 17/15 A3022 350 90 700 110/05 RMK AO2
14840KMKG MKG20020901014009209/01/02 01:40:31  5-MIN KMKG 010640Z 11006KT 10SM CLR 17/14 A3022 350 86 700 110/06 RMK AO2
14840KMKG MKG20020901014509209/01/02 01:45:31  5-MIN KMKG 010645Z 11005KT 10SM CLR 17/14 A3022 350 86 700 120/05 RMK AO2
14840KMKG MKG20020901015010909/01/02 01:50:31  5-MIN KMKG 010650Z 11005KT 10SM CLR 16/14 A3022 350 90 600 120/05 RMK AO2 SLP230 T01610144
14840KMKG MKG20020901015510909/01/02 01:55:31  5-MIN KMKG 010655Z 11004KT 10SM CLR 16/14 A3022 350 90 600 120/04 RMK AO2 SLP230 T01610144
14840KMKG MKG20020901020009209/01/02 02:00:31  5-MIN KMKG 010700Z 12004KT 10SM CLR 16/14 A3022 350 90 600 120/04 RMK AO2
14840KMKG MKG20020901020509209/01/02 02:05:31  5-MIN KMKG 010705Z 12004KT 10SM CLR 17/14 A3022 360 86 700 120/04 RMK AO2
14840KMKG MKG20020901021009209/01/02 02:10:31  5-MIN KMKG 010710Z 11004KT 10SM CLR 17/14 A3021 360 86 700 120/04 RMK AO2
14840KMKG MKG20020901021509209/01/02 02:15:31  5-MIN KMKG 010715Z 11004KT 10SM CLR 16/14 A3021 360 90 600 120/04 RMK AO2
14840KMKG MKG20020901022009209/01/02 02:20:31  5-MIN KMKG 010720Z 12003KT 10SM CLR 16/14 A3021 360 90 600 120/03 RMK AO2
14840KMKG MKG20020901022509209/01/02 02:25:31  5-MIN KMKG 010725Z 12004KT 10SM CLR 16/14 A3021 360 90 600 130/04 RMK AO2
14840KMKG MKG20020901023009209/01/02 02:30:31  5-MIN KMKG 010730Z 12004KT 10SM CLR 16/14 A3021 360 90 600 120/04 RMK AO2
14840KMKG MKG20020901023509209/01/02 02:35:31  5-MIN KMKG 010735Z 12004KT 10SM CLR 17/14 A3021 360 86 700 120/04 RMK AO2
14840KMKG MKG20020901024009209/01/02 02:40:31  5-MIN KMKG 010740Z 12003KT 10SM CLR 17/14 A3021 360 86 700 120/03 RMK AO2
14840KMKG MKG20020901024509209/01/02 02:45:31  5-MIN KMKG 010745Z 12003KT 10SM CLR 17/14 A3021 360 86 700 120/03 RMK AO2
14840KMKG MKG20020901025010909/01/02 02:50:31  5-MIN KMKG 010750Z 11003KT 10SM CLR 17/14 A3021 360 86 700 120/03 RMK AO2 SLP228 T01670144
14840KMKG MKG20020901025510909/01/02 02:55:31  5-MIN KMKG 010755Z 00000KT 10SM CLR 17/14 A3021 360 86 700 000/00 RMK AO2 SLP228 T01670144
14840KMKG MKG20020901030009209/01/02 03:00:31  5-MIN KMKG 010800Z 10003KT 10SM CLR 17/14 A3021 360 86 700 110/03 RMK AO2
14840KMKG MKG20020901030509209/01/02 03:05:31  5-MIN KMKG 010805Z 10003KT 10SM CLR 17/14 A3021 360 86 700 100/03 RMK AO2
14840KMKG MKG20020901031009209/01/02 03:10:31  5-MIN KMKG 010810Z 00000KT 10SM CLR 16/14 A3021 360 90 600 000/00 RMK AO2
14840KMKG MKG20020901031509209/01/02 03:15:31  5-MIN KMKG 010815Z 00000KT 10SM CLR 16/14 A3021 360 90 600 000/00 RMK AO2
14840KMKG MKG20020901032009209/01/02 03:20:31  5-MIN KMKG 010820Z 00000KT 10SM CLR 16/14 A3021 360 90 600 000/00 RMK AO2
14840KMKG MKG20020901032509209/01/02 03:25:31  5-MIN KMKG 010825Z 09003KT 10SM CLR 16/14 A3021 360 93 600 100/03 RMK AO2
14840KMKG MKG20020901033009209/01/02 03:30:31  5-MIN KMKG 010830Z 09003KT 10SM CLR 16/14 A3021 360 90 600 100/03 RMK AO2
14840KMKG MKG20020901033509209/01/02 03:35:31  5-MIN KMKG 010835Z 00000KT 10SM CLR 16/14 A3021 360 90 600 000/00 RMK AO2
14840KMKG MKG20020901034009209/01/02 03:40:31  5-MIN KMKG 010840Z 00000KT 10SM CLR 16/14 A3021 360 90 600 000/00 RMK AO2
14840KMKG MKG20020901034509209/01/02 03:45:31  5-MIN KMKG 010845Z 00000KT 10SM CLR 16/14 A3021 360 93 600 000/00 RMK AO2
14840KMKG MKG20020901035011509/01/02 03:50:31  5-MIN KMKG 010850Z 00000KT 10SM CLR 16/14 A3021 360 86 600 000/00 RMK AO2 SLP227 T01610139 58008
14840KMKG MKG20020901035511509/01/02 03:55:31  5-MIN KMKG 010855Z 00000KT 10SM CLR 16/14 A3021 360 86 600 000/00 RMK AO2 SLP228 T01610139 56006
14840KMKG MKG20020901040009209/01/02 04:00:31  5-MIN KMKG 010900Z 09003KT 10SM CLR 16/14 A3021 360 90 600 100/03 RMK AO2
14840KMKG MKG20020901040509209/01/02 04:05:31  5-MIN KMKG 010905Z 00000KT 10SM CLR 16/14 A3021 360 90 600 000/00 RMK AO2
14840KMKG MKG20020901041009209/01/02 04:10:31  5-MIN KMKG 010910Z 00000KT 10SM CLR 16/14 A3021 360 90 600 000/00 RMK AO2
14840KMKG MKG20020901041509209/01/02 04:15:31  5-MIN KMKG 010915Z 00000KT 10SM CLR 15/14 A3021 360 93 500 000/00 RMK AO2
14840KMKG MKG20020901042009109/01/02 04:20:31  5-MIN KMKG 010920Z 00000KT 9SM CLR 15/14 A3021 360 93 500 000/00 RMK AO2
14840KMKG MKG20020901042509109/01/02 04:25:31  5-MIN KMKG 010925Z 00000KT 9SM CLR 16/14 A3021 360 90 500 000/00 RMK AO2
14840KMKG MKG20020901043009109/01/02 04:30:31  5-MIN KMKG 010930Z 00000KT 9SM CLR 16/14 A3021 360 90 500 000/00 RMK AO2
14840KMKG MKG20020901043509109/01/02 04:35:31  5-MIN KMKG 010935Z 00000KT 9SM CLR 15/14 A3021 360 93 500 000/00 RMK AO2
14840KMKG MKG20020901044009109/01/02 04:40:31  5-MIN KMKG 010940Z 00000KT 9SM CLR 15/14 A3022 360 93 500 000/00 RMK AO2
14840KMKG MKG20020901044509109/01/02 04:45:31  5-MIN KMKG 010945Z 00000KT 9SM CLR 15/14 A3022 360 93 500 000/00 RMK AO2
14840KMKG MKG20020901045010809/01/02 04:50:31  5-MIN KMKG 010950Z 00000KT 9SM CLR 16/14 A3022 360 90 500 000/00 RMK AO2 SLP229 T01560139
14840KMKG MKG20020901045510809/01/02 04:55:31  5-MIN KMKG 010955Z 00000KT 9SM CLR 15/14 A3022 360 93 500 000/00 RMK AO2 SLP229 T01500139
14840KMKG MKG20020901050009209/01/02 05:00:31  5-MIN KMKG 011000Z 00000KT 10SM CLR 15/14 A3022 360 93 500 000/00 RMK AO2
14840KMKG MKG20020901050509109/01/02 05:05:31  5-MIN KMKG 011005Z 00000KT 9SM CLR 15/14 A3021 360 93 500 000/00 RMK AO2
14840KMKG MKG20020901051009109/01/02 05:10:31  5-MIN KMKG 011010Z 00000KT 9SM CLR 15/14 A3021 360 93 500 000/00 RMK AO2
14840KMKG MKG20020901051509109/01/02 05:15:31  5-MIN KMKG 011015Z 00000KT 8SM CLR 14/13 A3021 360 93 400 000/00 RMK AO2
14840KMKG MKG20020901052009109/01/02 05:20:31  5-MIN KMKG 011020Z 00000KT 7SM CLR 14/13 A3021 360 93 400 000/00 RMK AO2
14840KMKG MKG20020901052509109/01/02 05:25:31  5-MIN KMKG 011025Z 00000KT 7SM CLR 14/14 A3022 360 96 400 000/00 RMK AO2
14840KMKG MKG20020901053009109/01/02 05:30:31  5-MIN KMKG 011030Z 00000KT 7SM CLR 14/14 A3022 360 96 400 000/00 RMK AO2
14840KMKG MKG20020901053509109/01/02 05:35:31  5-MIN KMKG 011035Z 00000KT 7SM CLR 15/14 A3022 360 93 500 000/00 RMK AO2
14840KMKG MKG20020901054009109/01/02 05:40:31  5-MIN KMKG 011040Z 09003KT 7SM CLR 15/14 A3022 360 93 500 090/03 RMK AO2
14840KMKG MKG20020901054509109/01/02 05:45:31  5-MIN KMKG 011045Z 00000KT 7SM CLR 14/14 A3022 350 96 400 000/00 RMK AO2
14840KMKG MKG20020901055011109/01/02 05:50:31  5-MIN KMKG 011050Z 08003KT 6SM BR CLR 14/14 A3022 350 96 400 080/03 RMK AO2 SLP232 T01440139
14840KMKG MKG20020901055511109/01/02 05:55:31  5-MIN KMKG 011055Z 00000KT 6SM BR CLR 14/13 A3022 350 93 400 000/00 RMK AO2 SLP232 T01440133
14840KMKG MKG20020901060009409/01/02 06:00:31  5-MIN KMKG 011100Z 00000KT 6SM BR CLR 14/13 A3022 350 93 400 000/00 RMK AO2
14840KMKG MKG20020901060509409/01/02 06:05:31  5-MIN KMKG 011105Z 00000KT 6SM BR CLR 14/13 A3022 350 93 400 000/00 RMK AO2
14840KMKG MKG20020901061009409/01/02 06:10:31  5-MIN KMKG 011110Z 00000KT 6SM BR CLR 14/13 A3022 350 93 400 000/00 RMK AO2
14840KMKG MKG20020901061509409/01/02 06:15:31  5-MIN KMKG 011115Z 00000KT 6SM BR CLR 14/13 A3022 350 96 300 000/00 RMK AO2
14840KMKG MKG20020901062009409/01/02 06:20:31  5-MIN KMKG 011120Z 00000KT 6SM BR CLR 14/13 A3023 350 96 300 000/00 RMK AO2
14840KMKG MKG20020901062509409/01/02 06:25:31  5-MIN KMKG 011125Z 07003KT 6SM BR CLR 14/13 A3022 350 96 300 070/03 RMK AO2
14840KMKG MKG20020901063009109/01/02 06:30:31  5-MIN KMKG 011130Z 07003KT 7SM CLR 15/13 A3022 350 90 500 080/03 RMK AO2
14840KMKG MKG20020901063509109/01/02 06:35:31  5-MIN KMKG 011135Z 08004KT 7SM CLR 14/14 A3022 350 96 400 090/04 RMK AO2
14840KMKG MKG20020901064009409/01/02 06:40:31  5-MIN KMKG 011140Z 10005KT 6SM BR CLR 14/14 A3022 350 96 400 100/05 RMK AO2
14840KMKG MKG20020901064509409/01/02 06:45:31  5-MIN KMKG 011145Z 09004KT 5SM BR CLR 14/14 A3022 350 96 400 100/04 RMK AO2
14840KMKG MKG20020901065012909/01/02 06:50:31  5-MIN KMKG 011150Z 00000KT 5SM BR CLR 14/14 A3023 350 96 400 000/00 RMK AO2 SLP233 T01440139 10178 20139 56006
14840KMKG MKG20020901065512909/01/02 06:55:31  5-MIN KMKG 011155Z 00000KT 5SM BR CLR 15/14 A3023 350 93 500 000/00 RMK AO2 SLP233 T01500139 10178 20139 52005
14840KMKG MKG20020901070009409/01/02 07:00:31  5-MIN KMKG 011200Z 11003KT 5SM BR CLR 15/14 A3022 350 96 500 120/03 RMK AO2
14840KMKG MKG20020901070509409/01/02 07:05:31  5-MIN KMKG 011205Z 11003KT 6SM BR CLR 16/14 A3023 350 93 500 120/03 RMK AO2
14840KMKG MKG20020901071009109/01/02 07:10:31  5-MIN KMKG 011210Z 10004KT 7SM CLR 16/14 A3022 350 90 600 110/04 RMK AO2
14840KMKG MKG20020901071509109/01/02 07:15:31  5-MIN KMKG 011215Z 11003KT 7SM CLR 16/14 A3022 350 90 600 110/03 RMK AO2
14840KMKG MKG20020901072009109/01/02 07:20:31  5-MIN KMKG 011220Z 11003KT 7SM CLR 17/14 A3022 350 86 700 110/03 RMK AO2
14840KMKG MKG20020901072509109/01/02 07:25:31  5-MIN KMKG 011225Z 11003KT 8SM CLR 17/15 A3022 350 90 700 110/03 RMK AO2
14840KMKG MKG20020901073009109/01/02 07:30:31  5-MIN KMKG 011230Z 11005KT 8SM CLR 17/15 A3022 360 87 700 110/05 RMK AO2
14840KMKG MKG20020901073509109/01/02 07:35:31  5-MIN KMKG 011235Z 12004KT 8SM CLR 17/15 A3022 360 87 700 130/04 RMK AO2
14840KMKG MKG20020901074009109/01/02 07:40:31  5-MIN KMKG 011240Z 12004KT 9SM CLR 18/15 A3022 360 83 800 120/04 RMK AO2
14840KMKG MKG20020901074509109/01/02 07:45:31  5-MIN KMKG 011245Z 12004KT 9SM CLR 18/15 A3021 360 83 800 120/04 RMK AO2
14840KMKG MKG20020901075010909/01/02 07:50:31  5-MIN KMKG 011250Z 12005KT 10SM CLR 18/16 A3021 360 87 800 120/05 RMK AO2 SLP228 T01780156
14840KMKG MKG20020901075510909/01/02 07:55:31  5-MIN KMKG 011255Z 12004KT 10SM CLR 18/16 A3021 360 84 900 120/04 RMK AO2 SLP228 T01830156
14840KMKG MKG20020901080009209/01/02 08:00:31  5-MIN KMKG 011300Z 13005KT 10SM CLR 18/16 A3021 360 84 900 130/05 RMK AO2
14840KMKG MKG20020901080509209/01/02 08:05:31  5-MIN KMKG 011305Z 11005KT 10SM CLR 19/16 A3021 360 81 900 120/05 RMK AO2
14840KMKG MKG20020901081009209/01/02 08:10:31  5-MIN KMKG 011310Z 11004KT 10SM CLR 19/16 A3021 360 81 900 120/04 RMK AO2
14840KMKG MKG20020901081509309/01/02 08:15:31  5-MIN KMKG 011315Z 12004KT 10SM CLR 19/16 A3021 370 81 1000 120/04 RMK AO2
14840KMKG MKG20020901082009309/01/02 08:20:31  5-MIN KMKG 011320Z 12005KT 10SM CLR 19/16 A3021 370 81 1000 120/05 RMK AO2
14840KMKG MKG20020901082509309/01/02 08:25:31  5-MIN KMKG 011325Z 13005KT 10SM CLR 20/17 A3021 370 81 1100 130/05 RMK AO2
14840KMKG MKG20020901083009309/01/02 08:30:31  5-MIN KMKG 011330Z 13005KT 10SM CLR 21/17 A3021 360 78 1100 130/05 RMK AO2
14840KMKG MKG20020901083509309/01/02 08:35:31  5-MIN KMKG 011335Z 14005KT 10SM CLR 21/17 A3021 360 78 1100 150/05 RMK AO2
14840KMKG MKG20020901084009309/01/02 08:40:31  5-MIN KMKG 011340Z 14005KT 10SM CLR 21/17 A3021 360 78 1200 140/05 RMK AO2
14840KMKG MKG20020901084509309/01/02 08:45:31  5-MIN KMKG 011345Z 13005KT 10SM CLR 22/17 A3021 370 75 1300 140/05 RMK AO2
14840KMKG MKG20020901085011009/01/02 08:50:31  5-MIN KMKG 011350Z 12005KT 10SM CLR 21/17 A3021 370 78 1200 120/05 RMK AO2 SLP226 T02110172
14840KMKG MKG20020901085511009/01/02 08:55:31  5-MIN KMKG 011355Z 14004KT 10SM CLR 22/17 A3020 370 75 1300 140/04 RMK AO2 SLP225 T02170172
14840KMKG MKG20020901090009309/01/02 09:00:31  5-MIN KMKG 011400Z 16004KT 10SM CLR 22/17 A3020 370 73 1300 170/04 RMK AO2
14840KMKG MKG20020901090509309/01/02 09:05:31  5-MIN KMKG 011405Z 14003KT 10SM CLR 22/17 A3020 370 73 1300 150/03 RMK AO2
14840KMKG MKG20020901091009309/01/02 09:10:31  5-MIN KMKG 011410Z 13004KT 10SM CLR 23/18 A3020 370 73 1400 140/04 RMK AO2
14840KMKG MKG20020901091509309/01/02 09:15:31  5-MIN KMKG 011415Z VRB05KT 10SM CLR 23/18 A3020 370 73 1400 VRB/05 RMK AO2
14840KMKG MKG20020901092009309/01/02 09:20:31  5-MIN KMKG 011420Z 13004KT 10SM CLR 23/18 A3020 370 73 1400 130/04 RMK AO2
14840KMKG MKG20020901092509309/01/02 09:25:31  5-MIN KMKG 011425Z 16004KT 10SM CLR 23/18 A3020 370 73 1400 170/04 RMK AO2
14840KMKG MKG20020901093009309/01/02 09:30:31  5-MIN KMKG 011430Z 15004KT 10SM CLR 23/18 A3020 370 73 1400 150/04 RMK AO2
14840KMKG MKG20020901093509309/01/02 09:35:31  5-MIN KMKG 011435Z 13005KT 10SM CLR 24/18 A3019 380 68 1500 140/05 RMK AO2
14840KMKG MKG20020901094009309/01/02 09:40:31  5-MIN KMKG 011440Z 14004KT 10SM CLR 23/18 A3019 380 70 1500 150/04 RMK AO2
14840KMKG MKG20020901094509309/01/02 09:45:31  5-MIN KMKG 011445Z VRB04KT 10SM CLR 24/18 A3019 380 68 1500 VRB/04 RMK AO2
14840KMKG MKG20020901095011609/01/02 09:50:31  5-MIN KMKG 011450Z 17005KT 10SM CLR 24/18 A3019 380 68 1500 170/05 RMK AO2 SLP222 T02390178 52005
14840KMKG MKG20020901095511609/01/02 09:55:31  5-MIN KMKG 011455Z 16004KT 10SM CLR 24/18 A3020 380 68 1500 170/04 RMK AO2 SLP223 T02390178 56009
14840KMKG MKG20020901100009309/01/02 10:00:31  5-MIN KMKG 011500Z 00000KT 10SM CLR 24/18 A3020 380 71 1500 000/00 RMK AO2
14840KMKG MKG20020901100509309/01/02 10:05:31  5-MIN KMKG 011505Z 00000KT 10SM CLR 24/18 A3019 380 68 1600 000/00 RMK AO2
14840KMKG MKG20020901101009309/01/02 10:10:31  5-MIN KMKG 011510Z 00000KT 10SM CLR 24/18 A3019 380 66 1600 000/00 RMK AO2
14840KMKG MKG20020901101509309/01/02 10:15:31  5-MIN KMKG 011515Z 21004KT 10SM CLR 25/18 A3020 380 66 1700 210/04 RMK AO2
14840KMKG MKG20020901102009309/01/02 10:20:31  5-MIN KMKG 011520Z 00000KT 10SM CLR 25/18 A3020 380 64 1700 000/00 RMK AO2
14840KMKG MKG20020901102509309/01/02 10:25:31  5-MIN KMKG 011525Z VRB03KT 10SM CLR 25/18 A3020 380 66 1700 VRB/03 RMK AO2
14840KMKG MKG20020901103009309/01/02 10:30:31  5-MIN KMKG 011530Z 00000KT 10SM CLR 26/19 A3019 380 66 1700 000/00 RMK AO2
14840KMKG MKG20020901103509309/01/02 10:35:31  5-MIN KMKG 011535Z VRB03KT 10SM CLR 25/19 A3019 380 68 1700 VRB/03 RMK AO2
14840KMKG MKG20020901104009309/01/02 10:40:31  5-MIN KMKG 011540Z VRB04KT 10SM CLR 26/18 A3019 380 64 1700 VRB/04 RMK AO2
14840KMKG MKG20020901104509309/01/02 10:45:31  5-MIN KMKG 011545Z 00000KT 10SM CLR 26/19 A3018 390 66 1700 000/00 RMK AO2
14840KMKG MKG20020901105011009/01/02 10:50:31  5-MIN KMKG 011550Z VRB03KT 10SM CLR 26/19 A3018 390 66 1700 VRB/03 RMK AO2 SLP218 T02560189
14840KMKG MKG20020901105511009/01/02 10:55:31  5-MIN KMKG 011555Z VRB04KT 10SM CLR 26/19 A3018 390 64 1800 VRB/04 RMK AO2 SLP216 T02610189
14840KMKG MKG20020901110009309/01/02 11:00:31  5-MIN KMKG 011600Z 20006KT 10SM CLR 26/19 A3018 390 64 1800 200/06 RMK AO2
14840KMKG MKG20020901110509309/01/02 11:05:31  5-MIN KMKG 011605Z 23004KT 10SM CLR 26/18 A3018 390 62 1800 230/04 RMK AO2
14840KMKG MKG20020901111009309/01/02 11:10:31  5-MIN KMKG 011610Z VRB03KT 10SM CLR 26/18 A3017 400 59 1800 VRB/03 RMK AO2
14840KMKG MKG20020901111509309/01/02 11:15:31  5-MIN KMKG 011615Z VRB04KT 10SM CLR 27/18 A3018 400 57 1900 VRB/04 RMK AO2
14840KMKG MKG20020901112009309/01/02 11:20:31  5-MIN KMKG 011620Z 17005KT 10SM CLR 27/18 A3017 400 56 1900 180/05 RMK AO2
14840KMKG MKG20020901112509309/01/02 11:25:31  5-MIN KMKG 011625Z 23005KT 10SM CLR 27/18 A3017 400 57 1900 240/05 RMK AO2
14840KMKG MKG20020901113009309/01/02 11:30:31  5-MIN KMKG 011630Z 24006KT 10SM CLR 27/18 A3017 400 56 1900 240/06 RMK AO2
14840KMKG MKG20020901113509309/01/02 11:35:31  5-MIN KMKG 011635Z 20006KT 10SM CLR 27/18 A3017 400 56 1900 210/06 RMK AO2
14840KMKG MKG20020901114009309/01/02 11:40:31  5-MIN KMKG 011640Z VRB05KT 10SM CLR 27/18 A3017 400 60 1900 VRB/05 RMK AO2
14840KMKG MKG20020901114509309/01/02 11:45:31  5-MIN KMKG 011645Z VRB06KT 10SM CLR 27/18 A3016 410 58 1900 VRB/06 RMK AO2
14840KMKG MKG20020901115011009/01/02 11:50:31  5-MIN KMKG 011650Z 22009KT 10SM CLR 27/18 A3016 410 57 1900 230/09 RMK AO2 SLP210 T02670178
14840KMKG MKG20020901115511009/01/02 11:55:31  5-MIN KMKG 011655Z 23007KT 10SM CLR 27/17 A3016 410 54 2000 240/07 RMK AO2 SLP209 T02720172
14840KMKG MKG20020901120009309/01/02 12:00:31  5-MIN KMKG 011700Z 22008KT 10SM CLR 27/17 A3016 410 54 2000 220/08 RMK AO2
14840KMKG MKG20020901120509309/01/02 12:05:31  5-MIN KMKG 011705Z 22008KT 10SM CLR 27/17 A3016 410 54 2000 230/08 RMK AO2
14840KMKG MKG20020901121009309/01/02 12:10:31  5-MIN KMKG 011710Z 24008KT 10SM CLR 27/17 A3015 410 54 2000 250/08 RMK AO2
14840KMKG MKG20020901121509309/01/02 12:15:31  5-MIN KMKG 011715Z 23009KT 10SM CLR 27/18 A3015 420 56 2000 240/09 RMK AO2
14840KMKG MKG20020901122009609/01/02 12:20:31  5-MIN KMKG 011720Z 22009KT 10SM FEW045 27/18 A3015 420 56 2000 230/09 RMK AO2
14840KMKG MKG20020901122509609/01/02 12:25:31  5-MIN KMKG 011725Z 23009KT 10SM FEW045 27/17 A3015 420 55 1900 230/09 RMK AO2
14840KMKG MKG20020901123009609/01/02 12:30:31  5-MIN KMKG 011730Z 22009KT 10SM FEW045 27/17 A3015 420 52 2000 230/09 RMK AO2
14840KMKG MKG20020901123509609/01/02 12:35:31  5-MIN KMKG 011735Z 23007KT 10SM FEW045 27/17 A3015 420 52 2000 230/07 RMK AO2
14840KMKG MKG20020901124009609/01/02 12:40:31  5-MIN KMKG 011740Z 24007KT 10SM FEW045 27/17 A3015 420 54 2000 240/07 RMK AO2
14840KMKG MKG20020901124509609/01/02 12:45:31  5-MIN KMKG 011745Z 23008KT 10SM FEW045 28/18 A3015 420 54 2000 230/08 RMK AO2
14840KMKG MKG20020901125013109/01/02 12:50:31  5-MIN KMKG 011750Z 25010KT 10SM FEW045 27/17 A3015 420 54 2000 250/10 RMK AO2 SLP206 T02720172 10278 20150 56009
14840KMKG MKG20020901125513109/01/02 12:55:31  5-MIN KMKG 011755Z 23009KT 10SM FEW045 27/17 A3015 420 52 2000 240/09 RMK AO2 SLP205 T02720167 10278 20150 56017
14840KMKG MKG20020901130009609/01/02 13:00:31  5-MIN KMKG 011800Z 25008KT 10SM FEW045 27/17 A3015 420 52 2000 250/08 RMK AO2
14840KMKG MKG20020901130509609/01/02 13:05:31  5-MIN KMKG 011805Z 25007KT 10SM FEW045 28/18 A3014 420 54 2000 250/07 RMK AO2
14840KMKG MKG20020901131009609/01/02 13:10:31  5-MIN KMKG 011810Z 24007KT 10SM FEW045 28/18 A3014 420 54 2000 240/07 RMK AO2
14840KMKG MKG20020901131509609/01/02 13:15:31  5-MIN KMKG 011815Z 25010KT 10SM FEW045 28/17 A3014 420 52 2000 250/10 RMK AO2
14840KMKG MKG20020901132009609/01/02 13:20:31  5-MIN KMKG 011820Z 24009KT 10SM FEW045 27/17 A3014 420 54 2000 240/09 RMK AO2
14840KMKG MKG20020901132509609/01/02 13:25:31  5-MIN KMKG 011825Z 22009KT 10SM FEW045 27/18 A3014 430 56 2000 230/09 RMK AO2
14840KMKG MKG20020901133009609/01/02 13:30:31  5-MIN KMKG 011830Z 24008KT 10SM FEW045 27/18 A3014 430 56 2000 240/08 RMK AO2
14840KMKG MKG20020901133509609/01/02 13:35:31  5-MIN KMKG 011835Z 22008KT 10SM FEW045 27/18 A3014 430 58 2000 220/08 RMK AO2
14840KMKG MKG20020901134009609/01/02 13:40:31  5-MIN KMKG 011840Z 22010KT 10SM FEW045 27/18 A3014 430 58 2000 220/10 RMK AO2
14840KMKG MKG20020901134509609/01/02 13:45:31  5-MIN KMKG 011845Z 22009KT 10SM FEW045 27/18 A3013 430 56 2000 220/09 RMK AO2
14840KMKG MKG20020901135011309/01/02 13:50:31  5-MIN KMKG 011850Z 23009KT 10SM FEW045 27/19 A3013 440 62 1900 240/09 RMK AO2 SLP200 T02670189
14840KMKG MKG20020901135511309/01/02 13:55:31  5-MIN KMKG 011855Z 24009KT 10SM FEW045 26/18 A3013 440 62 1900 250/09 RMK AO2 SLP201 T02610183
14840KMKG MKG20020901140009609/01/02 14:00:31  5-MIN KMKG 011900Z 23008KT 10SM SCT045 27/19 A3013 440 62 1900 230/08 RMK AO2
14840KMKG MKG20020901140509609/01/02 14:05:31  5-MIN KMKG 011905Z 21010KT 10SM SCT045 27/18 A3013 440 58 2000 220/10 RMK AO2
14840KMKG MKG20020901141009609/01/02 14:10:31  5-MIN KMKG 011910Z 22008KT 10SM SCT045 27/18 A3012 440 58 2000 220/08 RMK AO2
14840KMKG MKG20020901141509609/01/02 14:15:31  5-MIN KMKG 011915Z 22009KT 10SM SCT045 27/19 A3012 440 60 2000 230/09 RMK AO2
14840KMKG MKG20020901142009609/01/02 14:20:31  5-MIN KMKG 011920Z 23008KT 10SM SCT045 27/18 A3012 440 60 1900 240/08 RMK AO2
14840KMKG MKG20020901142509609/01/02 14:25:31  5-MIN KMKG 011925Z 23009KT 10SM SCT045 27/18 A3012 450 58 2000 230/09 RMK AO2
14840KMKG MKG20020901143009609/01/02 14:30:31  5-MIN KMKG 011930Z 26009KT 10SM SCT045 27/18 A3012 450 56 2000 260/09 RMK AO2
14840KMKG MKG20020901143509609/01/02 14:35:31  5-MIN KMKG 011935Z 26010KT 10SM SCT045 27/18 A3012 450 60 1900 260/10 RMK AO2
14840KMKG MKG20020901144009609/01/02 14:40:31  5-MIN KMKG 011940Z 25008KT 10SM SCT045 27/17 A3012 450 55 1900 250/08 RMK AO2
14840KMKG MKG20020901144509609/01/02 14:45:31  5-MIN KMKG 011945Z 24007KT 10SM SCT045 27/18 A3011 450 57 1900 250/07 RMK AO2
14840KMKG MKG20020901145011309/01/02 14:50:31  5-MIN KMKG 011950Z 25006KT 10SM SCT040 27/17 A3011 460 55 1900 250/06 RMK AO2 SLP193 T02670172
14840KMKG MKG20020901145511309/01/02 14:55:31  5-MIN KMKG 011955Z 23006KT 10SM SCT040 27/17 A3011 460 55 1900 230/06 RMK AO2 SLP192 T02670172
14840KMKG MKG20020901150009609/01/02 15:00:31  5-MIN KMKG 012000Z 22006KT 10SM FEW040 27/17 A3010 460 53 2000 230/06 RMK AO2
14840KMKG MKG20020901150509609/01/02 15:05:31  5-MIN KMKG 012005Z 24007KT 10SM FEW040 27/18 A3010 460 57 2000 240/07 RMK AO2
14840KMKG MKG20020901151009609/01/02 15:10:31  5-MIN KMKG 012010Z 22009KT 10SM FEW040 26/17 A3010 460 55 1900 220/09 RMK AO2
14840KMKG MKG20020901151509609/01/02 15:15:31  5-MIN KMKG 012015Z 21007KT 10SM FEW040 27/17 A3010 460 55 2000 220/07 RMK AO2
14840KMKG MKG20020901152009609/01/02 15:20:31  5-MIN KMKG 012020Z 21007KT 10SM FEW040 27/17 A3010 470 55 2000 220/07 RMK AO2
14840KMKG MKG20020901152509609/01/02 15:25:31  5-MIN KMKG 012025Z 22008KT 10SM FEW040 27/17 A3010 470 55 2000 230/08 RMK AO2
14840KMKG MKG20020901153009609/01/02 15:30:31  5-MIN KMKG 012030Z 21007KT 10SM FEW040 27/17 A3009 470 54 2000 210/07 RMK AO2
14840KMKG MKG20020901153509609/01/02 15:35:31  5-MIN KMKG 012035Z 22008KT 10SM FEW040 27/17 A3009 470 55 2000 220/08 RMK AO2
14840KMKG MKG20020901154009609/01/02 15:40:31  5-MIN KMKG 012040Z 22006KT 10SM FEW040 27/17 A3009 470 52 2000 230/06 RMK AO2
14840KMKG MKG20020901154509609/01/02 15:45:31  5-MIN KMKG 012045Z 23008KT 10SM FEW040 27/17 A3009 470 52 2000 230/08 RMK AO2
14840KMKG MKG20020901155011909/01/02 15:50:31  5-MIN KMKG 012050Z 23008KT 10SM FEW045 27/16 A3009 470 50 2000 240/08 RMK AO2 SLP187 T02720161 56017
14840KMKG MKG20020901155511909/01/02 15:55:31  5-MIN KMKG 012055Z 23009KT 10SM FEW045 27/16 A3009 470 48 2000 230/09 RMK AO2 SLP187 T02720156 56018
14840KMKG MKG20020901160009309/01/02 16:00:31  5-MIN KMKG 012100Z 22008KT 10SM CLR 27/15 A3009 470 46 2000 230/08 RMK AO2
14840KMKG MKG20020901160509609/01/02 16:05:31  5-MIN KMKG 012105Z 24008KT 10SM FEW050 27/16 A3009 470 48 2000 250/08 RMK AO2
14840KMKG MKG20020901161009609/01/02 16:10:31  5-MIN KMKG 012110Z 24006KT 10SM FEW050 27/16 A3009 480 48 2000 240/06 RMK AO2
14840KMKG MKG20020901161509609/01/02 16:15:31  5-MIN KMKG 012115Z 22007KT 10SM FEW050 27/16 A3009 480 50 2000 220/07 RMK AO2
14840KMKG MKG20020901162009609/01/02 16:20:31  5-MIN KMKG 012120Z 22007KT 10SM FEW050 27/16 A3009 480 48 2000 230/07 RMK AO2
14840KMKG MKG20020901162509609/01/02 16:25:31  5-MIN KMKG 012125Z 23005KT 10SM FEW050 27/16 A3009 480 48 2000 230/05 RMK AO2
14840KMKG MKG20020901163009609/01/02 16:30:31  5-MIN KMKG 012130Z 24007KT 10SM FEW050 27/16 A3008 480 48 2000 240/07 RMK AO2
14840KMKG MKG20020901163509609/01/02 16:35:31  5-MIN KMKG 012135Z 23007KT 10SM FEW050 27/15 A3008 480 46 2000 230/07 RMK AO2
14840KMKG MKG20020901164009609/01/02 16:40:31  5-MIN KMKG 012140Z 23007KT 10SM FEW050 27/16 A3008 480 50 2000 240/07 RMK AO2
14840KMKG MKG20020901164509609/01/02 16:45:31  5-MIN KMKG 012145Z 23005KT 10SM FEW050 27/16 A3008 480 50 2000 240/05 RMK AO2
14840KMKG MKG20020901165011309/01/02 16:50:31  5-MIN KMKG 012150Z 21005KT 10SM FEW050 27/16 A3007 490 50 2000 210/05 RMK AO2 SLP181 T02720161
14840KMKG MKG20020901165511309/01/02 16:55:31  5-MIN KMKG 012155Z 21005KT 10SM FEW050 27/15 A3007 490 48 2000 210/05 RMK AO2 SLP181 T02670150
14840KMKG MKG20020901170009309/01/02 17:00:31  5-MIN KMKG 012200Z 22006KT 10SM CLR 27/16 A3007 490 50 2000 220/06 RMK AO2
14840KMKG MKG20020901170509309/01/02 17:05:31  5-MIN KMKG 012205Z 21006KT 10SM CLR 27/16 A3007 500 48 2100 210/06 RMK AO2
14840KMKG MKG20020901171009309/01/02 17:10:31  5-MIN KMKG 012210Z 20006KT 10SM CLR 27/15 A3007 500 48 2000 200/06 RMK AO2
14840KMKG MKG20020901171509309/01/02 17:15:31  5-MIN KMKG 012215Z 20007KT 10SM CLR 27/16 A3006 500 48 2100 200/07 RMK AO2
14840KMKG MKG20020901172009309/01/02 17:20:31  5-MIN KMKG 012220Z 19007KT 10SM CLR 27/15 A3006 500 48 2000 200/07 RMK AO2
14840KMKG MKG20020901172509309/01/02 17:25:31  5-MIN KMKG 012225Z 19007KT 10SM CLR 27/16 A3006 500 50 2000 200/07 RMK AO2
14840KMKG MKG20020901173009309/01/02 17:30:31  5-MIN KMKG 012230Z 20007KT 10SM CLR 27/16 A3006 500 50 2000 210/07 RMK AO2
14840KMKG MKG20020901173509309/01/02 17:35:31  5-MIN KMKG 012235Z 20007KT 10SM CLR 26/16 A3006 500 51 1900 210/07 RMK AO2
14840KMKG MKG20020901174009309/01/02 17:40:31  5-MIN KMKG 012240Z 20006KT 10SM CLR 26/16 A3006 500 51 1900 210/06 RMK AO2
14840KMKG MKG20020901174509309/01/02 17:45:31  5-MIN KMKG 012245Z 19008KT 10SM CLR 26/15 A3006 500 50 1900 190/08 RMK AO2
14840KMKG MKG20020901175011009/01/02 17:50:31  5-MIN KMKG 012250Z 20007KT 10SM CLR 26/15 A3006 500 50 1900 200/07 RMK AO2 SLP176 T02610150
14840KMKG MKG20020901175511009/01/02 17:55:31  5-MIN KMKG 012255Z 20006KT 10SM CLR 26/16 A3005 510 53 1900 200/06 RMK AO2 SLP175 T02560156
14840KMKG MKG20020901180009309/01/02 18:00:31  5-MIN KMKG 012300Z 18006KT 10SM CLR 26/16 A3006 510 53 1900 190/06 RMK AO2
14840KMKG MKG20020901180509309/01/02 18:05:31  5-MIN KMKG 012305Z 18007KT 10SM CLR 26/16 A3006 510 53 1900 180/07 RMK AO2
14840KMKG MKG20020901181009309/01/02 18:10:31  5-MIN KMKG 012310Z 18006KT 10SM CLR 26/16 A3005 510 53 1900 190/06 RMK AO2
14840KMKG MKG20020901181509309/01/02 18:15:31  5-MIN KMKG 012315Z 18006KT 10SM CLR 26/15 A3005 510 51 1900 190/06 RMK AO2
14840KMKG MKG20020901182009309/01/02 18:20:31  5-MIN KMKG 012320Z 19005KT 10SM CLR 25/15 A3005 510 53 1800 200/05 RMK AO2
14840KMKG MKG20020901182509309/01/02 18:25:31  5-MIN KMKG 012325Z 19004KT 10SM CLR 24/16 A3005 510 57 1800 200/04 RMK AO2
14840KMKG MKG20020901183009309/01/02 18:30:31  5-MIN KMKG 012330Z 20004KT 10SM CLR 24/16 A3005 510 61 1700 200/04 RMK AO2
14840KMKG MKG20020901183509309/01/02 18:35:31  5-MIN KMKG 012335Z 20004KT 10SM CLR 24/16 A3005 510 61 1700 200/04 RMK AO2
14840KMKG MKG20020901184009309/01/02 18:40:31  5-MIN KMKG 012340Z 19004KT 10SM CLR 24/16 A3005 510 61 1700 200/04 RMK AO2
14840KMKG MKG20020901184509309/01/02 18:45:31  5-MIN KMKG 012345Z 19004KT 10SM CLR 24/16 A3005 510 61 1700 200/04 RMK AO2
14840KMKG MKG20020901185012809/01/02 18:50:31  5-MIN KMKG 012350Z 20003KT 10SM CLR 23/17 A3005 510 66 1600 200/03 RMK AO2 SLP175 T02330167 10278 20233 56018
14840KMKG MKG20020901185512809/01/02 18:55:31  5-MIN KMKG 012355Z 19003KT 10SM CLR 23/17 A3005 510 66 1600 190/03 RMK AO2 SLP173 T02330167 10278 20233 56014
14840KMKG MKG20020901190009309/01/02 19:00:31  5-MIN KMKG 020000Z 18003KT 10SM CLR 23/17 A3005 510 68 1600 190/03 RMK AO2
14840KMKG MKG20020901190509309/01/02 19:05:31  5-MIN KMKG 020005Z 00000KT 10SM CLR 23/17 A3005 510 66 1600 000/00 RMK AO2
14840KMKG MKG20020901191009309/01/02 19:10:31  5-MIN KMKG 020010Z 00000KT 10SM CLR 23/17 A3005 510 68 1600 000/00 RMK AO2
14840KMKG MKG20020901191509309/01/02 19:15:31  5-MIN KMKG 020015Z 00000KT 10SM CLR 23/17 A3005 510 68 1600 000/00 RMK AO2
14840KMKG MKG20020901192009309/01/02 19:20:31  5-MIN KMKG 020020Z 00000KT 10SM CLR 23/17 A3005 510 68 1600 000/00 RMK AO2
14840KMKG MKG20020901192509309/01/02 19:25:31  5-MIN KMKG 020025Z 00000KT 10SM CLR 23/17 A3005 510 68 1600 000/00 RMK AO2
14840KMKG MKG20020901193009309/01/02 19:30:31  5-MIN KMKG 020030Z 00000KT 10SM CLR 23/17 A3005 510 68 1600 000/00 RMK AO2
14840KMKG MKG20020901193509309/01/02 19:35:31  5-MIN KMKG 020035Z 00000KT 10SM CLR 22/17 A3005 510 70 1500 000/00 RMK AO2
14840KMKG MKG20020901194009309/01/02 19:40:31  5-MIN KMKG 020040Z 00000KT 10SM CLR 22/17 A3005 510 73 1500 000/00 RMK AO2
14840KMKG MKG20020901194509309/01/02 19:45:31  5-MIN KMKG 020045Z 00000KT 10SM CLR 22/17 A3005 510 73 1400 000/00 RMK AO2
14840KMKG MKG20020901195011009/01/02 19:50:31  5-MIN KMKG 020050Z 00000KT 10SM CLR 22/17 A3005 510 73 1400 000/00 RMK AO2 SLP173 T02170167
14840KMKG MKG20020901195511009/01/02 19:55:31  5-MIN KMKG 020055Z 00000KT 10SM CLR 22/16 A3005 510 70 1400 000/00 RMK AO2 SLP174 T02170161
14840KMKG MKG20020901200009309/01/02 20:00:31  5-MIN KMKG 020100Z 00000KT 10SM CLR 22/17 A3005 510 73 1400 000/00 RMK AO2
14840KMKG MKG20020901200509309/01/02 20:05:31  5-MIN KMKG 020105Z 00000KT 10SM CLR 22/17 A3005 510 73 1400 000/00 RMK AO2
14840KMKG MKG20020901201009309/01/02 20:10:31  5-MIN KMKG 020110Z 00000KT 10SM CLR 22/17 A3005 510 73 1400 000/00 RMK AO2
14840KMKG MKG20020901201509309/01/02 20:15:31  5-MIN KMKG 020115Z 11003KT 10SM CLR 21/17 A3005 510 75 1400 110/03 RMK AO2
14840KMKG MKG20020901202009309/01/02 20:20:31  5-MIN KMKG 020120Z 12004KT 10SM CLR 21/17 A3004 520 78 1300 120/04 RMK AO2
14840KMKG MKG20020901202509309/01/02 20:25:31  5-MIN KMKG 020125Z 12004KT 10SM CLR 21/17 A3004 520 78 1300 130/04 RMK AO2
14840KMKG MKG20020901203009309/01/02 20:30:31  5-MIN KMKG 020130Z 13004KT 10SM CLR 20/17 A3004 520 81 1300 130/04 RMK AO2
14840KMKG MKG20020901203509309/01/02 20:35:31  5-MIN KMKG 020135Z 00000KT 10SM CLR 20/16 A3004 520 78 1300 000/00 RMK AO2
14840KMKG MKG20020901204009309/01/02 20:40:31  5-MIN KMKG 020140Z 00000KT 10SM CLR 21/16 A3004 520 75 1300 000/00 RMK AO2
14840KMKG MKG20020901204509309/01/02 20:45:31  5-MIN KMKG 020145Z 00000KT 10SM CLR 21/16 A3004 520 73 1400 000/00 RMK AO2
14840KMKG MKG20020901205011009/01/02 20:50:31  5-MIN KMKG 020150Z 00000KT 10SM CLR 21/16 A3004 520 73 1400 000/00 RMK AO2 SLP171 T02110161
14840KMKG MKG20020901205511009/01/02 20:55:31  5-MIN KMKG 020155Z 00000KT 10SM CLR 21/16 A3004 520 73 1400 000/00 RMK AO2 SLP171 T02110161
14840KMKG MKG20020901210009309/01/02 21:00:31  5-MIN KMKG 020200Z 00000KT 10SM CLR 21/16 A3004 520 73 1400 000/00 RMK AO2
14840KMKG MKG20020901210509309/01/02 21:05:31  5-MIN KMKG 020205Z 00000KT 10SM CLR 21/16 A3005 510 75 1300 000/00 RMK AO2
14840KMKG MKG20020901211009309/01/02 21:10:31  5-MIN KMKG 020210Z 00000KT 10SM CLR 21/16 A3005 510 75 1300 000/00 RMK AO2
14840KMKG MKG20020901211509309/01/02 21:15:31  5-MIN KMKG 020215Z 00000KT 10SM CLR 21/16 A3004 520 75 1300 000/00 RMK AO2
14840KMKG MKG20020901212009309/01/02 21:20:31  5-MIN KMKG 020220Z 00000KT 10SM CLR 21/16 A3004 520 75 1300 000/00 RMK AO2
14840KMKG MKG20020901212509309/01/02 21:25:31  5-MIN KMKG 020225Z 10003KT 10SM CLR 21/16 A3004 520 73 1400 110/03 RMK AO2
14840KMKG MKG20020901213009309/01/02 21:30:31  5-MIN KMKG 020230Z 11003KT 10SM CLR 21/16 A3004 520 73 1400 110/03 RMK AO2
14840KMKG MKG20020901213509309/01/02 21:35:31  5-MIN KMKG 020235Z 00000KT 10SM CLR 21/16 A3004 520 73 1400 000/00 RMK AO2
14840KMKG MKG20020901214009309/01/02 21:40:31  5-MIN KMKG 020240Z 00000KT 10SM CLR 21/16 A3004 520 73 1400 000/00 RMK AO2
14840KMKG MKG20020901214509309/01/02 21:45:31  5-MIN KMKG 020245Z 11003KT 10SM CLR 21/16 A3004 520 73 1400 120/03 RMK AO2
14840KMKG MKG20020901215011609/01/02 21:50:31  5-MIN KMKG 020250Z 12003KT 10SM CLR 21/16 A3004 520 75 1300 120/03 RMK AO2 SLP169 T02060161 56014
14840KMKG MKG20020901215511609/01/02 21:55:31  5-MIN KMKG 020255Z 12003KT 10SM CLR 19/16 A3004 520 81 1200 120/03 RMK AO2 SLP168 T01940161 58004
14840KMKG MKG20020901220009309/01/02 22:00:31  5-MIN KMKG 020300Z 00000KT 10SM CLR 19/16 A3004 520 81 1200 000/00 RMK AO2
14840KMKG MKG20020901220509309/01/02 22:05:31  5-MIN KMKG 020305Z 12003KT 10SM CLR 20/16 A3004 520 78 1300 130/03 RMK AO2
14840KMKG MKG20020901221009309/01/02 22:10:31  5-MIN KMKG 020310Z 12003KT 10SM CLR 20/16 A3004 520 78 1300 120/03 RMK AO2
14840KMKG MKG20020901221509309/01/02 22:15:31  5-MIN KMKG 020315Z 11003KT 10SM CLR 19/16 A3004 520 81 1200 120/03 RMK AO2
14840KMKG MKG20020901222009309/01/02 22:20:31  5-MIN KMKG 020320Z 00000KT 10SM CLR 20/16 A3004 520 78 1300 000/00 RMK AO2
14840KMKG MKG20020901222509309/01/02 22:25:31  5-MIN KMKG 020325Z 00000KT 10SM CLR 20/16 A3004 520 78 1300 000/00 RMK AO2
14840KMKG MKG20020901223009609/01/02 22:30:31  5-MIN KMKG 020330Z 00000KT 10SM FEW060 21/16 A3004 520 75 1300 000/00 RMK AO2
14840KMKG MKG20020901223509609/01/02 22:35:31  5-MIN KMKG 020335Z 00000KT 10SM SCT060 21/16 A3004 520 75 1300 000/00 RMK AO2
14840KMKG MKG20020901224009609/01/02 22:40:31  5-MIN KMKG 020340Z 10003KT 10SM SCT060 20/16 A3004 520 78 1300 110/03 RMK AO2
14840KMKG MKG20020901224509609/01/02 22:45:31  5-MIN KMKG 020345Z 00000KT 10SM SCT060 20/16 A3004 520 78 1300 000/00 RMK AO2
14840KMKG MKG20020901225011309/01/02 22:50:31  5-MIN KMKG 020350Z 10003KT 10SM BKN060 21/16 A3003 530 75 1300 100/03 RMK AO2 SLP167 T02060161
14840KMKG MKG20020901225511309/01/02 22:55:31  5-MIN KMKG 020355Z 10003KT 10SM BKN065 21/16 A3003 530 75 1300 110/03 RMK AO2 SLP167 T02060161
14840KMKG MKG20020901230009609/01/02 23:00:31  5-MIN KMKG 020400Z 11003KT 10SM BKN060 20/16 A3003 530 78 1300 120/03 RMK AO2
14840KMKG MKG20020901230510309/01/02 23:05:31  5-MIN KMKG 020405Z 12003KT 10SM SCT060 SCT075 20/17 A3003 530 81 1300 120/03 RMK AO2
14840KMKG MKG20020901231009609/01/02 23:10:31  5-MIN KMKG 020410Z 12004KT 10SM SCT060 19/17 A3002 530 84 1200 120/04 RMK AO2
14840KMKG MKG20020901231509609/01/02 23:15:31  5-MIN KMKG 020415Z 13005KT 10SM FEW060 19/17 A3002 540 84 1200 140/05 RMK AO2
14840KMKG MKG20020901232009609/01/02 23:20:31  5-MIN KMKG 020420Z 13004KT 10SM FEW060 19/17 A3002 540 84 1200 140/04 RMK AO2
14840KMKG MKG20020901232509609/01/02 23:25:31  5-MIN KMKG 020425Z 13003KT 10SM FEW060 19/17 A3002 540 84 1200 140/03 RMK AO2
14840KMKG MKG20020901233009609/01/02 23:30:31  5-MIN KMKG 020430Z 14004KT 10SM SCT055 19/17 A3002 540 84 1200 140/04 RMK AO2
14840KMKG MKG20020901233509609/01/02 23:35:31  5-MIN KMKG 020435Z 14004KT 10SM SCT055 19/17 A3002 540 84 1200 140/04 RMK AO2
14840KMKG MKG20020901234009609/01/02 23:40:31  5-MIN KMKG 020440Z 15004KT 10SM BKN055 21/17 A3002 540 78 1400 150/04 RMK AO2
14840KMKG MKG20020901234510309/01/02 23:45:31  5-MIN KMKG 020445Z 14005KT 10SM BKN055 BKN070 21/17 A3001 540 75 1400 150/05 RMK AO2
14840KMKG MKG20020901235013009/01/02 23:50:31  5-MIN KMKG 020450Z 14005KT 10SM SCT055 SCT070 21/17 A3002 540 78 1400 150/05 RMK AO2 SLP161 T02060167 402780139
14840KMKG MKG20020901235512209/01/02 23:55:31  5-MIN KMKG 020455Z 14005KT 9SM SCT055 21/17 A3002 540 78 1400 150/05 RMK AO2 SLP161 T02060167 402780139
14840KMKG MKG20020902000009509/02/02 00:00:31  5-MIN KMKG 020500Z 14005KT 9SM SCT055 21/17 A3001 550 78 1400 150/05 RMK AO2
14840KMKG MKG20020902000510209/02/02 00:05:31  5-MIN KMKG 020505Z 14005KT 9SM SCT050 SCT070 21/17 A3001 550 81 1400 140/05 RMK AO2
14840KMKG MKG20020902001010209/02/02 00:10:31  5-MIN KMKG 020510Z 15004KT 9SM SCT050 BKN065 21/17 A3001 540 78 1400 150/04 RMK AO2
14840KMKG MKG20020902001510909/02/02 00:15:31  5-MIN KMKG 020515Z 16004KT 9SM SCT050 SCT060 BKN075 21/17 A3001 540 78 1400 170/04 RMK AO2
14840KMKG MKG20020902002010209/02/02 00:20:31  5-MIN KMKG 020520Z 15004KT 9SM SCT050 BKN070 21/17 A3001 540 78 1400 160/04 RMK AO2
14840KMKG MKG20020902002510909/02/02 00:25:31  5-MIN KMKG 020525Z 15005KT 8SM BKN048 BKN065 BKN075 22/17 A3002 540 75 1500 160/05 RMK AO2
14840KMKG MKG20020902003010209/02/02 00:30:31  5-MIN KMKG 020530Z 17003KT 8SM BKN048 BKN070 22/17 A3002 540 75 1500 170/03 RMK AO2
14840KMKG MKG20020902003510209/02/02 00:35:31  5-MIN KMKG 020535Z 13003KT 8SM BKN048 BKN075 21/17 A3001 540 78 1400 140/03 RMK AO2
14840KMKG MKG20020902004010209/02/02 00:40:31  5-MIN KMKG 020540Z 13003KT 8SM BKN048 BKN075 21/17 A3001 550 81 1400 130/03 RMK AO2
14840KMKG MKG20020902004509509/02/02 00:45:31  5-MIN KMKG 020545Z 13003KT 8SM SCT048 21/17 A3001 540 81 1400 140/03 RMK AO2
14840KMKG MKG20020902005013709/02/02 00:50:31  5-MIN KMKG 020550Z 15003KT 8SM SCT048 SCT080 21/17 A3001 550 81 1400 150/03 RMK AO2 SLP160 T02060172 10233 20194 58004
14840KMKG MKG20020902005514409/02/02 00:55:31  5-MIN KMKG 020555Z 15004KT 8SM FEW048 SCT060 SCT080 21/17 A3001 550 81 1400 160/04 RMK AO2 SLP159 T02060172 10233 20194 56009
14840KMKG MKG20020902010010209/02/02 01:00:31  5-MIN KMKG 020600Z 14005KT 7SM SCT048 BKN080 21/17 A3001 550 78 1400 140/05 RMK AO2
14840KMKG MKG20020902010510209/02/02 01:05:31  5-MIN KMKG 020605Z 14004KT 7SM SCT048 BKN080 21/17 A3001 550 78 1400 140/04 RMK AO2
14840KMKG MKG20020902011010909/02/02 01:10:31  5-MIN KMKG 020610Z 15004KT 7SM SCT048 SCT060 BKN080 21/17 A3001 550 78 1400 150/04 RMK AO2
14840KMKG MKG20020902011510909/02/02 01:15:31  5-MIN KMKG 020615Z 15004KT 7SM BKN048 BKN060 BKN080 22/18 A3001 550 78 1500 160/04 RMK AO2
14840KMKG MKG20020902012010209/02/02 01:20:31  5-MIN KMKG 020620Z 14005KT 7SM BKN048 BKN080 22/18 A3000 560 78 1500 150/05 RMK AO2
14840KMKG MKG20020902012510909/02/02 01:25:31  5-MIN KMKG 020625Z 15005KT 7SM BKN048 BKN055 BKN075 22/17 A3000 560 75 1500 160/05 RMK AO2
14840KMKG MKG20020902013010209/02/02 01:30:31  5-MIN KMKG 020630Z 15005KT 8SM SCT048 BKN060 22/17 A3000 560 75 1500 150/05 RMK AO2
14840KMKG MKG20020902013509509/02/02 01:35:31  5-MIN KMKG 020635Z 16004KT 8SM SCT050 22/18 A3000 560 78 1500 160/04 RMK AO2
14840KMKG MKG20020902014009509/02/02 01:40:31  5-MIN KMKG 020640Z 15004KT 8SM SCT049 22/18 A3000 560 78 1500 150/04 RMK AO2
14840KMKG MKG20020902014509509/02/02 01:45:31  5-MIN KMKG 020645Z 14004KT 7SM FEW049 21/18 A3000 560 81 1400 150/04 RMK AO2
14840KMKG MKG20020902015011209/02/02 01:50:31  5-MIN KMKG 020650Z 15003KT 7SM FEW060 21/17 A2999 560 78 1400 150/03 RMK AO2 SLP154 T02110172
14840KMKG MKG20020902015510909/02/02 01:55:31  5-MIN KMKG 020655Z 15004KT 7SM CLR 21/17 A2999 560 81 1400 160/04 RMK AO2 SLP153 T02060172
14840KMKG MKG20020902020009209/02/02 02:00:31  5-MIN KMKG 020700Z 15003KT 7SM CLR 21/18 A2999 560 81 1400 160/03 RMK AO2
14840KMKG MKG20020902020509209/02/02 02:05:31  5-MIN KMKG 020705Z 15003KT 7SM CLR 21/18 A2999 570 81 1400 160/03 RMK AO2
14840KMKG MKG20020902021009209/02/02 02:10:31  5-MIN KMKG 020710Z 14004KT 7SM CLR 21/18 A2999 570 84 1400 150/04 RMK AO2
14840KMKG MKG20020902021509209/02/02 02:15:31  5-MIN KMKG 020715Z 14004KT 7SM CLR 20/18 A2999 570 87 1300 140/04 RMK AO2
14840KMKG MKG20020902022009509/02/02 02:20:31  5-MIN KMKG 020720Z 13005KT 6SM BR CLR 20/18 A2999 570 87 1300 130/05 RMK AO2
14840KMKG MKG20020902022509509/02/02 02:25:31  5-MIN KMKG 020725Z 14004KT 6SM BR CLR 20/18 A2999 570 87 1300 140/04 RMK AO2
14840KMKG MKG20020902023009509/02/02 02:30:31  5-MIN KMKG 020730Z 15005KT 6SM BR CLR 20/18 A2999 570 87 1300 150/05 RMK AO2
14840KMKG MKG20020902023509509/02/02 02:35:31  5-MIN KMKG 020735Z 15004KT 6SM HZ CLR 21/18 A2998 570 84 1500 160/04 RMK AO2
14840KMKG MKG20020902024009509/02/02 02:40:31  5-MIN KMKG 020740Z 14003KT 6SM HZ CLR 21/18 A2998 570 84 1500 150/03 RMK AO2
14840KMKG MKG20020902024509509/02/02 02:45:31  5-MIN KMKG 020745Z 13004KT 6SM BR CLR 21/18 A2998 570 87 1400 130/04 RMK AO2
14840KMKG MKG20020902025011209/02/02 02:50:31  5-MIN KMKG 020750Z 12005KT 6SM BR CLR 20/18 A2998 580 87 1300 130/05 RMK AO2 SLP148 T02000178
14840KMKG MKG20020902025511209/02/02 02:55:31  5-MIN KMKG 020755Z 12006KT 6SM BR CLR 20/18 A2998 580 87 1300 120/06 RMK AO2 SLP148 T02000178
14840KMKG MKG20020902030009509/02/02 03:00:31  5-MIN KMKG 020800Z 13005KT 6SM BR CLR 20/18 A2997 580 87 1300 140/05 RMK AO2
14840KMKG MKG20020902030509509/02/02 03:05:31  5-MIN KMKG 020805Z 14004KT 6SM BR CLR 21/18 A2997 580 87 1400 150/04 RMK AO2
14840KMKG MKG20020902031009509/02/02 03:10:31  5-MIN KMKG 020810Z 15005KT 5SM BR CLR 20/18 A2997 580 87 1300 150/05 RMK AO2
14840KMKG MKG20020902031509809/02/02 03:15:31  5-MIN KMKG 020815Z 14004KT 5SM BR FEW080 21/18 A2997 590 87 1400 150/04 RMK AO2
14840KMKG MKG20020902032009809/02/02 03:20:31  5-MIN KMKG 020820Z 15004KT 5SM BR FEW080 20/18 A2997 590 90 1300 150/04 RMK AO2
14840KMKG MKG20020902032509509/02/02 03:25:31  5-MIN KMKG 020825Z 16005KT 5SM BR CLR 21/18 A2996 590 87 1400 160/05 RMK AO2
14840KMKG MKG20020902033009509/02/02 03:30:31  5-MIN KMKG 020830Z 17007KT 5SM BR CLR 22/19 A2996 590 87 1500 170/07 RMK AO2
14840KMKG MKG20020902033509509/02/02 03:35:31  5-MIN KMKG 020835Z 17008KT 6SM HZ CLR 22/19 A2996 600 84 1600 180/08 RMK AO2
14840KMKG MKG20020902034009509/02/02 03:40:31  5-MIN KMKG 020840Z 17009KT 6SM HZ CLR 23/19 A2995 600 81 1700 170/09 RMK AO2
14840KMKG MKG20020902034509509/02/02 03:45:31  5-MIN KMKG 020845Z 17008KT 6SM HZ CLR 23/19 A2995 600 81 1700 170/08 RMK AO2
14840KMKG MKG20020902035011809/02/02 03:50:31  5-MIN KMKG 020850Z 17008KT 6SM HZ CLR 23/19 A2995 600 81 1700 180/08 RMK AO2 SLP139 T02280194 56009
14840KMKG MKG20020902035511809/02/02 03:55:31  5-MIN KMKG 020855Z 17008KT 6SM HZ CLR 23/19 A2995 600 81 1700 170/08 RMK AO2 SLP138 T02280194 58020
14840KMKG MKG20020902040009509/02/02 04:00:31  5-MIN KMKG 020900Z 16008KT 6SM HZ CLR 23/19 A2995 600 78 1700 170/08 RMK AO2
14840KMKG MKG20020902040509509/02/02 04:05:31  5-MIN KMKG 020905Z 16007KT 6SM HZ CLR 22/19 A2995 600 81 1600 170/07 RMK AO2
14840KMKG MKG20020902041009509/02/02 04:10:31  5-MIN KMKG 020910Z 17008KT 6SM HZ CLR 22/19 A2995 600 81 1600 170/08 RMK AO2
14840KMKG MKG20020902041509509/02/02 04:15:31  5-MIN KMKG 020915Z 16006KT 6SM HZ CLR 22/19 A2995 600 81 1600 170/06 RMK AO2
14840KMKG MKG20020902042009509/02/02 04:20:31  5-MIN KMKG 020920Z 17005KT 6SM HZ CLR 22/19 A2995 600 81 1600 170/05 RMK AO2
14840KMKG MKG20020902042509509/02/02 04:25:31  5-MIN KMKG 020925Z 17006KT 6SM HZ CLR 22/19 A2995 600 81 1600 170/06 RMK AO2
14840KMKG MKG20020902043009509/02/02 04:30:31  5-MIN KMKG 020930Z 17005KT 6SM HZ CLR 22/19 A2995 600 81 1600 170/05 RMK AO2
14840KMKG MKG20020902043509509/02/02 04:35:31  5-MIN KMKG 020935Z 17006KT 6SM HZ CLR 22/19 A2995 600 81 1600 170/06 RMK AO2
14840KMKG MKG20020902044009509/02/02 04:40:31  5-MIN KMKG 020940Z 17006KT 6SM HZ CLR 22/19 A2996 600 81 1600 180/06 RMK AO2
14840KMKG MKG20020902044509509/02/02 04:45:31  5-MIN KMKG 020945Z 18007KT 6SM HZ CLR 23/19 A2995 600 78 1700 180/07 RMK AO2
14840KMKG MKG20020902045011509/02/02 04:50:31  5-MIN KMKG 020950Z 18007KT 6SM HZ FEW070 23/19 A2996 600 78 1700 180/07 RMK AO2 SLP140 T02280189
14840KMKG MKG20020902045511509/02/02 04:55:31  5-MIN KMKG 020955Z 18008KT 6SM HZ SCT070 23/19 A2995 600 78 1700 180/08 RMK AO2 SLP138 T02280189
14840KMKG MKG20020902050009509/02/02 05:00:31  5-MIN KMKG 021000Z 18010KT 7SM BKN075 23/19 A2995 600 78 1700 190/10 RMK AO2
14840KMKG MKG20020902050509509/02/02 05:05:31  5-MIN KMKG 021005Z 19009KT 7SM BKN070 23/19 A2995 600 78 1700 190/09 RMK AO2
14840KMKG MKG20020902051009509/02/02 05:10:31  5-MIN KMKG 021010Z 18009KT 7SM BKN070 23/19 A2995 600 78 1700 190/09 RMK AO2
14840KMKG MKG20020902051509509/02/02 05:15:31  5-MIN KMKG 021015Z 19010KT 7SM BKN070 23/19 A2995 600 78 1700 190/10 RMK AO2
14840KMKG MKG20020902052009509/02/02 05:20:31  5-MIN KMKG 021020Z 19010KT 7SM SCT070 23/19 A2995 600 78 1700 190/10 RMK AO2
14840KMKG MKG20020902052509809/02/02 05:25:31  5-MIN KMKG 021025Z 19010KT 6SM HZ SCT075 23/19 A2995 600 78 1700 190/10 RMK AO2
14840KMKG MKG20020902053009809/02/02 05:30:31  5-MIN KMKG 021030Z 18010KT 6SM HZ SCT075 23/19 A2995 610 81 1700 180/10 RMK AO2
14840KMKG MKG20020902053509809/02/02 05:35:31  5-MIN KMKG 021035Z 18010KT 6SM HZ FEW075 23/19 A2995 610 78 1700 190/10 RMK AO2
14840KMKG MKG20020902054009809/02/02 05:40:31  5-MIN KMKG 021040Z 18009KT 6SM HZ FEW075 23/19 A2995 610 78 1700 190/09 RMK AO2
14840KMKG MKG20020902054509809/02/02 05:45:31  5-MIN KMKG 021045Z 18008KT 6SM HZ FEW075 23/19 A2995 610 81 1700 190/08 RMK AO2
14840KMKG MKG20020902055011509/02/02 05:50:31  5-MIN KMKG 021050Z 18010KT 6SM HZ FEW075 23/19 A2995 610 81 1700 190/10 RMK AO2 SLP137 T02280194
14840KMKG MKG20020902055511209/02/02 05:55:31  5-MIN KMKG 021055Z 18010KT 6SM HZ CLR 23/19 A2995 610 81 1700 180/10 RMK AO2 SLP136 T02280194
14840KMKG MKG20020902060009509/02/02 06:00:31  5-MIN KMKG 021100Z 19010KT 6SM HZ CLR 23/19 A2995 600 81 1700 190/10 RMK AO2
14840KMKG MKG20020902060509509/02/02 06:05:31  5-MIN KMKG 021105Z 18010KT 5SM HZ CLR 23/19 A2995 610 81 1700 190/10 RMK AO2
14840KMKG MKG20020902061009509/02/02 06:10:31  5-MIN KMKG 021110Z 18008KT 5SM HZ CLR 23/19 A2995 610 81 1700 190/08 RMK AO2
14840KMKG MKG20020902061509809/02/02 06:15:31  5-MIN KMKG 021115Z 20009KT 5SM HZ FEW095 23/19 A2995 610 81 1700 200/09 RMK AO2
14840KMKG MKG20020902062009809/02/02 06:20:31  5-MIN KMKG 021120Z 22008KT 5SM HZ SCT090 23/19 A2996 600 81 1700 220/08 RMK AO2
14840KMKG MKG20020902062513409/02/02 06:25:31  5-MIN KMKG 021125Z 27013G20KT 220V300 4SM HZ FEW045 SCT085 23/20 A2997 580 84 1700 280/13G20 220V300 RMK AO2 PRESRR
14840KMKG MKG20020902063012509/02/02 06:30:31  5-MIN KMKG 021130Z 29012G20KT 5SM HZ FEW018 SCT027 BKN045 22/19 A2998 570 81 1600 290/12G20 RMK AO2 PRESRR
14840KMKG MKG20020902063513309/02/02 06:35:31  5-MIN KMKG 021135Z 30011G26KT 8SM FEW018 BKN029 BKN043 22/18 A2998 570 81 1500 310/11G26 RMK AO2 PK WND 31026/1132
14840KMKG MKG20020902064014509/02/02 06:40:31  5-MIN KMKG 021140Z 31010G26KT 10SM FEW023 BKN032 OVC085 22/18 A2999 570 81 1500 310/10G26 RMK AO2 PK WND 31026/1132 WSHFT 1125
14840KMKG MKG20020902064516109/02/02 06:45:31  5-MIN KMKG 021145Z 31013G17KT 10SM -RA FEW023 BKN035 OVC085 22/18 A2999 570 81 1500 310/13G17 RMK AO2 PK WND 31026/1132 WSHFT 1125 RAB44 P0000
14840KMKG MKG20020902065021709/02/02 06:50:31  5-MIN KMKG 021150Z 29012G17KT 10SM -RA FEW022 BKN041 OVC050 21/18 A2999 570 84 1400 290/12G17 RMK AO2 PK WND 31026/1132 WSHFT 1125 RAB44 CIG 034 RWY 14 SLP152 P0000 60000 T02110183 10233 20200 58020
14840KMKG MKG20020902065519609/02/02 06:55:31  5-MIN KMKG 021155Z 32010KT 10SM -RA FEW022 BKN044 OVC050 21/18 A2999 570 84 1500 320/10 RMK AO2 PK WND 31026/1132 WSHFT 1125 RAB44 SLP152 P0000 60000 T02110183 10233 20200 53012
14840KMKG MKG20020902070012609/02/02 07:00:31  5-MIN KMKG 021200Z 31010G16KT 10SM -RA FEW033 BKN044 OVC050 21/18 A2999 570 87 1400 320/10G16 RMK AO2 P0000
14840KMKG MKG20020902070513509/02/02 07:05:31  5-MIN KMKG 021205Z 32010KT 6SM -RA BR FEW035 SCT044 OVC055 20/18 A2999 560 90 1300 320/10 RMK AO2 VIS 2 RWY 14 P0001
14840KMKG MKG20020902071013909/02/02 07:10:31  5-MIN KMKG 021210Z 32009KT 6SM -RA BR SCT046 BKN055 OVC070 19/18 A3000 550 93 1200 320/09 RMK AO2 VIS 2 1/2 RWY 14 P0001
14840KMKG MKG20020902071512009/02/02 07:15:31  5-MIN KMKG 021215Z 32007KT 10SM -RA FEW044 BKN055 OVC070 19/18 A3000 560 93 1200 320/07 RMK AO2 P0001
14840KMKG MKG20020902072012009/02/02 07:20:31  5-MIN KMKG 021220Z 32006KT 10SM -RA FEW044 BKN055 OVC075 19/18 A3000 560 93 1200 320/06 RMK AO2 P0001
14840KMKG MKG20020902072511409/02/02 07:25:31  5-MIN KMKG 021225Z 00000KT 6SM RA BR FEW039 OVC075 19/18 A3000 560 93 1200 000/00 RMK AO2 P0002
14840KMKG MKG20020902073011509/02/02 07:30:31  5-MIN KMKG 021230Z 20005KT 6SM -RA BR FEW055 OVC075 19/18 A3000 550 93 1200 210/05 RMK AO2 P0002
14840KMKG MKG20020902073511209/02/02 07:35:31  5-MIN KMKG 021235Z 20004KT 7SM -RA FEW034 OVC080 19/18 A3000 560 93 1200 210/04 RMK AO2 P0003
14840KMKG MKG20020902074011509/02/02 07:40:31  5-MIN KMKG 021240Z 20003KT 6SM -RA BR FEW029 OVC080 19/18 A3000 560 93 1200 210/03 RMK AO2 P0003
14840KMKG MKG20020902074511509/02/02 07:45:31  5-MIN KMKG 021245Z 19003KT 5SM -RA BR SCT030 OVC080 19/18 A3000 560 93 1200 200/03 RMK AO2 P0004
14840KMKG MKG20020902075013209/02/02 07:50:31  5-MIN KMKG 021250Z 19006KT 6SM -RA BR SCT034 OVC080 19/18 A3000 560 93 1300 190/06 RMK AO2 SLP155 P0004 T01940183
14840KMKG MKG20020902075512909/02/02 07:55:31  5-MIN KMKG 021255Z 19006KT 8SM -RA SCT038 OVC085 19/18 A2999 570 93 1300 200/06 RMK AO2 SLP153 P0004 T01940183
14840KMKG MKG20020902080011209/02/02 08:00:31  5-MIN KMKG 021300Z 21006KT 7SM -RA SCT034 OVC085 19/18 A2999 570 93 1300 210/06 RMK AO2 P0000
14840KMKG MKG20020902080511909/02/02 08:05:31  5-MIN KMKG 021305Z 22006KT 7SM -RA SCT032 BKN060 OVC085 19/18 A2998 570 93 1300 220/06 RMK AO2 P0001
14840KMKG MKG20020902081011909/02/02 08:10:31  5-MIN KMKG 021310Z 22006KT 7SM -RA BKN034 BKN045 OVC085 19/18 A2998 570 93 1300 220/06 RMK AO2 P0001
14840KMKG MKG20020902081511909/02/02 08:15:31  5-MIN KMKG 021315Z 21006KT 7SM -RA BKN030 BKN044 OVC085 19/18 A2998 570 93 1300 210/06 RMK AO2 P0001
14840KMKG MKG20020902082011909/02/02 08:20:31  5-MIN KMKG 021320Z 20008KT 8SM -RA BKN025 BKN042 OVC085 19/18 A2998 570 93 1300 210/08 RMK AO2 P0002
14840KMKG MKG20020902082511209/02/02 08:25:31  5-MIN KMKG 021325Z 21008KT 8SM -RA BKN023 OVC042 19/18 A2998 580 93 1300 210/08 RMK AO2 P0002
14840KMKG MKG20020902083011209/02/02 08:30:31  5-MIN KMKG 021330Z 22007KT 7SM -RA BKN023 OVC041 19/18 A2998 580 93 1300 220/07 RMK AO2 P0003
14840KMKG MKG20020902083510509/02/02 08:35:31  5-MIN KMKG 021335Z 21010KT 7SM -RA OVC021 19/18 A2997 580 93 1300 220/10 RMK AO2 P0003
14840KMKG MKG20020902084010509/02/02 08:40:31  5-MIN KMKG 021340Z 21010KT 9SM -RA OVC021 19/18 A2997 590 93 1300 210/10 RMK AO2 P0003
14840KMKG MKG20020902084511309/02/02 08:45:31  5-MIN KMKG 021345Z 21011KT 10SM -RA BKN023 OVC095 19/18 A2996 590 93 1300 210/11 RMK AO2 P0004
14840KMKG MKG20020902085013609/02/02 08:50:31  5-MIN KMKG 021350Z 20011KT 9SM -RA BKN023 OVC090 19/18 A2996 600 93 1300 200/11 RMK AO2 PRESFR SLP141 P0004 T01940183
14840KMKG MKG20020902085512209/02/02 08:55:31  5-MIN KMKG 021355Z 19013KT 8SM -RA BKN023 19/18 A2995 600 93 1300 200/13 RMK AO2 SLP140 P0005 T01940183
14840KMKG MKG20020902090011209/02/02 09:00:31  5-MIN KMKG 021400Z 18014KT 7SM -RA OVC023 19/18 A2993 620 93 1300 180/14 RMK AO2 PRESFR P0000
14840KMKG MKG20020902090511209/02/02 09:05:31  5-MIN KMKG 021405Z 18015KT 8SM -RA BKN025 19/18 A2992 630 93 1300 180/15 RMK AO2 PRESFR P0001
14840KMKG MKG20020902091011909/02/02 09:10:31  5-MIN KMKG 021410Z 17018G22KT 10SM -RA OVC025 19/18 A2991 640 93 1300 180/18G22 RMK AO2 PRESFR P0001
14840KMKG MKG20020902091511209/02/02 09:15:31  5-MIN KMKG 021415Z 19014G22KT 10SM -RA BKN025 19/18 A2991 640 90 1400 190/14G22 RMK AO2 P0001
14840KMKG MKG20020902092010609/02/02 09:20:31  5-MIN KMKG 021420Z 19014KT 10SM -RA BKN025 19/18 A2990 650 90 1400 200/14 RMK AO2 P0001
14840KMKG MKG20020902092513009/02/02 09:25:31  5-MIN KMKG 021425Z 22018G28KT 10SM -RA SCT025 20/18 A2991 640 90 1400 220/18G28 RMK AO2 PK WND 23028/1425 P0001
14840KMKG MKG20020902093013009/02/02 09:30:31  5-MIN KMKG 021430Z 23011G28KT 10SM -RA FEW025 20/18 A2991 640 90 1400 230/11G28 RMK AO2 PK WND 23028/1425 P0001
14840KMKG MKG20020902093512409/02/02 09:35:31  5-MIN KMKG 021435Z 23014KT 10SM -RA FEW023 20/18 A2992 640 90 1400 230/14 RMK AO2 PK WND 23028/1425 P0001
14840KMKG MKG20020902094013009/02/02 09:40:31  5-MIN KMKG 021440Z 22019G25KT 10SM -RA FEW037 21/18 A2992 630 84 1500 230/19G25 RMK AO2 PK WND 23028/1425 P0001
14840KMKG MKG20020902094513709/02/02 09:45:31  5-MIN KMKG 021445Z 21021G25KT 10SM -RA SCT035 SCT090 20/18 A2992 630 87 1400 220/21G25 RMK AO2 PK WND 23028/1425 P0001
14840KMKG MKG20020902095018009/02/02 09:50:31  5-MIN KMKG 021450Z 22019G24KT 10SM -RA SCT032 SCT065 SCT090 20/18 A2993 620 87 1400 220/19G24 RMK AO2 PK WND 23028/1425 PRESRR SLP133 P0001 60010 T02000178 53012
14840KMKG MKG20020902095518109/02/02 09:55:31  5-MIN KMKG 021455Z 20019G26KT 10SM -RA SCT032 BKN090 20/18 A2991 640 90 1400 200/19G26 RMK AO2 PK WND 23028/1425 CIG 045 RWY 14 SLP127 P0001 60010 T02000183 58025
14840KMKG MKG20020902100014409/02/02 10:00:31  5-MIN KMKG 021500Z 19021G26KT 10SM -RA BKN030 BKN045 20/18 A2990 650 90 1400 200/21G26 RMK AO2 PK WND 20026/1500 PRESFR P0001
14840KMKG MKG20020902100514409/02/02 10:05:31  5-MIN KMKG 021505Z 18025G30KT 10SM -RA BKN030 BKN045 20/18 A2988 670 90 1400 190/25G30 RMK AO2 PK WND 19030/1504 PRESFR P0001
14840KMKG MKG20020902101013709/02/02 10:10:31  5-MIN KMKG 021510Z 18023G30KT 10SM -RA BKN028 20/18 A2986 680 90 1500 180/23G30 RMK AO2 PK WND 19030/1504 PRESFR P0002
14840KMKG MKG20020902101513809/02/02 10:15:31  5-MIN KMKG 021515Z 18022KT 10SM -RA BKN024 OVC045 20/18 A2985 690 90 1500 180/22 RMK AO2 PK WND 19030/1504 PRESFR P0002
14840KMKG MKG20020902102013109/02/02 10:20:31  5-MIN KMKG 021520Z 18017KT 10SM -RA BKN024 BKN045 20/18 A2986 690 90 1500 180/17 RMK AO2 PK WND 19030/1504 P0002
14840KMKG MKG20020902102513109/02/02 10:25:31  5-MIN KMKG 021525Z 18015KT 10SM -RA SCT024 SCT045 20/18 A2987 680 90 1500 180/15 RMK AO2 PK WND 19030/1504 P0002
14840KMKG MKG20020902103013109/02/02 10:30:31  5-MIN KMKG 021530Z 18016KT 10SM -RA SCT024 BKN045 21/19 A2986 680 90 1500 180/16 RMK AO2 PK WND 19030/1504 P0002
14840KMKG MKG20020902103513109/02/02 10:35:31  5-MIN KMKG 021535Z 18016KT 10SM -RA SCT024 BKN045 21/19 A2986 680 90 1500 180/16 RMK AO2 PK WND 19030/1504 P0002
14840KMKG MKG20020902104013309/02/02 10:40:31  5-MIN KMKG 021540Z 19015KT 10SM SCT024 BKN045 21/17 A2986 680 78 1600 190/15 RMK AO2 PK WND 19030/1504 RAE36 P0002
14840KMKG MKG20020902104513909/02/02 10:45:31  5-MIN KMKG 021545Z 19018G24KT 10SM SCT024 BKN045 21/18 A2986 680 81 1600 190/18G24 RMK AO2 PK WND 19030/1504 RAE36 P0002
14840KMKG MKG20020902105015609/02/02 10:50:31  5-MIN KMKG 021550Z 19015G24KT 10SM SCT024 BKN045 21/18 A2987 680 81 1600 190/15G24 RMK AO2 PK WND 19030/1504 RAE36 SLP111 P0002 T02110178
14840KMKG MKG20020902105515609/02/02 10:55:31  5-MIN KMKG 021555Z 18019G25KT 10SM SCT024 BKN045 22/18 A2986 690 78 1700 190/19G25 RMK AO2 PK WND 19030/1504 RAE36 SLP108 P0002 T02170178
14840KMKG MKG20020902110009909/02/02 11:00:31  5-MIN KMKG 021600Z 18019G25KT 10SM CLR 21/18 A2985 700 81 1600 180/19G25 RMK AO2
14840KMKG MKG20020902110512709/02/02 11:05:31  5-MIN KMKG 021605Z 18021G27KT 10SM FEW050 21/18 A2984 710 81 1600 180/21G27 RMK AO2 PK WND 17027/1602 PRESFR
14840KMKG MKG20020902111015709/02/02 11:10:31  5-MIN KMKG 021610Z 18023G29KT 10SM -RA FEW025 SCT048 BKN060 22/18 A2983 710 78 1700 180/23G29 RMK AO2 PK WND 17029/1609 RAB06 PRESFR P0000
14840KMKG MKG20020902111514309/02/02 11:15:31  5-MIN KMKG 021615Z 19015G29KT 10SM -RA SCT048 SCT060 22/18 A2984 700 78 1700 190/15G29 RMK AO2 PK WND 19029/1612 RAB06 P0000
14840KMKG MKG20020902112014309/02/02 11:20:31  5-MIN KMKG 021620Z 23015G29KT 10SM -RA FEW047 SCT060 22/18 A2987 680 78 1700 230/15G29 RMK AO2 PK WND 19029/1612 RAB06 P0000
14840KMKG MKG20020902112515909/02/02 11:25:31  5-MIN KMKG 021625Z 22013G22KT 200V260 10SM -RA FEW047 22/18 A2988 670 81 1600 220/13G22 200V260 RMK AO2 PK WND 19029/1612 RAB06 PRESRR P0000
14840KMKG MKG20020902113014709/02/02 11:30:31  5-MIN KMKG 021630Z 25012KT 10SM SCT047 22/19 A2990 650 84 1600 250/12 RMK AO2 PK WND 19029/1612 WSHFT 1612 RAB06E28 PRESRR P0000
14840KMKG MKG20020902113514609/02/02 11:35:31  5-MIN KMKG 021635Z 23019G24KT 10SM SCT047 22/19 A2990 650 81 1700 240/19G24 RMK AO2 PK WND 19029/1612 WSHFT 1612 RAB06E28 P0000
14840KMKG MKG20020902114014509/02/02 11:40:31  5-MIN KMKG 021640Z 21022G27KT 9SM SCT043 22/19 A2989 660 84 1700 210/22G27 RMK AO2 PK WND 19029/1612 WSHFT 1612 RAB06E28 P0000
14840KMKG MKG20020902114514509/02/02 11:45:31  5-MIN KMKG 021645Z 21021G28KT 9SM SCT043 22/19 A2989 660 81 1700 210/21G28 RMK AO2 PK WND 19029/1612 WSHFT 1612 RAB06E28 P0000
14840KMKG MKG20020902115016309/02/02 11:50:31  5-MIN KMKG 021650Z 22020G32KT 10SM SCT043 22/19 A2989 660 81 1700 220/20G32 RMK AO2 PK WND 21032/1648 WSHFT 1612 RAB06E28 SLP119 P0000 T02220189
14840KMKG MKG20020902115516309/02/02 11:55:31  5-MIN KMKG 021655Z 20020G32KT 10SM SCT043 22/19 A2989 660 81 1700 210/20G32 RMK AO2 PK WND 21032/1648 WSHFT 1612 RAB06E28 SLP118 P0000 T02220189
14840KMKG MKG20020902120011709/02/02 12:00:31  5-MIN KMKG 021700Z 20019G27KT 10SM CLR 22/19 A2989 660 81 1700 210/19G27 RMK AO2 PK WND 20026/1700
14840KMKG MKG20020902120511709/02/02 12:05:31  5-MIN KMKG 021705Z 19015G26KT 10SM CLR 22/19 A2989 660 81 1700 200/15G26 RMK AO2 PK WND 20026/1700
14840KMKG MKG20020902121011109/02/02 12:10:31  5-MIN KMKG 021710Z 19016KT 10SM CLR 22/19 A2988 660 81 1700 200/16 RMK AO2 PK WND 20026/1700
14840KMKG MKG20020902121511709/02/02 12:15:31  5-MIN KMKG 021715Z 18018G25KT 10SM CLR 22/19 A2988 670 81 1700 190/18G25 RMK AO2 PK WND 20026/1700
14840KMKG MKG20020902122011709/02/02 12:20:31  5-MIN KMKG 021720Z 18017G25KT 10SM CLR 22/19 A2988 670 87 1600 180/17G25 RMK AO2 PK WND 20026/1700
14840KMKG MKG20020902122511709/02/02 12:25:31  5-MIN KMKG 021725Z 19014G24KT 10SM CLR 22/19 A2989 660 84 1700 200/14G24 RMK AO2 PK WND 20026/1700
14840KMKG MKG20020902123011709/02/02 12:30:31  5-MIN KMKG 021730Z 19014G21KT 10SM CLR 22/19 A2989 650 84 1700 200/14G21 RMK AO2 PK WND 20026/1700
14840KMKG MKG20020902123511709/02/02 12:35:31  5-MIN KMKG 021735Z 19015G22KT 10SM CLR 22/19 A2989 660 84 1700 190/15G22 RMK AO2 PK WND 20026/1700
14840KMKG MKG20020902124011709/02/02 12:40:31  5-MIN KMKG 021740Z 19016G24KT 10SM CLR 22/20 A2989 660 87 1700 200/16G24 RMK AO2 PK WND 20026/1700
14840KMKG MKG20020902124511709/02/02 12:45:31  5-MIN KMKG 021745Z 18017G24KT 10SM CLR 22/20 A2989 650 87 1700 180/17G24 RMK AO2 PK WND 20026/1700
14840KMKG MKG20020902125015809/02/02 12:50:31  5-MIN KMKG 021750Z 19014G21KT 10SM CLR 22/20 A2989 660 87 1700 190/14G21 RMK AO2 PK WND 20026/1700 SLP119 60012 T02220200 10222 20194 58025
14840KMKG MKG20020902125515509/02/02 12:55:31  5-MIN KMKG 021755Z 19012KT 10SM FEW013 22/20 A2990 650 87 1700 200/12 RMK AO2 PK WND 20026/1700 SLP120 60012 T02220200 10222 20194 55005
14840KMKG MKG20020902130009909/02/02 13:00:31  5-MIN KMKG 021800Z 19010G17KT 10SM CLR 23/20 A2989 650 84 1700 200/10G17 RMK AO2
14840KMKG MKG20020902130509309/02/02 13:05:31  5-MIN KMKG 021805Z 20013KT 10SM CLR 23/20 A2989 660 84 1800 200/13 RMK AO2
14840KMKG MKG20020902131009909/02/02 13:10:31  5-MIN KMKG 021810Z 20016G21KT 10SM CLR 23/20 A2989 660 81 1800 200/16G21 RMK AO2
14840KMKG MKG20020902131509909/02/02 13:15:31  5-MIN KMKG 021815Z 20017G21KT 10SM CLR 23/19 A2989 660 78 1800 200/17G21 RMK AO2
14840KMKG MKG20020902132009309/02/02 13:20:31  5-MIN KMKG 021820Z 19016KT 10SM CLR 23/19 A2989 660 78 1800 190/16 RMK AO2
14840KMKG MKG20020902132509309/02/02 13:25:31  5-MIN KMKG 021825Z 20016KT 10SM CLR 23/19 A2988 660 78 1800 200/16 RMK AO2
14840KMKG MKG20020902133009309/02/02 13:30:31  5-MIN KMKG 021830Z 20015KT 10SM CLR 24/20 A2988 670 78 1900 200/15 RMK AO2
14840KMKG MKG20020902133509909/02/02 13:35:31  5-MIN KMKG 021835Z 19015G21KT 10SM CLR 24/20 A2988 670 78 1900 200/15G21 RMK AO2
14840KMKG MKG20020902134009909/02/02 13:40:31  5-MIN KMKG 021840Z 20016G22KT 10SM CLR 24/20 A2988 670 78 1900 200/16G22 RMK AO2
14840KMKG MKG20020902134509909/02/02 13:45:31  5-MIN KMKG 021845Z 19016G22KT 10SM CLR 24/20 A2987 670 78 1900 190/16G22 RMK AO2
14840KMKG MKG20020902135011609/02/02 13:50:31  5-MIN KMKG 021850Z 18016G21KT 10SM CLR 24/20 A2986 680 78 1900 190/16G21 RMK AO2 SLP109 T02390200
14840KMKG MKG20020902135513309/02/02 13:55:31  5-MIN KMKG 021855Z 17013G21KT 10SM FEW018 SCT060 24/20 A2986 690 78 1900 170/13G21 RMK AO2 PRESFR SLP107 T02390200
14840KMKG MKG20020902140009309/02/02 14:00:31  5-MIN KMKG 021900Z 18013KT 10SM CLR 24/20 A2986 690 78 1900 180/13 RMK AO2
14840KMKG MKG20020902140509309/02/02 14:05:31  5-MIN KMKG 021905Z 18014KT 10SM CLR 23/19 A2985 690 78 1900 180/14 RMK AO2
14840KMKG MKG20020902141009309/02/02 14:10:31  5-MIN KMKG 021910Z 20014KT 10SM CLR 24/19 A2986 690 76 1900 200/14 RMK AO2
14840KMKG MKG20020902141509909/02/02 14:15:31  5-MIN KMKG 021915Z 20011G18KT 10SM CLR 24/19 A2986 690 73 2000 200/11G18 RMK AO2
14840KMKG MKG20020902142009909/02/02 14:20:31  5-MIN KMKG 021920Z 20013G17KT 10SM CLR 25/21 A2986 690 76 2000 200/13G17 RMK AO2
14840KMKG MKG20020902142509909/02/02 14:25:31  5-MIN KMKG 021925Z 19013G19KT 10SM CLR 24/20 A2985 690 78 1900 200/13G19 RMK AO2
14840KMKG MKG20020902143010209/02/02 14:30:31  5-MIN KMKG 021930Z 20013G19KT 10SM FEW060 24/20 A2985 700 78 1900 200/13G19 RMK AO2
14840KMKG MKG20020902143509609/02/02 14:35:31  5-MIN KMKG 021935Z 18013KT 10SM FEW060 23/20 A2986 690 81 1900 190/13 RMK AO2
14840KMKG MKG20020902144009609/02/02 14:40:31  5-MIN KMKG 021940Z 18015KT 10SM FEW060 23/19 A2986 690 78 1900 180/15 RMK AO2
14840KMKG MKG20020902144509609/02/02 14:45:31  5-MIN KMKG 021945Z 18012KT 10SM FEW060 23/20 A2985 690 81 1900 180/12 RMK AO2
14840KMKG MKG20020902145011309/02/02 14:50:31  5-MIN KMKG 021950Z 18012KT 10SM FEW060 23/20 A2985 690 81 1900 190/12 RMK AO2 SLP106 T02330200
14840KMKG MKG20020902145511309/02/02 14:55:31  5-MIN KMKG 021955Z 18010KT 10SM FEW060 23/20 A2985 690 81 1900 180/10 RMK AO2 SLP106 T02330200
14840KMKG MKG20020902150009609/02/02 15:00:31  5-MIN KMKG 022000Z 19012KT 10SM FEW060 23/20 A2985 690 81 1900 200/12 RMK AO2
14840KMKG MKG20020902150509609/02/02 15:05:31  5-MIN KMKG 022005Z 18013KT 10SM FEW060 23/20 A2985 700 81 1900 190/13 RMK AO2
14840KMKG MKG20020902151009609/02/02 15:10:31  5-MIN KMKG 022010Z 16011KT 10SM FEW060 23/20 A2984 700 81 1900 170/11 RMK AO2
14840KMKG MKG20020902151510209/02/02 15:15:31  5-MIN KMKG 022015Z 17013G17KT 10SM FEW060 23/20 A2984 700 84 1800 180/13G17 RMK AO2
14840KMKG MKG20020902152009609/02/02 15:20:31  5-MIN KMKG 022020Z 19014KT 10SM FEW060 23/19 A2985 700 81 1800 190/14 RMK AO2
14840KMKG MKG20020902152509609/02/02 15:25:31  5-MIN KMKG 022025Z 18012KT 10SM FEW060 23/19 A2984 700 81 1800 180/12 RMK AO2
14840KMKG MKG20020902153009609/02/02 15:30:31  5-MIN KMKG 022030Z 18013KT 10SM FEW060 23/20 A2984 700 84 1800 180/13 RMK AO2
14840KMKG MKG20020902153511209/02/02 15:35:31  5-MIN KMKG 022035Z 18011KT 10SM -RA FEW060 23/20 A2984 700 84 1800 180/11 RMK AO2 RAB33 P0000
14840KMKG MKG20020902154012209/02/02 15:40:31  5-MIN KMKG 022040Z AUTO 17010KT 10SM -RA BKN090 23/20 A2984 710 84 1800 170/10 RMK AO2 RAB33 P0000 TSNO
14840KMKG MKG20020902154512109/02/02 15:45:31  5-MIN KMKG 022045Z AUTO 17009KT 10SM BKN090 23/20 A2984 710 84 1800 180/09 RMK AO2 RAB33E42 P0000 TSNO
14840KMKG MKG20020902155014009/02/02 15:50:31  5-MIN KMKG 022050Z 17011KT 10SM BKN090 23/20 A2984 710 84 1800 170/11 RMK AO2 RAB33E42 SLP100 P0000 60000 T02280200 55005
14840KMKG MKG20020902155514009/02/02 15:55:31  5-MIN KMKG 022055Z 16012KT 10SM BKN090 23/20 A2984 710 84 1800 170/12 RMK AO2 RAB33E42 SLP099 P0000 60000 T02280200 56020
14840KMKG MKG20020902160009609/02/02 16:00:31  5-MIN KMKG 022100Z 17010KT 10SM SCT090 23/20 A2983 710 84 1800 170/10 RMK AO2
14840KMKG MKG20020902160509609/02/02 16:05:31  5-MIN KMKG 022105Z 18011KT 10SM SCT090 23/19 A2984 710 81 1800 180/11 RMK AO2
14840KMKG MKG20020902161009609/02/02 16:10:31  5-MIN KMKG 022110Z 16009KT 10SM FEW090 23/19 A2984 710 81 1800 170/09 RMK AO2
14840KMKG MKG20020902161509609/02/02 16:15:31  5-MIN KMKG 022115Z 18011KT 10SM FEW090 23/19 A2983 710 81 1800 180/11 RMK AO2
14840KMKG MKG20020902162009309/02/02 16:20:31  5-MIN KMKG 022120Z 17011KT 10SM CLR 23/20 A2983 710 84 1800 180/11 RMK AO2
14840KMKG MKG20020902162509309/02/02 16:25:31  5-MIN KMKG 022125Z 17010KT 10SM CLR 23/19 A2983 720 81 1800 180/10 RMK AO2
14840KMKG MKG20020902163009309/02/02 16:30:31  5-MIN KMKG 022130Z 17012KT 10SM CLR 23/19 A2983 720 81 1800 170/12 RMK AO2
14840KMKG MKG20020902163509309/02/02 16:35:31  5-MIN KMKG 022135Z 17012KT 10SM CLR 23/19 A2983 720 81 1800 170/12 RMK AO2
14840KMKG MKG20020902164009309/02/02 16:40:31  5-MIN KMKG 022140Z 16013KT 10SM CLR 23/19 A2982 720 81 1800 170/13 RMK AO2
14840KMKG MKG20020902164509309/02/02 16:45:31  5-MIN KMKG 022145Z 16010KT 10SM CLR 23/19 A2982 720 78 1900 170/10 RMK AO2
14840KMKG MKG20020902165011009/02/02 16:50:31  5-MIN KMKG 022150Z 16009KT 10SM CLR 23/19 A2981 730 78 1900 160/09 RMK AO2 SLP093 T02330194
14840KMKG MKG20020902165511309/02/02 16:55:31  5-MIN KMKG 022155Z 16009KT 10SM SCT090 23/19 A2981 730 76 1900 170/09 RMK AO2 SLP093 T02330189
14840KMKG MKG20020902170009309/02/02 17:00:31  5-MIN KMKG 022200Z 15009KT 10SM CLR 23/19 A2981 730 76 1900 160/09 RMK AO2
14840KMKG MKG20020902170509309/02/02 17:05:31  5-MIN KMKG 022205Z 16010KT 10SM CLR 23/19 A2981 730 76 1900 170/10 RMK AO2
14840KMKG MKG20020902171009309/02/02 17:10:31  5-MIN KMKG 022210Z 16011KT 10SM CLR 24/18 A2981 730 71 2000 170/11 RMK AO2
14840KMKG MKG20020902171509309/02/02 17:15:31  5-MIN KMKG 022215Z 16009KT 10SM CLR 24/18 A2981 740 68 2000 160/09 RMK AO2
14840KMKG MKG20020902172009309/02/02 17:20:31  5-MIN KMKG 022220Z 16009KT 10SM CLR 25/18 A2981 740 66 2100 160/09 RMK AO2
14840KMKG MKG20020902172509309/02/02 17:25:31  5-MIN KMKG 022225Z 16009KT 10SM CLR 25/18 A2981 730 66 2100 160/09 RMK AO2
14840KMKG MKG20020902173009309/02/02 17:30:31  5-MIN KMKG 022230Z 16011KT 10SM CLR 26/18 A2981 740 64 2200 160/11 RMK AO2
14840KMKG MKG20020902173509309/02/02 17:35:31  5-MIN KMKG 022235Z 15010KT 10SM CLR 26/18 A2981 740 61 2200 160/10 RMK AO2
14840KMKG MKG20020902174009309/02/02 17:40:31  5-MIN KMKG 022240Z 16012KT 10SM CLR 26/18 A2981 740 61 2200 160/12 RMK AO2
14840KMKG MKG20020902174509309/02/02 17:45:31  5-MIN KMKG 022245Z 17012KT 10SM CLR 25/18 A2981 730 64 2100 180/12 RMK AO2
14840KMKG MKG20020902175011609/02/02 17:50:31  5-MIN KMKG 022250Z 17012G19KT 10SM CLR 25/18 A2981 730 64 2100 180/12G19 RMK AO2 SLP091 T02500178
14840KMKG MKG20020902175511609/02/02 17:55:31  5-MIN KMKG 022255Z 17013G19KT 10SM CLR 25/18 A2980 740 64 2100 180/13G19 RMK AO2 SLP089 T02500178
14840KMKG MKG20020902180009309/02/02 18:00:31  5-MIN KMKG 022300Z 17015KT 10SM CLR 25/17 A2980 740 61 2100 180/15 RMK AO2
14840KMKG MKG20020902180509309/02/02 18:05:31  5-MIN KMKG 022305Z 17013KT 10SM CLR 26/17 A2980 740 59 2200 170/13 RMK AO2
14840KMKG MKG20020902181009309/02/02 18:10:31  5-MIN KMKG 022310Z 18017KT 10SM CLR 26/18 A2980 740 61 2200 180/17 RMK AO2
14840KMKG MKG20020902181509309/02/02 18:15:31  5-MIN KMKG 022315Z 18014KT 10SM CLR 26/18 A2979 750 61 2200 180/14 RMK AO2
14840KMKG MKG20020902182009309/02/02 18:20:31  5-MIN KMKG 022320Z 17013KT 10SM CLR 26/18 A2979 750 61 2200 180/13 RMK AO2
14840KMKG MKG20020902182509909/02/02 18:25:31  5-MIN KMKG 022325Z 18017G22KT 10SM CLR 26/18 A2979 750 61 2200 180/17G22 RMK AO2
14840KMKG MKG20020902183009909/02/02 18:30:31  5-MIN KMKG 022330Z 18014G22KT 10SM CLR 26/18 A2979 750 64 2200 180/14G22 RMK AO2
14840KMKG MKG20020902183509909/02/02 18:35:31  5-MIN KMKG 022335Z 18016G22KT 10SM CLR 25/18 A2979 750 66 2100 180/16G22 RMK AO2
14840KMKG MKG20020902184009909/02/02 18:40:31  5-MIN KMKG 022340Z 17015G21KT 10SM CLR 25/18 A2979 750 66 2100 180/15G21 RMK AO2
14840KMKG MKG20020902184509909/02/02 18:45:31  5-MIN KMKG 022345Z 18016G22KT 10SM CLR 25/19 A2979 750 68 2100 180/16G22 RMK AO2
14840KMKG MKG20020902185014009/02/02 18:50:31  5-MIN KMKG 022350Z 17016G22KT 10SM CLR 25/19 A2979 750 68 2100 180/16G22 RMK AO2 SLP083 60000 T02500189 10256 20222 56020
14840KMKG MKG20020902185513409/02/02 18:55:31  5-MIN KMKG 022355Z 17014KT 10SM CLR 25/19 A2979 750 68 2100 180/14 RMK AO2 SLP084 60000 T02500189 10256 20222 56015
14840KMKG MKG20020902190009909/02/02 19:00:31  5-MIN KMKG 030000Z 18014G21KT 10SM CLR 24/19 A2979 750 71 2100 180/14G21 RMK AO2
14840KMKG MKG20020902190509909/02/02 19:05:31  5-MIN KMKG 030005Z 18016G23KT 10SM CLR 24/19 A2979 750 71 2100 180/16G23 RMK AO2
14840KMKG MKG20020902191009909/02/02 19:10:31  5-MIN KMKG 030010Z 18013G23KT 10SM CLR 24/19 A2979 750 73 2100 180/13G23 RMK AO2
14840KMKG MKG20020902191509909/02/02 19:15:31  5-MIN KMKG 030015Z 17016G21KT 10SM CLR 24/19 A2978 760 73 2100 180/16G21 RMK AO2
14840KMKG MKG20020902192009909/02/02 19:20:31  5-MIN KMKG 030020Z 18015G21KT 10SM CLR 24/19 A2978 760 73 2100 180/15G21 RMK AO2
14840KMKG MKG20020902192509309/02/02 19:25:31  5-MIN KMKG 030025Z 18015KT 10SM CLR 24/19 A2978 760 73 2100 180/15 RMK AO2
14840KMKG MKG20020902193009909/02/02 19:30:31  5-MIN KMKG 030030Z 18015G21KT 10SM CLR 25/19 A2978 760 71 2100 180/15G21 RMK AO2
14840KMKG MKG20020902193510209/02/02 19:35:31  5-MIN KMKG 030035Z 18016G22KT 10SM FEW110 25/19 A2978 760 71 2100 180/16G22 RMK AO2
14840KMKG MKG20020902194010209/02/02 19:40:31  5-MIN KMKG 030040Z 18015G22KT 10SM FEW110 25/19 A2978 760 71 2100 180/15G22 RMK AO2
14840KMKG MKG20020902194510209/02/02 19:45:31  5-MIN KMKG 030045Z 17017G21KT 10SM FEW110 25/19 A2978 760 71 2100 180/17G21 RMK AO2
14840KMKG MKG20020902195011909/02/02 19:50:31  5-MIN KMKG 030050Z 18013G20KT 10SM FEW110 26/19 A2979 750 68 2200 180/13G20 RMK AO2 SLP083 T02560194
14840KMKG MKG20020902195511909/02/02 19:55:31  5-MIN KMKG 030055Z 18017G21KT 10SM SCT110 26/19 A2979 750 68 2200 180/17G21 RMK AO2 SLP084 T02560194
14840KMKG MKG20020902200010209/02/02 20:00:31  5-MIN KMKG 030100Z 17015G23KT 10SM BKN110 26/19 A2979 750 68 2200 180/15G23 RMK AO2
14840KMKG MKG20020902200510209/02/02 20:05:31  5-MIN KMKG 030105Z 17016G23KT 10SM BKN110 26/20 A2979 750 71 2200 180/16G23 RMK AO2
14840KMKG MKG20020902201010209/02/02 20:10:31  5-MIN KMKG 030110Z 18015G21KT 10SM BKN120 26/20 A2980 740 71 2200 190/15G21 RMK AO2
14840KMKG MKG20020902201512309/02/02 20:15:31  5-MIN KMKG 030115Z 18014G20KT 8SM RA FEW033 OVC120 24/21 A2980 740 78 2000 180/14G20 RMK AO2 RAB11 P0002
14840KMKG MKG20020902202011809/02/02 20:20:31  5-MIN KMKG 030120Z 18015KT 8SM -RA FEW033 OVC120 24/21 A2980 740 78 2000 180/15 RMK AO2 RAB11 P0002
14840KMKG MKG20020902202514509/02/02 20:25:31  5-MIN KMKG 030125Z 18015KT 10SM TS FEW033 OVC120 24/21 A2980 740 78 2000 180/15 RMK AO2 OCNL LTGICCG RAB11 TSB19 W MOV E P0002
14840KMKG MKG20020902203015009/02/02 20:30:31  5-MIN KMKG 030130Z 18013KT 10SM -TSRA FEW060 OVC120 24/21 A2980 740 78 2000 180/13 RMK AO2 OCNL LTGICCG RAB11 TSB19 W MOV E P0002 $
14840KMKG MKG20020902203515309/02/02 20:35:31  5-MIN KMKG 030135Z 18013G20KT 10SM TS FEW060 OVC120 24/21 A2981 740 78 2000 180/13G20 RMK AO2 OCNL LTGICCG RAB11 TSB19 W MOV E P0002 $
14840KMKG MKG20020902204015609/02/02 20:40:31  5-MIN KMKG 030140Z 18013G20KT 10SM TS FEW048 OVC120 24/21 A2981 740 78 2000 180/13G20 RMK AO2 OCNL LTGICCG RAB11E36 TSB19 W MOV E P0002 $
14840KMKG MKG20020902204514909/02/02 20:45:31  5-MIN KMKG 030145Z 17015G21KT 10SM TS OVC110 24/21 A2981 730 81 2000 180/15G21 RMK AO2 OCNL LTGICCG RAB11E36 TSB19 W MOV E P0002 $
14840KMKG MKG20020902205014409/02/02 20:50:31  5-MIN KMKG 030150Z 18012G21KT 9SM OVC110 24/21 A2982 730 81 2000 180/12G21 RMK AO2 SLP093 RAB11E36 TSB19E46 P0002 T02440211 $
14840KMKG MKG20020902205514409/02/02 20:55:31  5-MIN KMKG 030155Z 18014G19KT 9SM OVC110 24/21 A2982 730 81 2000 190/14G19 RMK AO2 RAB11E36 TSB19E46 SLP092 P0002 T02440211 $
14840KMKG MKG20020902210010309/02/02 21:00:31  5-MIN KMKG 030200Z 18012G19KT 9SM BKN110 24/21 A2982 720 81 2000 180/12G19 RMK AO2 $
14840KMKG MKG20020902210510309/02/02 21:05:31  5-MIN KMKG 030205Z 18012G19KT 9SM BKN110 24/21 A2982 720 81 2000 180/12G19 RMK AO2 $
14840KMKG MKG20020902211010309/02/02 21:10:31  5-MIN KMKG 030210Z 18013G19KT 9SM BKN110 24/21 A2981 730 81 2000 180/13G19 RMK AO2 $
14840KMKG MKG20020902211510309/02/02 21:15:31  5-MIN KMKG 030215Z 18015G19KT 9SM BKN110 24/21 A2981 730 81 2000 190/15G19 RMK AO2 $
14840KMKG MKG20020902212009709/02/02 21:20:31  5-MIN KMKG 030220Z 18013KT 9SM SCT120 24/21 A2980 740 81 2000 180/13 RMK AO2 $
14840KMKG MKG20020902212509709/02/02 21:25:31  5-MIN KMKG 030225Z 19014KT 8SM SCT120 24/21 A2981 740 81 2000 190/14 RMK AO2 $
14840KMKG MKG20020902213010309/02/02 21:30:31  5-MIN KMKG 030230Z 18014G19KT 8SM SCT120 24/21 A2981 730 81 2000 190/14G19 RMK AO2 $
14840KMKG MKG20020902213510309/02/02 21:35:31  5-MIN KMKG 030235Z 18015G19KT 8SM SCT110 24/21 A2981 740 81 2000 190/15G19 RMK AO2 $
14840KMKG MKG20020902214009709/02/02 21:40:31  5-MIN KMKG 030240Z 19016KT 8SM SCT110 24/21 A2981 730 81 2000 190/16 RMK AO2 $
14840KMKG MKG20020902214510309/02/02 21:45:31  5-MIN KMKG 030245Z 17015G20KT 8SM SCT110 24/21 A2980 740 81 2000 180/15G20 RMK AO2 $
14840KMKG MKG20020902215013209/02/02 21:50:31  5-MIN KMKG 030250Z 18016G21KT 8SM SCT110 24/21 A2980 740 81 2000 190/16G21 RMK AO2 SLP089 60002 T02440211 56015 $
14840KMKG MKG20020902215512609/02/02 21:55:31  5-MIN KMKG 030255Z 19016KT 8SM SCT110 24/21 A2981 730 81 2000 190/16 RMK AO2 SLP090 60002 T02440211 50006 $
14840KMKG MKG20020902220009709/02/02 22:00:31  5-MIN KMKG 030300Z 19016KT 8SM FEW110 24/22 A2981 730 84 2000 190/16 RMK AO2 $
14840KMKG MKG20020902220509509/02/02 22:05:31  5-MIN KMKG 030305Z 18016KT 8SM FEW110 24/22 A2981 740 84 2000 190/16 RMK AO2
14840KMKG MKG20020902221010109/02/02 22:10:31  5-MIN KMKG 030310Z 19017G23KT 8SM FEW110 24/21 A2981 740 81 2000 190/17G23 RMK AO2
14840KMKG MKG20020902221510109/02/02 22:15:31  5-MIN KMKG 030315Z 19017G24KT 8SM FEW110 24/22 A2982 730 84 2000 190/17G24 RMK AO2
14840KMKG MKG20020902222010109/02/02 22:20:31  5-MIN KMKG 030320Z 19015G24KT 8SM FEW110 24/22 A2981 730 84 2000 190/15G24 RMK AO2
14840KMKG MKG20020902222510109/02/02 22:25:31  5-MIN KMKG 030325Z 19015G21KT 8SM FEW110 24/22 A2981 730 84 2000 190/15G21 RMK AO2
14840KMKG MKG20020902223010909/02/02 22:30:31  5-MIN KMKG 030330Z 19016KT 8SM FEW110 24/22 A2982 720 84 2000 190/16 RMK AO2 LTG DSNT W-NW
14840KMKG MKG20020902223511509/02/02 22:35:31  5-MIN KMKG 030335Z 19015G22KT 8SM FEW120 24/22 A2982 720 84 2000 200/15G22 RMK AO2 LTG DSNT W-NW
14840KMKG MKG20020902224011509/02/02 22:40:31  5-MIN KMKG 030340Z 18014G22KT 8SM SCT110 24/22 A2981 730 84 2000 190/14G22 RMK AO2 LTG DSNT W-NW
14840KMKG MKG20020902224511509/02/02 22:45:31  5-MIN KMKG 030345Z 18017G20KT 8SM FEW110 24/22 A2981 730 84 2000 190/17G20 RMK AO2 LTG DSNT W-NW
14840KMKG MKG20020902225013209/02/02 22:50:31  5-MIN KMKG 030350Z 19013G20KT 8SM FEW110 24/22 A2981 730 84 2000 190/13G20 RMK AO2 SLP091 LTG DSNT W-NW T02440217
14840KMKG MKG20020902225513209/02/02 22:55:31  5-MIN KMKG 030355Z 19014G20KT 8SM FEW075 24/22 A2981 730 84 2000 190/14G20 RMK AO2 SLP091 LTG DSNT W-NW T02440217
14840KMKG MKG20020902230011209/02/02 23:00:31  5-MIN KMKG 030400Z 18015G20KT 8SM FEW075 24/22 A2980 740 84 2000 180/15G20 RMK AO2 LTG DSNT W
14840KMKG MKG20020902230510609/02/02 23:05:31  5-MIN KMKG 030405Z 19015KT 8SM FEW075 24/22 A2981 730 84 2000 190/15 RMK AO2 LTG DSNT W
14840KMKG MKG20020902231010609/02/02 23:10:31  5-MIN KMKG 030410Z 19014KT 8SM FEW080 24/22 A2981 730 84 2000 190/14 RMK AO2 LTG DSNT W
14840KMKG MKG20020902231511209/02/02 23:15:31  5-MIN KMKG 030415Z 19013G21KT 8SM SCT080 24/22 A2982 730 84 2000 190/13G21 RMK AO2 LTG DSNT W
14840KMKG MKG20020902232011209/02/02 23:20:31  5-MIN KMKG 030420Z 18013G21KT 8SM SCT085 24/22 A2981 730 84 2000 190/13G21 RMK AO2 LTG DSNT W
14840KMKG MKG20020902232511209/02/02 23:25:31  5-MIN KMKG 030425Z 18015G21KT 8SM FEW085 24/22 A2981 730 84 2000 190/15G21 RMK AO2 LTG DSNT W
14840KMKG MKG20020902233011209/02/02 23:30:31  5-MIN KMKG 030430Z 18013G21KT 8SM FEW085 24/22 A2980 740 84 2000 190/13G21 RMK AO2 LTG DSNT W
14840KMKG MKG20020902233511309/02/02 23:35:31  5-MIN KMKG 030435Z 19015KT 8SM FEW080 SCT095 24/22 A2980 740 84 2000 190/15 RMK AO2 LTG DSNT W
14840KMKG MKG20020902234012609/02/02 23:40:31  5-MIN KMKG 030440Z 19014G21KT 8SM FEW080 BKN100 25/22 A2979 750 81 2100 190/14G21 RMK AO2 PRESFR LTG DSNT W
14840KMKG MKG20020902234511909/02/02 23:45:31  5-MIN KMKG 030445Z 19013G21KT 8SM SCT080 BKN100 24/22 A2980 750 84 2000 190/13G21 RMK AO2 LTG DSNT W
14840KMKG MKG20020902235014609/02/02 23:50:31  5-MIN KMKG 030450Z 18018G25KT 8SM SCT080 BKN100 24/22 A2978 760 84 2100 180/18G25 RMK AO2 SLP082 LTG DSNT W T02440217 402560194
14840KMKG MKG20020902235516809/02/02 23:55:31  5-MIN KMKG 030455Z 19016G25KT 8SM TS SCT080 BKN100 24/22 A2978 760 84 2100 190/16G25 RMK AO2 OCNL LGTICCA TSB53 TS W MOV E SLP082 T02440217 402560194
14840KMKG MKG20020903000011209/03/02 00:00:31  5-MIN KMKG 030500Z 18017KT 8SM TS BKN085 BKN100 24/22 A2977 770 84 2100 180/17 RMK AO2 PRESFR
14840KMKG MKG20020903000512509/03/02 00:05:31  5-MIN KMKG 030505Z 18019G25KT 8SM TS FEW065 SCT080 BKN100 24/22 A2976 780 84 2100 180/19G25 RMK AO2 PRESFR
14840KMKG MKG20020903001011809/03/02 00:10:31  5-MIN KMKG 030510Z 19018G25KT 8SM TS FEW065 SCT080 SCT090 24/22 A2976 780 84 2100 190/18G25 RMK AO2
14840KMKG MKG20020903001511809/03/02 00:15:31  5-MIN KMKG 030515Z 18018G25KT 8SM TS FEW065 SCT085 24/22 A2975 790 84 2100 190/18G25 RMK AO2 PRESFR
14840KMKG MKG20020903002011109/03/02 00:20:31  5-MIN KMKG 030520Z 19017G25KT 8SM TS FEW060 SCT090 24/22 A2976 780 84 2100 190/17G25 RMK AO2
14840KMKG MKG20020903002512209/03/02 00:25:31  5-MIN KMKG 030525Z 19020G27KT 8SM TS SCT060 24/22 A2975 790 84 2100 200/20G27 RMK AO2 PK WND 19027/0524
14840KMKG MKG20020903003012209/03/02 00:30:31  5-MIN KMKG 030530Z 20020G27KT 8SM TS BKN060 25/22 A2976 780 81 2200 200/20G27 RMK AO2 PK WND 21027/0530
14840KMKG MKG20020903003512209/03/02 00:35:31  5-MIN KMKG 030535Z 20017G27KT 8SM TS BKN055 25/22 A2976 780 81 2200 210/17G27 RMK AO2 PK WND 21027/0530
14840KMKG MKG20020903004012509/03/02 00:40:31  5-MIN KMKG 030540Z 20017G25KT 9SM BKN050 25/22 A2977 770 81 2100 200/17G25 RMK AO2 PK WND 21027/0530 TSE39
14840KMKG MKG20020903004515509/03/02 00:45:31  5-MIN KMKG 030545Z 20019G25KT 9SM TS BKN050 25/22 A2976 780 81 2100 210/19G25 RMK AO2 PK WND 21027/0530 OCNL LTGICCA TSE39B43 TS W MOV E
14840KMKG MKG20020903005019609/03/02 00:50:31  5-MIN KMKG 030550Z 21015G27KT 9SM TS BKN050 25/22 A2976 780 81 2200 210/15G27 RMK AO2 PK WND 22027/0546 SLP073 OCNL LTGICCA TSE39B43 TS W MOV E 60002 T02500217 10256 20244 50006
14840KMKG MKG20020903005519809/03/02 00:55:31  5-MIN KMKG 030555Z 22021G28KT 9SM TS BKN050 25/22 A2976 780 81 2200 230/21G28 RMK AO2 PK WND 23028/0555 SLP073 OCNL LTGICCA TSE39B43 TS NW MOV SE 60002 T02500217 10256 20244 58017
14840KMKG MKG20020903010012209/03/02 01:00:31  5-MIN KMKG 030600Z 23019G28KT 9SM TS SCT050 26/22 A2975 780 79 2200 240/19G28 RMK AO2 PK WND 23027/0600
14840KMKG MKG20020903010512209/03/02 01:05:31  5-MIN KMKG 030605Z 24015G29KT 9SM TS FEW050 25/22 A2975 790 81 2200 240/15G29 RMK AO2 PK WND 25029/0601
14840KMKG MKG20020903011012209/03/02 01:10:31  5-MIN KMKG 030610Z 24014G29KT 9SM TS FEW050 24/21 A2976 780 78 2100 240/14G29 RMK AO2 PK WND 25029/0601
14840KMKG MKG20020903011512009/03/02 01:15:31  5-MIN KMKG 030615Z 26015G23KT 10SM TS CLR 24/20 A2977 770 76 2100 260/15G23 RMK AO2 PK WND 25029/0601
14840KMKG MKG20020903012012409/03/02 01:20:31  5-MIN KMKG 030620Z 27012KT 10SM TS FEW080 24/20 A2978 760 78 2000 270/12 RMK AO2 PK WND 25029/0601 PRESRR
14840KMKG MKG20020903012513209/03/02 01:25:31  5-MIN KMKG 030625Z 28011KT 10SM -TSRA FEW090 23/21 A2979 750 84 1900 290/11 RMK AO2 PK WND 25029/0601 RAB22 P0000
14840KMKG MKG20020903013015909/03/02 01:30:31  5-MIN KMKG 030630Z 29012KT 10SM -TSRA FEW090 23/21 A2979 760 84 1900 290/12 RMK AO2 PK WND 25029/0601 RAB22 OCNL LTGICCA TS NW MOVE SE P0000
14840KMKG MKG20020903013516509/03/02 01:35:31  5-MIN KMKG 030635Z 28018G24KT 10SM TS FEW090 23/21 A2979 760 84 1900 280/18G24 RMK AO2 PK WND 25029/0601 RAB22E33 OCNL LTGICCA TS NW MOVE SE P0000
14840KMKG MKG20020903014016509/03/02 01:40:31  5-MIN KMKG 030640Z 27020G24KT 10SM TS FEW090 24/20 A2979 750 78 2000 270/20G24 RMK AO2 PK WND 25029/0601 RAB22E33 OCNL LTGICCA TS NW MOVE SE P0000
14840KMKG MKG20020903014516509/03/02 01:45:31  5-MIN KMKG 030645Z 28016G27KT 10SM TS FEW090 24/20 A2979 750 78 2000 280/16G27 RMK AO2 PK WND 25029/0601 RAB22E33 OCNL LTGICCA TS NW MOVE SE P0000
14840KMKG MKG20020903015017909/03/02 01:50:31  5-MIN KMKG 030650Z 27017G27KT 10SM TS CLR 24/19 A2979 750 76 2000 280/17G27 RMK AO2 PK WND 25029/0601 RAB22E33 SLP086 OCNL LTGICCA TS NW MOVE SE P0000 T02390194
14840KMKG MKG20020903015517909/03/02 01:55:31  5-MIN KMKG 030655Z 27014G22KT 10SM TS CLR 23/20 A2980 740 81 1900 280/14G22 RMK AO2 PK WND 25029/0601 RAB22E33 SLP088 OCNL LTGICCA TS NW MOVE SE P0000 T02330200
14840KMKG MKG20020903020009609/03/02 02:00:31  5-MIN KMKG 030700Z 28014KT 10SM TS CLR 23/19 A2981 730 78 1900 280/14 RMK AO2
14840KMKG MKG20020903020510309/03/02 02:05:31  5-MIN KMKG 030705Z 28013KT 10SM TS CLR 23/19 A2982 730 81 1800 280/13 RMK AO2 PRESRR
14840KMKG MKG20020903021010909/03/02 02:10:31  5-MIN KMKG 030710Z 28013G19KT 10SM TS CLR 23/19 A2982 720 81 1800 280/13G19 RMK AO2 PRESRR
14840KMKG MKG20020903021510209/03/02 02:15:31  5-MIN KMKG 030715Z 27013G19KT 10SM TS CLR 23/19 A2982 720 81 1800 270/13G19 RMK AO2
14840KMKG MKG20020903022009909/03/02 02:20:31  5-MIN KMKG 030720Z 28013KT 10SM CLR 23/19 A2982 720 81 1800 280/13 RMK AO2 TSE18
14840KMKG MKG20020903022509909/03/02 02:25:31  5-MIN KMKG 030725Z 29011KT 10SM CLR 23/19 A2983 720 78 1800 290/11 RMK AO2 TSE18
14840KMKG MKG20020903023010509/03/02 02:30:31  5-MIN KMKG 030730Z 29012G18KT 10SM CLR 23/19 A2983 710 78 1800 290/12G18 RMK AO2 TSE18
14840KMKG MKG20020903023509909/03/02 02:35:31  5-MIN KMKG 030735Z 28011KT 10SM CLR 22/19 A2983 710 81 1800 290/11 RMK AO2 TSE18
14840KMKG MKG20020903024010509/03/02 02:40:31  5-MIN KMKG 030740Z 29010G17KT 10SM CLR 22/19 A2984 710 84 1800 290/10G17 RMK AO2 TSE18
14840KMKG MKG20020903024510809/03/02 02:45:31  5-MIN KMKG 030745Z 29009G17KT 10SM FEW021 22/19 A2983 710 84 1800 300/09G17 RMK AO2 TSE18
14840KMKG MKG20020903025012509/03/02 02:50:31  5-MIN KMKG 030750Z 29013G17KT 10SM SCT021 22/19 A2983 710 84 1800 290/13G17 RMK AO2 TSE18 SLP099 T02220194
14840KMKG MKG20020903025513209/03/02 02:55:31  5-MIN KMKG 030755Z 29010G17KT 10SM SCT022 SCT027 22/19 A2983 710 84 1800 290/10G17 RMK AO2 TSE18 SLP099 T02220194
14840KMKG MKG20020903030010309/03/02 03:00:31  5-MIN KMKG 030800Z 29009KT 10SM BKN022 BKN027 22/19 A2983 710 84 1800 290/09 RMK AO2
14840KMKG MKG20020903030510909/03/02 03:05:31  5-MIN KMKG 030805Z 30011G15KT 10SM BKN024 BKN060 22/19 A2983 710 84 1800 300/11G15 RMK AO2
14840KMKG MKG20020903031011609/03/02 03:10:31  5-MIN KMKG 030810Z 31013G16KT 10SM SCT021 BKN026 OVC060 22/19 A2983 710 81 1800 310/13G16 RMK AO2
14840KMKG MKG20020903031511809/03/02 03:15:31  5-MIN KMKG 030815Z 31012KT 10SM SCT026 OVC060 22/19 A2983 710 84 1700 310/12 RMK AO2 CIG 025 RWY 14
14840KMKG MKG20020903032011809/03/02 03:20:31  5-MIN KMKG 030820Z 31011KT 10SM SCT026 OVC065 22/19 A2984 710 84 1700 310/11 RMK AO2 CIG 025 RWY 14
14840KMKG MKG20020903032510909/03/02 03:25:31  5-MIN KMKG 030825Z 32014G18KT 10SM SCT024 OVC060 22/18 A2984 710 81 1700 320/14G18 RMK AO2
14840KMKG MKG20020903033010909/03/02 03:30:31  5-MIN KMKG 030830Z 32011G18KT 10SM FEW024 OVC060 22/18 A2984 710 78 1700 320/11G18 RMK AO2
14840KMKG MKG20020903033510309/03/02 03:35:31  5-MIN KMKG 030835Z 32011KT 10SM FEW024 OVC060 22/18 A2985 700 78 1700 330/11 RMK AO2
14840KMKG MKG20020903034010209/03/02 03:40:31  5-MIN KMKG 030840Z 32013G20KT 10SM OVC060 22/17 A2984 700 75 1700 330/13G20 RMK AO2
14840KMKG MKG20020903034510209/03/02 03:45:31  5-MIN KMKG 030845Z 33009G20KT 10SM OVC060 22/17 A2985 700 75 1700 340/09G20 RMK AO2
14840KMKG MKG20020903035012509/03/02 03:50:31  5-MIN KMKG 030850Z 32010KT 10SM OVC055 22/17 A2985 700 75 1700 320/10 RMK AO2 SLP104 60000 T02170172 58017
14840KMKG MKG20020903035512509/03/02 03:55:31  5-MIN KMKG 030855Z 32011KT 10SM OVC060 21/17 A2985 690 75 1600 320/11 RMK AO2 SLP106 60000 T02110167 51031
14840KMKG MKG20020903040009609/03/02 04:00:31  5-MIN KMKG 030900Z 32015KT 10SM OVC060 21/17 A2985 690 75 1600 320/15 RMK AO2
14840KMKG MKG20020903040509609/03/02 04:05:31  5-MIN KMKG 030905Z 32010KT 10SM OVC060 21/17 A2986 690 75 1600 320/10 RMK AO2
14840KMKG MKG20020903041009609/03/02 04:10:31  5-MIN KMKG 030910Z 33009KT 10SM OVC060 21/16 A2986 690 73 1600 330/09 RMK AO2
14840KMKG MKG20020903041509609/03/02 04:15:31  5-MIN KMKG 030915Z 33009KT 10SM OVC060 21/16 A2986 690 73 1600 330/09 RMK AO2
14840KMKG MKG20020903042009609/03/02 04:20:31  5-MIN KMKG 030920Z 32010KT 10SM OVC065 21/16 A2986 680 73 1600 330/10 RMK AO2
14840KMKG MKG20020903042509609/03/02 04:25:31  5-MIN KMKG 030925Z 31008KT 10SM OVC065 21/16 A2987 680 73 1600 310/08 RMK AO2
14840KMKG MKG20020903043009609/03/02 04:30:31  5-MIN KMKG 030930Z 33007KT 10SM OVC065 21/16 A2987 680 73 1600 330/07 RMK AO2
14840KMKG MKG20020903043509609/03/02 04:35:31  5-MIN KMKG 030935Z 32009KT 10SM OVC065 21/16 A2987 670 75 1500 320/09 RMK AO2
14840KMKG MKG20020903044009609/03/02 04:40:31  5-MIN KMKG 030940Z 33008KT 10SM BKN065 21/16 A2988 670 75 1500 330/08 RMK AO2
14840KMKG MKG20020903044509609/03/02 04:45:31  5-MIN KMKG 030945Z 32007KT 10SM BKN065 21/16 A2988 670 75 1500 330/07 RMK AO2
14840KMKG MKG20020903045011309/03/02 04:50:31  5-MIN KMKG 030950Z 33008KT 10SM SCT065 20/16 A2988 670 75 1400 340/08 RMK AO2 SLP115 T02000156
14840KMKG MKG20020903045511309/03/02 04:55:31  5-MIN KMKG 030955Z 33007KT 10SM SCT065 20/16 A2988 670 75 1400 330/07 RMK AO2 SLP115 T02000156
14840KMKG MKG20020903050009609/03/02 05:00:31  5-MIN KMKG 031000Z 32007KT 10SM FEW065 20/16 A2988 670 75 1400 330/07 RMK AO2
14840KMKG MKG20020903050509309/03/02 05:05:31  5-MIN KMKG 031005Z 33009KT 10SM CLR 20/16 A2988 660 75 1400 330/09 RMK AO2
14840KMKG MKG20020903051009309/03/02 05:10:31  5-MIN KMKG 031010Z 32007KT 10SM CLR 20/16 A2989 660 75 1400 330/07 RMK AO2
14840KMKG MKG20020903051509309/03/02 05:15:31  5-MIN KMKG 031015Z 33006KT 10SM CLR 19/16 A2989 660 78 1400 330/06 RMK AO2
14840KMKG MKG20020903052009309/03/02 05:20:31  5-MIN KMKG 031020Z 33008KT 10SM CLR 19/15 A2989 660 75 1400 330/08 RMK AO2
14840KMKG MKG20020903052509309/03/02 05:25:31  5-MIN KMKG 031025Z 32008KT 10SM CLR 19/15 A2989 660 75 1400 330/08 RMK AO2
14840KMKG MKG20020903053009309/03/02 05:30:31  5-MIN KMKG 031030Z 32007KT 10SM CLR 19/15 A2989 660 78 1300 330/07 RMK AO2
14840KMKG MKG20020903053509309/03/02 05:35:31  5-MIN KMKG 031035Z 32006KT 10SM CLR 19/15 A2989 660 75 1400 320/06 RMK AO2
14840KMKG MKG20020903054009309/03/02 05:40:31  5-MIN KMKG 031040Z 32006KT 10SM CLR 19/15 A2989 650 78 1300 320/06 RMK AO2
14840KMKG MKG20020903054509309/03/02 05:45:31  5-MIN KMKG 031045Z 32006KT 10SM CLR 19/15 A2990 650 78 1300 320/06 RMK AO2
14840KMKG MKG20020903055011009/03/02 05:50:31  5-MIN KMKG 031050Z 33005KT 10SM CLR 19/15 A2990 650 78 1300 330/05 RMK AO2 SLP121 T01890150
14840KMKG MKG20020903055511009/03/02 05:55:31  5-MIN KMKG 031055Z 32004KT 10SM CLR 18/15 A2990 650 81 1200 320/04 RMK AO2 SLP121 T01830150
14840KMKG MKG20020903060009309/03/02 06:00:31  5-MIN KMKG 031100Z 31005KT 10SM CLR 18/15 A2990 650 81 1200 320/05 RMK AO2
14840KMKG MKG20020903060509309/03/02 06:05:31  5-MIN KMKG 031105Z 32006KT 10SM CLR 18/15 A2990 650 81 1200 320/06 RMK AO2
14840KMKG MKG20020903061009309/03/02 06:10:31  5-MIN KMKG 031110Z 31006KT 10SM CLR 18/15 A2991 640 81 1200 320/06 RMK AO2
14840KMKG MKG20020903061509309/03/02 06:15:31  5-MIN KMKG 031115Z 32006KT 10SM CLR 18/15 A2991 640 81 1200 320/06 RMK AO2
14840KMKG MKG20020903062009309/03/02 06:20:31  5-MIN KMKG 031120Z 31005KT 10SM CLR 18/15 A2991 640 81 1200 320/05 RMK AO2
14840KMKG MKG20020903062509309/03/02 06:25:31  5-MIN KMKG 031125Z 31005KT 10SM CLR 18/15 A2991 640 81 1200 310/05 RMK AO2
14840KMKG MKG20020903063009309/03/02 06:30:31  5-MIN KMKG 031130Z 31004KT 10SM CLR 18/15 A2992 630 81 1200 310/04 RMK AO2
14840KMKG MKG20020903063509309/03/02 06:35:31  5-MIN KMKG 031135Z 30004KT 10SM CLR 18/15 A2992 630 81 1200 310/04 RMK AO2
14840KMKG MKG20020903064009309/03/02 06:40:31  5-MIN KMKG 031140Z 00000KT 10SM CLR 19/15 A2992 630 78 1300 000/00 RMK AO2
14840KMKG MKG20020903064509309/03/02 06:45:31  5-MIN KMKG 031145Z 00000KT 10SM CLR 18/15 A2992 630 81 1200 000/00 RMK AO2
14840KMKG MKG20020903065014009/03/02 06:50:31  5-MIN KMKG 031150Z 00000KT 10SM CLR 18/15 A2992 630 81 1200 000/00 RMK AO2 SLP129 60000 70014 T01830150 10256 20183 51031
14840KMKG MKG20020903065514009/03/02 06:55:31  5-MIN KMKG 031155Z 28003KT 10SM CLR 18/16 A2992 630 84 1200 280/03 RMK AO2 SLP130 60000 70014 T01830156 10256 20183 51023
14840KMKG MKG20020903070009309/03/02 07:00:31  5-MIN KMKG 031200Z 00000KT 10SM CLR 18/16 A2993 630 84 1200 000/00 RMK AO2
14840KMKG MKG20020903070509309/03/02 07:05:31  5-MIN KMKG 031205Z 00000KT 10SM CLR 19/16 A2993 620 81 1300 000/00 RMK AO2
14840KMKG MKG20020903071009309/03/02 07:10:31  5-MIN KMKG 031210Z 00000KT 10SM CLR 19/16 A2993 620 84 1300 000/00 RMK AO2
14840KMKG MKG20020903071509309/03/02 07:15:31  5-MIN KMKG 031215Z 29003KT 10SM CLR 19/16 A2993 620 81 1300 290/03 RMK AO2
14840KMKG MKG20020903072009309/03/02 07:20:31  5-MIN KMKG 031220Z 00000KT 10SM CLR 20/16 A2993 620 78 1400 000/00 RMK AO2
14840KMKG MKG20020903072509309/03/02 07:25:31  5-MIN KMKG 031225Z VRB03KT 10SM CLR 20/16 A2993 620 78 1400 VRB/03 RMK AO2
14840KMKG MKG20020903073009309/03/02 07:30:31  5-MIN KMKG 031230Z 29004KT 10SM CLR 21/16 A2994 620 75 1400 300/04 RMK AO2
14840KMKG MKG20020903073509309/03/02 07:35:31  5-MIN KMKG 031235Z 00000KT 10SM CLR 21/16 A2994 620 75 1400 000/00 RMK AO2
14840KMKG MKG20020903074009309/03/02 07:40:31  5-MIN KMKG 031240Z 30006KT 10SM CLR 21/16 A2994 610 75 1400 310/06 RMK AO2
14840KMKG MKG20020903074509309/03/02 07:45:31  5-MIN KMKG 031245Z 31006KT 10SM CLR 21/16 A2994 610 73 1500 310/06 RMK AO2
14840KMKG MKG20020903075011009/03/02 07:50:31  5-MIN KMKG 031250Z 30006KT 10SM CLR 21/16 A2994 610 73 1500 300/06 RMK AO2 SLP135 T02110161
14840KMKG MKG20020903075511009/03/02 07:55:31  5-MIN KMKG 031255Z 30006KT 10SM CLR 21/16 A2994 610 73 1500 300/06 RMK AO2 SLP135 T02110161
14840KMKG MKG20020903080009309/03/02 08:00:31  5-MIN KMKG 031300Z 29005KT 10SM CLR 22/16 A2994 610 70 1600 300/05 RMK AO2
14840KMKG MKG20020903080509309/03/02 08:05:31  5-MIN KMKG 031305Z 31006KT 10SM CLR 22/16 A2994 610 70 1600 310/06 RMK AO2
14840KMKG MKG20020903081009309/03/02 08:10:31  5-MIN KMKG 031310Z 30010KT 10SM CLR 22/16 A2994 610 70 1600 310/10 RMK AO2
14840KMKG MKG20020903081509309/03/02 08:15:31  5-MIN KMKG 031315Z 32009KT 10SM CLR 22/16 A2994 610 68 1600 320/09 RMK AO2
14840KMKG MKG20020903082009909/03/02 08:20:31  5-MIN KMKG 031320Z 32011G15KT 10SM CLR 22/16 A2994 610 68 1600 320/11G15 RMK AO2
14840KMKG MKG20020903082509909/03/02 08:25:31  5-MIN KMKG 031325Z 31008G15KT 10SM CLR 22/16 A2995 610 70 1600 310/08G15 RMK AO2
14840KMKG MKG20020903083009309/03/02 08:30:31  5-MIN KMKG 031330Z 29010KT 10SM CLR 22/16 A2995 610 68 1600 300/10 RMK AO2
14840KMKG MKG20020903083509309/03/02 08:35:31  5-MIN KMKG 031335Z 29007KT 10SM CLR 22/16 A2995 600 68 1600 300/07 RMK AO2
14840KMKG MKG20020903084009309/03/02 08:40:31  5-MIN KMKG 031340Z 31009KT 10SM CLR 22/16 A2995 600 65 1600 320/09 RMK AO2
14840KMKG MKG20020903084510909/03/02 08:45:31  5-MIN KMKG 031345Z 30007KT 270V330 10SM CLR 22/16 A2995 600 68 1600 300/07 270V330 RMK AO2
14840KMKG MKG20020903085011009/03/02 08:50:31  5-MIN KMKG 031350Z 29010KT 10SM CLR 22/16 A2995 600 68 1600 290/10 RMK AO2 SLP139 T02220161
14840KMKG MKG20020903085511009/03/02 08:55:31  5-MIN KMKG 031355Z 29008KT 10SM CLR 22/16 A2995 600 65 1600 290/08 RMK AO2 SLP140 T02220156
14840KMKG MKG20020903090010909/03/02 09:00:31  5-MIN KMKG 031400Z 29011KT 250V310 10SM CLR 22/16 A2995 600 68 1600 290/11 250V310 RMK AO2
14840KMKG MKG20020903090509309/03/02 09:05:31  5-MIN KMKG 031405Z 31009KT 10SM CLR 22/16 A2996 600 65 1600 310/09 RMK AO2
14840KMKG MKG20020903091009309/03/02 09:10:31  5-MIN KMKG 031410Z 29008KT 10SM CLR 22/16 A2995 600 68 1600 290/08 RMK AO2
14840KMKG MKG20020903091509309/03/02 09:15:31  5-MIN KMKG 031415Z 29010KT 10SM CLR 22/16 A2996 600 68 1600 290/10 RMK AO2
14840KMKG MKG20020903092009309/03/02 09:20:31  5-MIN KMKG 031420Z 30009KT 10SM CLR 22/16 A2996 600 65 1600 300/09 RMK AO2
14840KMKG MKG20020903092509309/03/02 09:25:31  5-MIN KMKG 031425Z 30007KT 10SM CLR 23/16 A2996 590 63 1700 300/07 RMK AO2
14840KMKG MKG20020903093010909/03/02 09:30:31  5-MIN KMKG 031430Z 29008KT 260V330 10SM CLR 23/16 A2996 590 65 1700 290/08 260V330 RMK AO2
14840KMKG MKG20020903093509309/03/02 09:35:31  5-MIN KMKG 031435Z 27011KT 10SM CLR 23/16 A2996 590 65 1700 280/11 RMK AO2
14840KMKG MKG20020903094009609/03/02 09:40:31  5-MIN KMKG 031440Z 27010KT 10SM FEW030 23/16 A2996 590 65 1700 270/10 RMK AO2
14840KMKG MKG20020903094509609/03/02 09:45:31  5-MIN KMKG 031445Z 28009KT 10SM FEW030 23/16 A2996 590 65 1700 280/09 RMK AO2
14840KMKG MKG20020903095011909/03/02 09:50:31  5-MIN KMKG 031450Z 27011KT 10SM FEW030 23/16 A2996 590 65 1700 280/11 RMK AO2 SLP143 T02280161 51023
14840KMKG MKG20020903095511909/03/02 09:55:31  5-MIN KMKG 031455Z 28011KT 10SM FEW030 23/16 A2996 590 63 1700 280/11 RMK AO2 SLP143 T02280156 51013
14840KMKG MKG20020903100009309/03/02 10:00:31  5-MIN KMKG 031500Z 28011KT 10SM CLR 23/16 A2996 590 63 1700 290/11 RMK AO2
14840KMKG MKG20020903100509309/03/02 10:05:31  5-MIN KMKG 031505Z 27009KT 10SM CLR 23/16 A2997 590 65 1700 280/09 RMK AO2
14840KMKG MKG20020903101009309/03/02 10:10:31  5-MIN KMKG 031510Z 28010KT 10SM CLR 23/16 A2997 590 63 1700 290/10 RMK AO2
14840KMKG MKG20020903101509309/03/02 10:15:31  5-MIN KMKG 031515Z 27009KT 10SM CLR 23/16 A2997 580 65 1700 270/09 RMK AO2
14840KMKG MKG20020903102009309/03/02 10:20:31  5-MIN KMKG 031520Z 29011KT 10SM CLR 23/15 A2997 580 59 1700 290/11 RMK AO2
14840KMKG MKG20020903102509309/03/02 10:25:31  5-MIN KMKG 031525Z 28010KT 10SM CLR 23/16 A2997 580 63 1700 280/10 RMK AO2
14840KMKG MKG20020903103009309/03/02 10:30:31  5-MIN KMKG 031530Z 29011KT 10SM CLR 23/15 A2997 580 59 1700 290/11 RMK AO2
14840KMKG MKG20020903103509309/03/02 10:35:31  5-MIN KMKG 031535Z 28008KT 10SM CLR 23/15 A2997 580 61 1700 290/08 RMK AO2
14840KMKG MKG20020903104009309/03/02 10:40:31  5-MIN KMKG 031540Z 29008KT 10SM CLR 23/16 A2997 580 61 1700 290/08 RMK AO2
14840KMKG MKG20020903104509609/03/02 10:45:31  5-MIN KMKG 031545Z 29007KT 10SM FEW032 23/16 A2997 580 63 1700 290/07 RMK AO2
14840KMKG MKG20020903105011309/03/02 10:50:31  5-MIN KMKG 031550Z 28009KT 10SM FEW032 23/16 A2997 580 61 1700 280/09 RMK AO2 SLP146 T02330156
14840KMKG MKG20020903105511309/03/02 10:55:31  5-MIN KMKG 031555Z 30010KT 10SM FEW032 23/16 A2998 580 63 1700 300/10 RMK AO2 SLP147 T02330161
14840KMKG MKG20020903110009309/03/02 11:00:31  5-MIN KMKG 031600Z 26010KT 10SM CLR 23/16 A2998 580 63 1700 260/10 RMK AO2
14840KMKG MKG20020903110509309/03/02 11:05:31  5-MIN KMKG 031605Z 27009KT 10SM CLR 23/16 A2998 580 65 1700 270/09 RMK AO2
14840KMKG MKG20020903111009309/03/02 11:10:31  5-MIN KMKG 031610Z 27011KT 10SM CLR 23/17 A2998 580 66 1700 270/11 RMK AO2
14840KMKG MKG20020903111509309/03/02 11:15:31  5-MIN KMKG 031615Z 26009KT 10SM CLR 23/16 A2998 580 63 1700 270/09 RMK AO2
14840KMKG MKG20020903112009309/03/02 11:20:31  5-MIN KMKG 031620Z 26011KT 10SM CLR 23/17 A2998 580 66 1700 260/11 RMK AO2
14840KMKG MKG20020903112509309/03/02 11:25:31  5-MIN KMKG 031625Z 28011KT 10SM CLR 23/16 A2998 580 63 1700 280/11 RMK AO2
14840KMKG MKG20020903113010909/03/02 11:30:31  5-MIN KMKG 031630Z 30009KT 280V340 10SM CLR 24/16 A2998 570 59 1800 300/09 280V340 RMK AO2
14840KMKG MKG20020903113509309/03/02 11:35:31  5-MIN KMKG 031635Z 27008KT 10SM CLR 23/16 A2998 570 61 1700 280/08 RMK AO2
14840KMKG MKG20020903114009609/03/02 11:40:31  5-MIN KMKG 031640Z 27009KT 10SM FEW032 23/16 A2998 570 61 1700 270/09 RMK AO2
14840KMKG MKG20020903114509609/03/02 11:45:31  5-MIN KMKG 031645Z 27010KT 10SM FEW032 24/15 A2998 570 57 1800 280/10 RMK AO2
14840KMKG MKG20020903115011309/03/02 11:50:31  5-MIN KMKG 031650Z 29012KT 10SM FEW032 24/14 A2998 570 55 1800 290/12 RMK AO2 SLP148 T02390144
14840KMKG MKG20020903115511309/03/02 11:55:31  5-MIN KMKG 031655Z 27010KT 10SM FEW032 24/14 A2998 570 55 1800 280/10 RMK AO2 SLP149 T02390144
14840KMKG MKG20020903120009309/03/02 12:00:31  5-MIN KMKG 031700Z 28010KT 10SM CLR 24/14 A2998 570 53 1800 290/10 RMK AO2
14840KMKG MKG20020903120509309/03/02 12:05:31  5-MIN KMKG 031705Z 29011KT 10SM CLR 24/14 A2998 570 53 1800 300/11 RMK AO2
14840KMKG MKG20020903121009309/03/02 12:10:31  5-MIN KMKG 031710Z 29009KT 10SM CLR 24/13 A2998 570 51 1800 300/09 RMK AO2
14840KMKG MKG20020903121509309/03/02 12:15:31  5-MIN KMKG 031715Z 27010KT 10SM CLR 24/14 A2999 570 51 1800 270/10 RMK AO2
14840KMKG MKG20020903122009309/03/02 12:20:31  5-MIN KMKG 031720Z 26010KT 10SM CLR 24/14 A2999 570 55 1800 270/10 RMK AO2
14840KMKG MKG20020903122509909/03/02 12:25:31  5-MIN KMKG 031725Z 26010G15KT 10SM CLR 24/14 A2998 570 51 1800 260/10G15 RMK AO2
14840KMKG MKG20020903123009309/03/02 12:30:31  5-MIN KMKG 031730Z 27011KT 10SM CLR 24/14 A2999 570 51 1800 270/11 RMK AO2
14840KMKG MKG20020903123509309/03/02 12:35:31  5-MIN KMKG 031735Z 26010KT 10SM CLR 24/14 A2999 570 53 1800 270/10 RMK AO2
14840KMKG MKG20020903124009309/03/02 12:40:31  5-MIN KMKG 031740Z 26012KT 10SM CLR 24/13 A2999 570 51 1800 270/12 RMK AO2
14840KMKG MKG20020903124509309/03/02 12:45:31  5-MIN KMKG 031745Z 29011KT 10SM CLR 24/13 A2999 570 51 1800 290/11 RMK AO2
14840KMKG MKG20020903125013109/03/02 12:50:31  5-MIN KMKG 031750Z 26009KT 10SM FEW032 25/15 A2999 570 53 1900 260/09 RMK AO2 SLP150 T02500150 10250 20183 51013
14840KMKG MKG20020903125513109/03/02 12:55:31  5-MIN KMKG 031755Z 26009KT 10SM FEW032 24/15 A2999 570 55 1800 270/09 RMK AO2 SLP151 T02440150 10250 20183 51009
14840KMKG MKG20020903130009309/03/02 13:00:31  5-MIN KMKG 031800Z 27010KT 10SM CLR 24/14 A2999 570 53 1800 280/10 RMK AO2
14840KMKG MKG20020903130509309/03/02 13:05:31  5-MIN KMKG 031805Z 26013KT 10SM CLR 24/14 A2999 560 51 1800 260/13 RMK AO2
14840KMKG MKG20020903131009909/03/02 13:10:31  5-MIN KMKG 031810Z 27010G16KT 10SM CLR 24/13 A2999 570 49 1800 270/10G16 RMK AO2
14840KMKG MKG20020903131509309/03/02 13:15:31  5-MIN KMKG 031815Z 23011KT 10SM CLR 24/15 A2999 570 55 1800 230/11 RMK AO2
14840KMKG MKG20020903132009309/03/02 13:20:31  5-MIN KMKG 031820Z 25011KT 10SM CLR 24/15 A2999 570 57 1800 250/11 RMK AO2
14840KMKG MKG20020903132509309/03/02 13:25:31  5-MIN KMKG 031825Z 25012KT 10SM CLR 24/14 A2999 570 53 1800 260/12 RMK AO2
14840KMKG MKG20020903133009309/03/02 13:30:31  5-MIN KMKG 031830Z 24012KT 10SM CLR 24/14 A2999 570 53 1800 250/12 RMK AO2
14840KMKG MKG20020903133509309/03/02 13:35:31  5-MIN KMKG 031835Z 24012KT 10SM CLR 24/14 A2999 570 55 1800 250/12 RMK AO2
14840KMKG MKG20020903134009309/03/02 13:40:31  5-MIN KMKG 031840Z 25011KT 10SM CLR 24/14 A2998 570 55 1800 250/11 RMK AO2
14840KMKG MKG20020903134509309/03/02 13:45:31  5-MIN KMKG 031845Z 24013KT 10SM CLR 24/14 A2998 570 51 1800 250/13 RMK AO2
14840KMKG MKG20020903135011009/03/02 13:50:31  5-MIN KMKG 031850Z 25012KT 10SM CLR 24/13 A2998 570 51 1800 260/12 RMK AO2 SLP150 T02390133
14840KMKG MKG20020903135511009/03/02 13:55:31  5-MIN KMKG 031855Z 25010KT 10SM CLR 24/14 A2998 570 51 1800 250/10 RMK AO2 SLP150 T02440139
14840KMKG MKG20020903140009909/03/02 14:00:31  5-MIN KMKG 031900Z 26013G16KT 10SM CLR 24/14 A2999 570 51 1800 260/13G16 RMK AO2
14840KMKG MKG20020903140509309/03/02 14:05:31  5-MIN KMKG 031905Z 25013KT 10SM CLR 24/14 A2999 570 55 1800 250/13 RMK AO2
14840KMKG MKG20020903141009309/03/02 14:10:31  5-MIN KMKG 031910Z 26012KT 10SM CLR 24/14 A2999 570 55 1800 260/12 RMK AO2
14840KMKG MKG20020903141509309/03/02 14:15:31  5-MIN KMKG 031915Z 27012KT 10SM CLR 24/15 A2999 570 57 1800 270/12 RMK AO2
14840KMKG MKG20020903142009309/03/02 14:20:31  5-MIN KMKG 031920Z 25011KT 10SM CLR 24/14 A2998 570 55 1800 250/11 RMK AO2
14840KMKG MKG20020903142510909/03/02 14:25:31  5-MIN KMKG 031925Z 25012KT 220V290 10SM CLR 24/14 A2999 570 53 1800 250/12 220V290 RMK AO2
14840KMKG MKG20020903143009309/03/02 14:30:31  5-MIN KMKG 031930Z 26012KT 10SM CLR 24/13 A2999 570 47 1800 260/12 RMK AO2
14840KMKG MKG20020903143509309/03/02 14:35:31  5-MIN KMKG 031935Z 27014KT 10SM CLR 24/12 A2998 570 44 1800 280/14 RMK AO2
14840KMKG MKG20020903144009309/03/02 14:40:31  5-MIN KMKG 031940Z 23011KT 10SM CLR 24/13 A2998 570 49 1800 240/11 RMK AO2
14840KMKG MKG20020903144509309/03/02 14:45:31  5-MIN KMKG 031945Z 24012KT 10SM CLR 24/13 A2998 570 49 1800 240/12 RMK AO2
14840KMKG MKG20020903145011009/03/02 14:50:31  5-MIN KMKG 031950Z 24010KT 10SM CLR 24/14 A2998 570 53 1800 240/10 RMK AO2 SLP150 T02440144
14840KMKG MKG20020903145511609/03/02 14:55:31  5-MIN KMKG 031955Z 23011G16KT 10SM CLR 24/14 A2998 570 53 1800 240/11G16 RMK AO2 SLP150 T02440144
14840KMKG MKG20020903150009309/03/02 15:00:31  5-MIN KMKG 032000Z 24011KT 10SM CLR 24/14 A2998 570 53 1800 250/11 RMK AO2
14840KMKG MKG20020903150509909/03/02 15:05:31  5-MIN KMKG 032005Z 27012G17KT 10SM CLR 24/14 A2998 570 53 1800 270/12G17 RMK AO2
14840KMKG MKG20020903151009909/03/02 15:10:31  5-MIN KMKG 032010Z 25011G18KT 10SM CLR 24/14 A2999 570 53 1800 260/11G18 RMK AO2
14840KMKG MKG20020903151510909/03/02 15:15:31  5-MIN KMKG 032015Z 24010KT 220V280 10SM CLR 24/14 A2999 570 53 1800 240/10 220V280 RMK AO2
14840KMKG MKG20020903152009909/03/02 15:20:31  5-MIN KMKG 032020Z 24010G17KT 10SM CLR 24/14 A2999 570 53 1800 240/10G17 RMK AO2
14840KMKG MKG20020903152509909/03/02 15:25:31  5-MIN KMKG 032025Z 24013G17KT 10SM CLR 24/14 A2999 570 51 1800 250/13G17 RMK AO2
14840KMKG MKG20020903153009309/03/02 15:30:31  5-MIN KMKG 032030Z 24014KT 10SM CLR 24/14 A2999 570 53 1800 240/14 RMK AO2
14840KMKG MKG20020903153509309/03/02 15:35:31  5-MIN KMKG 032035Z 25011KT 10SM CLR 24/13 A2999 570 51 1800 250/11 RMK AO2
14840KMKG MKG20020903154009309/03/02 15:40:31  5-MIN KMKG 032040Z 23012KT 10SM CLR 24/14 A2999 570 51 1800 240/12 RMK AO2
14840KMKG MKG20020903154509309/03/02 15:45:31  5-MIN KMKG 032045Z 24012KT 10SM CLR 24/14 A2999 570 53 1800 250/12 RMK AO2
14840KMKG MKG20020903155011609/03/02 15:50:31  5-MIN KMKG 032050Z 24008KT 10SM CLR 24/14 A2999 570 53 1800 250/08 RMK AO2 SLP152 T02390139 51009
14840KMKG MKG20020903155511609/03/02 15:55:31  5-MIN KMKG 032055Z 24014KT 10SM CLR 24/14 A2999 570 53 1800 250/14 RMK AO2 SLP152 T02390139 55000
14840KMKG MKG20020903160009309/03/02 16:00:31  5-MIN KMKG 032100Z 23012KT 10SM CLR 24/14 A2999 570 53 1800 230/12 RMK AO2
14840KMKG MKG20020903160509309/03/02 16:05:31  5-MIN KMKG 032105Z 25012KT 10SM CLR 24/14 A2999 570 53 1800 260/12 RMK AO2
14840KMKG MKG20020903161009309/03/02 16:10:31  5-MIN KMKG 032110Z 24013KT 10SM CLR 24/14 A2999 570 55 1800 240/13 RMK AO2
14840KMKG MKG20020903161509309/03/02 16:15:31  5-MIN KMKG 032115Z 23012KT 10SM CLR 24/14 A2999 560 55 1800 240/12 RMK AO2
14840KMKG MKG20020903162009309/03/02 16:20:31  5-MIN KMKG 032120Z 23012KT 10SM CLR 24/14 A2999 570 53 1800 240/12 RMK AO2
14840KMKG MKG20020903162509309/03/02 16:25:31  5-MIN KMKG 032125Z 24011KT 10SM CLR 24/14 A2999 570 53 1800 240/11 RMK AO2
14840KMKG MKG20020903163009309/03/02 16:30:31  5-MIN KMKG 032130Z 23011KT 10SM CLR 24/14 A2999 570 55 1800 240/11 RMK AO2
14840KMKG MKG20020903163509309/03/02 16:35:31  5-MIN KMKG 032135Z 24008KT 10SM CLR 24/14 A2999 570 53 1800 250/08 RMK AO2
14840KMKG MKG20020903164009309/03/02 16:40:31  5-MIN KMKG 032140Z 25013KT 10SM CLR 24/14 A2999 570 53 1800 250/13 RMK AO2
14840KMKG MKG20020903164509309/03/02 16:45:31  5-MIN KMKG 032145Z 23009KT 10SM CLR 24/14 A2999 570 55 1800 240/09 RMK AO2
14840KMKG MKG20020903165011009/03/02 16:50:31  5-MIN KMKG 032150Z 25008KT 10SM CLR 24/14 A2999 570 55 1800 250/08 RMK AO2 SLP152 T02390144
14840KMKG MKG20020903165511009/03/02 16:55:31  5-MIN KMKG 032155Z 24009KT 10SM CLR 24/14 A2999 570 53 1800 250/09 RMK AO2 SLP152 T02390139
14840KMKG MKG20020903170009309/03/02 17:00:31  5-MIN KMKG 032200Z 23011KT 10SM CLR 24/14 A2999 570 53 1800 240/11 RMK AO2
14840KMKG MKG20020903170509309/03/02 17:05:31  5-MIN KMKG 032205Z 24011KT 10SM CLR 24/14 A2999 560 53 1800 250/11 RMK AO2
14840KMKG MKG20020903171009309/03/02 17:10:31  5-MIN KMKG 032210Z 26009KT 10SM CLR 24/14 A2999 560 53 1800 260/09 RMK AO2
14840KMKG MKG20020903171509309/03/02 17:15:31  5-MIN KMKG 032215Z 24007KT 10SM CLR 24/14 A2999 560 53 1800 250/07 RMK AO2
14840KMKG MKG20020903172009309/03/02 17:20:31  5-MIN KMKG 032220Z 24010KT 10SM CLR 24/14 A2999 560 53 1800 250/10 RMK AO2
14840KMKG MKG20020903172509309/03/02 17:25:31  5-MIN KMKG 032225Z 24010KT 10SM CLR 23/13 A2999 560 53 1700 250/10 RMK AO2
14840KMKG MKG20020903173009309/03/02 17:30:31  5-MIN KMKG 032230Z 25011KT 10SM CLR 23/13 A2999 560 53 1700 260/11 RMK AO2
14840KMKG MKG20020903173509309/03/02 17:35:31  5-MIN KMKG 032235Z 24009KT 10SM CLR 23/13 A2999 560 53 1700 240/09 RMK AO2
14840KMKG MKG20020903174009309/03/02 17:40:31  5-MIN KMKG 032240Z 24008KT 10SM CLR 23/14 A2999 560 55 1700 240/08 RMK AO2
14840KMKG MKG20020903174509309/03/02 17:45:31  5-MIN KMKG 032245Z 23009KT 10SM CLR 23/14 A2999 560 57 1700 240/09 RMK AO2
14840KMKG MKG20020903175011009/03/02 17:50:31  5-MIN KMKG 032250Z 23009KT 10SM CLR 23/14 A2999 560 55 1700 230/09 RMK AO2 SLP154 T02330139
14840KMKG MKG20020903175511009/03/02 17:55:31  5-MIN KMKG 032255Z 23009KT 10SM CLR 23/14 A2999 560 57 1700 240/09 RMK AO2 SLP154 T02330144
14840KMKG MKG20020903180009309/03/02 18:00:31  5-MIN KMKG 032300Z 23008KT 10SM CLR 23/14 A3000 560 55 1700 240/08 RMK AO2
14840KMKG MKG20020903180509309/03/02 18:05:31  5-MIN KMKG 032305Z 23008KT 10SM CLR 23/14 A3000 560 59 1600 230/08 RMK AO2
14840KMKG MKG20020903181009309/03/02 18:10:31  5-MIN KMKG 032310Z 23008KT 10SM CLR 23/14 A3000 560 59 1600 230/08 RMK AO2
14840KMKG MKG20020903181509309/03/02 18:15:31  5-MIN KMKG 032315Z 23009KT 10SM CLR 23/14 A3000 560 59 1600 240/09 RMK AO2
14840KMKG MKG20020903182009309/03/02 18:20:31  5-MIN KMKG 032320Z 24008KT 10SM CLR 23/14 A3000 560 59 1600 240/08 RMK AO2
14840KMKG MKG20020903182509309/03/02 18:25:31  5-MIN KMKG 032325Z 23007KT 10SM CLR 23/15 A3000 560 61 1600 230/07 RMK AO2
14840KMKG MKG20020903183009309/03/02 18:30:31  5-MIN KMKG 032330Z 23007KT 10SM CLR 22/15 A2999 560 63 1600 230/07 RMK AO2
14840KMKG MKG20020903183509309/03/02 18:35:31  5-MIN KMKG 032335Z 22007KT 10SM CLR 22/16 A3000 560 65 1600 230/07 RMK AO2
14840KMKG MKG20020903184009309/03/02 18:40:31  5-MIN KMKG 032340Z 23007KT 10SM CLR 22/16 A3000 560 65 1600 230/07 RMK AO2
14840KMKG MKG20020903184509309/03/02 18:45:31  5-MIN KMKG 032345Z 22008KT 10SM CLR 22/16 A3000 560 65 1600 230/08 RMK AO2
14840KMKG MKG20020903185012809/03/02 18:50:31  5-MIN KMKG 032350Z 22006KT 10SM CLR 22/15 A3000 560 65 1500 230/06 RMK AO2 SLP156 T02170150 10250 20217 55000
14840KMKG MKG20020903185512809/03/02 18:55:31  5-MIN KMKG 032355Z 23006KT 10SM CLR 22/15 A3000 560 65 1500 240/06 RMK AO2 SLP157 T02170150 10250 20217 53004
14840KMKG MKG20020903190009309/03/02 19:00:31  5-MIN KMKG 040000Z 22006KT 10SM CLR 21/16 A3000 550 70 1400 230/06 RMK AO2
14840KMKG MKG20020903190509309/03/02 19:05:31  5-MIN KMKG 040005Z 23006KT 10SM CLR 22/16 A3000 550 68 1500 230/06 RMK AO2
14840KMKG MKG20020903191009309/03/02 19:10:31  5-MIN KMKG 040010Z 23006KT 10SM CLR 21/16 A3000 560 70 1400 230/06 RMK AO2
14840KMKG MKG20020903191509309/03/02 19:15:31  5-MIN KMKG 040015Z 23007KT 10SM CLR 21/16 A3000 560 70 1400 230/07 RMK AO2
14840KMKG MKG20020903192009309/03/02 19:20:31  5-MIN KMKG 040020Z 23006KT 10SM CLR 21/16 A3000 560 70 1400 240/06 RMK AO2
14840KMKG MKG20020903192509309/03/02 19:25:31  5-MIN KMKG 040025Z 24006KT 10SM CLR 21/16 A3000 560 70 1400 240/06 RMK AO2
14840KMKG MKG20020903193009309/03/02 19:30:31  5-MIN KMKG 040030Z 23006KT 10SM CLR 21/16 A3000 560 73 1400 230/06 RMK AO2
14840KMKG MKG20020903193509309/03/02 19:35:31  5-MIN KMKG 040035Z 23006KT 10SM CLR 21/16 A3000 560 73 1400 230/06 RMK AO2
14840KMKG MKG20020903194009309/03/02 19:40:31  5-MIN KMKG 040040Z 24007KT 10SM CLR 21/16 A3000 550 73 1400 250/07 RMK AO2
14840KMKG MKG20020903194509309/03/02 19:45:31  5-MIN KMKG 040045Z 25006KT 10SM CLR 21/16 A3001 550 75 1400 250/06 RMK AO2
14840KMKG MKG20020903195011009/03/02 19:50:31  5-MIN KMKG 040050Z 23006KT 10SM CLR 21/16 A3001 550 75 1400 240/06 RMK AO2 SLP159 T02060161
14840KMKG MKG20020903195511009/03/02 19:55:31  5-MIN KMKG 040055Z 25007KT 10SM CLR 21/16 A3001 550 75 1400 250/07 RMK AO2 SLP159 T02060161
14840KMKG MKG20020903200009309/03/02 20:00:31  5-MIN KMKG 040100Z 25007KT 10SM CLR 21/16 A3001 550 73 1400 250/07 RMK AO2
14840KMKG MKG20020903200509309/03/02 20:05:31  5-MIN KMKG 040105Z 25005KT 10SM CLR 21/16 A3001 550 70 1400 250/05 RMK AO2
14840KMKG MKG20020903201009309/03/02 20:10:31  5-MIN KMKG 040110Z 26005KT 10SM CLR 21/16 A3001 540 70 1400 270/05 RMK AO2
14840KMKG MKG20020903201509309/03/02 20:15:31  5-MIN KMKG 040115Z 25007KT 10SM CLR 21/16 A3001 540 70 1400 250/07 RMK AO2
14840KMKG MKG20020903202009309/03/02 20:20:31  5-MIN KMKG 040120Z 25007KT 10SM CLR 21/16 A3001 540 70 1400 250/07 RMK AO2
14840KMKG MKG20020903202509309/03/02 20:25:31  5-MIN KMKG 040125Z 25005KT 10SM CLR 21/16 A3002 540 70 1400 260/05 RMK AO2
14840KMKG MKG20020903203009309/03/02 20:30:31  5-MIN KMKG 040130Z 25006KT 10SM CLR 21/16 A3002 540 73 1400 250/06 RMK AO2
14840KMKG MKG20020903203509309/03/02 20:35:31  5-MIN KMKG 040135Z 25006KT 10SM CLR 21/16 A3002 540 70 1400 250/06 RMK AO2
14840KMKG MKG20020903204009309/03/02 20:40:31  5-MIN KMKG 040140Z 25006KT 10SM CLR 21/16 A3002 540 73 1400 250/06 RMK AO2
14840KMKG MKG20020903204509309/03/02 20:45:31  5-MIN KMKG 040145Z 25006KT 10SM CLR 21/16 A3002 540 73 1400 260/06 RMK AO2
14840KMKG MKG20020903205011009/03/02 20:50:31  5-MIN KMKG 040150Z 25006KT 10SM CLR 21/16 A3002 540 73 1400 260/06 RMK AO2 SLP162 T02110161
14840KMKG MKG20020903205511009/03/02 20:55:31  5-MIN KMKG 040155Z 25006KT 10SM CLR 21/16 A3002 540 73 1400 260/06 RMK AO2 SLP163 T02110161
14840KMKG MKG20020903210009309/03/02 21:00:31  5-MIN KMKG 040200Z 25006KT 10SM CLR 21/16 A3002 540 73 1400 260/06 RMK AO2
14840KMKG MKG20020903210509309/03/02 21:05:31  5-MIN KMKG 040205Z 25007KT 10SM CLR 21/16 A3002 540 73 1400 260/07 RMK AO2
14840KMKG MKG20020903211009309/03/02 21:10:31  5-MIN KMKG 040210Z 25006KT 10SM CLR 21/16 A3002 540 73 1400 260/06 RMK AO2
14840KMKG MKG20020903211509309/03/02 21:15:31  5-MIN KMKG 040215Z 26006KT 10SM CLR 21/16 A3002 540 73 1400 260/06 RMK AO2
14840KMKG MKG20020903212009309/03/02 21:20:31  5-MIN KMKG 040220Z 26006KT 10SM CLR 21/16 A3002 530 75 1300 260/06 RMK AO2
14840KMKG MKG20020903212509309/03/02 21:25:31  5-MIN KMKG 040225Z 25005KT 10SM CLR 21/17 A3002 540 78 1300 260/05 RMK AO2
14840KMKG MKG20020903213009309/03/02 21:30:31  5-MIN KMKG 040230Z 25006KT 10SM CLR 21/16 A3002 540 73 1400 250/06 RMK AO2
14840KMKG MKG20020903213509309/03/02 21:35:31  5-MIN KMKG 040235Z 26005KT 10SM CLR 21/16 A3002 540 75 1300 270/05 RMK AO2
14840KMKG MKG20020903214009309/03/02 21:40:31  5-MIN KMKG 040240Z 26004KT 10SM CLR 21/16 A3002 540 75 1300 260/04 RMK AO2
14840KMKG MKG20020903214509309/03/02 21:45:31  5-MIN KMKG 040245Z 27004KT 10SM CLR 21/16 A3002 540 75 1300 270/04 RMK AO2
14840KMKG MKG20020903215011609/03/02 21:50:31  5-MIN KMKG 040250Z 28003KT 10SM CLR 21/16 A3002 530 75 1300 280/03 RMK AO2 SLP164 T02060161 53004
14840KMKG MKG20020903215511609/03/02 21:55:31  5-MIN KMKG 040255Z VRB04KT 10SM CLR 21/16 A3002 530 75 1300 VRB/04 RMK AO2 SLP164 T02060161 51008
14840KMKG MKG20020903220009309/03/02 22:00:31  5-MIN KMKG 040300Z 26005KT 10SM CLR 21/16 A3003 530 73 1300 270/05 RMK AO2
14840KMKG MKG20020903220509309/03/02 22:05:31  5-MIN KMKG 040305Z 27006KT 10SM CLR 21/16 A3003 530 73 1300 270/06 RMK AO2
14840KMKG MKG20020903221009309/03/02 22:10:31  5-MIN KMKG 040310Z 28007KT 10SM CLR 21/15 A3003 530 68 1400 280/07 RMK AO2
14840KMKG MKG20020903221509309/03/02 22:15:31  5-MIN KMKG 040315Z 28006KT 10SM CLR 21/15 A3003 530 68 1400 290/06 RMK AO2
14840KMKG MKG20020903222009309/03/02 22:20:31  5-MIN KMKG 040320Z 27005KT 10SM CLR 21/15 A3003 530 68 1400 280/05 RMK AO2
14840KMKG MKG20020903222509309/03/02 22:25:31  5-MIN KMKG 040325Z 28006KT 10SM CLR 21/15 A3003 530 68 1400 280/06 RMK AO2
14840KMKG MKG20020903223009309/03/02 22:30:31  5-MIN KMKG 040330Z 28006KT 10SM CLR 22/14 A3003 530 63 1500 290/06 RMK AO2
14840KMKG MKG20020903223509309/03/02 22:35:31  5-MIN KMKG 040335Z 28007KT 10SM CLR 21/14 A3003 530 65 1400 290/07 RMK AO2
14840KMKG MKG20020903224009309/03/02 22:40:31  5-MIN KMKG 040340Z 28006KT 10SM CLR 21/14 A3003 530 65 1400 290/06 RMK AO2
14840KMKG MKG20020903224509309/03/02 22:45:31  5-MIN KMKG 040345Z 29006KT 10SM CLR 21/15 A3003 530 68 1400 290/06 RMK AO2
14840KMKG MKG20020903225011009/03/02 22:50:31  5-MIN KMKG 040350Z 28006KT 10SM CLR 21/15 A3003 530 68 1400 290/06 RMK AO2 SLP166 T02110150
14840KMKG MKG20020903225511009/03/02 22:55:31  5-MIN KMKG 040355Z 28005KT 10SM CLR 21/15 A3003 530 68 1400 280/05 RMK AO2 SLP166 T02110150
14840KMKG MKG20020903230009309/03/02 23:00:31  5-MIN KMKG 040400Z 27006KT 10SM CLR 21/15 A3003 530 68 1400 280/06 RMK AO2
14840KMKG MKG20020903230509309/03/02 23:05:31  5-MIN KMKG 040405Z 27007KT 10SM CLR 21/15 A3003 530 68 1400 270/07 RMK AO2
14840KMKG MKG20020903231009309/03/02 23:10:31  5-MIN KMKG 040410Z 27006KT 10SM CLR 21/15 A3003 520 68 1400 280/06 RMK AO2
14840KMKG MKG20020903231509309/03/02 23:15:31  5-MIN KMKG 040415Z 27006KT 10SM CLR 21/15 A3004 520 68 1400 280/06 RMK AO2
14840KMKG MKG20020903232009309/03/02 23:20:31  5-MIN KMKG 040420Z 26005KT 10SM CLR 21/15 A3004 520 70 1300 270/05 RMK AO2
14840KMKG MKG20020903232509309/03/02 23:25:31  5-MIN KMKG 040425Z 27006KT 10SM CLR 21/16 A3004 520 73 1300 270/06 RMK AO2
14840KMKG MKG20020903233009309/03/02 23:30:31  5-MIN KMKG 040430Z 27005KT 10SM CLR 21/16 A3004 520 73 1300 280/05 RMK AO2
14840KMKG MKG20020903233509309/03/02 23:35:31  5-MIN KMKG 040435Z 27004KT 10SM CLR 21/16 A3004 520 73 1300 280/04 RMK AO2
14840KMKG MKG20020903234009309/03/02 23:40:31  5-MIN KMKG 040440Z 27005KT 10SM CLR 21/16 A3004 520 73 1300 280/05 RMK AO2
14840KMKG MKG20020903234509309/03/02 23:45:31  5-MIN KMKG 040445Z 27005KT 10SM CLR 21/16 A3004 520 73 1300 280/05 RMK AO2
14840KMKG MKG20020903235012009/03/02 23:50:31  5-MIN KMKG 040450Z 28007KT 10SM CLR 21/16 A3004 520 73 1300 290/07 RMK AO2 SLP170 T02060156 402560183
14840KMKG MKG20020903235512009/03/02 23:55:31  5-MIN KMKG 040455Z 28007KT 10SM CLR 21/16 A3004 520 70 1400 290/07 RMK AO2 SLP170 T02110156 402560183
14840KMKG MKG20020904000009309/04/02 00:00:31  5-MIN KMKG 040500Z 28006KT 10SM CLR 21/16 A3004 520 70 1400 290/06 RMK AO2
14840KMKG MKG20020904000509309/04/02 00:05:31  5-MIN KMKG 040505Z 29006KT 10SM CLR 21/16 A3004 520 70 1400 290/06 RMK AO2
14840KMKG MKG20020904001009309/04/02 00:10:31  5-MIN KMKG 040510Z 29007KT 10SM CLR 22/15 A3004 520 65 1500 290/07 RMK AO2
14840KMKG MKG20020904001509309/04/02 00:15:31  5-MIN KMKG 040515Z 29007KT 10SM CLR 21/15 A3004 520 68 1400 300/07 RMK AO2
14840KMKG MKG20020904002009309/04/02 00:20:31  5-MIN KMKG 040520Z 29006KT 10SM CLR 21/16 A3004 520 70 1400 290/06 RMK AO2
14840KMKG MKG20020904002509309/04/02 00:25:31  5-MIN KMKG 040525Z 28006KT 10SM CLR 21/16 A3004 520 70 1400 290/06 RMK AO2
14840KMKG MKG20020904003009309/04/02 00:30:31  5-MIN KMKG 040530Z 29007KT 10SM CLR 21/16 A3005 510 70 1400 290/07 RMK AO2
14840KMKG MKG20020904003509309/04/02 00:35:31  5-MIN KMKG 040535Z 29007KT 10SM CLR 21/16 A3005 510 70 1400 290/07 RMK AO2
14840KMKG MKG20020904004009309/04/02 00:40:31  5-MIN KMKG 040540Z 28007KT 10SM CLR 21/15 A3005 510 68 1400 290/07 RMK AO2
14840KMKG MKG20020904004509309/04/02 00:45:31  5-MIN KMKG 040545Z 29006KT 10SM CLR 21/15 A3005 510 68 1400 290/06 RMK AO2
14840KMKG MKG20020904005012809/04/02 00:50:31  5-MIN KMKG 040550Z 29006KT 10SM CLR 22/15 A3005 510 65 1400 290/06 RMK AO2 SLP173 T02170150 10217 20206 51008
14840KMKG MKG20020904005512809/04/02 00:55:31  5-MIN KMKG 040555Z 29006KT 10SM CLR 21/15 A3005 510 68 1400 290/06 RMK AO2 SLP173 T02110150 10217 20206 53009
14840KMKG MKG20020904010009309/04/02 01:00:31  5-MIN KMKG 040600Z 29006KT 10SM CLR 21/15 A3005 510 68 1400 290/06 RMK AO2
14840KMKG MKG20020904010509309/04/02 01:05:31  5-MIN KMKG 040605Z 28006KT 10SM CLR 21/15 A3005 510 68 1400 290/06 RMK AO2
14840KMKG MKG20020904011009309/04/02 01:10:31  5-MIN KMKG 040610Z 28007KT 10SM CLR 21/15 A3006 500 68 1400 280/07 RMK AO2
14840KMKG MKG20020904011509309/04/02 01:15:31  5-MIN KMKG 040615Z 29005KT 10SM CLR 21/15 A3006 500 68 1400 290/05 RMK AO2
14840KMKG MKG20020904012009309/04/02 01:20:31  5-MIN KMKG 040620Z 29008KT 10SM CLR 21/15 A3006 500 70 1300 300/08 RMK AO2
14840KMKG MKG20020904012509309/04/02 01:25:31  5-MIN KMKG 040625Z 30007KT 10SM CLR 21/15 A3006 510 68 1400 300/07 RMK AO2
14840KMKG MKG20020904013009309/04/02 01:30:31  5-MIN KMKG 040630Z 31007KT 10SM CLR 21/15 A3006 510 68 1400 310/07 RMK AO2
14840KMKG MKG20020904013509309/04/02 01:35:31  5-MIN KMKG 040635Z 31006KT 10SM CLR 21/15 A3006 510 68 1400 310/06 RMK AO2
14840KMKG MKG20020904014009309/04/02 01:40:31  5-MIN KMKG 040640Z 31007KT 10SM CLR 21/15 A3006 500 70 1300 310/07 RMK AO2
14840KMKG MKG20020904014509309/04/02 01:45:31  5-MIN KMKG 040645Z 30006KT 10SM CLR 21/15 A3006 500 68 1400 300/06 RMK AO2
14840KMKG MKG20020904015011009/04/02 01:50:31  5-MIN KMKG 040650Z 30007KT 10SM CLR 21/15 A3006 500 68 1400 300/07 RMK AO2 SLP175 T02110150
14840KMKG MKG20020904015511009/04/02 01:55:31  5-MIN KMKG 040655Z 30007KT 10SM CLR 21/15 A3006 500 68 1400 300/07 RMK AO2 SLP176 T02110150
14840KMKG MKG20020904020009309/04/02 02:00:31  5-MIN KMKG 040700Z 30006KT 10SM CLR 21/15 A3006 500 70 1300 300/06 RMK AO2
14840KMKG MKG20020904020509309/04/02 02:05:31  5-MIN KMKG 040705Z 30006KT 10SM CLR 21/16 A3006 500 70 1400 310/06 RMK AO2
14840KMKG MKG20020904021009309/04/02 02:10:31  5-MIN KMKG 040710Z 30005KT 10SM CLR 21/16 A3006 500 73 1300 300/05 RMK AO2
14840KMKG MKG20020904021509309/04/02 02:15:31  5-MIN KMKG 040715Z 29005KT 10SM CLR 21/16 A3007 490 73 1300 300/05 RMK AO2
14840KMKG MKG20020904022009309/04/02 02:20:31  5-MIN KMKG 040720Z 29006KT 10SM CLR 21/16 A3007 490 73 1300 290/06 RMK AO2
14840KMKG MKG20020904022509309/04/02 02:25:31  5-MIN KMKG 040725Z 28005KT 10SM CLR 21/16 A3007 490 73 1300 290/05 RMK AO2
14840KMKG MKG20020904023009309/04/02 02:30:31  5-MIN KMKG 040730Z 29005KT 10SM CLR 20/16 A3007 490 75 1200 300/05 RMK AO2
14840KMKG MKG20020904023509309/04/02 02:35:31  5-MIN KMKG 040735Z 30005KT 10SM CLR 21/16 A3007 490 73 1300 300/05 RMK AO2
14840KMKG MKG20020904024009309/04/02 02:40:31  5-MIN KMKG 040740Z 29005KT 10SM CLR 20/16 A3007 490 75 1200 290/05 RMK AO2
14840KMKG MKG20020904024509309/04/02 02:45:31  5-MIN KMKG 040745Z 29005KT 10SM CLR 21/16 A3007 490 73 1300 290/05 RMK AO2
14840KMKG MKG20020904025011009/04/02 02:50:31  5-MIN KMKG 040750Z 30005KT 10SM CLR 21/16 A3007 490 73 1300 300/05 RMK AO2 SLP181 T02060156
14840KMKG MKG20020904025511009/04/02 02:55:31  5-MIN KMKG 040755Z 30006KT 10SM CLR 21/16 A3007 490 73 1300 310/06 RMK AO2 SLP181 T02060156
14840KMKG MKG20020904030009309/04/02 03:00:31  5-MIN KMKG 040800Z 31006KT 10SM CLR 21/16 A3007 490 73 1300 310/06 RMK AO2
14840KMKG MKG20020904030509309/04/02 03:05:31  5-MIN KMKG 040805Z 30005KT 10SM CLR 20/16 A3007 490 75 1200 310/05 RMK AO2
14840KMKG MKG20020904031009309/04/02 03:10:31  5-MIN KMKG 040810Z 30006KT 10SM CLR 20/16 A3007 490 75 1200 310/06 RMK AO2
14840KMKG MKG20020904031509309/04/02 03:15:31  5-MIN KMKG 040815Z 31006KT 10SM CLR 20/16 A3008 490 75 1200 310/06 RMK AO2
14840KMKG MKG20020904032009309/04/02 03:20:31  5-MIN KMKG 040820Z 30005KT 10SM CLR 20/16 A3008 490 75 1200 310/05 RMK AO2
14840KMKG MKG20020904032509309/04/02 03:25:31  5-MIN KMKG 040825Z 30004KT 10SM CLR 20/16 A3008 490 75 1200 310/04 RMK AO2
14840KMKG MKG20020904033009309/04/02 03:30:31  5-MIN KMKG 040830Z 31005KT 10SM CLR 20/16 A3008 480 75 1200 310/05 RMK AO2
14840KMKG MKG20020904033509309/04/02 03:35:31  5-MIN KMKG 040835Z 30004KT 10SM CLR 20/16 A3008 480 75 1200 310/04 RMK AO2
14840KMKG MKG20020904034009309/04/02 03:40:31  5-MIN KMKG 040840Z 28003KT 10SM CLR 20/16 A3008 480 75 1200 280/03 RMK AO2
14840KMKG MKG20020904034509309/04/02 03:45:31  5-MIN KMKG 040845Z 26003KT 10SM CLR 20/16 A3008 480 75 1200 260/03 RMK AO2
14840KMKG MKG20020904035011609/04/02 03:50:31  5-MIN KMKG 040850Z 28004KT 10SM CLR 19/15 A3008 480 75 1200 290/04 RMK AO2 SLP184 T01940150 53009
14840KMKG MKG20020904035511609/04/02 03:55:31  5-MIN KMKG 040855Z 28003KT 10SM CLR 20/16 A3008 480 75 1200 280/03 RMK AO2 SLP184 T02000156 53010
14840KMKG MKG20020904040009309/04/02 04:00:31  5-MIN KMKG 040900Z 28004KT 10SM CLR 19/16 A3008 480 78 1200 280/04 RMK AO2
14840KMKG MKG20020904040509309/04/02 04:05:31  5-MIN KMKG 040905Z 29004KT 10SM CLR 19/16 A3008 480 78 1100 290/04 RMK AO2
14840KMKG MKG20020904041009309/04/02 04:10:31  5-MIN KMKG 040910Z 30005KT 10SM CLR 19/16 A3009 480 78 1100 300/05 RMK AO2
14840KMKG MKG20020904041509309/04/02 04:15:31  5-MIN KMKG 040915Z 30006KT 10SM CLR 20/16 A3009 480 75 1200 300/06 RMK AO2
14840KMKG MKG20020904042009309/04/02 04:20:31  5-MIN KMKG 040920Z 30005KT 10SM CLR 20/16 A3009 480 75 1200 310/05 RMK AO2
14840KMKG MKG20020904042509309/04/02 04:25:31  5-MIN KMKG 040925Z 31004KT 10SM CLR 19/16 A3009 480 78 1100 310/04 RMK AO2
14840KMKG MKG20020904043009309/04/02 04:30:31  5-MIN KMKG 040930Z 30003KT 10SM CLR 19/16 A3009 480 78 1100 300/03 RMK AO2
14840KMKG MKG20020904043509309/04/02 04:35:31  5-MIN KMKG 040935Z 29004KT 10SM CLR 19/16 A3009 480 78 1100 290/04 RMK AO2
14840KMKG MKG20020904044009309/04/02 04:40:31  5-MIN KMKG 040940Z 31005KT 10SM CLR 19/16 A3009 470 78 1100 310/05 RMK AO2
14840KMKG MKG20020904044509309/04/02 04:45:31  5-MIN KMKG 040945Z 30005KT 10SM CLR 19/16 A3009 470 78 1100 310/05 RMK AO2
14840KMKG MKG20020904045011009/04/02 04:50:31  5-MIN KMKG 040950Z 30004KT 10SM CLR 19/16 A3009 470 78 1100 300/04 RMK AO2 SLP187 T01940156
14840KMKG MKG20020904045511009/04/02 04:55:31  5-MIN KMKG 040955Z 29004KT 10SM CLR 19/16 A3009 470 78 1100 290/04 RMK AO2 SLP188 T01940156
14840KMKG MKG20020904050009309/04/02 05:00:31  5-MIN KMKG 041000Z 30004KT 10SM CLR 19/16 A3010 470 78 1100 310/04 RMK AO2
14840KMKG MKG20020904050509309/04/02 05:05:31  5-MIN KMKG 041005Z 31005KT 10SM CLR 19/16 A3010 470 78 1100 310/05 RMK AO2
14840KMKG MKG20020904051009309/04/02 05:10:31  5-MIN KMKG 041010Z 31005KT 10SM CLR 19/16 A3010 460 81 1100 310/05 RMK AO2
14840KMKG MKG20020904051509309/04/02 05:15:31  5-MIN KMKG 041015Z 30004KT 10SM CLR 19/16 A3010 460 81 1100 310/04 RMK AO2
14840KMKG MKG20020904052009309/04/02 05:20:31  5-MIN KMKG 041020Z 31003KT 10SM CLR 19/16 A3010 460 81 1100 310/03 RMK AO2
14840KMKG MKG20020904052509309/04/02 05:25:31  5-MIN KMKG 041025Z 30003KT 10SM CLR 19/16 A3011 460 78 1100 310/03 RMK AO2
14840KMKG MKG20020904053009309/04/02 05:30:31  5-MIN KMKG 041030Z 31004KT 10SM CLR 18/16 A3011 460 84 1000 320/04 RMK AO2
14840KMKG MKG20020904053509309/04/02 05:35:31  5-MIN KMKG 041035Z 31004KT 10SM CLR 18/16 A3011 460 84 1000 320/04 RMK AO2
14840KMKG MKG20020904054009309/04/02 05:40:31  5-MIN KMKG 041040Z 31003KT 10SM CLR 18/16 A3011 450 84 1000 310/03 RMK AO2
14840KMKG MKG20020904054509309/04/02 05:45:31  5-MIN KMKG 041045Z 31004KT 10SM CLR 18/16 A3011 450 84 1000 310/04 RMK AO2
14840KMKG MKG20020904055011009/04/02 05:50:31  5-MIN KMKG 041050Z 31004KT 10SM CLR 18/16 A3011 450 84 1000 320/04 RMK AO2 SLP195 T01830156
14840KMKG MKG20020904055511009/04/02 05:55:31  5-MIN KMKG 041055Z 31003KT 10SM CLR 18/16 A3012 450 84 1000 320/03 RMK AO2 SLP196 T01830156
14840KMKG MKG20020904060009209/04/02 06:00:31  5-MIN KMKG 041100Z 31003KT 10SM CLR 18/16 A3012 450 87 900 320/03 RMK AO2
14840KMKG MKG20020904060509209/04/02 06:05:31  5-MIN KMKG 041105Z 32003KT 10SM CLR 18/16 A3012 440 87 900 320/03 RMK AO2
14840KMKG MKG20020904061009309/04/02 06:10:31  5-MIN KMKG 041110Z 32003KT 10SM CLR 18/16 A3012 440 84 1000 320/03 RMK AO2
14840KMKG MKG20020904061509209/04/02 06:15:31  5-MIN KMKG 041115Z 00000KT 10SM CLR 18/16 A3013 440 87 900 000/00 RMK AO2
14840KMKG MKG20020904062009209/04/02 06:20:31  5-MIN KMKG 041120Z 00000KT 10SM CLR 18/16 A3013 440 87 900 000/00 RMK AO2
14840KMKG MKG20020904062509209/04/02 06:25:31  5-MIN KMKG 041125Z 00000KT 10SM CLR 17/16 A3013 440 90 800 000/00 RMK AO2
14840KMKG MKG20020904063009209/04/02 06:30:31  5-MIN KMKG 041130Z 00000KT 10SM CLR 17/16 A3013 430 90 800 000/00 RMK AO2
14840KMKG MKG20020904063509209/04/02 06:35:31  5-MIN KMKG 041135Z 00000KT 10SM CLR 18/16 A3013 430 87 900 000/00 RMK AO2
14840KMKG MKG20020904064009209/04/02 06:40:31  5-MIN KMKG 041140Z 00000KT 10SM CLR 18/16 A3014 430 87 900 000/00 RMK AO2
14840KMKG MKG20020904064509309/04/02 06:45:31  5-MIN KMKG 041145Z 00000KT 10SM CLR 18/16 A3014 430 84 1000 000/00 RMK AO2
14840KMKG MKG20020904065012809/04/02 06:50:31  5-MIN KMKG 041150Z 31004KT 10SM CLR 18/16 A3014 430 84 1000 320/04 RMK AO2 SLP204 T01830156 10211 20172 53010
14840KMKG MKG20020904065512809/04/02 06:55:31  5-MIN KMKG 041155Z 32005KT 10SM CLR 18/16 A3014 430 84 1000 320/05 RMK AO2 SLP204 T01830156 10211 20172 53019
14840KMKG MKG20020904070009309/04/02 07:00:31  5-MIN KMKG 041200Z 32005KT 10SM CLR 19/16 A3014 420 81 1000 320/05 RMK AO2
14840KMKG MKG20020904070509309/04/02 07:05:31  5-MIN KMKG 041205Z 32005KT 10SM CLR 19/16 A3015 420 81 1000 320/05 RMK AO2
14840KMKG MKG20020904071009309/04/02 07:10:31  5-MIN KMKG 041210Z 31006KT 10SM CLR 19/16 A3015 420 78 1100 320/06 RMK AO2
14840KMKG MKG20020904071509309/04/02 07:15:31  5-MIN KMKG 041215Z 32005KT 10SM CLR 19/16 A3015 420 81 1100 320/05 RMK AO2
14840KMKG MKG20020904072009309/04/02 07:20:31  5-MIN KMKG 041220Z 32006KT 10SM CLR 20/16 A3015 420 78 1100 320/06 RMK AO2
14840KMKG MKG20020904072509309/04/02 07:25:31  5-MIN KMKG 041225Z 31006KT 10SM CLR 20/16 A3015 410 78 1100 310/06 RMK AO2
14840KMKG MKG20020904073009309/04/02 07:30:31  5-MIN KMKG 041230Z 31006KT 10SM CLR 20/16 A3016 410 78 1100 320/06 RMK AO2
14840KMKG MKG20020904073509309/04/02 07:35:31  5-MIN KMKG 041235Z 32005KT 10SM CLR 20/16 A3016 410 78 1100 330/05 RMK AO2
14840KMKG MKG20020904074009309/04/02 07:40:31  5-MIN KMKG 041240Z 32006KT 10SM CLR 21/16 A3016 410 75 1200 320/06 RMK AO2
14840KMKG MKG20020904074509309/04/02 07:45:31  5-MIN KMKG 041245Z 33006KT 10SM CLR 21/17 A3016 410 78 1200 330/06 RMK AO2
14840KMKG MKG20020904075011009/04/02 07:50:31  5-MIN KMKG 041250Z 33006KT 10SM CLR 21/17 A3016 410 78 1200 330/06 RMK AO2 SLP212 T02060167
14840KMKG MKG20020904075511009/04/02 07:55:31  5-MIN KMKG 041255Z 33006KT 10SM CLR 21/16 A3017 400 75 1200 330/06 RMK AO2 SLP213 T02060161
14840KMKG MKG20020904080009309/04/02 08:00:31  5-MIN KMKG 041300Z 33006KT 10SM CLR 21/17 A3017 400 75 1200 330/06 RMK AO2
14840KMKG MKG20020904080509309/04/02 08:05:31  5-MIN KMKG 041305Z 32005KT 10SM CLR 21/17 A3017 400 75 1300 320/05 RMK AO2
14840KMKG MKG20020904081009309/04/02 08:10:31  5-MIN KMKG 041310Z 32006KT 10SM CLR 21/17 A3017 400 75 1300 320/06 RMK AO2
14840KMKG MKG20020904081509309/04/02 08:15:31  5-MIN KMKG 041315Z 32007KT 10SM CLR 21/17 A3017 400 75 1200 320/07 RMK AO2
14840KMKG MKG20020904082009309/04/02 08:20:31  5-MIN KMKG 041320Z 33007KT 10SM CLR 22/17 A3017 400 73 1300 330/07 RMK AO2
14840KMKG MKG20020904082509309/04/02 08:25:31  5-MIN KMKG 041325Z 33007KT 10SM CLR 21/17 A3017 400 75 1200 330/07 RMK AO2
14840KMKG MKG20020904083009309/04/02 08:30:31  5-MIN KMKG 041330Z 31008KT 10SM CLR 21/17 A3017 400 75 1200 310/08 RMK AO2
14840KMKG MKG20020904083509309/04/02 08:35:31  5-MIN KMKG 041335Z 31007KT 10SM CLR 22/17 A3017 400 73 1300 310/07 RMK AO2
14840KMKG MKG20020904084009309/04/02 08:40:31  5-MIN KMKG 041340Z 31007KT 10SM CLR 22/17 A3017 400 73 1300 310/07 RMK AO2
14840KMKG MKG20020904084509309/04/02 08:45:31  5-MIN KMKG 041345Z 31007KT 10SM CLR 22/16 A3017 400 68 1400 320/07 RMK AO2
14840KMKG MKG20020904085011009/04/02 08:50:31  5-MIN KMKG 041350Z 31007KT 10SM CLR 22/16 A3018 400 68 1300 320/07 RMK AO2 SLP215 T02170156
14840KMKG MKG20020904085511009/04/02 08:55:31  5-MIN KMKG 041355Z 32006KT 10SM CLR 22/16 A3018 390 65 1400 320/06 RMK AO2 SLP216 T02220156
14840KMKG MKG20020904090009309/04/02 09:00:31  5-MIN KMKG 041400Z 34006KT 10SM CLR 22/16 A3018 400 68 1400 340/06 RMK AO2
14840KMKG MKG20020904090509309/04/02 09:05:31  5-MIN KMKG 041405Z 34005KT 10SM CLR 23/16 A3018 390 63 1400 340/05 RMK AO2
14840KMKG MKG20020904091009309/04/02 09:10:31  5-MIN KMKG 041410Z 32007KT 10SM CLR 23/16 A3018 390 61 1500 320/07 RMK AO2
14840KMKG MKG20020904091509309/04/02 09:15:31  5-MIN KMKG 041415Z 33007KT 10SM CLR 23/14 A3018 390 59 1400 330/07 RMK AO2
14840KMKG MKG20020904092009309/04/02 09:20:31  5-MIN KMKG 041420Z 33006KT 10SM CLR 23/14 A3018 390 59 1400 330/06 RMK AO2
14840KMKG MKG20020904092509309/04/02 09:25:31  5-MIN KMKG 041425Z 34007KT 10SM CLR 23/14 A3018 390 59 1400 340/07 RMK AO2
14840KMKG MKG20020904093009309/04/02 09:30:31  5-MIN KMKG 041430Z 35007KT 10SM CLR 23/14 A3018 390 55 1500 350/07 RMK AO2
14840KMKG MKG20020904093509309/04/02 09:35:31  5-MIN KMKG 041435Z 35007KT 10SM CLR 23/14 A3019 390 55 1500 350/07 RMK AO2
14840KMKG MKG20020904094009309/04/02 09:40:31  5-MIN KMKG 041440Z 31007KT 10SM CLR 23/14 A3019 390 57 1500 310/07 RMK AO2
14840KMKG MKG20020904094509309/04/02 09:45:31  5-MIN KMKG 041445Z 33008KT 10SM CLR 23/14 A3019 380 55 1500 330/08 RMK AO2
14840KMKG MKG20020904095011609/04/02 09:50:31  5-MIN KMKG 041450Z 31006KT 10SM CLR 23/14 A3019 380 55 1500 310/06 RMK AO2 SLP219 T02330139 53019
14840KMKG MKG20020904095511609/04/02 09:55:31  5-MIN KMKG 041455Z 31006KT 10SM CLR 23/14 A3019 380 55 1500 320/06 RMK AO2 SLP220 T02330139 51016
14840KMKG MKG20020904100009309/04/02 10:00:31  5-MIN KMKG 041500Z 31008KT 10SM CLR 23/14 A3019 380 57 1500 320/08 RMK AO2
14840KMKG MKG20020904100509309/04/02 10:05:31  5-MIN KMKG 041505Z 32007KT 10SM CLR 24/14 A3019 380 53 1500 330/07 RMK AO2
14840KMKG MKG20020904101009309/04/02 10:10:31  5-MIN KMKG 041510Z VRB06KT 10SM CLR 24/14 A3019 380 53 1500 VRB/06 RMK AO2
14840KMKG MKG20020904101509309/04/02 10:15:31  5-MIN KMKG 041515Z VRB06KT 10SM CLR 24/14 A3019 390 51 1600 VRB/06 RMK AO2
14840KMKG MKG20020904102009309/04/02 10:20:31  5-MIN KMKG 041520Z 29008KT 10SM CLR 24/13 A3019 380 51 1500 300/08 RMK AO2
14840KMKG MKG20020904102509309/04/02 10:25:31  5-MIN KMKG 041525Z 31007KT 10SM CLR 24/13 A3019 380 49 1500 320/07 RMK AO2
14840KMKG MKG20020904103009309/04/02 10:30:31  5-MIN KMKG 041530Z 31007KT 10SM CLR 24/13 A3019 380 51 1500 310/07 RMK AO2
14840KMKG MKG20020904103509309/04/02 10:35:31  5-MIN KMKG 041535Z 29008KT 10SM CLR 24/13 A3019 380 51 1500 300/08 RMK AO2
14840KMKG MKG20020904104009309/04/02 10:40:31  5-MIN KMKG 041540Z 32008KT 10SM CLR 24/13 A3019 380 49 1500 320/08 RMK AO2
14840KMKG MKG20020904104509609/04/02 10:45:31  5-MIN KMKG 041545Z 35006KT 10SM FEW042 24/14 A3019 380 51 1600 350/06 RMK AO2
14840KMKG MKG20020904105012909/04/02 10:50:31  5-MIN KMKG 041550Z 30007KT 280V340 10SM FEW042 24/14 A3019 380 51 1600 310/07 280V340 RMK AO2 SLP221 T02440139
14840KMKG MKG20020904105511309/04/02 10:55:31  5-MIN KMKG 041555Z 28008KT 10SM FEW042 24/14 A3019 380 53 1600 290/08 RMK AO2 SLP220 T02440144
14840KMKG MKG20020904110009309/04/02 11:00:31  5-MIN KMKG 041600Z 34005KT 10SM CLR 24/14 A3019 380 51 1600 340/05 RMK AO2
14840KMKG MKG20020904110510909/04/02 11:05:31  5-MIN KMKG 041605Z 31007KT 280V040 10SM CLR 24/14 A3019 380 51 1600 320/07 280V040 RMK AO2
14840KMKG MKG20020904111009309/04/02 11:10:31  5-MIN KMKG 041610Z 32009KT 10SM CLR 24/14 A3019 380 53 1600 320/09 RMK AO2
14840KMKG MKG20020904111509309/04/02 11:15:31  5-MIN KMKG 041615Z 27008KT 10SM CLR 24/14 A3019 380 53 1600 280/08 RMK AO2
14840KMKG MKG20020904112009309/04/02 11:20:31  5-MIN KMKG 041620Z 27006KT 10SM CLR 24/14 A3019 380 53 1600 270/06 RMK AO2
14840KMKG MKG20020904112509309/04/02 11:25:31  5-MIN KMKG 041625Z 34005KT 10SM CLR 24/15 A3019 380 55 1600 340/05 RMK AO2
14840KMKG MKG20020904113009309/04/02 11:30:31  5-MIN KMKG 041630Z 29008KT 10SM CLR 24/15 A3019 380 55 1600 300/08 RMK AO2
14840KMKG MKG20020904113509309/04/02 11:35:31  5-MIN KMKG 041635Z 30008KT 10SM CLR 25/15 A3019 380 53 1700 300/08 RMK AO2
14840KMKG MKG20020904114009309/04/02 11:40:31  5-MIN KMKG 041640Z 30007KT 10SM CLR 24/15 A3019 380 55 1600 300/07 RMK AO2
14840KMKG MKG20020904114509309/04/02 11:45:31  5-MIN KMKG 041645Z 30009KT 10SM CLR 24/14 A3019 390 53 1600 300/09 RMK AO2
14840KMKG MKG20020904115011009/04/02 11:50:31  5-MIN KMKG 041650Z 30008KT 10SM CLR 24/14 A3019 390 53 1600 310/08 RMK AO2 SLP219 T02440144
14840KMKG MKG20020904115511009/04/02 11:55:31  5-MIN KMKG 041655Z 32010KT 10SM CLR 25/15 A3019 380 53 1700 320/10 RMK AO2 SLP219 T02500150
14840KMKG MKG20020904120009309/04/02 12:00:31  5-MIN KMKG 041700Z 32010KT 10SM CLR 25/15 A3019 380 53 1700 320/10 RMK AO2
14840KMKG MKG20020904120509309/04/02 12:05:31  5-MIN KMKG 041705Z 29008KT 10SM CLR 24/14 A3019 390 53 1600 300/08 RMK AO2
14840KMKG MKG20020904121009309/04/02 12:10:31  5-MIN KMKG 041710Z 31010KT 10SM CLR 24/14 A3018 390 53 1600 310/10 RMK AO2
14840KMKG MKG20020904121509309/04/02 12:15:31  5-MIN KMKG 041715Z 30009KT 10SM CLR 25/14 A3018 390 51 1700 300/09 RMK AO2
14840KMKG MKG20020904122009309/04/02 12:20:31  5-MIN KMKG 041720Z 29009KT 10SM CLR 24/15 A3018 390 55 1600 290/09 RMK AO2
14840KMKG MKG20020904122509309/04/02 12:25:31  5-MIN KMKG 041725Z 30010KT 10SM CLR 24/14 A3018 390 53 1600 310/10 RMK AO2
14840KMKG MKG20020904123009309/04/02 12:30:31  5-MIN KMKG 041730Z 28010KT 10SM CLR 24/14 A3018 390 55 1500 290/10 RMK AO2
14840KMKG MKG20020904123509309/04/02 12:35:31  5-MIN KMKG 041735Z 27011KT 10SM CLR 24/14 A3019 390 53 1600 280/11 RMK AO2
14840KMKG MKG20020904124009309/04/02 12:40:31  5-MIN KMKG 041740Z 29010KT 10SM CLR 24/14 A3019 390 53 1600 290/10 RMK AO2
14840KMKG MKG20020904124509309/04/02 12:45:31  5-MIN KMKG 041745Z 29010KT 10SM CLR 24/14 A3018 390 53 1600 300/10 RMK AO2
14840KMKG MKG20020904125012809/04/02 12:50:31  5-MIN KMKG 041750Z 28012KT 10SM CLR 25/14 A3018 390 51 1700 290/12 RMK AO2 SLP218 T02500144 10250 20183 51016
14840KMKG MKG20020904125512809/04/02 12:55:31  5-MIN KMKG 041755Z 28010KT 10SM CLR 24/14 A3019 390 51 1600 290/10 RMK AO2 SLP219 T02440139 10250 20183 58001
14840KMKG MKG20020904130009309/04/02 13:00:31  5-MIN KMKG 041800Z 29009KT 10SM CLR 24/14 A3019 380 51 1600 300/09 RMK AO2
14840KMKG MKG20020904130509309/04/02 13:05:31  5-MIN KMKG 041805Z 30009KT 10SM CLR 24/14 A3018 390 53 1600 310/09 RMK AO2
14840KMKG MKG20020904131009309/04/02 13:10:31  5-MIN KMKG 041810Z 30009KT 10SM CLR 25/14 A3018 390 51 1700 300/09 RMK AO2
14840KMKG MKG20020904131509309/04/02 13:15:31  5-MIN KMKG 041815Z 30009KT 10SM CLR 24/14 A3019 390 51 1600 310/09 RMK AO2
14840KMKG MKG20020904132009309/04/02 13:20:31  5-MIN KMKG 041820Z 29010KT 10SM CLR 25/14 A3018 390 51 1700 290/10 RMK AO2
14840KMKG MKG20020904132509309/04/02 13:25:31  5-MIN KMKG 041825Z 30010KT 10SM CLR 24/14 A3018 390 53 1600 300/10 RMK AO2
14840KMKG MKG20020904133009309/04/02 13:30:31  5-MIN KMKG 041830Z 29011KT 10SM CLR 24/14 A3018 390 53 1600 290/11 RMK AO2
14840KMKG MKG20020904133509309/04/02 13:35:31  5-MIN KMKG 041835Z 28012KT 10SM CLR 24/14 A3018 390 53 1600 280/12 RMK AO2
14840KMKG MKG20020904134009309/04/02 13:40:31  5-MIN KMKG 041840Z 29009KT 10SM CLR 24/14 A3018 390 53 1500 300/09 RMK AO2
14840KMKG MKG20020904134509309/04/02 13:45:31  5-MIN KMKG 041845Z 30011KT 10SM CLR 24/14 A3018 390 51 1600 300/11 RMK AO2
14840KMKG MKG20020904135011009/04/02 13:50:31  5-MIN KMKG 041850Z 29011KT 10SM CLR 24/14 A3018 390 53 1600 290/11 RMK AO2 SLP217 T02440144
14840KMKG MKG20020904135511009/04/02 13:55:31  5-MIN KMKG 041855Z 29011KT 10SM CLR 24/14 A3018 390 53 1600 300/11 RMK AO2 SLP217 T02440144
14840KMKG MKG20020904140009309/04/02 14:00:31  5-MIN KMKG 041900Z 27011KT 10SM CLR 24/14 A3018 390 53 1600 280/11 RMK AO2
14840KMKG MKG20020904140509309/04/02 14:05:31  5-MIN KMKG 041905Z 27012KT 10SM CLR 24/14 A3018 390 55 1600 280/12 RMK AO2
14840KMKG MKG20020904141009309/04/02 14:10:31  5-MIN KMKG 041910Z 28011KT 10SM CLR 24/14 A3018 390 55 1600 280/11 RMK AO2
14840KMKG MKG20020904141509309/04/02 14:15:31  5-MIN KMKG 041915Z 27013KT 10SM CLR 24/14 A3018 390 55 1600 280/13 RMK AO2
14840KMKG MKG20020904142009309/04/02 14:20:31  5-MIN KMKG 041920Z 29011KT 10SM CLR 24/14 A3018 390 55 1500 290/11 RMK AO2
14840KMKG MKG20020904142509909/04/02 14:25:31  5-MIN KMKG 041925Z 29013G18KT 10SM CLR 24/14 A3018 390 55 1500 290/13G18 RMK AO2
14840KMKG MKG20020904143009909/04/02 14:30:31  5-MIN KMKG 041930Z 30011G18KT 10SM CLR 24/14 A3018 390 53 1500 300/11G18 RMK AO2
14840KMKG MKG20020904143509309/04/02 14:35:31  5-MIN KMKG 041935Z 30012KT 10SM CLR 23/14 A3018 390 55 1500 300/12 RMK AO2
14840KMKG MKG20020904144009309/04/02 14:40:31  5-MIN KMKG 041940Z 27013KT 10SM CLR 23/14 A3018 390 57 1500 270/13 RMK AO2
14840KMKG MKG20020904144509309/04/02 14:45:31  5-MIN KMKG 041945Z 29011KT 10SM CLR 24/14 A3018 390 55 1500 290/11 RMK AO2
14840KMKG MKG20020904145011009/04/02 14:50:31  5-MIN KMKG 041950Z 29013KT 10SM CLR 23/14 A3018 390 55 1500 290/13 RMK AO2 SLP218 T02330139
14840KMKG MKG20020904145511009/04/02 14:55:31  5-MIN KMKG 041955Z 29013KT 10SM CLR 23/14 A3018 390 57 1400 300/13 RMK AO2 SLP218 T02280139
14840KMKG MKG20020904150009309/04/02 15:00:31  5-MIN KMKG 042000Z 29014KT 10SM CLR 23/14 A3019 390 57 1400 290/14 RMK AO2
14840KMKG MKG20020904150509309/04/02 15:05:31  5-MIN KMKG 042005Z 29012KT 10SM CLR 23/14 A3019 390 55 1500 290/12 RMK AO2
14840KMKG MKG20020904151009909/04/02 15:10:31  5-MIN KMKG 042010Z 30009G18KT 10SM CLR 23/14 A3019 390 55 1500 300/09G18 RMK AO2
14840KMKG MKG20020904151509909/04/02 15:15:31  5-MIN KMKG 042015Z 30012G17KT 10SM CLR 23/14 A3018 390 55 1500 300/12G17 RMK AO2
14840KMKG MKG20020904152009909/04/02 15:20:31  5-MIN KMKG 042020Z 29014G18KT 10SM CLR 23/14 A3019 390 55 1500 290/14G18 RMK AO2
14840KMKG MKG20020904152509909/04/02 15:25:31  5-MIN KMKG 042025Z 29013G18KT 10SM CLR 23/14 A3019 380 57 1400 300/13G18 RMK AO2
14840KMKG MKG20020904153009309/04/02 15:30:31  5-MIN KMKG 042030Z 29013KT 10SM CLR 23/14 A3019 390 57 1400 300/13 RMK AO2
14840KMKG MKG20020904153509309/04/02 15:35:31  5-MIN KMKG 042035Z 30011KT 10SM CLR 23/14 A3018 390 55 1500 300/11 RMK AO2
14840KMKG MKG20020904154009909/04/02 15:40:31  5-MIN KMKG 042040Z 30010G19KT 10SM CLR 23/14 A3019 390 57 1400 300/10G19 RMK AO2
14840KMKG MKG20020904154509909/04/02 15:45:31  5-MIN KMKG 042045Z 31013G19KT 10SM CLR 23/14 A3019 380 55 1500 320/13G19 RMK AO2
14840KMKG MKG20020904155011609/04/02 15:50:31  5-MIN KMKG 042050Z 31011KT 10SM CLR 23/14 A3019 380 57 1500 320/11 RMK AO2 SLP219 T02330144 58001
14840KMKG MKG20020904155511609/04/02 15:55:31  5-MIN KMKG 042055Z 32015KT 10SM CLR 23/14 A3019 380 55 1500 320/15 RMK AO2 SLP220 T02330139 53001
14840KMKG MKG20020904160010909/04/02 16:00:31  5-MIN KMKG 042100Z 31010KT 260V330 10SM CLR 23/14 A3019 390 57 1400 310/10 260V330 RMK AO2
14840KMKG MKG20020904160509309/04/02 16:05:31  5-MIN KMKG 042105Z 30013KT 10SM CLR 23/14 A3018 390 57 1400 300/13 RMK AO2
14840KMKG MKG20020904161009309/04/02 16:10:31  5-MIN KMKG 042110Z 30009KT 10SM CLR 23/14 A3019 380 55 1500 300/09 RMK AO2
14840KMKG MKG20020904161510909/04/02 16:15:31  5-MIN KMKG 042115Z 31009KT 260V330 10SM CLR 23/14 A3019 380 55 1500 310/09 260V330 RMK AO2
14840KMKG MKG20020904162009909/04/02 16:20:31  5-MIN KMKG 042120Z 31010G16KT 10SM CLR 23/14 A3018 390 57 1400 310/10G16 RMK AO2
14840KMKG MKG20020904162509309/04/02 16:25:31  5-MIN KMKG 042125Z 30012KT 10SM CLR 23/14 A3018 390 57 1400 310/12 RMK AO2
14840KMKG MKG20020904163009309/04/02 16:30:31  5-MIN KMKG 042130Z 29011KT 10SM CLR 23/14 A3018 390 57 1400 300/11 RMK AO2
14840KMKG MKG20020904163509309/04/02 16:35:31  5-MIN KMKG 042135Z 32011KT 10SM CLR 23/14 A3018 390 57 1400 320/11 RMK AO2
14840KMKG MKG20020904164009309/04/02 16:40:31  5-MIN KMKG 042140Z 31012KT 10SM CLR 23/13 A3018 390 55 1400 310/12 RMK AO2
14840KMKG MKG20020904164509309/04/02 16:45:31  5-MIN KMKG 042145Z 29011KT 10SM CLR 23/13 A3018 390 51 1500 290/11 RMK AO2
14840KMKG MKG20020904165011009/04/02 16:50:31  5-MIN KMKG 042150Z 32009KT 10SM CLR 23/13 A3018 390 51 1500 330/09 RMK AO2 SLP218 T02330128
14840KMKG MKG20020904165511009/04/02 16:55:31  5-MIN KMKG 042155Z 30010KT 10SM CLR 23/12 A3019 380 51 1400 310/10 RMK AO2 SLP220 T02280122
14840KMKG MKG20020904170009309/04/02 17:00:31  5-MIN KMKG 042200Z 32013KT 10SM CLR 23/12 A3019 380 51 1400 320/13 RMK AO2
14840KMKG MKG20020904170509309/04/02 17:05:31  5-MIN KMKG 042205Z 31012KT 10SM CLR 23/12 A3019 380 49 1500 320/12 RMK AO2
14840KMKG MKG20020904171009309/04/02 17:10:31  5-MIN KMKG 042210Z 31011KT 10SM CLR 23/12 A3019 380 49 1400 310/11 RMK AO2
14840KMKG MKG20020904171509309/04/02 17:15:31  5-MIN KMKG 042215Z 31010KT 10SM CLR 23/12 A3019 380 49 1400 310/10 RMK AO2
14840KMKG MKG20020904172009309/04/02 17:20:31  5-MIN KMKG 042220Z 32009KT 10SM CLR 23/12 A3019 380 49 1400 320/09 RMK AO2
14840KMKG MKG20020904172509309/04/02 17:25:31  5-MIN KMKG 042225Z 32011KT 10SM CLR 23/12 A3019 380 51 1400 330/11 RMK AO2
14840KMKG MKG20020904173009309/04/02 17:30:31  5-MIN KMKG 042230Z 31011KT 10SM CLR 23/12 A3019 380 51 1400 310/11 RMK AO2
14840KMKG MKG20020904173509309/04/02 17:35:31  5-MIN KMKG 042235Z 32009KT 10SM CLR 23/12 A3019 380 51 1400 320/09 RMK AO2
14840KMKG MKG20020904174009309/04/02 17:40:31  5-MIN KMKG 042240Z 33008KT 10SM CLR 23/12 A3019 380 51 1400 330/08 RMK AO2
14840KMKG MKG20020904174509309/04/02 17:45:31  5-MIN KMKG 042245Z 34009KT 10SM CLR 23/12 A3019 380 49 1500 340/09 RMK AO2
14840KMKG MKG20020904175011609/04/02 17:50:31  5-MIN KMKG 042250Z 33012G15KT 10SM CLR 23/10 A3020 380 44 1400 340/12G15 RMK AO2 SLP223 T02280100
14840KMKG MKG20020904175511609/04/02 17:55:31  5-MIN KMKG 042255Z 34013G18KT 10SM CLR 23/09 A3019 380 42 1400 340/13G18 RMK AO2 SLP221 T02280094
14840KMKG MKG20020904180009909/04/02 18:00:31  5-MIN KMKG 042300Z 33013G18KT 10SM CLR 23/10 A3019 380 44 1400 330/13G18 RMK AO2
14840KMKG MKG20020904180509309/04/02 18:05:31  5-MIN KMKG 042305Z 33011KT 10SM CLR 22/10 A3019 380 45 1300 340/11 RMK AO2
14840KMKG MKG20020904181009309/04/02 18:10:31  5-MIN KMKG 042310Z 34011KT 10SM CLR 22/10 A3019 380 45 1300 350/11 RMK AO2
14840KMKG MKG20020904181509309/04/02 18:15:31  5-MIN KMKG 042315Z 33010KT 10SM CLR 22/10 A3019 380 45 1400 340/10 RMK AO2
14840KMKG MKG20020904182009909/04/02 18:20:31  5-MIN KMKG 042320Z 34013G18KT 10SM CLR 22/10 A3019 380 45 1300 350/13G18 RMK AO2
14840KMKG MKG20020904182509909/04/02 18:25:31  5-MIN KMKG 042325Z 34010G18KT 10SM CLR 22/10 A3019 380 47 1300 340/10G18 RMK AO2
14840KMKG MKG20020904183009309/04/02 18:30:31  5-MIN KMKG 042330Z 34010KT 10SM CLR 22/10 A3019 380 47 1300 350/10 RMK AO2
14840KMKG MKG20020904183509309/04/02 18:35:31  5-MIN KMKG 042335Z 34009KT 10SM CLR 22/11 A3019 380 49 1300 340/09 RMK AO2
14840KMKG MKG20020904184009309/04/02 18:40:31  5-MIN KMKG 042340Z 34009KT 10SM CLR 22/11 A3019 380 49 1300 340/09 RMK AO2
14840KMKG MKG20020904184509309/04/02 18:45:31  5-MIN KMKG 042345Z 35010KT 10SM CLR 21/11 A3019 380 50 1200 360/10 RMK AO2
14840KMKG MKG20020904185012809/04/02 18:50:31  5-MIN KMKG 042350Z 36007KT 10SM CLR 21/11 A3019 380 50 1200 360/07 RMK AO2 SLP222 T02110106 10250 20211 53001
14840KMKG MKG20020904185512809/04/02 18:55:31  5-MIN KMKG 042355Z 36010KT 10SM CLR 21/10 A3019 380 48 1200 360/10 RMK AO2 SLP222 T02110100 10250 20211 53001
14840KMKG MKG20020904190009309/04/02 19:00:31  5-MIN KMKG 050000Z 35007KT 10SM CLR 21/11 A3019 380 52 1200 350/07 RMK AO2
14840KMKG MKG20020904190509309/04/02 19:05:31  5-MIN KMKG 050005Z 36008KT 10SM CLR 21/11 A3019 380 52 1200 360/08 RMK AO2
14840KMKG MKG20020904191009309/04/02 19:10:31  5-MIN KMKG 050010Z 01008KT 10SM CLR 21/11 A3019 380 54 1200 010/08 RMK AO2
14840KMKG MKG20020904191509309/04/02 19:15:31  5-MIN KMKG 050015Z 36006KT 10SM CLR 20/11 A3019 380 56 1100 010/06 RMK AO2
14840KMKG MKG20020904192009309/04/02 19:20:31  5-MIN KMKG 050020Z 01009KT 10SM CLR 20/12 A3019 380 58 1100 010/09 RMK AO2
14840KMKG MKG20020904192509309/04/02 19:25:31  5-MIN KMKG 050025Z 01008KT 10SM CLR 20/12 A3019 380 58 1100 010/08 RMK AO2
14840KMKG MKG20020904193009309/04/02 19:30:31  5-MIN KMKG 050030Z 36007KT 10SM CLR 19/12 A3019 380 62 1000 010/07 RMK AO2
14840KMKG MKG20020904193509309/04/02 19:35:31  5-MIN KMKG 050035Z 01005KT 10SM CLR 19/12 A3019 380 62 1000 010/05 RMK AO2
14840KMKG MKG20020904194009309/04/02 19:40:31  5-MIN KMKG 050040Z 01005KT 10SM CLR 19/12 A3019 380 65 1000 010/05 RMK AO2
14840KMKG MKG20020904194509309/04/02 19:45:31  5-MIN KMKG 050045Z 36006KT 10SM CLR 19/12 A3019 380 65 1000 360/06 RMK AO2
14840KMKG MKG20020904195011009/04/02 19:50:31  5-MIN KMKG 050050Z 36007KT 10SM CLR 19/12 A3019 380 65 1000 010/07 RMK AO2 SLP222 T01890122
14840KMKG MKG20020904195511009/04/02 19:55:31  5-MIN KMKG 050055Z 01006KT 10SM CLR 19/12 A3020 380 65 1000 010/06 RMK AO2 SLP223 T01890122
14840KMKG MKG20020904200009309/04/02 20:00:31  5-MIN KMKG 050100Z 36007KT 10SM CLR 19/12 A3019 380 65 1000 360/07 RMK AO2
14840KMKG MKG20020904200509309/04/02 20:05:31  5-MIN KMKG 050105Z 36007KT 10SM CLR 19/12 A3020 380 65 1000 360/07 RMK AO2
14840KMKG MKG20020904201009209/04/02 20:10:31  5-MIN KMKG 050110Z 34007KT 10SM CLR 18/12 A3020 370 67 900 350/07 RMK AO2
14840KMKG MKG20020904201509209/04/02 20:15:31  5-MIN KMKG 050115Z 34005KT 10SM CLR 18/12 A3020 370 67 900 350/05 RMK AO2
14840KMKG MKG20020904202009209/04/02 20:20:31  5-MIN KMKG 050120Z 35005KT 10SM CLR 18/12 A3021 370 69 800 350/05 RMK AO2
14840KMKG MKG20020904202509209/04/02 20:25:31  5-MIN KMKG 050125Z 36006KT 10SM CLR 18/12 A3021 370 67 900 360/06 RMK AO2
14840KMKG MKG20020904203009209/04/02 20:30:31  5-MIN KMKG 050130Z 35005KT 10SM CLR 18/12 A3020 370 69 800 350/05 RMK AO2
14840KMKG MKG20020904203509209/04/02 20:35:31  5-MIN KMKG 050135Z 35007KT 10SM CLR 18/12 A3021 370 69 800 360/07 RMK AO2
14840KMKG MKG20020904204009209/04/02 20:40:31  5-MIN KMKG 050140Z 35007KT 10SM CLR 18/12 A3020 370 69 800 360/07 RMK AO2
14840KMKG MKG20020904204509209/04/02 20:45:31  5-MIN KMKG 050145Z 36006KT 10SM CLR 18/12 A3020 370 69 800 360/06 RMK AO2
14840KMKG MKG20020904205010909/04/02 20:50:31  5-MIN KMKG 050150Z 01006KT 10SM CLR 18/12 A3020 370 69 800 010/06 RMK AO2 SLP225 T01780122
14840KMKG MKG20020904205510909/04/02 20:55:31  5-MIN KMKG 050155Z 36006KT 10SM CLR 18/12 A3020 370 69 800 010/06 RMK AO2 SLP225 T01780122
14840KMKG MKG20020904210009209/04/02 21:00:31  5-MIN KMKG 050200Z 36005KT 10SM CLR 17/12 A3020 370 72 800 360/05 RMK AO2
14840KMKG MKG20020904210509209/04/02 21:05:31  5-MIN KMKG 050205Z 36005KT 10SM CLR 17/12 A3020 370 72 800 010/05 RMK AO2
14840KMKG MKG20020904211009209/04/02 21:10:31  5-MIN KMKG 050210Z 01005KT 10SM CLR 18/12 A3020 370 69 800 010/05 RMK AO2
14840KMKG MKG20020904211509209/04/02 21:15:31  5-MIN KMKG 050215Z 01005KT 10SM CLR 17/12 A3020 370 72 800 010/05 RMK AO2
14840KMKG MKG20020904212009209/04/02 21:20:31  5-MIN KMKG 050220Z 36006KT 10SM CLR 17/12 A3020 370 72 800 010/06 RMK AO2
14840KMKG MKG20020904212509209/04/02 21:25:31  5-MIN KMKG 050225Z 01005KT 10SM CLR 17/12 A3020 370 72 800 010/05 RMK AO2
14840KMKG MKG20020904213009209/04/02 21:30:31  5-MIN KMKG 050230Z 01005KT 10SM CLR 17/12 A3020 370 72 800 020/05 RMK AO2
14840KMKG MKG20020904213509209/04/02 21:35:31  5-MIN KMKG 050235Z 03006KT 10SM CLR 17/12 A3021 370 72 800 030/06 RMK AO2
14840KMKG MKG20020904214009209/04/02 21:40:31  5-MIN KMKG 050240Z 36005KT 10SM CLR 17/12 A3021 360 72 800 010/05 RMK AO2
14840KMKG MKG20020904214509209/04/02 21:45:31  5-MIN KMKG 050245Z 36006KT 10SM CLR 17/12 A3021 360 75 700 360/06 RMK AO2
14840KMKG MKG20020904215011509/04/02 21:50:31  5-MIN KMKG 050250Z 35005KT 10SM CLR 17/12 A3022 360 72 700 360/05 RMK AO2 SLP230 T01720122 53001
14840KMKG MKG20020904215511509/04/02 21:55:31  5-MIN KMKG 050255Z 01005KT 10SM CLR 17/12 A3022 360 75 700 010/05 RMK AO2 SLP230 T01670122 53008
14840KMKG MKG20020904220009209/04/02 22:00:31  5-MIN KMKG 050300Z 01004KT 10SM CLR 17/12 A3022 360 75 700 010/04 RMK AO2
14840KMKG MKG20020904220509209/04/02 22:05:31  5-MIN KMKG 050305Z 02005KT 10SM CLR 17/12 A3022 360 72 700 020/05 RMK AO2
14840KMKG MKG20020904221009209/04/02 22:10:31  5-MIN KMKG 050310Z 02004KT 10SM CLR 17/12 A3021 360 72 700 020/04 RMK AO2
14840KMKG MKG20020904221509209/04/02 22:15:31  5-MIN KMKG 050315Z 01005KT 10SM CLR 17/12 A3021 360 75 700 020/05 RMK AO2
14840KMKG MKG20020904222009209/04/02 22:20:31  5-MIN KMKG 050320Z 02005KT 10SM CLR 17/12 A3021 360 75 700 020/05 RMK AO2
14840KMKG MKG20020904222509209/04/02 22:25:31  5-MIN KMKG 050325Z 02004KT 10SM CLR 17/12 A3021 360 72 700 020/04 RMK AO2
14840KMKG MKG20020904223009209/04/02 22:30:31  5-MIN KMKG 050330Z 01004KT 10SM CLR 17/12 A3021 360 75 700 010/04 RMK AO2
14840KMKG MKG20020904223509209/04/02 22:35:31  5-MIN KMKG 050335Z 35005KT 10SM CLR 16/12 A3021 360 75 600 360/05 RMK AO2
14840KMKG MKG20020904224009209/04/02 22:40:31  5-MIN KMKG 050340Z 36005KT 10SM CLR 16/12 A3021 360 75 600 360/05 RMK AO2
14840KMKG MKG20020904224509209/04/02 22:45:31  5-MIN KMKG 050345Z 01005KT 10SM CLR 16/12 A3021 360 77 600 010/05 RMK AO2
14840KMKG MKG20020904225010909/04/02 22:50:31  5-MIN KMKG 050350Z 01006KT 10SM CLR 16/12 A3021 360 75 600 010/06 RMK AO2 SLP229 T01610117
14840KMKG MKG20020904225510909/04/02 22:55:31  5-MIN KMKG 050355Z 01005KT 10SM CLR 16/12 A3021 360 77 600 010/05 RMK AO2 SLP229 T01610122
14840KMKG MKG20020904230009209/04/02 23:00:31  5-MIN KMKG 050400Z 02005KT 10SM CLR 16/12 A3022 360 77 600 020/05 RMK AO2
14840KMKG MKG20020904230509209/04/02 23:05:31  5-MIN KMKG 050405Z 02005KT 10SM CLR 16/12 A3022 360 77 600 020/05 RMK AO2
14840KMKG MKG20020904231009209/04/02 23:10:31  5-MIN KMKG 050410Z 02005KT 10SM CLR 16/12 A3022 360 77 600 020/05 RMK AO2
14840KMKG MKG20020904231509209/04/02 23:15:31  5-MIN KMKG 050415Z 03005KT 10SM CLR 16/12 A3022 350 77 600 040/05 RMK AO2
14840KMKG MKG20020904232009209/04/02 23:20:31  5-MIN KMKG 050420Z 04005KT 10SM CLR 16/12 A3022 350 77 600 050/05 RMK AO2
14840KMKG MKG20020904232509209/04/02 23:25:31  5-MIN KMKG 050425Z 05005KT 10SM CLR 16/12 A3022 360 80 500 050/05 RMK AO2
14840KMKG MKG20020904233009209/04/02 23:30:31  5-MIN KMKG 050430Z 04005KT 10SM CLR 16/12 A3022 350 80 500 050/05 RMK AO2
14840KMKG MKG20020904233509209/04/02 23:35:31  5-MIN KMKG 050435Z 04005KT 10SM CLR 15/12 A3022 350 83 500 040/05 RMK AO2
14840KMKG MKG20020904234009209/04/02 23:40:31  5-MIN KMKG 050440Z 04006KT 10SM CLR 15/12 A3022 350 83 500 040/06 RMK AO2
14840KMKG MKG20020904234509209/04/02 23:45:31  5-MIN KMKG 050445Z 04006KT 10SM CLR 15/12 A3022 350 83 500 040/06 RMK AO2
14840KMKG MKG20020904235011909/04/02 23:50:31  5-MIN KMKG 050450Z 04006KT 10SM CLR 15/12 A3022 350 83 500 040/06 RMK AO2 SLP233 T01500122 402500150
14840KMKG MKG20020904235511909/04/02 23:55:31  5-MIN KMKG 050455Z 04006KT 10SM CLR 15/12 A3023 350 83 500 040/06 RMK AO2 SLP233 T01500122 402500150
14840KMKG MKG20020905000009209/05/02 00:00:31  5-MIN KMKG 050500Z 04006KT 10SM CLR 15/12 A3022 350 83 500 040/06 RMK AO2
14840KMKG MKG20020905000509209/05/02 00:05:31  5-MIN KMKG 050505Z 05006KT 10SM CLR 15/12 A3022 350 83 500 050/06 RMK AO2
14840KMKG MKG20020905001009209/05/02 00:10:31  5-MIN KMKG 050510Z 05006KT 10SM CLR 15/12 A3022 350 83 500 050/06 RMK AO2
14840KMKG MKG20020905001509209/05/02 00:15:31  5-MIN KMKG 050515Z 05006KT 10SM CLR 15/12 A3022 350 83 500 050/06 RMK AO2
14840KMKG MKG20020905002009209/05/02 00:20:31  5-MIN KMKG 050520Z 04007KT 10SM CLR 15/12 A3022 350 83 500 050/07 RMK AO2
14840KMKG MKG20020905002509209/05/02 00:25:31  5-MIN KMKG 050525Z 05007KT 10SM CLR 15/12 A3022 350 83 500 050/07 RMK AO2
14840KMKG MKG20020905003009209/05/02 00:30:31  5-MIN KMKG 050530Z 05006KT 10SM CLR 15/12 A3022 350 83 500 050/06 RMK AO2
14840KMKG MKG20020905003509209/05/02 00:35:31  5-MIN KMKG 050535Z 05006KT 10SM CLR 15/12 A3022 350 83 500 060/06 RMK AO2
14840KMKG MKG20020905004009209/05/02 00:40:31  5-MIN KMKG 050540Z 06006KT 10SM CLR 14/12 A3022 350 86 400 060/06 RMK AO2
14840KMKG MKG20020905004509209/05/02 00:45:31  5-MIN KMKG 050545Z 05005KT 10SM CLR 15/12 A3022 350 80 500 060/05 RMK AO2
14840KMKG MKG20020905005012709/05/02 00:50:31  5-MIN KMKG 050550Z 05004KT 10SM CLR 14/12 A3022 350 83 400 060/04 RMK AO2 SLP233 T01440117 10211 20144 53008
14840KMKG MKG20020905005512709/05/02 00:55:31  5-MIN KMKG 050555Z 06004KT 10SM CLR 14/12 A3023 350 83 400 060/04 RMK AO2 SLP233 T01440117 10211 20144 53003
14840KMKG MKG20020905010009209/05/02 01:00:31  5-MIN KMKG 050600Z 07005KT 10SM CLR 14/12 A3023 350 83 400 070/05 RMK AO2
14840KMKG MKG20020905010509209/05/02 01:05:31  5-MIN KMKG 050605Z 07005KT 10SM CLR 14/12 A3023 350 86 300 080/05 RMK AO2
14840KMKG MKG20020905011009209/05/02 01:10:31  5-MIN KMKG 050610Z 07005KT 10SM CLR 14/12 A3023 350 86 300 080/05 RMK AO2
14840KMKG MKG20020905011509209/05/02 01:15:31  5-MIN KMKG 050615Z 09004KT 10SM CLR 14/12 A3022 350 86 300 090/04 RMK AO2
14840KMKG MKG20020905012009209/05/02 01:20:31  5-MIN KMKG 050620Z 08004KT 10SM CLR 14/12 A3022 350 86 300 090/04 RMK AO2
14840KMKG MKG20020905012509209/05/02 01:25:31  5-MIN KMKG 050625Z 09004KT 10SM CLR 13/12 A3022 360 89 300 100/04 RMK AO2
14840KMKG MKG20020905013009209/05/02 01:30:31  5-MIN KMKG 050630Z 09004KT 10SM CLR 13/12 A3022 360 89 300 090/04 RMK AO2
14840KMKG MKG20020905013509209/05/02 01:35:31  5-MIN KMKG 050635Z 08005KT 10SM CLR 13/12 A3022 360 89 300 080/05 RMK AO2
14840KMKG MKG20020905014009209/05/02 01:40:31  5-MIN KMKG 050640Z 07006KT 10SM CLR 13/12 A3022 350 89 300 070/06 RMK AO2
14840KMKG MKG20020905014509209/05/02 01:45:31  5-MIN KMKG 050645Z 06005KT 10SM CLR 13/12 A3022 350 93 200 060/05 RMK AO2
14840KMKG MKG20020905015010909/05/02 01:50:31  5-MIN KMKG 050650Z 06005KT 10SM CLR 13/12 A3023 350 89 300 060/05 RMK AO2 SLP235 T01330117
14840KMKG MKG20020905015510909/05/02 01:55:31  5-MIN KMKG 050655Z 06006KT 10SM CLR 13/12 A3023 350 89 300 060/06 RMK AO2 SLP234 T01330117
14840KMKG MKG20020905020009209/05/02 02:00:31  5-MIN KMKG 050700Z 06006KT 10SM CLR 13/12 A3023 350 93 200 060/06 RMK AO2
14840KMKG MKG20020905020509209/05/02 02:05:31  5-MIN KMKG 050705Z 06007KT 10SM CLR 13/12 A3023 350 93 200 070/07 RMK AO2
14840KMKG MKG20020905021009209/05/02 02:10:31  5-MIN KMKG 050710Z 06006KT 10SM CLR 13/12 A3023 350 93 200 070/06 RMK AO2
14840KMKG MKG20020905021509209/05/02 02:15:31  5-MIN KMKG 050715Z 06006KT 10SM CLR 13/12 A3023 350 93 200 070/06 RMK AO2
14840KMKG MKG20020905022009209/05/02 02:20:31  5-MIN KMKG 050720Z 07006KT 10SM CLR 13/12 A3022 350 93 200 070/06 RMK AO2
14840KMKG MKG20020905022509209/05/02 02:25:31  5-MIN KMKG 050725Z 07005KT 10SM CLR 12/12 A3022 350 96 100 070/05 RMK AO2
14840KMKG MKG20020905023009209/05/02 02:30:31  5-MIN KMKG 050730Z 06005KT 10SM CLR 12/12 A3022 350 96 100 070/05 RMK AO2
14840KMKG MKG20020905023509209/05/02 02:35:31  5-MIN KMKG 050735Z 06004KT 10SM CLR 12/12 A3022 350 96 100 060/04 RMK AO2
14840KMKG MKG20020905024009209/05/02 02:40:31  5-MIN KMKG 050740Z 06004KT 10SM CLR 12/12 A3022 350 96 100 070/04 RMK AO2
14840KMKG MKG20020905024509209/05/02 02:45:31  5-MIN KMKG 050745Z 06004KT 10SM CLR 12/12 A3022 350 96 100 060/04 RMK AO2
14840KMKG MKG20020905025010909/05/02 02:50:31  5-MIN KMKG 050750Z 05004KT 10SM CLR 12/12 A3022 350 96 100 060/04 RMK AO2 SLP232 T01220117
14840KMKG MKG20020905025510909/05/02 02:55:31  5-MIN KMKG 050755Z 06004KT 10SM CLR 12/12 A3022 360 96 100 060/04 RMK AO2 SLP232 T01220117
14840KMKG MKG20020905030009209/05/02 03:00:31  5-MIN KMKG 050800Z 05004KT 10SM CLR 12/12 A3022 350 96 100 050/04 RMK AO2
14840KMKG MKG20020905030509209/05/02 03:05:31  5-MIN KMKG 050805Z 05004KT 10SM CLR 12/12 A3022 360 96 100 050/04 RMK AO2
14840KMKG MKG20020905031009209/05/02 03:10:31  5-MIN KMKG 050810Z 05004KT 10SM CLR 13/12 A3022 360 93 200 060/04 RMK AO2
14840KMKG MKG20020905031509209/05/02 03:15:31  5-MIN KMKG 050815Z 05004KT 10SM CLR 12/12 A3022 360 96 100 060/04 RMK AO2
14840KMKG MKG20020905032009209/05/02 03:20:31  5-MIN KMKG 050820Z 05003KT 10SM CLR 12/12 A3022 360 96 100 060/03 RMK AO2
14840KMKG MKG20020905032509209/05/02 03:25:31  5-MIN KMKG 050825Z 06004KT 10SM CLR 12/12 A3022 350 96 100 060/04 RMK AO2
14840KMKG MKG20020905033009209/05/02 03:30:31  5-MIN KMKG 050830Z 06004KT 10SM CLR 12/12 A3022 360 96 100 060/04 RMK AO2
14840KMKG MKG20020905033509209/05/02 03:35:31  5-MIN KMKG 050835Z 06004KT 10SM CLR 12/12 A3022 360 96 200 060/04 RMK AO2
14840KMKG MKG20020905034009209/05/02 03:40:31  5-MIN KMKG 050840Z 05004KT 10SM CLR 12/12 A3022 350 96 100 050/04 RMK AO2
14840KMKG MKG20020905034509209/05/02 03:45:31  5-MIN KMKG 050845Z 05004KT 10SM CLR 12/12 A3022 350 96 100 060/04 RMK AO2
14840KMKG MKG20020905035011509/05/02 03:50:31  5-MIN KMKG 050850Z 05004KT 10SM CLR 12/12 A3022 350 96 100 060/04 RMK AO2 SLP232 T01220117 53003
14840KMKG MKG20020905035511509/05/02 03:55:31  5-MIN KMKG 050855Z 04005KT 10SM CLR 12/12 A3022 350 96 100 050/05 RMK AO2 SLP233 T01220117 55002
14840KMKG MKG20020905040009209/05/02 04:00:31  5-MIN KMKG 050900Z 04003KT 10SM CLR 12/12 A3022 360 96 100 050/03 RMK AO2
14840KMKG MKG20020905040509209/05/02 04:05:31  5-MIN KMKG 050905Z 05003KT 10SM CLR 12/12 A3022 350 96 100 050/03 RMK AO2
14840KMKG MKG20020905041009209/05/02 04:10:31  5-MIN KMKG 050910Z 05003KT 10SM CLR 12/12 A3022 350 96 100 060/03 RMK AO2
14840KMKG MKG20020905041509209/05/02 04:15:31  5-MIN KMKG 050915Z 06004KT 10SM CLR 12/12 A3022 350 96 100 060/04 RMK AO2
14840KMKG MKG20020905042009209/05/02 04:20:31  5-MIN KMKG 050920Z 07004KT 10SM CLR 12/11 A3022 350 96 100 070/04 RMK AO2
14840KMKG MKG20020905042509209/05/02 04:25:31  5-MIN KMKG 050925Z 07003KT 10SM CLR 12/11 A3022 350 96 100 070/03 RMK AO2
14840KMKG MKG20020905043009209/05/02 04:30:31  5-MIN KMKG 050930Z 07003KT 10SM CLR 12/11 A3022 350 96 100 070/03 RMK AO2
14840KMKG MKG20020905043509109/05/02 04:35:31  5-MIN KMKG 050935Z 06004KT 10SM CLR 11/11 A3022 350 100 0 070/04 RMK AO2
14840KMKG MKG20020905044009109/05/02 04:40:31  5-MIN KMKG 050940Z 05004KT 10SM CLR 11/11 A3022 350 100 0 060/04 RMK AO2
14840KMKG MKG20020905044509209/05/02 04:45:31  5-MIN KMKG 050945Z 05005KT 10SM CLR 12/11 A3022 350 96 100 050/05 RMK AO2
14840KMKG MKG20020905045011009/05/02 04:50:31  5-MIN KMKG 050950Z 06005KT 10SM CLR 12/12 A3022 360 100 100 060/05 RMK AO2 SLP232 T01170117
14840KMKG MKG20020905045510909/05/02 04:55:31  5-MIN KMKG 050955Z 08005KT 10SM CLR 12/11 A3022 360 96 100 080/05 RMK AO2 SLP231 T01170111
14840KMKG MKG20020905050009209/05/02 05:00:31  5-MIN KMKG 051000Z 10003KT 10SM CLR 12/11 A3021 360 96 100 100/03 RMK AO2
14840KMKG MKG20020905050509209/05/02 05:05:31  5-MIN KMKG 051005Z 12003KT 10SM CLR 12/11 A3021 360 96 100 120/03 RMK AO2
14840KMKG MKG20020905051009109/05/02 05:10:31  5-MIN KMKG 051010Z 09003KT 10SM CLR 11/11 A3021 360 100 0 100/03 RMK AO2
14840KMKG MKG20020905051509209/05/02 05:15:31  5-MIN KMKG 051015Z 06003KT 10SM CLR 12/11 A3022 350 96 100 070/03 RMK AO2
14840KMKG MKG20020905052009109/05/02 05:20:31  5-MIN KMKG 051020Z 05004KT 10SM CLR 11/11 A3022 350 100 0 060/04 RMK AO2
14840KMKG MKG20020905052509209/05/02 05:25:31  5-MIN KMKG 051025Z 06004KT 10SM CLR 12/11 A3023 350 96 100 060/04 RMK AO2
14840KMKG MKG20020905053009209/05/02 05:30:31  5-MIN KMKG 051030Z 07004KT 10SM CLR 12/11 A3022 350 96 100 070/04 RMK AO2
14840KMKG MKG20020905053509209/05/02 05:35:31  5-MIN KMKG 051035Z 07004KT 10SM CLR 12/11 A3022 350 96 100 070/04 RMK AO2
14840KMKG MKG20020905054009209/05/02 05:40:31  5-MIN KMKG 051040Z 06003KT 10SM CLR 12/11 A3022 350 96 100 070/03 RMK AO2
14840KMKG MKG20020905054509109/05/02 05:45:31  5-MIN KMKG 051045Z 06004KT 10SM CLR 11/11 A3022 350 100 0 070/04 RMK AO2
14840KMKG MKG20020905055010709/05/02 05:50:31  5-MIN KMKG 051050Z 05005KT 10SM CLR 11/11 A3022 350 96 0 060/05 RMK AO2 SLP234 T01110106
14840KMKG MKG20020905055510909/05/02 05:55:31  5-MIN KMKG 051055Z 04003KT 10SM CLR 12/11 A3023 350 96 100 040/03 RMK AO2 SLP235 T01170111
14840KMKG MKG20020905060009209/05/02 06:00:31  5-MIN KMKG 051100Z 06004KT 10SM CLR 12/11 A3023 350 96 100 060/04 RMK AO2
14840KMKG MKG20020905060509209/05/02 06:05:31  5-MIN KMKG 051105Z 04003KT 10SM CLR 12/11 A3023 340 96 100 040/03 RMK AO2
14840KMKG MKG20020905061009209/05/02 06:10:31  5-MIN KMKG 051110Z 00000KT 10SM CLR 12/11 A3024 340 96 100 000/00 RMK AO2
14840KMKG MKG20020905061509209/05/02 06:15:31  5-MIN KMKG 051115Z 09003KT 10SM CLR 12/11 A3023 340 96 100 100/03 RMK AO2
14840KMKG MKG20020905062009109/05/02 06:20:31  5-MIN KMKG 051120Z 10003KT 10SM CLR 11/11 A3023 350 100 0 100/03 RMK AO2
14840KMKG MKG20020905062509209/05/02 06:25:31  5-MIN KMKG 051125Z 13003KT 10SM CLR 12/11 A3023 350 96 100 130/03 RMK AO2
14840KMKG MKG20020905063009209/05/02 06:30:31  5-MIN KMKG 051130Z 13004KT 10SM CLR 12/11 A3022 350 96 100 130/04 RMK AO2
14840KMKG MKG20020905063509209/05/02 06:35:31  5-MIN KMKG 051135Z 12003KT 10SM CLR 12/11 A3023 350 96 100 120/03 RMK AO2
14840KMKG MKG20020905064009209/05/02 06:40:31  5-MIN KMKG 051140Z 14004KT 10SM CLR 12/11 A3023 350 96 100 140/04 RMK AO2
14840KMKG MKG20020905064509209/05/02 06:45:31  5-MIN KMKG 051145Z 11003KT 10SM CLR 12/11 A3023 350 96 100 110/03 RMK AO2
14840KMKG MKG20020905065012709/05/02 06:50:31  5-MIN KMKG 051150Z 10003KT 10SM CLR 12/12 A3023 340 96 100 110/03 RMK AO2 SLP237 T01220117 10144 20111 55002
14840KMKG MKG20020905065512709/05/02 06:55:31  5-MIN KMKG 051155Z 10003KT 10SM CLR 12/12 A3023 340 96 100 110/03 RMK AO2 SLP237 T01220117 10144 20111 53004
14840KMKG MKG20020905070009209/05/02 07:00:31  5-MIN KMKG 051200Z 11003KT 10SM CLR 12/12 A3023 340 96 100 110/03 RMK AO2
14840KMKG MKG20020905084009209/05/02 08:40:31  5-MIN KMKG 051340Z 12005KT 10SM CLR 17/14 A3025 330 83 700 120/05 RMK AO2
14840KMKG MKG20020905084509209/05/02 08:45:31  5-MIN KMKG 051345Z VRB04KT 10SM CLR 17/14 A3025 320 83 700 VRB/04 RMK AO2
14840KMKG MKG20020905085010909/05/02 08:50:31  5-MIN KMKG 051350Z VRB03KT 10SM CLR 18/14 A3026 320 81 800 VRB/03 RMK AO2 SLP245 T01780144
14840KMKG MKG20020905085510909/05/02 08:55:31  5-MIN KMKG 051355Z 09004KT 10SM CLR 18/14 A3026 320 81 800 100/04 RMK AO2 SLP244 T01780144
14840KMKG MKG20020905090009209/05/02 09:00:31  5-MIN KMKG 051400Z 09005KT 10SM CLR 18/14 A3026 320 81 800 090/05 RMK AO2
14840KMKG MKG20020905090509209/05/02 09:05:31  5-MIN KMKG 051405Z VRB03KT 10SM CLR 18/14 A3027 310 78 800 VRB/03 RMK AO2
14840KMKG MKG20020905091009209/05/02 09:10:31  5-MIN KMKG 051410Z VRB05KT 10SM CLR 19/15 A3027 310 78 900 VRB/05 RMK AO2
14840KMKG MKG20020905091509209/05/02 09:15:31  5-MIN KMKG 051415Z 00000KT 10SM CLR 19/14 A3027 310 75 900 000/00 RMK AO2
14840KMKG MKG20020905092009209/05/02 09:20:31  5-MIN KMKG 051420Z 07003KT 10SM CLR 19/15 A3027 310 78 900 070/03 RMK AO2
14840KMKG MKG20020905092509209/05/02 09:25:31  5-MIN KMKG 051425Z 05005KT 10SM CLR 19/14 A3026 310 75 900 060/05 RMK AO2
14840KMKG MKG20020905093009209/05/02 09:30:31  5-MIN KMKG 051430Z 04004KT 10SM CLR 19/15 A3027 310 78 900 040/04 RMK AO2
14840KMKG MKG20020905093509209/05/02 09:35:31  5-MIN KMKG 051435Z 06005KT 10SM CLR 19/15 A3026 310 75 900 070/05 RMK AO2
14840KMKG MKG20020905094009309/05/02 09:40:31  5-MIN KMKG 051440Z VRB03KT 10SM CLR 19/15 A3026 320 75 1000 VRB/03 RMK AO2
14840KMKG MKG20020905094509309/05/02 09:45:31  5-MIN KMKG 051445Z 06004KT 10SM CLR 20/15 A3026 320 72 1000 060/04 RMK AO2
14840KMKG MKG20020905095011609/05/02 09:50:31  5-MIN KMKG 051450Z 11003KT 10SM CLR 20/15 A3026 320 72 1000 120/03 RMK AO2 SLP246 T02000150 53004
14840KMKG MKG20020905095511609/05/02 09:55:31  5-MIN KMKG 051455Z VRB04KT 10SM CLR 20/15 A3026 320 72 1000 VRB/04 RMK AO2 SLP245 T02000150 51009
14840KMKG MKG20020905100009309/05/02 10:00:31  5-MIN KMKG 051500Z 10003KT 10SM CLR 20/15 A3026 320 72 1000 100/03 RMK AO2
14840KMKG MKG20020905100509309/05/02 10:05:31  5-MIN KMKG 051505Z 00000KT 10SM CLR 21/15 A3025 320 70 1100 000/00 RMK AO2
14840KMKG MKG20020905101009309/05/02 10:10:31  5-MIN KMKG 051510Z 18003KT 10SM CLR 21/15 A3025 330 70 1100 190/03 RMK AO2
14840KMKG MKG20020905101509309/05/02 10:15:31  5-MIN KMKG 051515Z VRB03KT 10SM CLR 21/15 A3025 330 70 1100 VRB/03 RMK AO2
14840KMKG MKG20020905102009309/05/02 10:20:31  5-MIN KMKG 051520Z VRB03KT 10SM CLR 21/15 A3024 330 68 1200 VRB/03 RMK AO2
14840KMKG MKG20020905102509309/05/02 10:25:31  5-MIN KMKG 051525Z VRB03KT 10SM CLR 22/15 A3025 330 65 1200 VRB/03 RMK AO2
14840KMKG MKG20020905103009309/05/02 10:30:31  5-MIN KMKG 051530Z 13004KT 10SM CLR 22/15 A3024 330 65 1200 130/04 RMK AO2
14840KMKG MKG20020905103509309/05/02 10:35:31  5-MIN KMKG 051535Z VRB04KT 10SM CLR 21/14 A3024 340 65 1200 VRB/04 RMK AO2
14840KMKG MKG20020905104009309/05/02 10:40:31  5-MIN KMKG 051540Z VRB04KT 10SM CLR 21/14 A3024 340 67 1100 VRB/04 RMK AO2
14840KMKG MKG20020905104509509/05/02 10:45:31  5-MIN KMKG 051545Z 12005KT 10SM CLR 22/15 A3024 340 65 1200 120/05 RMK AO2 $
14840KMKG MKG20020905105011209/05/02 10:50:31  5-MIN KMKG 051550Z 00000KT 10SM CLR 22/14 A3024 340 63 1200 000/00 RMK AO2 SLP239 T02170144 $
14840KMKG MKG20020905105511209/05/02 10:55:31  5-MIN KMKG 051555Z 10005KT 10SM CLR 23/14 A3024 330 59 1400 100/05 RMK AO2 SLP239 T02280144 $
14840KMKG MKG20020905110009509/05/02 11:00:31  5-MIN KMKG 051600Z 12005KT 10SM CLR 22/14 A3024 330 59 1300 130/05 RMK AO2 $
14840KMKG MKG20020905110509509/05/02 11:05:31  5-MIN KMKG 051605Z 06008KT 10SM CLR 23/14 A3024 330 59 1400 070/08 RMK AO2 $
14840KMKG MKG20020905111009509/05/02 11:10:31  5-MIN KMKG 051610Z 05007KT 10SM CLR 23/13 A3024 330 55 1400 060/07 RMK AO2 $
14840KMKG MKG20020905111509509/05/02 11:15:31  5-MIN KMKG 051615Z 08005KT 10SM CLR 23/14 A3025 330 57 1400 080/05 RMK AO2 $
14840KMKG MKG20020905112009509/05/02 11:20:31  5-MIN KMKG 051620Z VRB04KT 10SM CLR 23/14 A3025 330 59 1400 VRB/04 RMK AO2 $
14840KMKG MKG20020905112509509/05/02 11:25:31  5-MIN KMKG 051625Z 02006KT 10SM CLR 23/14 A3025 330 57 1400 030/06 RMK AO2 $
14840KMKG MKG20020905113009509/05/02 11:30:31  5-MIN KMKG 051630Z 01005KT 10SM CLR 23/14 A3025 330 57 1400 010/05 RMK AO2 $
14840KMKG MKG20020905113511109/05/02 11:35:31  5-MIN KMKG 051635Z 05007KT 020V080 10SM CLR 23/14 A3025 330 57 1400 060/07 020V080 RMK AO2 $
14840KMKG MKG20020905114009509/05/02 11:40:31  5-MIN KMKG 051640Z 03007KT 10SM CLR 24/14 A3025 330 53 1500 030/07 RMK AO2 $
14840KMKG MKG20020905114509509/05/02 11:45:31  5-MIN KMKG 051645Z 04003KT 10SM CLR 23/13 A3025 330 53 1400 040/03 RMK AO2 $
14840KMKG MKG20020905115011209/05/02 11:50:31  5-MIN KMKG 051650Z 01006KT 10SM CLR 23/14 A3025 330 55 1400 020/06 RMK AO2 SLP241 T02330139 $
14840KMKG MKG20020905115511209/05/02 11:55:31  5-MIN KMKG 051655Z 05005KT 10SM CLR 23/14 A3025 330 55 1400 060/05 RMK AO2 SLP242 T02330139 $
14840KMKG MKG20020905120011109/05/02 12:00:31  5-MIN KMKG 051700Z 03007KT 350V070 10SM CLR 24/13 A3025 330 51 1500 030/07 350V070 RMK AO2 $
14840KMKG MKG20020905120509509/05/02 12:05:31  5-MIN KMKG 051705Z 07005KT 10SM CLR 24/13 A3025 330 49 1500 070/05 RMK AO2 $
14840KMKG MKG20020905121009509/05/02 12:10:31  5-MIN KMKG 051710Z 04005KT 10SM CLR 24/14 A3025 330 53 1500 040/05 RMK AO2 $
14840KMKG MKG20020905121509509/05/02 12:15:31  5-MIN KMKG 051715Z 06006KT 10SM CLR 24/12 A3025 330 46 1500 060/06 RMK AO2 $
14840KMKG MKG20020905122009509/05/02 12:20:31  5-MIN KMKG 051720Z VRB05KT 10SM CLR 24/11 A3025 330 44 1500 VRB/05 RMK AO2 $
14840KMKG MKG20020905122509509/05/02 12:25:31  5-MIN KMKG 051725Z 06007KT 10SM CLR 24/12 A3025 330 44 1500 060/07 RMK AO2 $
14840KMKG MKG20020905123009509/05/02 12:30:31  5-MIN KMKG 051730Z VRB04KT 10SM CLR 24/13 A3025 330 49 1500 VRB/04 RMK AO2 $
14840KMKG MKG20020905123509509/05/02 12:35:31  5-MIN KMKG 051735Z VRB03KT 10SM CLR 24/13 A3025 330 49 1500 VRB/03 RMK AO2 $
14840KMKG MKG20020905124009509/05/02 12:40:31  5-MIN KMKG 051740Z 03008KT 10SM CLR 24/13 A3025 330 49 1500 030/08 RMK AO2 $
14840KMKG MKG20020905124509509/05/02 12:45:31  5-MIN KMKG 051745Z 03008KT 10SM CLR 24/13 A3024 330 49 1500 030/08 RMK AO2 $
14840KMKG MKG20020905125013009/05/02 12:50:31  5-MIN KMKG 051750Z 35006KT 10SM CLR 24/14 A3024 340 51 1500 360/06 RMK AO2 SLP238 T02440139 10244 20122 51009 $
14840KMKG MKG20020905125513009/05/02 12:55:31  5-MIN KMKG 051755Z VRB06KT 10SM CLR 24/14 A3024 340 51 1600 VRB/06 RMK AO2 SLP237 T02440139 10244 20122 56007 $
14840KMKG MKG20020905130009509/05/02 13:00:31  5-MIN KMKG 051800Z VRB04KT 10SM CLR 24/14 A3023 340 51 1600 VRB/04 RMK AO2 $
14840KMKG MKG20020905130509509/05/02 13:05:31  5-MIN KMKG 051805Z 07005KT 10SM CLR 25/14 A3023 340 49 1600 070/05 RMK AO2 $
14840KMKG MKG20020905131009509/05/02 13:10:31  5-MIN KMKG 051810Z VRB04KT 10SM CLR 25/13 A3023 350 48 1600 VRB/04 RMK AO2 $
14840KMKG MKG20020905131509509/05/02 13:15:31  5-MIN KMKG 051815Z VRB03KT 10SM CLR 25/13 A3022 350 48 1600 VRB/03 RMK AO2 $
14840KMKG MKG20020905132009509/05/02 13:20:31  5-MIN KMKG 051820Z 04006KT 10SM CLR 26/14 A3022 350 48 1700 040/06 RMK AO2 $
14840KMKG MKG20020905132509509/05/02 13:25:31  5-MIN KMKG 051825Z VRB04KT 10SM CLR 25/14 A3022 350 49 1600 VRB/04 RMK AO2 $
14840KMKG MKG20020905133009509/05/02 13:30:31  5-MIN KMKG 051830Z 07008KT 10SM CLR 25/14 A3022 350 49 1600 070/08 RMK AO2 $
14840KMKG MKG20020905133509509/05/02 13:35:31  5-MIN KMKG 051835Z VRB05KT 10SM CLR 25/14 A3022 360 49 1600 VRB/05 RMK AO2 $
14840KMKG MKG20020905134009509/05/02 13:40:31  5-MIN KMKG 051840Z 03008KT 10SM CLR 26/14 A3022 360 49 1700 030/08 RMK AO2 $
14840KMKG MKG20020905134509509/05/02 13:45:31  5-MIN KMKG 051845Z VRB04KT 10SM CLR 26/14 A3022 360 49 1700 VRB/04 RMK AO2 $
14840KMKG MKG20020905135011209/05/02 13:50:31  5-MIN KMKG 051850Z VRB05KT 10SM CLR 25/14 A3022 360 49 1600 VRB/05 RMK AO2 SLP230 T02500139 $
14840KMKG MKG20020905135511209/05/02 13:55:31  5-MIN KMKG 051855Z 08006KT 10SM CLR 26/13 A3021 360 44 1700 080/06 RMK AO2 SLP229 T02560128 $
14840KMKG MKG20020905140009509/05/02 14:00:31  5-MIN KMKG 051900Z 11006KT 10SM CLR 26/12 A3021 360 43 1700 110/06 RMK AO2 $
14840KMKG MKG20020905140510109/05/02 14:05:31  5-MIN KMKG 051905Z 02007G15KT 10SM CLR 26/14 A3021 360 46 1800 020/07G15 RMK AO2 $
14840KMKG MKG20020905141010109/05/02 14:10:31  5-MIN KMKG 051910Z VRB03G15KT 10SM CLR 26/14 A3021 360 46 1800 VRB/03G15 RMK AO2 $
14840KMKG MKG20020905141509509/05/02 14:15:31  5-MIN KMKG 051915Z 36007KT 10SM CLR 27/14 A3021 360 46 1800 360/07 RMK AO2 $
14840KMKG MKG20020905142009509/05/02 14:20:31  5-MIN KMKG 051920Z 05007KT 10SM CLR 26/14 A3021 360 48 1800 060/07 RMK AO2 $
14840KMKG MKG20020905142509509/05/02 14:25:31  5-MIN KMKG 051925Z VRB04KT 10SM CLR 26/14 A3021 360 49 1700 VRB/04 RMK AO2 $
14840KMKG MKG20020905143009509/05/02 14:30:31  5-MIN KMKG 051930Z VRB05KT 10SM CLR 25/17 A3021 360 59 1600 VRB/05 RMK AO2 $
14840KMKG MKG20020905143509509/05/02 14:35:31  5-MIN KMKG 051935Z 29006KT 10SM CLR 24/17 A3021 360 61 1600 300/06 RMK AO2 $
14840KMKG MKG20020905144009509/05/02 14:40:31  5-MIN KMKG 051940Z VRB05KT 10SM CLR 26/17 A3021 370 57 1700 VRB/05 RMK AO2 $
14840KMKG MKG20020905144509309/05/02 14:45:31  5-MIN KMKG 051945Z VRB03KT 10SM CLR 25/17 A3020 370 59 1700 VRB/03 RMK AO2
14840KMKG MKG20020905145012609/05/02 14:50:31  5-MIN KMKG 051950Z 07007KT 320V100 10SM CLR 25/16 A3020 370 55 1700 070/07 320V100 RMK AO2 SLP226 T02500156
14840KMKG MKG20020905145511009/05/02 14:55:31  5-MIN KMKG 051955Z 04010KT 10SM CLR 26/13 A3020 370 44 1800 050/10 RMK AO2 SLP226 T02610133
14840KMKG MKG20020905150009309/05/02 15:00:31  5-MIN KMKG 052000Z 07006KT 10SM CLR 26/14 A3020 370 46 1800 070/06 RMK AO2
14840KMKG MKG20020905150509309/05/02 15:05:31  5-MIN KMKG 052005Z 01007KT 10SM CLR 26/14 A3020 370 46 1800 020/07 RMK AO2
14840KMKG MKG20020905151009309/05/02 15:10:31  5-MIN KMKG 052010Z 04011KT 10SM CLR 26/13 A3020 370 44 1800 050/11 RMK AO2
14840KMKG MKG20020905151509309/05/02 15:15:31  5-MIN KMKG 052015Z 06008KT 10SM CLR 26/14 A3020 370 46 1800 060/08 RMK AO2
14840KMKG MKG20020905152010909/05/02 15:20:31  5-MIN KMKG 052020Z 03007KT 350V060 10SM CLR 26/14 A3020 370 48 1700 040/07 350V060 RMK AO2
14840KMKG MKG20020905152509309/05/02 15:25:31  5-MIN KMKG 052025Z 05007KT 10SM CLR 26/14 A3020 370 46 1800 050/07 RMK AO2
14840KMKG MKG20020905153009309/05/02 15:30:31  5-MIN KMKG 052030Z 03008KT 10SM CLR 26/14 A3020 370 46 1800 040/08 RMK AO2
14840KMKG MKG20020905153509309/05/02 15:35:31  5-MIN KMKG 052035Z 02008KT 10SM CLR 26/13 A3020 370 44 1800 030/08 RMK AO2
14840KMKG MKG20020905154009309/05/02 15:40:31  5-MIN KMKG 052040Z VRB06KT 10SM CLR 26/13 A3020 370 44 1800 VRB/06 RMK AO2
14840KMKG MKG20020905154509309/05/02 15:45:31  5-MIN KMKG 052045Z 05008KT 10SM CLR 26/13 A3020 370 44 1800 060/08 RMK AO2
14840KMKG MKG20020905155011609/05/02 15:50:31  5-MIN KMKG 052050Z VRB06KT 10SM CLR 26/14 A3020 370 46 1800 VRB/06 RMK AO2 SLP225 T02610139 56007
14840KMKG MKG20020905155511609/05/02 15:55:31  5-MIN KMKG 052055Z 01008KT 10SM CLR 26/14 A3020 370 46 1800 010/08 RMK AO2 SLP225 T02610139 56011
14840KMKG MKG20020905160009309/05/02 16:00:31  5-MIN KMKG 052100Z 03007KT 10SM CLR 26/13 A3020 370 44 1800 040/07 RMK AO2
14840KMKG MKG20020905160509309/05/02 16:05:31  5-MIN KMKG 052105Z 05007KT 10SM CLR 26/13 A3020 370 44 1800 050/07 RMK AO2
14840KMKG MKG20020905161009309/05/02 16:10:31  5-MIN KMKG 052110Z 02006KT 10SM CLR 26/14 A3020 370 46 1800 020/06 RMK AO2
14840KMKG MKG20020905161509309/05/02 16:15:31  5-MIN KMKG 052115Z 02006KT 10SM CLR 26/14 A3020 380 46 1800 020/06 RMK AO2
14840KMKG MKG20020905162009309/05/02 16:20:31  5-MIN KMKG 052120Z VRB05KT 10SM CLR 26/16 A3020 380 55 1700 VRB/05 RMK AO2
14840KMKG MKG20020905162509309/05/02 16:25:31  5-MIN KMKG 052125Z 32005KT 10SM CLR 25/17 A3020 380 61 1700 320/05 RMK AO2
14840KMKG MKG20020905163009309/05/02 16:30:31  5-MIN KMKG 052130Z 30007KT 10SM CLR 24/17 A3020 380 63 1600 300/07 RMK AO2
14840KMKG MKG20020905163509309/05/02 16:35:31  5-MIN KMKG 052135Z 30008KT 10SM CLR 24/17 A3019 380 63 1600 310/08 RMK AO2
14840KMKG MKG20020905164009309/05/02 16:40:31  5-MIN KMKG 052140Z 31007KT 10SM CLR 24/17 A3019 380 63 1600 320/07 RMK AO2
14840KMKG MKG20020905164509309/05/02 16:45:31  5-MIN KMKG 052145Z 30007KT 10SM CLR 24/17 A3019 380 66 1500 300/07 RMK AO2
14840KMKG MKG20020905165011009/05/02 16:50:31  5-MIN KMKG 052150Z 29007KT 10SM CLR 24/17 A3019 380 66 1500 300/07 RMK AO2 SLP222 T02390172
14840KMKG MKG20020905165511009/05/02 16:55:31  5-MIN KMKG 052155Z 32008KT 10SM CLR 24/17 A3019 390 63 1600 320/08 RMK AO2 SLP221 T02440172
14840KMKG MKG20020905170009309/05/02 17:00:31  5-MIN KMKG 052200Z 30007KT 10SM CLR 24/17 A3019 380 66 1500 310/07 RMK AO2
14840KMKG MKG20020905170509309/05/02 17:05:31  5-MIN KMKG 052205Z 30007KT 10SM CLR 24/17 A3019 390 66 1500 300/07 RMK AO2
14840KMKG MKG20020905171009309/05/02 17:10:31  5-MIN KMKG 052210Z 30005KT 10SM CLR 24/17 A3018 390 66 1500 310/05 RMK AO2
14840KMKG MKG20020905171509309/05/02 17:15:31  5-MIN KMKG 052215Z 31006KT 10SM CLR 24/17 A3018 390 63 1600 310/06 RMK AO2
14840KMKG MKG20020905172009309/05/02 17:20:31  5-MIN KMKG 052220Z 30006KT 10SM CLR 24/17 A3018 390 63 1600 310/06 RMK AO2
14840KMKG MKG20020905172509309/05/02 17:25:31  5-MIN KMKG 052225Z 30006KT 10SM CLR 24/17 A3018 390 63 1600 310/06 RMK AO2
14840KMKG MKG20020905173009309/05/02 17:30:31  5-MIN KMKG 052230Z 30006KT 10SM CLR 24/17 A3018 390 66 1600 300/06 RMK AO2
14840KMKG MKG20020905173509309/05/02 17:35:31  5-MIN KMKG 052235Z 31006KT 10SM CLR 24/17 A3018 390 66 1600 310/06 RMK AO2
14840KMKG MKG20020905174009309/05/02 17:40:31  5-MIN KMKG 052240Z 30004KT 10SM CLR 24/17 A3018 390 66 1600 310/04 RMK AO2
14840KMKG MKG20020905174509309/05/02 17:45:31  5-MIN KMKG 052245Z 32006KT 10SM CLR 24/17 A3018 390 63 1600 320/06 RMK AO2
14840KMKG MKG20020905175011009/05/02 17:50:31  5-MIN KMKG 052250Z 31007KT 10SM CLR 24/17 A3018 390 63 1600 320/07 RMK AO2 SLP219 T02440172
14840KMKG MKG20020905175511009/05/02 17:55:31  5-MIN KMKG 052255Z 31007KT 10SM CLR 24/17 A3018 390 66 1600 320/07 RMK AO2 SLP219 T02390172
14840KMKG MKG20020905180009309/05/02 18:00:31  5-MIN KMKG 052300Z 32006KT 10SM CLR 24/17 A3018 390 66 1600 330/06 RMK AO2
14840KMKG MKG20020905180509309/05/02 18:05:31  5-MIN KMKG 052305Z 31005KT 10SM CLR 24/17 A3018 390 66 1600 320/05 RMK AO2
14840KMKG MKG20020905181009309/05/02 18:10:31  5-MIN KMKG 052310Z 35004KT 10SM CLR 24/17 A3018 390 66 1600 360/04 RMK AO2
14840KMKG MKG20020905181509309/05/02 18:15:31  5-MIN KMKG 052315Z 35003KT 10SM CLR 24/18 A3018 390 68 1600 350/03 RMK AO2
14840KMKG MKG20020905182009309/05/02 18:20:31  5-MIN KMKG 052320Z VRB05KT 10SM CLR 24/17 A3017 400 66 1600 VRB/05 RMK AO2
14840KMKG MKG20020905182509309/05/02 18:25:31  5-MIN KMKG 052325Z 05006KT 10SM CLR 24/16 A3017 400 57 1600 060/06 RMK AO2
14840KMKG MKG20020905183009309/05/02 18:30:31  5-MIN KMKG 052330Z 05004KT 10SM CLR 24/16 A3017 400 57 1600 060/04 RMK AO2
14840KMKG MKG20020905183509309/05/02 18:35:31  5-MIN KMKG 052335Z 06005KT 10SM CLR 24/16 A3017 400 57 1600 060/05 RMK AO2
14840KMKG MKG20020905184009309/05/02 18:40:31  5-MIN KMKG 052340Z 05004KT 10SM CLR 24/16 A3017 400 59 1600 050/04 RMK AO2
14840KMKG MKG20020905184509309/05/02 18:45:31  5-MIN KMKG 052345Z 06004KT 10SM CLR 24/16 A3017 400 59 1600 070/04 RMK AO2
14840KMKG MKG20020905185012809/05/02 18:50:31  5-MIN KMKG 052350Z 08004KT 10SM CLR 24/16 A3017 400 59 1600 080/04 RMK AO2 SLP214 T02390156 10267 20239 56011
14840KMKG MKG20020905185512809/05/02 18:55:31  5-MIN KMKG 052355Z 08004KT 10SM CLR 23/16 A3017 400 61 1500 090/04 RMK AO2 SLP215 T02330156 10267 20233 56012
14840KMKG MKG20020905190009309/05/02 19:00:31  5-MIN KMKG 060000Z 10004KT 10SM CLR 23/16 A3017 400 61 1500 100/04 RMK AO2
14840KMKG MKG20020905190509309/05/02 19:05:31  5-MIN KMKG 060005Z 09004KT 10SM CLR 23/16 A3017 400 63 1400 100/04 RMK AO2
14840KMKG MKG20020905191009309/05/02 19:10:31  5-MIN KMKG 060010Z 09004KT 10SM CLR 23/16 A3016 400 63 1400 100/04 RMK AO2
14840KMKG MKG20020905191509309/05/02 19:15:31  5-MIN KMKG 060015Z 09004KT 10SM CLR 22/15 A3016 410 63 1400 100/04 RMK AO2
14840KMKG MKG20020905192009309/05/02 19:20:31  5-MIN KMKG 060020Z 09004KT 10SM CLR 22/15 A3016 410 63 1400 100/04 RMK AO2
14840KMKG MKG20020905192509309/05/02 19:25:31  5-MIN KMKG 060025Z 09005KT 10SM CLR 22/15 A3017 400 65 1300 090/05 RMK AO2
14840KMKG MKG20020905193009309/05/02 19:30:31  5-MIN KMKG 060030Z 09003KT 10SM CLR 22/15 A3017 400 65 1300 090/03 RMK AO2
14840KMKG MKG20020905193509309/05/02 19:35:31  5-MIN KMKG 060035Z 09004KT 10SM CLR 22/15 A3017 400 65 1300 090/04 RMK AO2
14840KMKG MKG20020905194009309/05/02 19:40:31  5-MIN KMKG 060040Z 09004KT 10SM CLR 21/15 A3017 400 70 1200 090/04 RMK AO2
14840KMKG MKG20020905194509309/05/02 19:45:31  5-MIN KMKG 060045Z 09003KT 10SM CLR 21/15 A3017 400 70 1200 100/03 RMK AO2
14840KMKG MKG20020905195011009/05/02 19:50:31  5-MIN KMKG 060050Z 00000KT 10SM CLR 21/15 A3017 400 70 1200 000/00 RMK AO2 SLP214 T02060150
14840KMKG MKG20020905195511009/05/02 19:55:31  5-MIN KMKG 060055Z 00000KT 10SM CLR 21/15 A3017 400 70 1200 000/00 RMK AO2 SLP214 T02060150
14840KMKG MKG20020905200009309/05/02 20:00:31  5-MIN KMKG 060100Z 00000KT 10SM CLR 19/16 A3016 400 81 1100 000/00 RMK AO2
14840KMKG MKG20020905200509309/05/02 20:05:31  5-MIN KMKG 060105Z 00000KT 10SM CLR 19/16 A3016 400 78 1100 000/00 RMK AO2
14840KMKG MKG20020905201009309/05/02 20:10:31  5-MIN KMKG 060110Z 00000KT 10SM CLR 19/16 A3016 410 81 1100 000/00 RMK AO2
14840KMKG MKG20020905201509309/05/02 20:15:31  5-MIN KMKG 060115Z 10003KT 10SM CLR 19/16 A3016 410 78 1100 110/03 RMK AO2
14840KMKG MKG20020905202009309/05/02 20:20:31  5-MIN KMKG 060120Z 10004KT 10SM CLR 19/15 A3016 410 75 1100 110/04 RMK AO2
14840KMKG MKG20020905202509309/05/02 20:25:31  5-MIN KMKG 060125Z 11004KT 10SM CLR 19/15 A3016 410 75 1100 110/04 RMK AO2
14840KMKG MKG20020905203009309/05/02 20:30:31  5-MIN KMKG 060130Z 11003KT 10SM CLR 19/15 A3016 410 75 1100 120/03 RMK AO2
14840KMKG MKG20020905203509309/05/02 20:35:31  5-MIN KMKG 060135Z 11003KT 10SM CLR 19/15 A3016 410 75 1100 120/03 RMK AO2
14840KMKG MKG20020905204009309/05/02 20:40:31  5-MIN KMKG 060140Z 11003KT 10SM CLR 19/15 A3016 410 75 1100 110/03 RMK AO2
14840KMKG MKG20020905204509309/05/02 20:45:31  5-MIN KMKG 060145Z 11003KT 10SM CLR 19/15 A3016 410 75 1100 110/03 RMK AO2
14840KMKG MKG20020905205011009/05/02 20:50:31  5-MIN KMKG 060150Z 11003KT 10SM CLR 19/15 A3016 410 75 1100 110/03 RMK AO2 SLP212 T01940150
14840KMKG MKG20020905205511009/05/02 20:55:31  5-MIN KMKG 060155Z 11003KT 10SM CLR 19/15 A3016 410 78 1000 110/03 RMK AO2 SLP211 T01890150
14840KMKG MKG20020905210009309/05/02 21:00:31  5-MIN KMKG 060200Z 11003KT 10SM CLR 19/15 A3016 410 75 1100 110/03 RMK AO2
14840KMKG MKG20020905210509309/05/02 21:05:31  5-MIN KMKG 060205Z 10003KT 10SM CLR 19/15 A3016 410 75 1100 110/03 RMK AO2
14840KMKG MKG20020905211009309/05/02 21:10:31  5-MIN KMKG 060210Z 09003KT 10SM CLR 19/15 A3016 410 78 1000 100/03 RMK AO2
14840KMKG MKG20020905211509309/05/02 21:15:31  5-MIN KMKG 060215Z 10004KT 10SM CLR 19/15 A3016 410 78 1000 110/04 RMK AO2
14840KMKG MKG20020905212009209/05/02 21:20:31  5-MIN KMKG 060220Z 11004KT 10SM CLR 18/15 A3016 410 81 900 110/04 RMK AO2
14840KMKG MKG20020905212509209/05/02 21:25:31  5-MIN KMKG 060225Z 11005KT 10SM CLR 18/15 A3015 410 81 900 110/05 RMK AO2
14840KMKG MKG20020905213009209/05/02 21:30:31  5-MIN KMKG 060230Z 12005KT 10SM CLR 18/15 A3015 420 81 900 120/05 RMK AO2
14840KMKG MKG20020905213509209/05/02 21:35:31  5-MIN KMKG 060235Z 11005KT 10SM CLR 18/15 A3015 420 83 900 120/05 RMK AO2
14840KMKG MKG20020905214009209/05/02 21:40:31  5-MIN KMKG 060240Z 11005KT 10SM CLR 18/15 A3015 420 83 900 110/05 RMK AO2
14840KMKG MKG20020905214509209/05/02 21:45:31  5-MIN KMKG 060245Z 11003KT 10SM CLR 18/15 A3015 410 83 900 110/03 RMK AO2
14840KMKG MKG20020905215011509/05/02 21:50:31  5-MIN KMKG 060250Z 10003KT 10SM CLR 18/15 A3016 410 83 900 100/03 RMK AO2 SLP211 T01780150 56012
14840KMKG MKG20020905215511509/05/02 21:55:31  5-MIN KMKG 060255Z 09003KT 10SM CLR 18/15 A3016 410 81 900 100/03 RMK AO2 SLP210 T01830150 57004
14840KMKG MKG20020905220009209/05/02 22:00:31  5-MIN KMKG 060300Z 00000KT 10SM CLR 18/15 A3016 410 83 900 000/00 RMK AO2
14840KMKG MKG20020905220509209/05/02 22:05:31  5-MIN KMKG 060305Z 09004KT 10SM CLR 18/14 A3016 410 81 900 100/04 RMK AO2
14840KMKG MKG20020905221009209/05/02 22:10:31  5-MIN KMKG 060310Z 10004KT 10SM CLR 18/15 A3016 410 81 900 100/04 RMK AO2
14840KMKG MKG20020905221509209/05/02 22:15:31  5-MIN KMKG 060315Z 09004KT 10SM CLR 18/15 A3017 400 81 900 100/04 RMK AO2
14840KMKG MKG20020905222009209/05/02 22:20:31  5-MIN KMKG 060320Z 10004KT 10SM CLR 18/15 A3016 400 83 900 100/04 RMK AO2
14840KMKG MKG20020905222509209/05/02 22:25:31  5-MIN KMKG 060325Z 11003KT 10SM CLR 18/14 A3016 410 81 900 120/03 RMK AO2
14840KMKG MKG20020905223009209/05/02 22:30:31  5-MIN KMKG 060330Z 11004KT 10SM CLR 17/14 A3016 410 83 800 110/04 RMK AO2
14840KMKG MKG20020905223509209/05/02 22:35:31  5-MIN KMKG 060335Z 10004KT 10SM CLR 17/14 A3016 410 86 700 110/04 RMK AO2
14840KMKG MKG20020905224009209/05/02 22:40:31  5-MIN KMKG 060340Z 10004KT 10SM CLR 17/14 A3016 410 86 700 100/04 RMK AO2
14840KMKG MKG20020905224509209/05/02 22:45:31  5-MIN KMKG 060345Z 10003KT 10SM CLR 17/14 A3016 410 86 700 100/03 RMK AO2
14840KMKG MKG20020905225010909/05/02 22:50:31  5-MIN KMKG 060350Z 09003KT 10SM CLR 17/14 A3016 410 86 700 100/03 RMK AO2 SLP211 T01670144
14840KMKG MKG20020905225510909/05/02 22:55:31  5-MIN KMKG 060355Z 00000KT 10SM CLR 17/14 A3016 410 86 700 000/00 RMK AO2 SLP212 T01670144
14840KMKG MKG20020905230009209/05/02 23:00:31  5-MIN KMKG 060400Z 00000KT 10SM CLR 16/14 A3016 410 90 700 000/00 RMK AO2
14840KMKG MKG20020905230509209/05/02 23:05:31  5-MIN KMKG 060405Z 00000KT 10SM CLR 16/14 A3016 410 90 700 000/00 RMK AO2
14840KMKG MKG20020905231009209/05/02 23:10:31  5-MIN KMKG 060410Z 00000KT 10SM CLR 17/14 A3016 410 86 700 000/00 RMK AO2
14840KMKG MKG20020905231509209/05/02 23:15:31  5-MIN KMKG 060415Z 00000KT 10SM CLR 17/14 A3016 410 86 700 000/00 RMK AO2
14840KMKG MKG20020905232009209/05/02 23:20:31  5-MIN KMKG 060420Z 09003KT 10SM CLR 17/14 A3016 410 86 700 090/03 RMK AO2
14840KMKG MKG20020905232509209/05/02 23:25:31  5-MIN KMKG 060425Z 09004KT 10SM CLR 16/14 A3016 410 90 700 100/04 RMK AO2
14840KMKG MKG20020905233009209/05/02 23:30:31  5-MIN KMKG 060430Z 10004KT 10SM CLR 16/14 A3016 410 86 700 100/04 RMK AO2
14840KMKG MKG20020905233509209/05/02 23:35:31  5-MIN KMKG 060435Z 11004KT 10SM CLR 16/14 A3016 410 93 600 110/04 RMK AO2
14840KMKG MKG20020905234009209/05/02 23:40:31  5-MIN KMKG 060440Z 11004KT 10SM CLR 16/14 A3015 410 90 700 120/04 RMK AO2
14840KMKG MKG20020905234509209/05/02 23:45:31  5-MIN KMKG 060445Z 12005KT 10SM CLR 16/14 A3015 420 90 700 120/05 RMK AO2
14840KMKG MKG20020905235011909/05/02 23:50:31  5-MIN KMKG 060450Z 12005KT 10SM CLR 16/14 A3015 410 90 700 120/05 RMK AO2 SLP209 T01610144 402670111
14840KMKG MKG20020905235511909/05/02 23:55:31  5-MIN KMKG 060455Z 12005KT 10SM CLR 16/14 A3016 410 90 700 120/05 RMK AO2 SLP209 T01610144 402670111
14840KMKG MKG20020906000009209/06/02 00:00:31  5-MIN KMKG 060500Z 13004KT 10SM CLR 16/14 A3016 410 90 700 130/04 RMK AO2
14840KMKG MKG20020906000509209/06/02 00:05:31  5-MIN KMKG 060505Z 13005KT 10SM CLR 16/14 A3015 420 90 700 140/05 RMK AO2
14840KMKG MKG20020906001009209/06/02 00:10:31  5-MIN KMKG 060510Z 13007KT 10SM CLR 16/14 A3015 420 90 700 130/07 RMK AO2
14840KMKG MKG20020906001509209/06/02 00:15:31  5-MIN KMKG 060515Z 13006KT 10SM CLR 16/14 A3015 420 90 700 140/06 RMK AO2
14840KMKG MKG20020906002009209/06/02 00:20:31  5-MIN KMKG 060520Z 12006KT 10SM CLR 16/14 A3015 420 90 700 120/06 RMK AO2
14840KMKG MKG20020906002509209/06/02 00:25:31  5-MIN KMKG 060525Z 11006KT 10SM CLR 16/14 A3015 420 90 600 120/06 RMK AO2
14840KMKG MKG20020906003009209/06/02 00:30:31  5-MIN KMKG 060530Z 12006KT 10SM CLR 15/14 A3015 420 93 600 120/06 RMK AO2
14840KMKG MKG20020906003509209/06/02 00:35:31  5-MIN KMKG 060535Z 13006KT 10SM CLR 15/14 A3015 420 96 600 130/06 RMK AO2
14840KMKG MKG20020906004009209/06/02 00:40:31  5-MIN KMKG 060540Z 13005KT 10SM CLR 16/14 A3015 420 93 600 130/05 RMK AO2
14840KMKG MKG20020906004509209/06/02 00:45:31  5-MIN KMKG 060545Z 12004KT 10SM CLR 16/14 A3015 420 93 600 130/04 RMK AO2
14840KMKG MKG20020906005012709/06/02 00:50:31  5-MIN KMKG 060550Z 11004KT 10SM CLR 16/14 A3015 420 93 600 120/04 RMK AO2 SLP208 T01560144 10233 20150 57004
14840KMKG MKG20020906005512709/06/02 00:55:31  5-MIN KMKG 060555Z 11004KT 10SM CLR 16/14 A3015 420 93 600 110/04 RMK AO2 SLP208 T01560144 10233 20150 58002
14840KMKG MKG20020906010009209/06/02 01:00:31  5-MIN KMKG 060600Z 12004KT 10SM CLR 16/14 A3015 420 93 600 120/04 RMK AO2
14840KMKG MKG20020906010509209/06/02 01:05:31  5-MIN KMKG 060605Z 12005KT 10SM CLR 15/14 A3015 420 93 600 120/05 RMK AO2
14840KMKG MKG20020906011009209/06/02 01:10:31  5-MIN KMKG 060610Z 13005KT 10SM CLR 15/14 A3015 420 93 600 130/05 RMK AO2
14840KMKG MKG20020906011509209/06/02 01:15:31  5-MIN KMKG 060615Z 13006KT 10SM CLR 15/14 A3015 420 96 600 130/06 RMK AO2
14840KMKG MKG20020906012009209/06/02 01:20:31  5-MIN KMKG 060620Z 13006KT 10SM CLR 15/14 A3015 420 96 600 130/06 RMK AO2
14840KMKG MKG20020906012509209/06/02 01:25:31  5-MIN KMKG 060625Z 13005KT 10SM CLR 15/14 A3015 420 96 600 130/05 RMK AO2
14840KMKG MKG20020906013009209/06/02 01:30:31  5-MIN KMKG 060630Z 13005KT 10SM CLR 15/14 A3015 420 96 600 130/05 RMK AO2
14840KMKG MKG20020906013509209/06/02 01:35:31  5-MIN KMKG 060635Z 13005KT 10SM CLR 15/14 A3015 420 96 600 140/05 RMK AO2
14840KMKG MKG20020906014009209/06/02 01:40:31  5-MIN KMKG 060640Z 13004KT 10SM CLR 15/14 A3014 420 96 600 140/04 RMK AO2
14840KMKG MKG20020906014509209/06/02 01:45:31  5-MIN KMKG 060645Z 12004KT 10SM CLR 15/14 A3015 420 96 600 130/04 RMK AO2
14840KMKG MKG20020906015010909/06/02 01:50:31  5-MIN KMKG 060650Z 11004KT 10SM CLR 15/14 A3015 420 96 600 120/04 RMK AO2 SLP207 T01500144
14840KMKG MKG20020906015510909/06/02 01:55:31  5-MIN KMKG 060655Z 12004KT 10SM CLR 15/14 A3015 420 96 600 120/04 RMK AO2 SLP206 T01500144
14840KMKG MKG20020906020009209/06/02 02:00:31  5-MIN KMKG 060700Z 11005KT 10SM CLR 15/14 A3015 420 93 600 120/05 RMK AO2
14840KMKG MKG20020906020509209/06/02 02:05:31  5-MIN KMKG 060705Z 12006KT 10SM CLR 14/14 A3014 420 96 500 120/06 RMK AO2
14840KMKG MKG20020906021009209/06/02 02:10:31  5-MIN KMKG 060710Z 12006KT 10SM CLR 14/14 A3015 420 96 500 130/06 RMK AO2
14840KMKG MKG20020906021509209/06/02 02:15:31  5-MIN KMKG 060715Z 12007KT 10SM CLR 14/14 A3014 420 96 500 120/07 RMK AO2
14840KMKG MKG20020906022009209/06/02 02:20:31  5-MIN KMKG 060720Z 12007KT 10SM CLR 14/14 A3015 420 96 500 130/07 RMK AO2
14840KMKG MKG20020906022509209/06/02 02:25:31  5-MIN KMKG 060725Z 13006KT 10SM CLR 15/14 A3015 420 96 600 130/06 RMK AO2
14840KMKG MKG20020906023009209/06/02 02:30:31  5-MIN KMKG 060730Z 12006KT 10SM CLR 15/14 A3014 420 96 600 120/06 RMK AO2
14840KMKG MKG20020906023509309/06/02 02:35:31  5-MIN KMKG 060735Z 12006KT 10SM CLR 14/14 A3014 430 100 500 120/06 RMK AO2
14840KMKG MKG20020906024009309/06/02 02:40:31  5-MIN KMKG 060740Z 12007KT 10SM CLR 14/14 A3014 430 100 500 130/07 RMK AO2
14840KMKG MKG20020906024509309/06/02 02:45:31  5-MIN KMKG 060745Z 13006KT 10SM CLR 14/14 A3014 430 100 500 130/06 RMK AO2
14840KMKG MKG20020906025010809/06/02 02:50:31  5-MIN KMKG 060750Z 12006KT 9SM CLR 15/14 A3014 430 96 600 130/06 RMK AO2 SLP203 T01500144
14840KMKG MKG20020906025510909/06/02 02:55:31  5-MIN KMKG 060755Z 12005KT 9SM CLR 14/14 A3014 430 100 500 130/05 RMK AO2 SLP204 T01440144
14840KMKG MKG20020906030009109/06/02 03:00:31  5-MIN KMKG 060800Z 12005KT 9SM CLR 14/14 A3014 430 96 500 120/05 RMK AO2
14840KMKG MKG20020906030509109/06/02 03:05:31  5-MIN KMKG 060805Z 12005KT 9SM CLR 14/14 A3014 430 96 500 120/05 RMK AO2
14840KMKG MKG20020906031009209/06/02 03:10:31  5-MIN KMKG 060810Z 11004KT 10SM CLR 14/14 A3014 430 96 500 110/04 RMK AO2
14840KMKG MKG20020906031509209/06/02 03:15:31  5-MIN KMKG 060815Z 10004KT 10SM CLR 14/14 A3014 430 96 500 100/04 RMK AO2
14840KMKG MKG20020906032009209/06/02 03:20:31  5-MIN KMKG 060820Z 09003KT 10SM CLR 15/14 A3014 430 96 600 090/03 RMK AO2
14840KMKG MKG20020906032509109/06/02 03:25:31  5-MIN KMKG 060825Z 09004KT 9SM CLR 14/14 A3014 430 96 500 090/04 RMK AO2
14840KMKG MKG20020906033009109/06/02 03:30:31  5-MIN KMKG 060830Z 07004KT 9SM CLR 14/14 A3015 420 96 500 080/04 RMK AO2
14840KMKG MKG20020906033509109/06/02 03:35:31  5-MIN KMKG 060835Z 05004KT 8SM CLR 14/14 A3015 420 96 500 060/04 RMK AO2
14840KMKG MKG20020906034009109/06/02 03:40:31  5-MIN KMKG 060840Z 05004KT 8SM CLR 15/14 A3015 420 96 600 060/04 RMK AO2
14840KMKG MKG20020906034509109/06/02 03:45:31  5-MIN KMKG 060845Z 06005KT 8SM CLR 14/14 A3015 420 96 500 060/05 RMK AO2
14840KMKG MKG20020906035011409/06/02 03:50:31  5-MIN KMKG 060850Z 05005KT 8SM CLR 14/14 A3016 410 96 500 060/05 RMK AO2 SLP210 T01440139 58002
14840KMKG MKG20020906035511409/06/02 03:55:31  5-MIN KMKG 060855Z 05005KT 7SM CLR 14/14 A3016 410 96 500 060/05 RMK AO2 SLP211 T01440139 53003
14840KMKG MKG20020906040009409/06/02 04:00:31  5-MIN KMKG 060900Z 05005KT 6SM BR CLR 14/14 A3016 410 96 500 060/05 RMK AO2
14840KMKG MKG20020906040509409/06/02 04:05:31  5-MIN KMKG 060905Z 05004KT 6SM BR CLR 14/14 A3016 410 96 500 060/04 RMK AO2
14840KMKG MKG20020906041009409/06/02 04:10:31  5-MIN KMKG 060910Z 06004KT 6SM BR CLR 14/14 A3016 410 96 500 060/04 RMK AO2
14840KMKG MKG20020906041509409/06/02 04:15:31  5-MIN KMKG 060915Z 06004KT 6SM BR CLR 14/14 A3016 410 96 500 060/04 RMK AO2
14840KMKG MKG20020906042009409/06/02 04:20:31  5-MIN KMKG 060920Z 07005KT 6SM BR CLR 14/14 A3016 410 96 500 070/05 RMK AO2
14840KMKG MKG20020906042509409/06/02 04:25:31  5-MIN KMKG 060925Z 08005KT 6SM BR CLR 14/13 A3016 410 96 400 080/05 RMK AO2
14840KMKG MKG20020906043009509/06/02 04:30:31  5-MIN KMKG 060930Z 09004KT 6SM BR CLR 14/14 A3016 410 100 400 090/04 RMK AO2
14840KMKG MKG20020906043509509/06/02 04:35:31  5-MIN KMKG 060935Z 10004KT 6SM BR CLR 14/14 A3016 410 100 400 110/04 RMK AO2
14840KMKG MKG20020906044009509/06/02 04:40:31  5-MIN KMKG 060940Z 11006KT 6SM BR CLR 14/14 A3015 420 100 400 120/06 RMK AO2
14840KMKG MKG20020906044509509/06/02 04:45:31  5-MIN KMKG 060945Z 12006KT 5SM BR CLR 14/14 A3015 420 100 400 130/06 RMK AO2
14840KMKG MKG20020906045011209/06/02 04:50:31  5-MIN KMKG 060950Z 12006KT 5SM BR CLR 14/14 A3015 420 100 400 120/06 RMK AO2 SLP209 T01390139
14840KMKG MKG20020906045511209/06/02 04:55:31  5-MIN KMKG 060955Z 11005KT 5SM BR CLR 14/14 A3015 420 100 400 110/05 RMK AO2 SLP208 T01390139
14840KMKG MKG20020906050009509/06/02 05:00:31  5-MIN KMKG 061000Z 08004KT 5SM BR CLR 14/14 A3015 420 100 400 090/04 RMK AO2
14840KMKG MKG20020906050509409/06/02 05:05:31  5-MIN KMKG 061005Z 07003KT 5SM BR CLR 14/13 A3015 410 96 400 070/03 RMK AO2
14840KMKG MKG20020906051009509/06/02 05:10:31  5-MIN KMKG 061010Z 08004KT 5SM BR CLR 14/14 A3016 410 100 400 080/04 RMK AO2
14840KMKG MKG20020906051509509/06/02 05:15:31  5-MIN KMKG 061015Z 09005KT 6SM BR CLR 14/14 A3015 420 100 400 100/05 RMK AO2
14840KMKG MKG20020906052009509/06/02 05:20:31  5-MIN KMKG 061020Z 11004KT 6SM BR CLR 14/14 A3015 420 100 400 110/04 RMK AO2
14840KMKG MKG20020906052509409/06/02 05:25:31  5-MIN KMKG 061025Z 10004KT 5SM BR CLR 14/13 A3015 420 96 400 100/04 RMK AO2
14840KMKG MKG20020906053009509/06/02 05:30:31  5-MIN KMKG 061030Z 08003KT 5SM BR CLR 13/13 A3015 420 100 400 080/03 RMK AO2
14840KMKG MKG20020906053509509/06/02 05:35:31  5-MIN KMKG 061035Z 07003KT 5SM BR CLR 13/13 A3015 410 100 400 070/03 RMK AO2
14840KMKG MKG20020906054009409/06/02 05:40:31  5-MIN KMKG 061040Z 07003KT 5SM BR CLR 14/13 A3016 410 96 400 080/03 RMK AO2
14840KMKG MKG20020906054509409/06/02 05:45:31  5-MIN KMKG 061045Z 09003KT 5SM BR CLR 14/13 A3016 410 96 400 090/03 RMK AO2
14840KMKG MKG20020906055011209/06/02 05:50:31  5-MIN KMKG 061050Z 10004KT 5SM BR CLR 13/13 A3016 410 100 400 100/04 RMK AO2 SLP211 T01330133
14840KMKG MKG20020906055511209/06/02 05:55:31  5-MIN KMKG 061055Z 10004KT 5SM BR CLR 13/13 A3016 410 100 400 110/04 RMK AO2 SLP211 T01330133
14840KMKG MKG20020906060009509/06/02 06:00:31  5-MIN KMKG 061100Z 11005KT 5SM BR CLR 13/13 A3016 410 100 400 110/05 RMK AO2
14840KMKG MKG20020906060509509/06/02 06:05:31  5-MIN KMKG 061105Z 11005KT 4SM BR CLR 13/13 A3016 410 100 300 120/05 RMK AO2
14840KMKG MKG20020906061009509/06/02 06:10:31  5-MIN KMKG 061110Z 11005KT 4SM BR CLR 13/13 A3016 410 100 300 110/05 RMK AO2
14840KMKG MKG20020906061509509/06/02 06:15:31  5-MIN KMKG 061115Z 10004KT 3SM BR CLR 13/13 A3016 410 100 300 100/04 RMK AO2
14840KMKG MKG20020906062009509/06/02 06:20:31  5-MIN KMKG 061120Z 09003KT 3SM BR CLR 13/13 A3017 400 100 300 090/03 RMK AO2
14840KMKG MKG20020906062509409/06/02 06:25:31  5-MIN KMKG 061125Z 10004KT 4SM BR CLR 14/13 A3017 400 96 400 110/04 RMK AO2
14840KMKG MKG20020906063009509/06/02 06:30:31  5-MIN KMKG 061130Z 11004KT 4SM BR CLR 13/13 A3017 400 100 300 120/04 RMK AO2
14840KMKG MKG20020906063509509/06/02 06:35:31  5-MIN KMKG 061135Z 12004KT 3SM BR CLR 13/13 A3017 400 100 300 120/04 RMK AO2
14840KMKG MKG20020906064009409/06/02 06:40:31  5-MIN KMKG 061140Z 12003KT 3SM BR CLR 14/13 A3017 400 96 400 120/03 RMK AO2
14840KMKG MKG20020906064509409/06/02 06:45:31  5-MIN KMKG 061145Z 12004KT 3SM BR CLR 14/13 A3017 400 96 400 120/04 RMK AO2
14840KMKG MKG20020906065012909/06/02 06:50:31  5-MIN KMKG 061150Z 10004KT 3SM BR CLR 14/13 A3018 390 96 400 110/04 RMK AO2 SLP217 T01390133 10156 20133 53003
14840KMKG MKG20020906065513009/06/02 06:55:31  5-MIN KMKG 061155Z 09003KT 3SM BR CLR 14/14 A3018 390 100 400 090/03 RMK AO2 SLP218 T01390139 10156 20133 53006
14840KMKG MKG20020906070009409/06/02 07:00:31  5-MIN KMKG 061200Z 10003KT 3SM BR CLR 14/14 A3018 390 96 500 100/03 RMK AO2
14840KMKG MKG20020906070509409/06/02 07:05:31  5-MIN KMKG 061205Z 11004KT 4SM BR CLR 14/14 A3018 400 96 500 110/04 RMK AO2
14840KMKG MKG20020906071009409/06/02 07:10:31  5-MIN KMKG 061210Z 11005KT 4SM BR CLR 14/14 A3018 400 96 500 110/05 RMK AO2
14840KMKG MKG20020906071509409/06/02 07:15:31  5-MIN KMKG 061215Z 12004KT 4SM BR CLR 15/14 A3018 390 96 500 120/04 RMK AO2
14840KMKG MKG20020906072009409/06/02 07:20:31  5-MIN KMKG 061220Z 12006KT 4SM BR CLR 15/14 A3018 400 96 500 120/06 RMK AO2
14840KMKG MKG20020906072509409/06/02 07:25:31  5-MIN KMKG 061225Z 12006KT 4SM BR CLR 15/14 A3018 390 96 500 130/06 RMK AO2
14840KMKG MKG20020906073009409/06/02 07:30:31  5-MIN KMKG 061230Z 12005KT 4SM BR CLR 16/14 A3018 390 93 600 120/05 RMK AO2
14840KMKG MKG20020906073509409/06/02 07:35:31  5-MIN KMKG 061235Z 12006KT 5SM BR CLR 16/15 A3018 390 96 600 130/06 RMK AO2
14840KMKG MKG20020906074009409/06/02 07:40:31  5-MIN KMKG 061240Z 12006KT 5SM BR CLR 16/15 A3018 390 96 600 120/06 RMK AO2
14840KMKG MKG20020906074509409/06/02 07:45:31  5-MIN KMKG 061245Z 13005KT 5SM BR CLR 16/15 A3018 400 96 600 130/05 RMK AO2
14840KMKG MKG20020906075011109/06/02 07:50:31  5-MIN KMKG 061250Z 12006KT 6SM BR CLR 16/15 A3018 390 93 700 130/06 RMK AO2 SLP218 T01610150
14840KMKG MKG20020906075511109/06/02 07:55:31  5-MIN KMKG 061255Z 12007KT 6SM BR CLR 17/15 A3018 390 90 700 120/07 RMK AO2 SLP217 T01670150
14840KMKG MKG20020906080009109/06/02 08:00:31  5-MIN KMKG 061300Z 12007KT 7SM CLR 17/16 A3017 400 93 700 130/07 RMK AO2
14840KMKG MKG20020906080509109/06/02 08:05:31  5-MIN KMKG 061305Z 13005KT 7SM CLR 17/16 A3017 400 90 800 130/05 RMK AO2
14840KMKG MKG20020906081009109/06/02 08:10:31  5-MIN KMKG 061310Z 14005KT 8SM CLR 18/16 A3017 400 87 900 140/05 RMK AO2
14840KMKG MKG20020906081509109/06/02 08:15:31  5-MIN KMKG 061315Z 12004KT 9SM CLR 18/16 A3018 390 87 900 130/04 RMK AO2
14840KMKG MKG20020906082009109/06/02 08:20:31  5-MIN KMKG 061320Z 14004KT 9SM CLR 18/16 A3018 390 84 900 140/04 RMK AO2
14840KMKG MKG20020906082509209/06/02 08:25:31  5-MIN KMKG 061325Z 14006KT 10SM CLR 18/16 A3018 390 84 900 140/06 RMK AO2
14840KMKG MKG20020906083009309/06/02 08:30:31  5-MIN KMKG 061330Z 13007KT 10SM CLR 19/16 A3018 390 81 1000 140/07 RMK AO2
14840KMKG MKG20020906083509309/06/02 08:35:31  5-MIN KMKG 061335Z 15006KT 10SM CLR 19/16 A3018 390 78 1000 150/06 RMK AO2
14840KMKG MKG20020906084009309/06/02 08:40:31  5-MIN KMKG 061340Z 15005KT 10SM CLR 19/16 A3018 390 78 1000 160/05 RMK AO2
14840KMKG MKG20020906084509309/06/02 08:45:31  5-MIN KMKG 061345Z 15008KT 10SM CLR 20/16 A3018 390 78 1100 160/08 RMK AO2
14840KMKG MKG20020906085011209/06/02 08:50:31  5-MIN KMKG 061350Z 15010KT 10SM CLR 21/16 A3018 390 75 1200 150/10 RMK AO2 SLP217 T02060161 $
14840KMKG MKG20020906085511209/06/02 08:55:31  5-MIN KMKG 061355Z 16011KT 10SM CLR 21/16 A3018 390 75 1200 160/11 RMK AO2 SLP216 T02060161 $
14840KMKG MKG20020906090009009/06/02 09:00:31  5-MIN KMKG 061400Z 14007KT CLR 21/16 A3018 390 75 1200 150/07 RMK AO2 $
14840KMKG MKG20020906090509509/06/02 09:05:31  5-MIN KMKG 061405Z 15006KT 10SM CLR 21/16 A3018 390 75 1200 160/06 RMK AO2 $
14840KMKG MKG20020906091009509/06/02 09:10:31  5-MIN KMKG 061410Z 16008KT 10SM CLR 21/16 A3018 390 73 1200 170/08 RMK AO2 $
14840KMKG MKG20020906091509509/06/02 09:15:31  5-MIN KMKG 061415Z 15009KT 10SM CLR 21/17 A3018 400 75 1200 150/09 RMK AO2 $
14840KMKG MKG20020906092009509/06/02 09:20:31  5-MIN KMKG 061420Z 15009KT 10SM CLR 22/17 A3017 400 73 1300 150/09 RMK AO2 $
14840KMKG MKG20020906092509509/06/02 09:25:31  5-MIN KMKG 061425Z 15008KT 10SM CLR 22/17 A3017 400 73 1300 160/08 RMK AO2 $
14840KMKG MKG20020906093009509/06/02 09:30:31  5-MIN KMKG 061430Z 14009KT 10SM CLR 22/17 A3017 400 73 1300 140/09 RMK AO2 $
14840KMKG MKG20020906093511109/06/02 09:35:31  5-MIN KMKG 061435Z 14008KT 120V190 10SM CLR 22/17 A3017 400 70 1400 150/08 120V190 RMK AO2 $
14840KMKG MKG20020906094009509/06/02 09:40:31  5-MIN KMKG 061440Z 14008KT 10SM CLR 22/17 A3017 400 70 1400 140/08 RMK AO2 $
14840KMKG MKG20020906094509509/06/02 09:45:31  5-MIN KMKG 061445Z 14009KT 10SM CLR 22/17 A3017 400 70 1400 150/09 RMK AO2 $
14840KMKG MKG20020906095011809/06/02 09:50:31  5-MIN KMKG 061450Z 16010KT 10SM CLR 22/17 A3017 400 70 1400 170/10 RMK AO2 SLP214 T02220167 53006 $
14840KMKG MKG20020906095511809/06/02 09:55:31  5-MIN KMKG 061455Z 16012KT 10SM CLR 23/17 A3017 400 68 1400 160/12 RMK AO2 SLP216 T02280167 58001 $
14840KMKG MKG20020906100009509/06/02 10:00:31  5-MIN KMKG 061500Z 15009KT 10SM CLR 23/17 A3017 400 68 1400 150/09 RMK AO2 $
14840KMKG MKG20020906100509509/06/02 10:05:31  5-MIN KMKG 061505Z 15009KT 10SM CLR 23/17 A3018 390 68 1400 160/09 RMK AO2 $
14840KMKG MKG20020906101009509/06/02 10:10:31  5-MIN KMKG 061510Z 16005KT 10SM CLR 23/17 A3018 390 68 1400 160/05 RMK AO2 $
14840KMKG MKG20020906101509509/06/02 10:15:31  5-MIN KMKG 061515Z 17008KT 10SM CLR 23/17 A3018 390 68 1400 170/08 RMK AO2 $
14840KMKG MKG20020906102009509/06/02 10:20:31  5-MIN KMKG 061520Z 15006KT 10SM CLR 23/17 A3018 390 68 1400 160/06 RMK AO2 $
14840KMKG MKG20020906102509509/06/02 10:25:31  5-MIN KMKG 061525Z 16005KT 10SM CLR 23/17 A3018 390 66 1500 170/05 RMK AO2 $
14840KMKG MKG20020906103009509/06/02 10:30:31  5-MIN KMKG 061530Z VRB04KT 10SM CLR 23/17 A3018 390 66 1500 VRB/04 RMK AO2 $
14840KMKG MKG20020906103509509/06/02 10:35:31  5-MIN KMKG 061535Z VRB03KT 10SM CLR 23/17 A3018 390 66 1500 VRB/03 RMK AO2 $
14840KMKG MKG20020906104009509/06/02 10:40:31  5-MIN KMKG 061540Z VRB05KT 10SM CLR 24/17 A3018 390 63 1500 VRB/05 RMK AO2 $
14840KMKG MKG20020906104510109/06/02 10:45:31  5-MIN KMKG 061545Z 00000KT 10SM CLR 23/16 A3019 390 63 1500 000/00 RMK AO2 P0004 $
14840KMKG MKG20020906105011609/06/02 10:50:31  5-MIN KMKG 061550Z 20006KT 10SM CLR 24/17 A3019 390 63 1500 200/06 RMK AO2 SLP220 T02390167 PNO $
14840KMKG MKG20020906105511609/06/02 10:55:31  5-MIN KMKG 061555Z VRB04KT 10SM CLR 24/17 A3018 390 63 1500 VRB/04 RMK AO2 SLP219 T02390167 PNO $
14840KMKG MKG20020906110009909/06/02 11:00:31  5-MIN KMKG 061600Z 23007KT 10SM CLR 24/16 A3018 390 59 1600 230/07 RMK AO2 PNO $
14840KMKG MKG20020906110509909/06/02 11:05:31  5-MIN KMKG 061605Z 21004KT 10SM CLR 24/16 A3017 400 59 1600 210/04 RMK AO2 PNO $
14840KMKG MKG20020906111009909/06/02 11:10:31  5-MIN KMKG 061610Z 20005KT 10SM CLR 24/17 A3017 400 61 1600 210/05 RMK AO2 PNO $
14840KMKG MKG20020906111511509/06/02 11:15:31  5-MIN KMKG 061615Z AUTO 22007KT 10SM CLR 24/16 A3017 400 61 1600 230/07 RMK AO2 PWINO TSNO PNO $
14840KMKG MKG20020906112011509/06/02 11:20:31  5-MIN KMKG 061620Z AUTO 21008KT 10SM CLR 24/16 A3017 400 59 1600 210/08 RMK AO2 PWINO TSNO PNO $
14840KMKG MKG20020906112509909/06/02 11:25:31  5-MIN KMKG 061625Z 19008KT 10SM CLR 24/16 A3017 400 59 1600 190/08 RMK AO2 PNO $
14840KMKG MKG20020906113009909/06/02 11:30:31  5-MIN KMKG 061630Z 20006KT 10SM CLR 24/17 A3017 400 61 1600 200/06 RMK AO2 PNO $
14840KMKG MKG20020906113509909/06/02 11:35:31  5-MIN KMKG 061635Z 21007KT 10SM CLR 24/17 A3016 410 61 1600 210/07 RMK AO2 PNO $
14840KMKG MKG20020906114009909/06/02 11:40:31  5-MIN KMKG 061640Z 19010KT 10SM CLR 24/16 A3016 410 59 1600 190/10 RMK AO2 PNO $
14840KMKG MKG20020906114510509/06/02 11:45:31  5-MIN KMKG 061645Z 22009G15KT 10SM CLR 24/16 A3016 410 59 1600 220/09G15 RMK AO2 PNO $
14840KMKG MKG20020906115012209/06/02 11:50:31  5-MIN KMKG 061650Z 20009G15KT 10SM CLR 24/16 A3016 410 59 1600 210/09G15 RMK AO2 SLP210 T02440161 PNO $
14840KMKG MKG20020906115511609/06/02 11:55:31  5-MIN KMKG 061655Z 21010KT 10SM CLR 24/16 A3016 410 59 1600 210/10 RMK AO2 SLP210 T02440161 PNO $
14840KMKG MKG20020906120009909/06/02 12:00:31  5-MIN KMKG 061700Z 21010KT 10SM CLR 25/16 A3016 410 57 1700 210/10 RMK AO2 PNO $
14840KMKG MKG20020906120509909/06/02 12:05:31  5-MIN KMKG 061705Z 20010KT 10SM CLR 25/16 A3016 410 57 1700 210/10 RMK AO2 PNO $
14840KMKG MKG20020906121009909/06/02 12:10:31  5-MIN KMKG 061710Z 17008KT 10SM CLR 24/16 A3016 410 59 1600 170/08 RMK AO2 PNO $
14840KMKG MKG20020906121509909/06/02 12:15:31  5-MIN KMKG 061715Z 19008KT 10SM CLR 25/17 A3015 420 59 1700 200/08 RMK AO2 PNO $
14840KMKG MKG20020906122011509/06/02 12:20:31  5-MIN KMKG 061720Z 22008KT 180V240 10SM CLR 25/17 A3015 420 59 1700 230/08 180V240 RMK AO2 PNO $
14840KMKG MKG20020906122509909/06/02 12:25:31  5-MIN KMKG 061725Z 19009KT 10SM CLR 25/17 A3015 420 59 1700 200/09 RMK AO2 PNO $
14840KMKG MKG20020906123009909/06/02 12:30:31  5-MIN KMKG 061730Z 21009KT 10SM CLR 25/17 A3014 420 59 1700 210/09 RMK AO2 PNO $
14840KMKG MKG20020906123509909/06/02 12:35:31  5-MIN KMKG 061735Z 20010KT 10SM CLR 25/17 A3014 420 59 1700 200/10 RMK AO2 PNO $
14840KMKG MKG20020906124012809/06/02 12:40:31  5-MIN KMKG 061740Z 18009KT 150V210 10SM CLR 26/17 A3014 420 57 1800 190/09 150V210 RMK AO2 PNO CHINO RWY 14 $
14840KMKG MKG20020906124509909/06/02 12:45:31  5-MIN KMKG 061745Z 18008KT 10SM CLR 25/17 A3014 430 59 1700 180/08 RMK AO2 PNO $
14840KMKG MKG20020906125014009/06/02 12:50:31  5-MIN KMKG 061750Z 18009KT 10SM CLR 26/17 A3014 420 57 1800 180/09 RMK AO2 SLP205 6//// T02560167 10256 20139 58001 PNO $
14840KMKG MKG20020906125515009/06/02 12:55:31  5-MIN KMKG 061755Z 20008KT 160V230 10SM CLR 25/17 A3014 420 59 1700 200/08 160V230 RMK AO2 SLP206 T02500167 10256 20139 58009 PNO $
14840KMKG MKG20020906130009909/06/02 13:00:31  5-MIN KMKG 061800Z 20008KT 10SM CLR 25/17 A3015 420 59 1700 200/08 RMK AO2 PNO $
14840KMKG MKG20020906130509909/06/02 13:05:31  5-MIN KMKG 061805Z 22009KT 10SM CLR 25/17 A3015 420 59 1700 220/09 RMK AO2 PNO $
14840KMKG MKG20020906131011509/06/02 13:10:31  5-MIN KMKG 061810Z 21008KT 190V250 10SM CLR 25/17 A3014 420 59 1700 220/08 190V250 RMK AO2 PNO $
14840KMKG MKG20020906131509909/06/02 13:15:31  5-MIN KMKG 061815Z 21006KT 10SM CLR 25/17 A3014 430 59 1700 210/06 RMK AO2 PNO $
14840KMKG MKG20020906132011509/06/02 13:20:31  5-MIN KMKG 061820Z 20008KT 130V220 10SM CLR 25/17 A3014 430 59 1700 200/08 130V220 RMK AO2 PNO $
14840KMKG MKG20020906132511509/06/02 13:25:31  5-MIN KMKG 061825Z 20007KT 160V220 10SM CLR 25/17 A3013 430 59 1700 200/07 160V220 RMK AO2 PNO $
14840KMKG MKG20020906133009909/06/02 13:30:31  5-MIN KMKG 061830Z 20009KT 10SM CLR 26/17 A3013 430 57 1800 200/09 RMK AO2 PNO $
14840KMKG MKG20020906133509909/06/02 13:35:31  5-MIN KMKG 061835Z 22009KT 10SM CLR 26/17 A3013 440 57 1800 220/09 RMK AO2 PNO $
14840KMKG MKG20020906134009909/06/02 13:40:31  5-MIN KMKG 061840Z 18010KT 10SM CLR 26/17 A3013 440 57 1800 190/10 RMK AO2 PNO $
14840KMKG MKG20020906134509909/06/02 13:45:31  5-MIN KMKG 061845Z 21005KT 10SM CLR 26/17 A3012 440 57 1800 220/05 RMK AO2 PNO $
14840KMKG MKG20020906135011609/06/02 13:50:31  5-MIN KMKG 061850Z 22007KT 10SM CLR 25/17 A3012 450 59 1700 220/07 RMK AO2 SLP198 T02500167 PNO $
14840KMKG MKG20020906135511609/06/02 13:55:31  5-MIN KMKG 061855Z 19009KT 10SM CLR 26/17 A3012 450 57 1800 190/09 RMK AO2 SLP197 T02560167 PNO $
14840KMKG MKG20020906140009909/06/02 14:00:31  5-MIN KMKG 061900Z 20008KT 10SM CLR 26/17 A3012 450 55 1900 200/08 RMK AO2 PNO $
14840KMKG MKG20020906140509909/06/02 14:05:31  5-MIN KMKG 061905Z 22008KT 10SM CLR 26/17 A3012 450 59 1800 220/08 RMK AO2 PNO $
14840KMKG MKG20020906141009909/06/02 14:10:31  5-MIN KMKG 061910Z 21007KT 10SM CLR 25/17 A3011 450 59 1800 210/07 RMK AO2 PNO $
14840KMKG MKG20020906141509909/06/02 14:15:31  5-MIN KMKG 061915Z 22010KT 10SM CLR 26/17 A3011 460 57 1800 220/10 RMK AO2 PNO $
14840KMKG MKG20020906142009909/06/02 14:20:31  5-MIN KMKG 061920Z 19010KT 10SM CLR 26/17 A3010 460 55 1900 190/10 RMK AO2 PNO $
14840KMKG MKG20020906142511509/06/02 14:25:31  5-MIN KMKG 061925Z 18007KT 150V210 10SM CLR 26/16 A3010 460 53 1900 180/07 150V210 RMK AO2 PNO $
14840KMKG MKG20020906143009909/06/02 14:30:31  5-MIN KMKG 061930Z 16008KT 10SM CLR 26/16 A3010 460 51 1900 170/08 RMK AO2 PNO $
14840KMKG MKG20020906143509709/06/02 14:35:31  5-MIN KMKG 061935Z 17009KT 10SM CLR 26/16 A3010 470 51 1900 170/09 RMK AO2 PNO
14840KMKG MKG20020906144009309/06/02 14:40:31  5-MIN KMKG 061940Z 18011KT 10SM CLR 26/16 A3010 470 51 1900 180/11 RMK AO2
14840KMKG MKG20020906144509309/06/02 14:45:31  5-MIN KMKG 061945Z 19011KT 10SM CLR 27/16 A3010 470 50 2000 190/11 RMK AO2
14840KMKG MKG20020906145011009/06/02 14:50:31  5-MIN KMKG 061950Z 17010KT 10SM CLR 26/15 A3009 470 50 1900 180/10 RMK AO2 SLP189 T02610150
14840KMKG MKG20020906145511009/06/02 14:55:31  5-MIN KMKG 061955Z 17009KT 10SM CLR 27/15 A3009 470 48 2000 170/09 RMK AO2 SLP188 T02670150
14840KMKG MKG20020906150009309/06/02 15:00:31  5-MIN KMKG 062000Z 18010KT 10SM CLR 26/15 A3009 470 50 1900 190/10 RMK AO2
14840KMKG MKG20020906150509309/06/02 15:05:31  5-MIN KMKG 062005Z 17011KT 10SM CLR 27/15 A3009 470 48 2000 170/11 RMK AO2
14840KMKG MKG20020906151009309/06/02 15:10:31  5-MIN KMKG 062010Z 17007KT 10SM CLR 26/14 A3009 480 48 1900 180/07 RMK AO2
14840KMKG MKG20020906151509309/06/02 15:15:31  5-MIN KMKG 062015Z 19010KT 10SM CLR 27/15 A3009 470 48 2000 200/10 RMK AO2
14840KMKG MKG20020906152009309/06/02 15:20:31  5-MIN KMKG 062020Z 21009KT 10SM CLR 27/15 A3009 470 48 2000 210/09 RMK AO2
14840KMKG MKG20020906152509309/06/02 15:25:31  5-MIN KMKG 062025Z 22007KT 10SM CLR 27/16 A3010 470 48 2000 220/07 RMK AO2
14840KMKG MKG20020906153009309/06/02 15:30:31  5-MIN KMKG 062030Z 21009KT 10SM CLR 27/16 A3009 470 50 2000 210/09 RMK AO2
14840KMKG MKG20020906153509309/06/02 15:35:31  5-MIN KMKG 062035Z 21008KT 10SM CLR 26/15 A3009 470 51 1800 210/08 RMK AO2
14840KMKG MKG20020906154009309/06/02 15:40:31  5-MIN KMKG 062040Z 20010KT 10SM CLR 26/16 A3009 480 51 1900 200/10 RMK AO2
14840KMKG MKG20020908213509709/08/02 21:35:31  5-MIN KMKG 090235Z 00000KT 6SM BR CLR 20/18 A3018 390 87 1100 000/00 RMK AO2 $
14840KMKG MKG20020908214009709/08/02 21:40:31  5-MIN KMKG 090240Z 00000KT 6SM BR CLR 20/18 A3018 390 87 1100 000/00 RMK AO2 $
14840KMKG MKG20020908214509709/08/02 21:45:31  5-MIN KMKG 090245Z 00000KT 6SM BR CLR 19/18 A3018 390 90 1000 000/00 RMK AO2 $
14840KMKG MKG20020908215012009/08/02 21:50:31  5-MIN KMKG 090250Z 00000KT 6SM BR CLR 19/17 A3018 390 87 1000 000/00 RMK AO2 SLP216 T01940172 56004 $
14840KMKG MKG20020908215512009/08/02 21:55:31  5-MIN KMKG 090255Z 00000KT 6SM HZ CLR 20/17 A3018 390 84 1100 000/00 RMK AO2 SLP216 T02000172 51005 $
14840KMKG MKG20020908220009709/08/02 22:00:31  5-MIN KMKG 090300Z 00000KT 6SM BR CLR 19/18 A3018 390 90 1000 000/00 RMK AO2 $
14840KMKG MKG20020908220509709/08/02 22:05:31  5-MIN KMKG 090305Z 00000KT 5SM BR CLR 19/17 A3018 390 87 1000 000/00 RMK AO2 $
14840KMKG MKG20020908221009709/08/02 22:10:31  5-MIN KMKG 090310Z 00000KT 5SM BR CLR 19/17 A3018 390 87 1000 000/00 RMK AO2 $
14840KMKG MKG20020908221509709/08/02 22:15:31  5-MIN KMKG 090315Z 00000KT 6SM BR CLR 19/17 A3018 390 87 1000 000/00 RMK AO2 $
14840KMKG MKG20020908222009709/08/02 22:20:31  5-MIN KMKG 090320Z 00000KT 6SM BR CLR 19/17 A3018 390 90 1000 000/00 RMK AO2 $
14840KMKG MKG20020908222509709/08/02 22:25:31  5-MIN KMKG 090325Z 00000KT 6SM BR CLR 19/17 A3018 390 90 1000 000/00 RMK AO2 $
14840KMKG MKG20020908223009709/08/02 22:30:31  5-MIN KMKG 090330Z 00000KT 6SM BR CLR 19/17 A3018 390 90 1000 000/00 RMK AO2 $
14840KMKG MKG20020908223509709/08/02 22:35:31  5-MIN KMKG 090335Z 00000KT 6SM BR CLR 19/17 A3018 390 87 1000 000/00 RMK AO2 $
14840KMKG MKG20020908224009709/08/02 22:40:31  5-MIN KMKG 090340Z 00000KT 5SM BR CLR 19/17 A3018 390 90 1000 000/00 RMK AO2 $
14840KMKG MKG20020908224509709/08/02 22:45:31  5-MIN KMKG 090345Z 00000KT 5SM BR CLR 19/17 A3018 390 87 1000 000/00 RMK AO2 $
14840KMKG MKG20020908225011409/08/02 22:50:31  5-MIN KMKG 090350Z 00000KT 5SM BR CLR 19/17 A3018 390 90 1000 000/00 RMK AO2 SLP216 T01890172 $
14840KMKG MKG20020908225511309/08/02 22:55:31  5-MIN KMKG 090355Z 00000KT 5SM BR CLR 18/17 A3018 390 93 900 000/00 RMK AO2 SLP216 T01830172 $
14840KMKG MKG20020908230009609/08/02 23:00:31  5-MIN KMKG 090400Z 00000KT 5SM BR CLR 18/17 A3018 390 93 900 000/00 RMK AO2 $
14840KMKG MKG20020908230509609/08/02 23:05:31  5-MIN KMKG 090405Z 00000KT 5SM BR CLR 18/17 A3018 390 90 900 000/00 RMK AO2 $
14840KMKG MKG20020908231009609/08/02 23:10:31  5-MIN KMKG 090410Z 00000KT 5SM BR CLR 18/17 A3018 390 93 900 000/00 RMK AO2 $
14840KMKG MKG20020908231509609/08/02 23:15:31  5-MIN KMKG 090415Z 00000KT 5SM BR CLR 18/17 A3018 400 93 900 000/00 RMK AO2 $
14840KMKG MKG20020908232009609/08/02 23:20:31  5-MIN KMKG 090420Z 00000KT 5SM BR CLR 18/17 A3018 400 93 900 000/00 RMK AO2 $
14840KMKG MKG20020908232509609/08/02 23:25:31  5-MIN KMKG 090425Z 00000KT 5SM BR CLR 18/17 A3018 400 96 900 000/00 RMK AO2 $
14840KMKG MKG20020908233009609/08/02 23:30:31  5-MIN KMKG 090430Z 00000KT 5SM BR CLR 18/17 A3018 390 93 900 000/00 RMK AO2 $
14840KMKG MKG20020908233509609/08/02 23:35:31  5-MIN KMKG 090435Z 00000KT 5SM BR CLR 18/17 A3018 390 93 900 000/00 RMK AO2 $
14840KMKG MKG20020908234009609/08/02 23:40:31  5-MIN KMKG 090440Z 00000KT 5SM BR CLR 18/17 A3018 390 93 900 000/00 RMK AO2 $
14840KMKG MKG20020908234509709/08/02 23:45:31  5-MIN KMKG 090445Z 00000KT 5SM BR CLR 19/17 A3018 390 90 1000 000/00 RMK AO2 $
14840KMKG MKG20020908235012309/08/02 23:50:31  5-MIN KMKG 090450Z 00000KT 5SM BR CLR 18/17 A3018 390 93 900 000/00 RMK AO2 SLP214 T01830172 403110150 $
14840KMKG MKG20020908235512309/08/02 23:55:31  5-MIN KMKG 090455Z 00000KT 4SM BR CLR 18/17 A3018 400 93 900 000/00 RMK AO2 SLP214 T01830172 403110150 $
14840KMKG MKG20020909000009709/09/02 00:00:31  5-MIN KMKG 090500Z 00000KT 4SM BR CLR 19/17 A3018 390 90 1000 000/00 RMK AO2 $
14840KMKG MKG20020909000509609/09/02 00:05:31  5-MIN KMKG 090505Z 00000KT 4SM BR CLR 18/17 A3018 390 93 900 000/00 RMK AO2 $
14840KMKG MKG20020909001009609/09/02 00:10:31  5-MIN KMKG 090510Z 00000KT 4SM BR CLR 18/17 A3018 390 93 900 000/00 RMK AO2 $
14840KMKG MKG20020909001509609/09/02 00:15:31  5-MIN KMKG 090515Z 00000KT 4SM BR CLR 18/17 A3018 390 93 800 000/00 RMK AO2 $
14840KMKG MKG20020909002009609/09/02 00:20:31  5-MIN KMKG 090520Z 00000KT 4SM BR CLR 18/17 A3018 390 93 800 000/00 RMK AO2 $
14840KMKG MKG20020909002509609/09/02 00:25:31  5-MIN KMKG 090525Z 00000KT 4SM BR CLR 18/17 A3018 390 96 800 000/00 RMK AO2 $
14840KMKG MKG20020909003009609/09/02 00:30:31  5-MIN KMKG 090530Z 00000KT 5SM BR CLR 18/17 A3018 390 93 800 000/00 RMK AO2 $
14840KMKG MKG20020909003509609/09/02 00:35:31  5-MIN KMKG 090535Z 00000KT 5SM BR CLR 18/17 A3018 390 93 800 000/00 RMK AO2 $
14840KMKG MKG20020909004009609/09/02 00:40:31  5-MIN KMKG 090540Z 00000KT 5SM BR CLR 18/17 A3018 390 93 900 000/00 RMK AO2 $
14840KMKG MKG20020909004509609/09/02 00:45:31  5-MIN KMKG 090545Z 00000KT 5SM BR CLR 18/17 A3018 390 93 900 000/00 RMK AO2 $
14840KMKG MKG20020909005013209/09/02 00:50:31  5-MIN KMKG 090550Z 00000KT 5SM BR CLR 19/17 A3018 400 87 1000 000/00 RMK AO2 SLP214 T01890167 10261 20178 51005 $
14840KMKG MKG20020909005513109/09/02 00:55:31  5-MIN KMKG 090555Z 00000KT 5SM BR CLR 18/17 A3017 400 90 900 000/00 RMK AO2 SLP214 T01830167 10261 20178 58001 $
14840KMKG MKG20020909010009609/09/02 01:00:31  5-MIN KMKG 090600Z 00000KT 5SM BR CLR 18/17 A3017 400 93 900 000/00 RMK AO2 $
14840KMKG MKG20020909010509609/09/02 01:05:31  5-MIN KMKG 090605Z 00000KT 4SM BR CLR 18/17 A3017 400 93 900 000/00 RMK AO2 $
14840KMKG MKG20020909011009609/09/02 01:10:31  5-MIN KMKG 090610Z 00000KT 4SM BR CLR 18/17 A3017 400 93 900 000/00 RMK AO2 $
14840KMKG MKG20020909011509609/09/02 01:15:31  5-MIN KMKG 090615Z 00000KT 4SM BR CLR 18/17 A3017 400 93 900 000/00 RMK AO2 $
14840KMKG MKG20020909012009609/09/02 01:20:31  5-MIN KMKG 090620Z 00000KT 4SM BR CLR 18/17 A3017 400 96 900 000/00 RMK AO2 $
14840KMKG MKG20020909012509609/09/02 01:25:31  5-MIN KMKG 090625Z 00000KT 4SM BR CLR 18/17 A3017 400 96 900 000/00 RMK AO2 $
14840KMKG MKG20020909013009609/09/02 01:30:31  5-MIN KMKG 090630Z 00000KT 4SM BR CLR 18/17 A3018 390 96 900 000/00 RMK AO2 $
14840KMKG MKG20020909013509609/09/02 01:35:31  5-MIN KMKG 090635Z 00000KT 4SM BR CLR 18/17 A3018 390 93 900 000/00 RMK AO2 $
14840KMKG MKG20020909014009709/09/02 01:40:31  5-MIN KMKG 090640Z 00000KT 4SM BR CLR 19/17 A3017 400 90 1000 000/00 RMK AO2 $
14840KMKG MKG20020909014509709/09/02 01:45:31  5-MIN KMKG 090645Z 00000KT 4SM BR CLR 19/17 A3018 390 90 1000 000/00 RMK AO2 $
14840KMKG MKG20020909015011309/09/02 01:50:31  5-MIN KMKG 090650Z 00000KT 4SM BR CLR 18/17 A3018 390 90 900 000/00 RMK AO2 SLP215 T01830167 $
14840KMKG MKG20020909015511309/09/02 01:55:31  5-MIN KMKG 090655Z 00000KT 4SM BR CLR 18/17 A3018 390 96 900 000/00 RMK AO2 SLP215 T01780172 $
14840KMKG MKG20020909020009609/09/02 02:00:31  5-MIN KMKG 090700Z 00000KT 4SM BR CLR 17/17 A3018 390 96 800 000/00 RMK AO2 $
14840KMKG MKG20020909020509609/09/02 02:05:31  5-MIN KMKG 090705Z 00000KT 4SM BR CLR 17/17 A3018 390 96 800 000/00 RMK AO2 $
14840KMKG MKG20020909021009609/09/02 02:10:31  5-MIN KMKG 090710Z 00000KT 4SM BR CLR 17/17 A3017 400 96 800 000/00 RMK AO2 $
14840KMKG MKG20020909021509609/09/02 02:15:31  5-MIN KMKG 090715Z 00000KT 4SM BR CLR 18/17 A3017 400 93 900 000/00 RMK AO2 $
14840KMKG MKG20020909022009609/09/02 02:20:31  5-MIN KMKG 090720Z 00000KT 4SM BR CLR 18/17 A3018 400 93 900 000/00 RMK AO2 $
14840KMKG MKG20020909022509609/09/02 02:25:31  5-MIN KMKG 090725Z 00000KT 4SM BR CLR 18/17 A3018 390 90 900 000/00 RMK AO2 $
14840KMKG MKG20020909023009609/09/02 02:30:31  5-MIN KMKG 090730Z 00000KT 4SM BR CLR 18/17 A3017 400 90 900 000/00 RMK AO2 $
14840KMKG MKG20020909023509609/09/02 02:35:31  5-MIN KMKG 090735Z 00000KT 4SM BR CLR 18/17 A3017 400 93 900 000/00 RMK AO2 $
14840KMKG MKG20020909024009609/09/02 02:40:31  5-MIN KMKG 090740Z 00000KT 4SM BR CLR 18/17 A3017 400 93 900 000/00 RMK AO2 $
14840KMKG MKG20020909024509609/09/02 02:45:31  5-MIN KMKG 090745Z 08003KT 4SM BR CLR 18/17 A3017 400 96 900 090/03 RMK AO2 $
14840KMKG MKG20020909025011309/09/02 02:50:31  5-MIN KMKG 090750Z 00000KT 4SM BR CLR 18/17 A3017 400 93 900 000/00 RMK AO2 SLP213 T01780167 $
14840KMKG MKG20020909025513009/09/02 02:55:31  5-MIN KMKG 090755Z 00000KT 4SM BR CLR 18/17 A3017 400 93 900 000/00 RMK AO2 VIS 2 1/2 RWY 14 SLP213 T01780167 $
14840KMKG MKG20020909030011309/09/02 03:00:31  5-MIN KMKG 090800Z 00000KT 4SM BR CLR 18/17 A3017 400 93 900 000/00 RMK AO2 VIS 2 1/2 RWY 14 $
14840KMKG MKG20020909030511309/09/02 03:05:31  5-MIN KMKG 090805Z 00000KT 4SM BR CLR 18/17 A3017 400 96 900 000/00 RMK AO2 VIS 2 1/2 RWY 14 $
14840KMKG MKG20020909031011309/09/02 03:10:31  5-MIN KMKG 090810Z 00000KT 4SM BR CLR 18/17 A3017 400 93 900 000/00 RMK AO2 VIS 2 1/2 RWY 14 $
14840KMKG MKG20020909031511309/09/02 03:15:31  5-MIN KMKG 090815Z 00000KT 4SM BR CLR 18/17 A3017 400 93 900 000/00 RMK AO2 VIS 2 1/2 RWY 14 $
14840KMKG MKG20020909032011309/09/02 03:20:31  5-MIN KMKG 090820Z 00000KT 4SM BR CLR 18/17 A3017 400 93 900 000/00 RMK AO2 VIS 2 1/2 RWY 14 $
14840KMKG MKG20020909032511309/09/02 03:25:31  5-MIN KMKG 090825Z 00000KT 4SM BR CLR 18/17 A3017 400 96 900 000/00 RMK AO2 VIS 2 1/2 RWY 14 $
14840KMKG MKG20020909033009609/09/02 03:30:31  5-MIN KMKG 090830Z 00000KT 4SM BR CLR 18/17 A3017 400 93 900 000/00 RMK AO2 $
14840KMKG MKG20020909033509609/09/02 03:35:31  5-MIN KMKG 090835Z 00000KT 4SM BR CLR 18/17 A3017 400 90 900 000/00 RMK AO2 $
14840KMKG MKG20020909034011309/09/02 03:40:31  5-MIN KMKG 090840Z 00000KT 4SM BR CLR 18/17 A3017 400 93 900 000/00 RMK AO2 VIS 2 1/2 RWY 14 $
14840KMKG MKG20020909034511309/09/02 03:45:31  5-MIN KMKG 090845Z 00000KT 4SM BR CLR 18/17 A3017 400 93 900 000/00 RMK AO2 VIS 2 1/2 RWY 14 $
14840KMKG MKG20020909035013609/09/02 03:50:31  5-MIN KMKG 090850Z 00000KT 3SM BR CLR 18/17 A3016 410 93 900 000/00 RMK AO2 VIS 2 1/2 RWY 14 SLP211 T01780167 58001 $
14840KMKG MKG20020909035513609/09/02 03:55:31  5-MIN KMKG 090855Z 00000KT 3SM BR CLR 18/17 A3016 410 93 900 000/00 RMK AO2 VIS 2 1/2 RWY 14 SLP209 T01780167 58004 $
14840KMKG MKG20020909040011309/09/02 04:00:31  5-MIN KMKG 090900Z 00000KT 3SM BR CLR 17/17 A3016 410 96 800 000/00 RMK AO2 VIS 2 1/2 RWY 14 $
14840KMKG MKG20020909040511309/09/02 04:05:31  5-MIN KMKG 090905Z 00000KT 3SM BR CLR 17/17 A3016 410 96 800 000/00 RMK AO2 VIS 2 1/2 RWY 14 $
14840KMKG MKG20020909041011309/09/02 04:10:31  5-MIN KMKG 090910Z 00000KT 3SM BR CLR 18/17 A3016 410 93 900 000/00 RMK AO2 VIS 2 1/2 RWY 14 $
14840KMKG MKG20020909041511309/09/02 04:15:31  5-MIN KMKG 090915Z 00000KT 3SM BR CLR 18/17 A3016 410 93 900 000/00 RMK AO2 VIS 2 1/2 RWY 14 $
14840KMKG MKG20020909042011309/09/02 04:20:31  5-MIN KMKG 090920Z 11003KT 3SM BR CLR 18/17 A3016 410 93 900 120/03 RMK AO2 VIS 2 1/2 RWY 14 $
14840KMKG MKG20020909042511309/09/02 04:25:31  5-MIN KMKG 090925Z 11003KT 3SM BR CLR 18/17 A3016 410 93 900 110/03 RMK AO2 VIS 2 1/2 RWY 14 $
14840KMKG MKG20020909043011309/09/02 04:30:31  5-MIN KMKG 090930Z 00000KT 3SM BR CLR 18/17 A3016 410 93 900 000/00 RMK AO2 VIS 2 1/2 RWY 14 $
14840KMKG MKG20020909043511309/09/02 04:35:31  5-MIN KMKG 090935Z 00000KT 3SM BR CLR 18/17 A3016 410 93 900 000/00 RMK AO2 VIS 2 1/2 RWY 14 $
14840KMKG MKG20020909044011309/09/02 04:40:31  5-MIN KMKG 090940Z 00000KT 3SM BR CLR 18/17 A3016 410 93 900 000/00 RMK AO2 VIS 2 1/2 RWY 14 $
14840KMKG MKG20020909044511309/09/02 04:45:31  5-MIN KMKG 090945Z 00000KT 4SM BR CLR 18/17 A3016 410 93 900 000/00 RMK AO2 VIS 2 1/2 RWY 14 $
14840KMKG MKG20020909045013009/09/02 04:50:31  5-MIN KMKG 090950Z 00000KT 3SM BR CLR 18/17 A3017 400 93 900 000/00 RMK AO2 VIS 2 1/2 RWY 14 SLP212 T01780167 $
14840KMKG MKG20020909045511309/09/02 04:55:31  5-MIN KMKG 090955Z 00000KT 3SM BR CLR 18/17 A3016 410 93 900 000/00 RMK AO2 SLP211 T01780167 $
14840KMKG MKG20020909050009609/09/02 05:00:31  5-MIN KMKG 091000Z 00000KT 3SM BR CLR 18/17 A3016 400 93 900 000/00 RMK AO2 $
14840KMKG MKG20020909050509609/09/02 05:05:31  5-MIN KMKG 091005Z 00000KT 3SM BR CLR 17/17 A3016 410 96 800 000/00 RMK AO2 $
14840KMKG MKG20020909051009609/09/02 05:10:31  5-MIN KMKG 091010Z 00000KT 3SM BR CLR 17/17 A3017 400 96 800 000/00 RMK AO2 $
14840KMKG MKG20020909051509609/09/02 05:15:31  5-MIN KMKG 091015Z 00000KT 3SM BR CLR 17/17 A3017 400 96 800 000/00 RMK AO2 $
14840KMKG MKG20020909052009609/09/02 05:20:31  5-MIN KMKG 091020Z 00000KT 3SM BR CLR 17/17 A3017 400 96 800 000/00 RMK AO2 $
14840KMKG MKG20020909052510909/09/02 05:25:31  5-MIN KMKG 091025Z 00000KT 3SM BR CLR 17/16 A3017 400 96 700 000/00 RMK AO2 VIS 2 RWY 14 $
14840KMKG MKG20020909053010909/09/02 05:30:31  5-MIN KMKG 091030Z 00000KT 3SM BR CLR 17/17 A3017 400 96 800 000/00 RMK AO2 VIS 2 RWY 14 $
14840KMKG MKG20020909053510909/09/02 05:35:31  5-MIN KMKG 091035Z 00000KT 3SM BR CLR 17/17 A3017 400 96 800 000/00 RMK AO2 VIS 2 RWY 14 $
14840KMKG MKG20020909054011209/09/02 05:40:31  5-MIN KMKG 091040Z 00000KT 3SM BR SCT050 17/17 A3017 400 96 800 000/00 RMK AO2 VIS 2 RWY 14 $
14840KMKG MKG20020909054511209/09/02 05:45:31  5-MIN KMKG 091045Z 00000KT 3SM BR SCT055 17/17 A3017 400 96 800 000/00 RMK AO2 VIS 2 RWY 14 $
14840KMKG MKG20020909055011609/09/02 05:50:31  5-MIN KMKG 091050Z 00000KT 3SM BR BKN050 17/17 A3017 400 96 800 000/00 RMK AO2 SLP213 T01720167 $
14840KMKG MKG20020909055511609/09/02 05:55:31  5-MIN KMKG 091055Z 00000KT 3SM BR BKN055 17/17 A3017 400 96 800 000/00 RMK AO2 SLP213 T01720167 $
14840KMKG MKG20020909060011209/09/02 06:00:31  5-MIN KMKG 091100Z 00000KT 3SM BR BKN055 17/17 A3017 400 96 800 000/00 RMK AO2 VIS 2 RWY 14 $
14840KMKG MKG20020909060511209/09/02 06:05:31  5-MIN KMKG 091105Z 11003KT 3SM BR SCT055 17/17 A3017 400 96 800 120/03 RMK AO2 VIS 2 RWY 14 $
14840KMKG MKG20020909061011209/09/02 06:10:31  5-MIN KMKG 091110Z 12004KT 3SM BR SCT055 18/17 A3017 400 93 900 120/04 RMK AO2 VIS 2 RWY 14 $
14840KMKG MKG20020909061511209/09/02 06:15:31  5-MIN KMKG 091115Z 11003KT 3SM BR FEW050 18/17 A3017 400 93 900 120/03 RMK AO2 VIS 2 RWY 14 $
14840KMKG MKG20020909062011709/09/02 06:20:31  5-MIN KMKG 091120Z 11003KT 2 1/2SM BR CLR 17/17 A3017 400 96 800 120/03 RMK AO2 VIS 1 1/2 RWY 14 $
14840KMKG MKG20020909062511309/09/02 06:25:31  5-MIN KMKG 091125Z 11003KT 2SM BR CLR 17/17 A3017 400 96 800 110/03 RMK AO2 VIS 1 1/4 RWY 14 $
14840KMKG MKG20020909063011309/09/02 06:30:31  5-MIN KMKG 091130Z 00000KT 2SM BR CLR 17/17 A3017 400 96 800 000/00 RMK AO2 VIS 1 1/4 RWY 14 $
14840KMKG MKG20020909063511309/09/02 06:35:31  5-MIN KMKG 091135Z 00000KT 2SM BR CLR 18/17 A3017 400 93 900 000/00 RMK AO2 VIS 1 1/4 RWY 14 $
14840KMKG MKG20020909064009909/09/02 06:40:31  5-MIN KMKG 091140Z 00000KT 2SM BR OVC020 18/17 A3017 400 93 900 000/00 RMK AO2 $
14840KMKG MKG20020909064509909/09/02 06:45:31  5-MIN KMKG 091145Z 00000KT 2SM BR OVC020 18/17 A3017 400 90 900 000/00 RMK AO2 $
14840KMKG MKG20020909065013109/09/02 06:50:31  5-MIN KMKG 091150Z 00000KT 2SM BR CLR 18/17 A3017 400 90 900 000/00 RMK AO2 SLP214 T01830167 10189 20167 58004 $
14840KMKG MKG20020909065515209/09/02 06:55:31  5-MIN KMKG 091155Z 00000KT 2 1/2SM BR CLR 18/17 A3017 400 90 900 000/00 RMK AO2 VIS 1 3/4 RWY 14 SLP214 T01830167 10189 20167 53004 $
14840KMKG MKG20020909070011709/09/02 07:00:31  5-MIN KMKG 091200Z 00000KT 2 1/2SM BR CLR 18/17 A3017 400 90 900 000/00 RMK AO2 VIS 1 3/4 RWY 14 $
14840KMKG MKG20020909070511809/09/02 07:05:31  5-MIN KMKG 091205Z 00000KT 2 1/2SM BR CLR 19/17 A3017 400 87 1000 000/00 RMK AO2 VIS 1 1/2 RWY 14 $
14840KMKG MKG20020909071011609/09/02 07:10:31  5-MIN KMKG 091210Z 00000KT 2 1/2SM BR CLR 19/17 A3017 400 90 1000 000/00 RMK AO2 VIS 1 3/4 RWY 14
14840KMKG MKG20020909071511609/09/02 07:15:31  5-MIN KMKG 091215Z 00000KT 2 1/2SM BR CLR 19/17 A3017 400 90 1000 000/00 RMK AO2 VIS 1 3/4 RWY 14
14840KMKG MKG20020909072009909/09/02 07:20:31  5-MIN KMKG 091220Z 00000KT 2 1/2SM BR CLR 19/17 A3017 400 90 1000 000/00 RMK AO2
14840KMKG MKG20020909072509909/09/02 07:25:31  5-MIN KMKG 091225Z 11003KT 2 1/2SM BR CLR 19/17 A3017 400 87 1000 110/03 RMK AO2
14840KMKG MKG20020909073009909/09/02 07:30:31  5-MIN KMKG 091230Z 12003KT 2 1/2SM BR CLR 19/17 A3017 400 87 1000 120/03 RMK AO2
14840KMKG MKG20020909073509909/09/02 07:35:31  5-MIN KMKG 091235Z 11003KT 2 1/2SM BR CLR 19/17 A3017 400 87 1000 120/03 RMK AO2
14840KMKG MKG20020909074009909/09/02 07:40:31  5-MIN KMKG 091240Z 12003KT 2 1/2SM HZ CLR 20/17 A3017 400 84 1100 120/03 RMK AO2
14840KMKG MKG20020909074509909/09/02 07:45:31  5-MIN KMKG 091245Z 12003KT 2 1/2SM HZ CLR 20/17 A3017 400 84 1100 120/03 RMK AO2
14840KMKG MKG20020909075011209/09/02 07:50:31  5-MIN KMKG 091250Z 12004KT 3SM HZ CLR 21/17 A3017 400 81 1200 130/04 RMK AO2 SLP214 T02060172
14840KMKG MKG20020909075511209/09/02 07:55:31  5-MIN KMKG 091255Z 12003KT 3SM HZ CLR 21/17 A3017 400 81 1200 130/03 RMK AO2 SLP214 T02060172
14840KMKG MKG20020909080009509/09/02 08:00:31  5-MIN KMKG 091300Z 13004KT 3SM HZ CLR 21/17 A3017 400 78 1200 140/04 RMK AO2
14840KMKG MKG20020909080509509/09/02 08:05:31  5-MIN KMKG 091305Z 15003KT 3SM HZ CLR 22/17 A3017 400 75 1300 150/03 RMK AO2
14840KMKG MKG20020909081009509/09/02 08:10:31  5-MIN KMKG 091310Z 00000KT 3SM HZ CLR 22/17 A3017 400 75 1300 000/00 RMK AO2
14840KMKG MKG20020909081509509/09/02 08:15:31  5-MIN KMKG 091315Z 00000KT 4SM HZ CLR 22/17 A3017 400 73 1400 000/00 RMK AO2
14840KMKG MKG20020909082009509/09/02 08:20:31  5-MIN KMKG 091320Z 00000KT 4SM HZ CLR 23/18 A3017 400 73 1400 000/00 RMK AO2
14840KMKG MKG20020909082509509/09/02 08:25:31  5-MIN KMKG 091325Z 00000KT 4SM HZ CLR 23/18 A3017 400 73 1400 000/00 RMK AO2
14840KMKG MKG20020909083009509/09/02 08:30:31  5-MIN KMKG 091330Z 00000KT 4SM HZ CLR 23/18 A3017 400 70 1500 000/00 RMK AO2
14840KMKG MKG20020909083509509/09/02 08:35:31  5-MIN KMKG 091335Z 00000KT 4SM HZ CLR 23/18 A3017 400 73 1500 000/00 RMK AO2
14840KMKG MKG20020909084009509/09/02 08:40:31  5-MIN KMKG 091340Z 00000KT 5SM HZ CLR 23/18 A3017 400 73 1500 000/00 RMK AO2
14840KMKG MKG20020909084509509/09/02 08:45:31  5-MIN KMKG 091345Z 00000KT 5SM HZ CLR 24/19 A3016 410 73 1600 000/00 RMK AO2
14840KMKG MKG20020909085011209/09/02 08:50:31  5-MIN KMKG 091350Z 00000KT 5SM HZ CLR 24/19 A3017 400 71 1600 000/00 RMK AO2 SLP212 T02440189
14840KMKG MKG20020909085511209/09/02 08:55:31  5-MIN KMKG 091355Z 00000KT 5SM HZ CLR 24/19 A3016 410 73 1600 000/00 RMK AO2 SLP212 T02440194
14840KMKG MKG20020909090009509/09/02 09:00:31  5-MIN KMKG 091400Z 00000KT 5SM HZ CLR 25/19 A3016 410 71 1700 000/00 RMK AO2
14840KMKG MKG20020909090509509/09/02 09:05:31  5-MIN KMKG 091405Z 00000KT 5SM HZ CLR 26/19 A3016 410 68 1800 000/00 RMK AO2
14840KMKG MKG20020909091009509/09/02 09:10:31  5-MIN KMKG 091410Z 22003KT 6SM HZ CLR 26/20 A3016 410 71 1800 220/03 RMK AO2
14840KMKG MKG20020909091509509/09/02 09:15:31  5-MIN KMKG 091415Z 00000KT 6SM HZ CLR 26/20 A3016 410 71 1800 000/00 RMK AO2
14840KMKG MKG20020909092009509/09/02 09:20:31  5-MIN KMKG 091420Z 00000KT 6SM HZ CLR 26/21 A3016 410 71 1800 000/00 RMK AO2
14840KMKG MKG20020909092509509/09/02 09:25:31  5-MIN KMKG 091425Z 00000KT 6SM HZ CLR 26/21 A3016 410 71 1800 000/00 RMK AO2
14840KMKG MKG20020909093009509/09/02 09:30:31  5-MIN KMKG 091430Z 00000KT 6SM HZ CLR 27/21 A3016 410 69 1900 000/00 RMK AO2
14840KMKG MKG20020909093509209/09/02 09:35:31  5-MIN KMKG 091435Z VRB03KT 7SM CLR 27/21 A3016 410 69 1900 VRB/03 RMK AO2
14840KMKG MKG20020909094009209/09/02 09:40:31  5-MIN KMKG 091440Z 00000KT 7SM CLR 27/21 A3016 410 69 1900 000/00 RMK AO2
14840KMKG MKG20020909094509209/09/02 09:45:31  5-MIN KMKG 091445Z VRB03KT 7SM CLR 28/21 A3016 400 66 2000 VRB/03 RMK AO2
14840KMKG MKG20020909095011509/09/02 09:50:31  5-MIN KMKG 091450Z VRB03KT 7SM CLR 28/21 A3016 410 66 2000 VRB/03 RMK AO2 SLP212 T02780211 53004
14840KMKG MKG20020909095511509/09/02 09:55:31  5-MIN KMKG 091455Z 00000KT 7SM CLR 28/21 A3016 410 64 2100 000/00 RMK AO2 SLP210 T02830211 57003
14840KMKG MKG20020909100008709/09/02 10:00:31  5-MIN KMKG 091500Z 6SM HZ CLR 28/22 A3016 410 66 2100 M /M RMK AO2 $
14840KMKG MKG20020909100509409/09/02 10:05:31  5-MIN KMKG 091505Z 00000KT 7SM CLR 28/22 A3016 410 66 2100 000/00 RMK AO2 $
14840KMKG MKG20020909101009409/09/02 10:10:31  5-MIN KMKG 091510Z 00000KT 7SM CLR 29/22 A3016 410 64 2100 000/00 RMK AO2 $
14840KMKG MKG20020909101509209/09/02 10:15:31  5-MIN KMKG 091515Z 25006KT 8SM CLR 28/22 A3016 410 66 2100 250/06 RMK AO2
14840KMKG MKG20020909102009209/09/02 10:20:31  5-MIN KMKG 091520Z VRB04KT 8SM CLR 28/22 A3016 410 66 2100 VRB/04 RMK AO2
14840KMKG MKG20020909102509209/09/02 10:25:31  5-MIN KMKG 091525Z 23006KT 8SM CLR 28/22 A3016 410 66 2100 230/06 RMK AO2
14840KMKG MKG20020909103009209/09/02 10:30:31  5-MIN KMKG 091530Z VRB05KT 8SM CLR 28/22 A3016 410 66 2100 VRB/05 RMK AO2
14840KMKG MKG20020909103509209/09/02 10:35:31  5-MIN KMKG 091535Z 29004KT 8SM CLR 28/22 A3016 410 66 2100 300/04 RMK AO2
14840KMKG MKG20020909104009209/09/02 10:40:31  5-MIN KMKG 091540Z 26004KT 8SM CLR 28/22 A3016 410 66 2100 260/04 RMK AO2
14840KMKG MKG20020909104509209/09/02 10:45:31  5-MIN KMKG 091545Z VRB05KT 8SM CLR 28/22 A3016 410 66 2100 VRB/05 RMK AO2
14840KMKG MKG20020909105010909/09/02 10:50:31  5-MIN KMKG 091550Z VRB04KT 8SM CLR 28/22 A3016 410 69 2100 VRB/04 RMK AO2 SLP211 T02830222
14840KMKG MKG20020909105510909/09/02 10:55:31  5-MIN KMKG 091555Z 25005KT 8SM CLR 28/22 A3016 410 66 2100 250/05 RMK AO2 SLP211 T02830217
14840KMKG MKG20020909110009209/09/02 11:00:31  5-MIN KMKG 091600Z VRB05KT 8SM CLR 29/22 A3016 410 67 2100 VRB/05 RMK AO2
14840KMKG MKG20020909110509209/09/02 11:05:31  5-MIN KMKG 091605Z 28006KT 8SM CLR 29/22 A3016 410 67 2100 280/06 RMK AO2
14840KMKG MKG20020909111009209/09/02 11:10:31  5-MIN KMKG 091610Z 24006KT 8SM CLR 29/22 A3016 410 64 2200 250/06 RMK AO2
14840KMKG MKG20020909111509209/09/02 11:15:31  5-MIN KMKG 091615Z 23005KT 8SM CLR 29/22 A3016 410 67 2100 240/05 RMK AO2
14840KMKG MKG20020909112009209/09/02 11:20:31  5-MIN KMKG 091620Z 25006KT 8SM CLR 29/22 A3016 410 67 2100 260/06 RMK AO2
14840KMKG MKG20020909112509209/09/02 11:25:31  5-MIN KMKG 091625Z 26005KT 8SM CLR 29/22 A3016 410 67 2100 270/05 RMK AO2
14840KMKG MKG20020909113009209/09/02 11:30:31  5-MIN KMKG 091630Z 24005KT 8SM CLR 29/22 A3016 410 67 2100 250/05 RMK AO2
14840KMKG MKG20020909113509209/09/02 11:35:31  5-MIN KMKG 091635Z 26006KT 8SM CLR 29/22 A3016 410 64 2200 270/06 RMK AO2
14840KMKG MKG20020909114009209/09/02 11:40:31  5-MIN KMKG 091640Z 26006KT 8SM CLR 29/22 A3016 410 67 2100 260/06 RMK AO2
14840KMKG MKG20020909114509209/09/02 11:45:31  5-MIN KMKG 091645Z 26007KT 8SM CLR 29/22 A3016 410 64 2200 260/07 RMK AO2
14840KMKG MKG20020909115010909/09/02 11:50:31  5-MIN KMKG 091650Z 24005KT 8SM CLR 29/22 A3016 410 67 2100 240/05 RMK AO2 SLP208 T02890222
14840KMKG MKG20020909115510909/09/02 11:55:31  5-MIN KMKG 091655Z 26005KT 8SM CLR 29/22 A3015 420 64 2200 270/05 RMK AO2 SLP208 T02940222
14840KMKG MKG20020909120009209/09/02 12:00:31  5-MIN KMKG 091700Z 23006KT 9SM CLR 29/22 A3015 420 64 2200 240/06 RMK AO2
14840KMKG MKG20020909120509209/09/02 12:05:31  5-MIN KMKG 091705Z 27006KT 9SM CLR 29/22 A3015 420 62 2200 270/06 RMK AO2
14840KMKG MKG20020909121009509/09/02 12:10:31  5-MIN KMKG 091710Z 26006KT 9SM FEW040 29/22 A3015 420 64 2200 270/06 RMK AO2
14840KMKG MKG20020909121509609/09/02 12:15:31  5-MIN KMKG 091715Z 25004KT 10SM FEW040 29/22 A3015 420 62 2200 250/04 RMK AO2
14840KMKG MKG20020909122009509/09/02 12:20:31  5-MIN KMKG 091720Z 30005KT 9SM FEW040 29/22 A3015 420 62 2200 300/05 RMK AO2
14840KMKG MKG20020909122509509/09/02 12:25:31  5-MIN KMKG 091725Z 26006KT 9SM FEW040 30/22 A3015 420 62 2300 260/06 RMK AO2
14840KMKG MKG20020909123009609/09/02 12:30:31  5-MIN KMKG 091730Z 28006KT 10SM FEW040 30/22 A3015 420 60 2300 290/06 RMK AO2
14840KMKG MKG20020909123509609/09/02 12:35:31  5-MIN KMKG 091735Z VRB05KT 10SM FEW040 31/22 A3015 420 60 2300 VRB/05 RMK AO2
14840KMKG MKG20020909124009609/09/02 12:40:31  5-MIN KMKG 091740Z VRB04KT 10SM FEW042 30/22 A3014 420 60 2300 VRB/04 RMK AO2
14840KMKG MKG20020909124509609/09/02 12:45:31  5-MIN KMKG 091745Z 27006KT 10SM FEW042 31/22 A3014 420 60 2300 270/06 RMK AO2
14840KMKG MKG20020909125013109/09/02 12:50:31  5-MIN KMKG 091750Z VRB05KT 10SM FEW042 31/22 A3014 430 58 2300 VRB/05 RMK AO2 SLP203 T03060217 10306 20183 57003
14840KMKG MKG20020909125513109/09/02 12:55:31  5-MIN KMKG 091755Z 26007KT 10SM FEW042 31/22 A3014 430 58 2300 260/07 RMK AO2 SLP202 T03060217 10306 20183 58007
14840KMKG MKG20020909130009609/09/02 13:00:31  5-MIN KMKG 091800Z VRB05KT 10SM FEW042 31/22 A3014 430 58 2300 VRB/05 RMK AO2
14840KMKG MKG20020909130509609/09/02 13:05:31  5-MIN KMKG 091805Z 22008KT 10SM FEW042 30/22 A3014 430 60 2300 230/08 RMK AO2
14840KMKG MKG20020909131009609/09/02 13:10:31  5-MIN KMKG 091810Z 27006KT 10SM FEW042 31/22 A3014 430 58 2300 280/06 RMK AO2
14840KMKG MKG20020909131509609/09/02 13:15:31  5-MIN KMKG 091815Z 23006KT 10SM FEW042 31/22 A3014 430 58 2300 230/06 RMK AO2
14840KMKG MKG20020909132011209/09/02 13:20:31  5-MIN KMKG 091820Z 26007KT 230V290 10SM FEW042 31/22 A3013 430 58 2400 270/07 230V290 RMK AO2
14840KMKG MKG20020909132511209/09/02 13:25:31  5-MIN KMKG 091825Z 24007KT 200V300 10SM FEW042 31/22 A3013 440 58 2400 250/07 200V300 RMK AO2
14840KMKG MKG20020909133009609/09/02 13:30:31  5-MIN KMKG 091830Z VRB05KT 10SM FEW042 31/22 A3013 440 58 2400 VRB/05 RMK AO2
14840KMKG MKG20020909133509609/09/02 13:35:31  5-MIN KMKG 091835Z 23007KT 10SM FEW042 31/22 A3013 440 56 2400 240/07 RMK AO2
14840KMKG MKG20020909134009609/09/02 13:40:31  5-MIN KMKG 091840Z 24006KT 10SM FEW042 31/21 A3013 440 54 2400 240/06 RMK AO2
14840KMKG MKG20020909134509609/09/02 13:45:31  5-MIN KMKG 091845Z 23006KT 10SM FEW042 31/21 A3012 440 56 2400 240/06 RMK AO2
14840KMKG MKG20020909135011309/09/02 13:50:31  5-MIN KMKG 091850Z 24006KT 10SM FEW042 31/21 A3012 440 54 2400 250/06 RMK AO2 SLP196 T03110211
14840KMKG MKG20020909135511309/09/02 13:55:31  5-MIN KMKG 091855Z VRB06KT 10SM FEW042 31/21 A3012 450 56 2400 VRB/06 RMK AO2 SLP195 T03060211
14840KMKG MKG20020909140009609/09/02 14:00:31  5-MIN KMKG 091900Z 24007KT 10SM FEW042 31/21 A3012 450 54 2400 240/07 RMK AO2
14840KMKG MKG20020909140509609/09/02 14:05:31  5-MIN KMKG 091905Z VRB05KT 10SM FEW042 31/21 A3011 450 54 2400 VRB/05 RMK AO2
14840KMKG MKG20020909141009609/09/02 14:10:31  5-MIN KMKG 091910Z VRB05KT 10SM FEW042 32/22 A3011 450 55 2500 VRB/05 RMK AO2
14840KMKG MKG20020909141509609/09/02 14:15:31  5-MIN KMKG 091915Z 28007KT 10SM FEW042 31/21 A3011 460 54 2400 280/07 RMK AO2
14840KMKG MKG20020909142009609/09/02 14:20:31  5-MIN KMKG 091920Z 27007KT 10SM FEW042 31/21 A3011 460 54 2400 270/07 RMK AO2
14840KMKG MKG20020909142509609/09/02 14:25:31  5-MIN KMKG 091925Z 25007KT 10SM FEW042 31/21 A3011 460 54 2400 260/07 RMK AO2
14840KMKG MKG20020909143009609/09/02 14:30:31  5-MIN KMKG 091930Z 24007KT 10SM FEW042 31/21 A3011 460 54 2400 240/07 RMK AO2
14840KMKG MKG20020909143509609/09/02 14:35:31  5-MIN KMKG 091935Z 23007KT 10SM FEW042 31/21 A3010 460 56 2400 230/07 RMK AO2
14840KMKG MKG20020909144009609/09/02 14:40:31  5-MIN KMKG 091940Z 24007KT 10SM FEW042 31/21 A3010 460 56 2400 240/07 RMK AO2
14840KMKG MKG20020909144509609/09/02 14:45:31  5-MIN KMKG 091945Z 26006KT 10SM FEW042 31/21 A3010 470 56 2400 260/06 RMK AO2
14840KMKG MKG20020909145011309/09/02 14:50:31  5-MIN KMKG 091950Z VRB05KT 10SM FEW042 31/21 A3010 470 54 2500 VRB/05 RMK AO2 SLP187 T03110211
14840KMKG MKG20020909145511309/09/02 14:55:31  5-MIN KMKG 091955Z 24007KT 10SM FEW042 31/21 A3010 470 56 2400 250/07 RMK AO2 SLP187 T03060211
14840KMKG MKG20020909150009309/09/02 15:00:31  5-MIN KMKG 092000Z 27007KT 10SM CLR 31/21 A3009 470 56 2400 270/07 RMK AO2
14840KMKG MKG20020909150509309/09/02 15:05:31  5-MIN KMKG 092005Z 22007KT 10SM CLR 31/21 A3009 470 54 2500 220/07 RMK AO2
14840KMKG MKG20020909151009309/09/02 15:10:31  5-MIN KMKG 092010Z 23007KT 10SM CLR 31/21 A3009 470 56 2400 230/07 RMK AO2
14840KMKG MKG20020909151509309/09/02 15:15:31  5-MIN KMKG 092015Z 24008KT 10SM CLR 31/21 A3009 470 56 2400 240/08 RMK AO2
14840KMKG MKG20020909152009309/09/02 15:20:31  5-MIN KMKG 092020Z 24007KT 10SM CLR 31/21 A3009 470 56 2400 250/07 RMK AO2
14840KMKG MKG20020909152509309/09/02 15:25:31  5-MIN KMKG 092025Z 25007KT 10SM CLR 31/21 A3009 470 56 2400 250/07 RMK AO2
14840KMKG MKG20020909153009309/09/02 15:30:31  5-MIN KMKG 092030Z 22008KT 10SM CLR 31/21 A3009 480 56 2400 220/08 RMK AO2
14840KMKG MKG20020909153509609/09/02 15:35:31  5-MIN KMKG 092035Z 24007KT 10SM FEW042 30/21 A3009 480 56 2300 240/07 RMK AO2
14840KMKG MKG20020909154009609/09/02 15:40:31  5-MIN KMKG 092040Z 24008KT 10SM FEW042 30/21 A3009 480 58 2300 250/08 RMK AO2
14840KMKG MKG20020909154509609/09/02 15:45:31  5-MIN KMKG 092045Z 22007KT 10SM FEW042 30/22 A3009 480 60 2300 220/07 RMK AO2
14840KMKG MKG20020909155011909/09/02 15:50:31  5-MIN KMKG 092050Z 21008KT 10SM FEW042 30/22 A3008 480 60 2300 210/08 RMK AO2 SLP184 T03000217 58007
14840KMKG MKG20020909155511909/09/02 15:55:31  5-MIN KMKG 092055Z 22007KT 10SM FEW042 31/22 A3008 480 58 2400 230/07 RMK AO2 SLP183 T03060217 56019
14840KMKG MKG20020909160009309/09/02 16:00:31  5-MIN KMKG 092100Z 22008KT 10SM CLR 30/22 A3008 480 60 2300 230/08 RMK AO2
14840KMKG MKG20020909160509309/09/02 16:05:31  5-MIN KMKG 092105Z 23007KT 10SM CLR 30/22 A3008 480 60 2300 230/07 RMK AO2
14840KMKG MKG20020909161009309/09/02 16:10:31  5-MIN KMKG 092110Z 24007KT 10SM CLR 30/22 A3008 480 60 2300 240/07 RMK AO2
14840KMKG MKG20020909161509309/09/02 16:15:31  5-MIN KMKG 092115Z 23008KT 10SM CLR 29/22 A3008 480 62 2300 230/08 RMK AO2
14840KMKG MKG20020909162009309/09/02 16:20:31  5-MIN KMKG 092120Z 21007KT 10SM CLR 29/22 A3008 480 62 2300 220/07 RMK AO2
14840KMKG MKG20020909162509309/09/02 16:25:31  5-MIN KMKG 092125Z 23007KT 10SM CLR 30/22 A3008 480 60 2300 230/07 RMK AO2
14840KMKG MKG20020909163009309/09/02 16:30:31  5-MIN KMKG 092130Z 23007KT 10SM CLR 30/22 A3008 480 60 2300 240/07 RMK AO2
14840KMKG MKG20020909163509309/09/02 16:35:31  5-MIN KMKG 092135Z 23006KT 10SM CLR 29/22 A3008 480 62 2300 230/06 RMK AO2
14840KMKG MKG20020909164009309/09/02 16:40:31  5-MIN KMKG 092140Z 22006KT 10SM CLR 29/22 A3008 480 62 2300 220/06 RMK AO2
14840KMKG MKG20020909164509309/09/02 16:45:31  5-MIN KMKG 092145Z 22007KT 10SM CLR 29/22 A3008 480 62 2300 230/07 RMK AO2
14840KMKG MKG20020909165011009/09/02 16:50:31  5-MIN KMKG 092150Z 23006KT 10SM CLR 29/22 A3008 480 64 2300 230/06 RMK AO2 SLP183 T02940222
14840KMKG MKG20020909165511009/09/02 16:55:31  5-MIN KMKG 092155Z 23007KT 10SM CLR 29/22 A3008 480 64 2200 230/07 RMK AO2 SLP183 T02890217
14840KMKG MKG20020909170009209/09/02 17:00:31  5-MIN KMKG 092200Z 21006KT 9SM CLR 29/22 A3008 480 64 2200 220/06 RMK AO2
14840KMKG MKG20020909170509209/09/02 17:05:31  5-MIN KMKG 092205Z 23006KT 9SM CLR 29/22 A3008 490 64 2200 230/06 RMK AO2
14840KMKG MKG20020909171009209/09/02 17:10:31  5-MIN KMKG 092210Z 23007KT 9SM CLR 29/22 A3007 490 67 2200 230/07 RMK AO2
14840KMKG MKG20020909171509209/09/02 17:15:31  5-MIN KMKG 092215Z 23005KT 9SM CLR 29/22 A3007 490 64 2200 230/05 RMK AO2
14840KMKG MKG20020909172009209/09/02 17:20:31  5-MIN KMKG 092220Z 24006KT 9SM CLR 29/22 A3007 490 64 2200 240/06 RMK AO2
14840KMKG MKG20020909172509209/09/02 17:25:31  5-MIN KMKG 092225Z 22006KT 9SM CLR 28/22 A3007 490 69 2200 220/06 RMK AO2
14840KMKG MKG20020909173009209/09/02 17:30:31  5-MIN KMKG 092230Z 22007KT 8SM CLR 28/22 A3007 490 69 2200 230/07 RMK AO2
14840KMKG MKG20020909173509209/09/02 17:35:31  5-MIN KMKG 092235Z 22006KT 8SM CLR 28/22 A3007 490 69 2200 220/06 RMK AO2
14840KMKG MKG20020909174009209/09/02 17:40:31  5-MIN KMKG 092240Z 22007KT 8SM CLR 28/22 A3007 490 71 2100 220/07 RMK AO2
14840KMKG MKG20020909174509209/09/02 17:45:31  5-MIN KMKG 092245Z 22006KT 8SM CLR 28/22 A3007 490 71 2100 230/06 RMK AO2
14840KMKG MKG20020909175010909/09/02 17:50:31  5-MIN KMKG 092250Z 22007KT 8SM CLR 27/22 A3007 490 74 2100 230/07 RMK AO2 SLP179 T02720222
14840KMKG MKG20020909175510909/09/02 17:55:31  5-MIN KMKG 092255Z 22007KT 7SM CLR 27/22 A3007 490 74 2100 220/07 RMK AO2 SLP180 T02720222
14840KMKG MKG20020909180009209/09/02 18:00:31  5-MIN KMKG 092300Z 21007KT 7SM CLR 27/22 A3007 490 74 2100 220/07 RMK AO2
14840KMKG MKG20020909180509209/09/02 18:05:31  5-MIN KMKG 092305Z 21008KT 7SM CLR 27/22 A3007 490 76 2000 220/08 RMK AO2
14840KMKG MKG20020909181009209/09/02 18:10:31  5-MIN KMKG 092310Z 21007KT 7SM CLR 27/22 A3007 490 76 2000 220/07 RMK AO2
14840KMKG MKG20020909181509209/09/02 18:15:31  5-MIN KMKG 092315Z 21006KT 7SM CLR 27/22 A3007 490 76 2000 220/06 RMK AO2
14840KMKG MKG20020909182009509/09/02 18:20:31  5-MIN KMKG 092320Z 22005KT 6SM HZ CLR 26/22 A3007 490 79 1900 220/05 RMK AO2
14840KMKG MKG20020909182509509/09/02 18:25:31  5-MIN KMKG 092325Z 22006KT 6SM HZ CLR 26/23 A3007 490 81 1900 220/06 RMK AO2
14840KMKG MKG20020909183009509/09/02 18:30:31  5-MIN KMKG 092330Z 21006KT 6SM HZ CLR 26/23 A3007 490 81 1900 210/06 RMK AO2
14840KMKG MKG20020909183509509/09/02 18:35:31  5-MIN KMKG 092335Z 22006KT 6SM HZ CLR 26/23 A3007 500 81 1900 220/06 RMK AO2
14840KMKG MKG20020909184009509/09/02 18:40:31  5-MIN KMKG 092340Z 22004KT 6SM HZ CLR 26/23 A3007 500 84 1900 230/04 RMK AO2
14840KMKG MKG20020909184509509/09/02 18:45:31  5-MIN KMKG 092345Z 23004KT 6SM HZ CLR 26/23 A3007 490 84 1900 230/04 RMK AO2
14840KMKG MKG20020909185013009/09/02 18:50:31  5-MIN KMKG 092350Z 22004KT 6SM HZ CLR 26/23 A3007 500 84 1900 220/04 RMK AO2 SLP178 T02560228 10317 20256 56019
14840KMKG MKG20020909185513009/09/02 18:55:31  5-MIN KMKG 092355Z 22003KT 6SM BR CLR 25/23 A3007 500 87 1800 230/03 RMK AO2 SLP178 T02500228 10317 20250 58006
14840KMKG MKG20020909190009509/09/02 19:00:31  5-MIN KMKG 100000Z 21004KT 6SM BR CLR 25/23 A3006 500 87 1800 220/04 RMK AO2
14840KMKG MKG20020909190509509/09/02 19:05:31  5-MIN KMKG 100005Z 20004KT 6SM BR CLR 24/22 A3006 500 87 1700 210/04 RMK AO2
14840KMKG MKG20020909191009509/09/02 19:10:31  5-MIN KMKG 100010Z 19004KT 6SM BR CLR 24/22 A3006 500 87 1700 200/04 RMK AO2
14840KMKG MKG20020909191509509/09/02 19:15:31  5-MIN KMKG 100015Z 18004KT 6SM HZ CLR 25/22 A3006 500 84 1800 190/04 RMK AO2
14840KMKG MKG20020909192009509/09/02 19:20:31  5-MIN KMKG 100020Z 18003KT 6SM BR CLR 24/22 A3006 500 87 1700 190/03 RMK AO2
14840KMKG MKG20020909192509509/09/02 19:25:31  5-MIN KMKG 100025Z 16003KT 6SM HZ CLR 25/22 A3006 500 84 1800 170/03 RMK AO2
14840KMKG MKG20020909193009209/09/02 19:30:31  5-MIN KMKG 100030Z 17003KT 7SM CLR 24/22 A3006 500 87 1700 170/03 RMK AO2
14840KMKG MKG20020909193509209/09/02 19:35:31  5-MIN KMKG 100035Z 16003KT 7SM CLR 24/22 A3006 500 87 1700 160/03 RMK AO2
14840KMKG MKG20020909194009209/09/02 19:40:31  5-MIN KMKG 100040Z 16003KT 7SM CLR 24/22 A3006 500 87 1800 160/03 RMK AO2
14840KMKG MKG20020909194509209/09/02 19:45:31  5-MIN KMKG 100045Z 16003KT 7SM CLR 24/22 A3006 500 87 1700 170/03 RMK AO2
14840KMKG MKG20020909195010909/09/02 19:50:31  5-MIN KMKG 100050Z 00000KT 7SM CLR 24/22 A3006 500 87 1700 000/00 RMK AO2 SLP176 T02440222
14840KMKG MKG20020909195510909/09/02 19:55:31  5-MIN KMKG 100055Z 00000KT 7SM CLR 24/22 A3006 500 90 1700 000/00 RMK AO2 SLP177 T02390222
14840KMKG MKG20020909200009509/09/02 20:00:31  5-MIN KMKG 100100Z 00000KT 6SM BR CLR 24/22 A3006 500 90 1700 000/00 RMK AO2
14840KMKG MKG20020909200509509/09/02 20:05:31  5-MIN KMKG 100105Z 00000KT 6SM BR CLR 23/22 A3006 500 93 1600 000/00 RMK AO2
14840KMKG MKG20020909201009509/09/02 20:10:31  5-MIN KMKG 100110Z 17003KT 6SM BR CLR 23/22 A3006 500 93 1600 180/03 RMK AO2
14840KMKG MKG20020909201509509/09/02 20:15:31  5-MIN KMKG 100115Z 00000KT 6SM BR CLR 23/22 A3006 500 93 1600 000/00 RMK AO2
14840KMKG MKG20020909202009509/09/02 20:20:31  5-MIN KMKG 100120Z 00000KT 6SM BR CLR 23/22 A3006 500 93 1600 000/00 RMK AO2
14840KMKG MKG20020909202509509/09/02 20:25:31  5-MIN KMKG 100125Z 00000KT 6SM BR CLR 23/22 A3006 500 93 1600 000/00 RMK AO2
14840KMKG MKG20020909203009509/09/02 20:30:31  5-MIN KMKG 100130Z 00000KT 6SM BR CLR 23/22 A3006 500 93 1600 000/00 RMK AO2
14840KMKG MKG20020909203509509/09/02 20:35:31  5-MIN KMKG 100135Z 00000KT 6SM BR CLR 23/22 A3006 500 93 1600 000/00 RMK AO2
14840KMKG MKG20020909204009509/09/02 20:40:31  5-MIN KMKG 100140Z 00000KT 5SM BR CLR 23/22 A3006 500 97 1600 000/00 RMK AO2
14840KMKG MKG20020909204509509/09/02 20:45:31  5-MIN KMKG 100145Z 00000KT 5SM BR CLR 23/22 A3006 500 93 1600 000/00 RMK AO2
14840KMKG MKG20020909234509509/09/02 23:45:31  5-MIN KMKG 100445Z 19003KT 5SM BR CLR 22/21 A3003 530 97 1500 190/03 RMK AO2
14840KMKG MKG20020909235012209/09/02 23:50:31  5-MIN KMKG 100450Z 18003KT 5SM BR CLR 22/21 A3003 530 93 1500 190/03 RMK AO2 SLP165 T02170206 403170167
14840KMKG MKG20020909235512309/09/02 23:55:31  5-MIN KMKG 100455Z 20003KT 5SM BR CLR 21/21 A3003 530 100 1300 200/03 RMK AO2 SLP166 T02060206 403170167
14840KMKG MKG20020910000009509/10/02 00:00:31  5-MIN KMKG 100500Z 18004KT 5SM BR CLR 21/21 A3003 530 97 1400 190/04 RMK AO2
14840KMKG MKG20020910000509509/10/02 00:05:31  5-MIN KMKG 100505Z 19004KT 5SM BR CLR 21/21 A3003 530 97 1400 190/04 RMK AO2
14840KMKG MKG20020910001009509/10/02 00:10:31  5-MIN KMKG 100510Z 21003KT 5SM BR CLR 21/21 A3003 530 97 1400 210/03 RMK AO2
14840KMKG MKG20020910001509509/10/02 00:15:31  5-MIN KMKG 100515Z 21004KT 5SM BR CLR 21/21 A3003 530 97 1400 210/04 RMK AO2
14840KMKG MKG20020910002009509/10/02 00:20:31  5-MIN KMKG 100520Z 22003KT 5SM BR CLR 21/21 A3003 530 97 1400 220/03 RMK AO2
14840KMKG MKG20020910002509509/10/02 00:25:31  5-MIN KMKG 100525Z 22003KT 5SM BR CLR 22/21 A3002 530 97 1500 220/03 RMK AO2
14840KMKG MKG20020910003009609/10/02 00:30:31  5-MIN KMKG 100530Z 22004KT 4SM BR CLR 22/22 A3003 530 100 1500 220/04 RMK AO2
14840KMKG MKG20020910003509609/10/02 00:35:31  5-MIN KMKG 100535Z 22004KT 4SM BR CLR 22/22 A3002 540 100 1500 220/04 RMK AO2
14840KMKG MKG20020910004009609/10/02 00:40:31  5-MIN KMKG 100540Z 22005KT 4SM BR CLR 22/22 A3002 540 100 1500 220/05 RMK AO2
14840KMKG MKG20020910004509609/10/02 00:45:31  5-MIN KMKG 100545Z 21005KT 4SM BR CLR 21/21 A3002 540 100 1400 210/05 RMK AO2
14840KMKG MKG20020910005013109/10/02 00:50:31  5-MIN KMKG 100550Z 20005KT 4SM BR CLR 22/22 A3002 540 100 1500 200/05 RMK AO2 SLP162 T02170217 10250 20206 57004
14840KMKG MKG20020910005513109/10/02 00:55:31  5-MIN KMKG 100555Z 21004KT 5SM BR CLR 22/22 A3002 540 100 1500 210/04 RMK AO2 SLP161 T02170217 10250 20206 58012
14840KMKG MKG20020910010009509/10/02 01:00:31  5-MIN KMKG 100600Z 20004KT 4SM BR CLR 22/21 A3002 540 97 1500 200/04 RMK AO2
14840KMKG MKG20020910010509609/10/02 01:05:31  5-MIN KMKG 100605Z 20004KT 4SM BR CLR 22/22 A3002 540 100 1500 210/04 RMK AO2
14840KMKG MKG20020910011009609/10/02 01:10:31  5-MIN KMKG 100610Z 22004KT 4SM BR CLR 22/22 A3002 540 100 1500 230/04 RMK AO2
14840KMKG MKG20020910011509609/10/02 01:15:31  5-MIN KMKG 100615Z 21005KT 4SM BR CLR 22/22 A3002 540 100 1500 220/05 RMK AO2
14840KMKG MKG20020910012009609/10/02 01:20:31  5-MIN KMKG 100620Z 21005KT 4SM BR CLR 22/22 A3002 540 100 1500 220/05 RMK AO2
14840KMKG MKG20020910012509609/10/02 01:25:31  5-MIN KMKG 100625Z 22005KT 3SM BR CLR 22/22 A3001 540 100 1500 220/05 RMK AO2
14840KMKG MKG20020910013009609/10/02 01:30:31  5-MIN KMKG 100630Z 21005KT 3SM BR CLR 22/22 A3001 550 100 1600 220/05 RMK AO2
14840KMKG MKG20020910013509609/10/02 01:35:31  5-MIN KMKG 100635Z 22005KT 3SM BR CLR 22/22 A3001 550 100 1600 220/05 RMK AO2
14840KMKG MKG20020910014009609/10/02 01:40:31  5-MIN KMKG 100640Z 22005KT 3SM BR CLR 22/22 A3001 550 100 1600 220/05 RMK AO2
14840KMKG MKG20020910014509609/10/02 01:45:31  5-MIN KMKG 100645Z 22005KT 3SM BR CLR 22/22 A3001 550 100 1500 220/05 RMK AO2
14840KMKG MKG20020910015011309/10/02 01:50:31  5-MIN KMKG 100650Z 22006KT 4SM BR CLR 22/22 A3001 550 100 1600 220/06 RMK AO2 SLP157 T02220222
14840KMKG MKG20020910015511309/10/02 01:55:31  5-MIN KMKG 100655Z 21005KT 4SM BR CLR 22/22 A3000 550 100 1600 210/05 RMK AO2 SLP156 T02220222
14840KMKG MKG20020910020009609/10/02 02:00:31  5-MIN KMKG 100700Z 19005KT 4SM BR CLR 22/22 A3000 550 100 1600 200/05 RMK AO2
14840KMKG MKG20020910020509609/10/02 02:05:31  5-MIN KMKG 100705Z 20005KT 5SM BR CLR 22/22 A3000 560 100 1600 210/05 RMK AO2
14840KMKG MKG20020910021009609/10/02 02:10:31  5-MIN KMKG 100710Z 20005KT 5SM BR CLR 22/22 A3000 560 100 1600 210/05 RMK AO2
14840KMKG MKG20020910021509609/10/02 02:15:31  5-MIN KMKG 100715Z 22005KT 5SM BR CLR 22/22 A3000 550 100 1500 230/05 RMK AO2
14840KMKG MKG20020910022009609/10/02 02:20:31  5-MIN KMKG 100720Z 21006KT 5SM BR CLR 22/22 A3000 560 100 1600 210/06 RMK AO2
14840KMKG MKG20020910022509609/10/02 02:25:31  5-MIN KMKG 100725Z 21005KT 4SM BR CLR 22/22 A3000 560 100 1600 210/05 RMK AO2
14840KMKG MKG20020910023009609/10/02 02:30:31  5-MIN KMKG 100730Z 21005KT 4SM BR CLR 22/22 A3000 560 100 1600 220/05 RMK AO2
14840KMKG MKG20020910023509609/10/02 02:35:31  5-MIN KMKG 100735Z 21005KT 4SM BR CLR 22/22 A3000 560 100 1600 220/05 RMK AO2
14840KMKG MKG20020910024009609/10/02 02:40:31  5-MIN KMKG 100740Z 22005KT 4SM BR CLR 22/22 A3000 560 100 1600 220/05 RMK AO2
14840KMKG MKG20020910024509609/10/02 02:45:31  5-MIN KMKG 100745Z 22005KT 4SM BR CLR 22/22 A3000 560 100 1600 220/05 RMK AO2
14840KMKG MKG20020910025011309/10/02 02:50:31  5-MIN KMKG 100750Z 22005KT 4SM BR CLR 22/22 A3000 560 100 1600 220/05 RMK AO2 SLP154 T02220222
14840KMKG MKG20020910025511309/10/02 02:55:31  5-MIN KMKG 100755Z 21005KT 4SM BR CLR 22/22 A3000 560 100 1600 220/05 RMK AO2 SLP153 T02220222
14840KMKG MKG20020910030009609/10/02 03:00:31  5-MIN KMKG 100800Z 21005KT 4SM BR CLR 22/22 A2999 560 100 1600 210/05 RMK AO2
14840KMKG MKG20020910030509609/10/02 03:05:31  5-MIN KMKG 100805Z 22005KT 4SM BR CLR 22/22 A2999 560 100 1600 220/05 RMK AO2
14840KMKG MKG20020910031009609/10/02 03:10:31  5-MIN KMKG 100810Z 21005KT 3SM BR CLR 22/22 A2999 570 100 1600 220/05 RMK AO2
14840KMKG MKG20020910031509409/10/02 03:15:31  5-MIN KMKG 100815Z 22004KT 3SM BR 22/22 A2999 570 100 1600 230/04 RMK AO2 $
14840KMKG MKG20020910032009409/10/02 03:20:31  5-MIN KMKG 100820Z 21005KT 4SM BR 22/22 A2999 570 100 1600 210/05 RMK AO2 $
14840KMKG MKG20020910032509409/10/02 03:25:31  5-MIN KMKG 100825Z 21005KT 4SM BR 22/22 A2998 570 100 1600 210/05 RMK AO2 $
14840KMKG MKG20020910033009409/10/02 03:30:31  5-MIN KMKG 100830Z 21005KT 4SM BR 22/22 A2998 570 100 1600 210/05 RMK AO2 $
14840KMKG MKG20020910033509409/10/02 03:35:31  5-MIN KMKG 100835Z 22005KT 4SM BR 22/22 A2998 570 100 1600 220/05 RMK AO2 $
14840KMKG MKG20020910034009409/10/02 03:40:31  5-MIN KMKG 100840Z 22006KT 4SM BR 22/22 A2998 570 100 1600 220/06 RMK AO2 $
14840KMKG MKG20020910034509809/10/02 03:45:31  5-MIN KMKG 100845Z 22006KT 4SM BR CLR 22/22 A2998 570 100 1600 220/06 RMK AO2 $
14840KMKG MKG20020910035012709/10/02 03:50:31  5-MIN KMKG 100850Z 22006KT 4SM BR CLR 22/22 A2998 570 100 1600 220/06 RMK AO2 SLP148 6//// T02220222 58012 $
14840KMKG MKG20020910035512709/10/02 03:55:31  5-MIN KMKG 100855Z 23006KT 4SM BR CLR 22/22 A2998 570 100 1600 230/06 RMK AO2 SLP148 6//// T02220222 56013 $
14840KMKG MKG20020910040009809/10/02 04:00:31  5-MIN KMKG 100900Z 23006KT 4SM BR CLR 23/23 A2998 570 100 1600 230/06 RMK AO2 $
14840KMKG MKG20020910040509709/10/02 04:05:31  5-MIN KMKG 100905Z 23007KT 5SM BR CLR 23/23 A2998 580 97 1700 230/07 RMK AO2 $
14840KMKG MKG20020910041009709/10/02 04:10:31  5-MIN KMKG 100910Z 23007KT 5SM BR CLR 23/23 A2998 580 97 1700 230/07 RMK AO2 $
14840KMKG MKG20020910041509709/10/02 04:15:31  5-MIN KMKG 100915Z 22007KT 5SM BR CLR 23/23 A2998 580 97 1700 230/07 RMK AO2 $
14840KMKG MKG20020910042009709/10/02 04:20:31  5-MIN KMKG 100920Z 23007KT 5SM BR CLR 23/23 A2997 580 97 1700 230/07 RMK AO2 $
14840KMKG MKG20020910042509709/10/02 04:25:31  5-MIN KMKG 100925Z 22007KT 5SM BR CLR 23/23 A2997 580 97 1700 230/07 RMK AO2 $
14840KMKG MKG20020910043009709/10/02 04:30:31  5-MIN KMKG 100930Z 22006KT 5SM BR CLR 23/23 A2997 580 97 1700 230/06 RMK AO2 $
14840KMKG MKG20020910043509709/10/02 04:35:31  5-MIN KMKG 100935Z 22006KT 4SM BR CLR 23/22 A2997 580 97 1700 230/06 RMK AO2 $
14840KMKG MKG20020910044009809/10/02 04:40:31  5-MIN KMKG 100940Z 22006KT 4SM BR CLR 23/23 A2997 580 100 1700 220/06 RMK AO2 $
14840KMKG MKG20020910044509809/10/02 04:45:31  5-MIN KMKG 100945Z 22006KT 4SM BR CLR 23/23 A2997 580 100 1700 220/06 RMK AO2 $
14840KMKG MKG20020910045011509/10/02 04:50:31  5-MIN KMKG 100950Z 22006KT 4SM BR CLR 22/22 A2997 590 100 1600 220/06 RMK AO2 SLP143 T02220222 $
14840KMKG MKG20020910045511509/10/02 04:55:31  5-MIN KMKG 100955Z 22006KT 4SM BR CLR 22/22 A2996 590 100 1600 220/06 RMK AO2 SLP142 T02220222 $
14840KMKG MKG20020910050009809/10/02 05:00:31  5-MIN KMKG 101000Z 22005KT 4SM BR CLR 23/23 A2996 590 100 1700 220/05 RMK AO2 $
14840KMKG MKG20020910050509809/10/02 05:05:31  5-MIN KMKG 101005Z 23005KT 4SM BR CLR 23/23 A2996 590 100 1700 230/05 RMK AO2 $
14840KMKG MKG20020910051009709/10/02 05:10:31  5-MIN KMKG 101010Z 23005KT 4SM BR CLR 23/22 A2996 590 97 1700 230/05 RMK AO2 $
14840KMKG MKG20020910051509709/10/02 05:15:31  5-MIN KMKG 101015Z 22004KT 4SM BR CLR 23/22 A2996 590 97 1700 230/04 RMK AO2 $
14840KMKG MKG20020910052009709/10/02 05:20:31  5-MIN KMKG 101020Z 22005KT 4SM BR CLR 23/22 A2996 590 97 1700 220/05 RMK AO2 $
14840KMKG MKG20020910052509709/10/02 05:25:31  5-MIN KMKG 101025Z 22005KT 4SM BR CLR 23/22 A2996 590 97 1700 220/05 RMK AO2 $
14840KMKG MKG20020910053009709/10/02 05:30:31  5-MIN KMKG 101030Z 22005KT 4SM BR CLR 23/22 A2996 590 97 1700 220/05 RMK AO2 $
14840KMKG MKG20020910053509709/10/02 05:35:31  5-MIN KMKG 101035Z 21004KT 4SM BR CLR 23/22 A2996 590 97 1700 220/04 RMK AO2 $
14840KMKG MKG20020910054009709/10/02 05:40:31  5-MIN KMKG 101040Z 21004KT 4SM BR CLR 23/22 A2996 590 97 1700 220/04 RMK AO2 $
14840KMKG MKG20020910054509709/10/02 05:45:31  5-MIN KMKG 101045Z 22004KT 4SM BR CLR 23/22 A2996 590 97 1700 230/04 RMK AO2 $
14840KMKG MKG20020910055011409/10/02 05:50:31  5-MIN KMKG 101050Z 22004KT 4SM BR CLR 23/22 A2996 590 97 1700 230/04 RMK AO2 SLP141 T02280222 $
14840KMKG MKG20020910055511409/10/02 05:55:31  5-MIN KMKG 101055Z 23005KT 4SM BR CLR 23/22 A2996 590 93 1700 230/05 RMK AO2 SLP141 T02330222 $
14840KMKG MKG20020910060009709/10/02 06:00:31  5-MIN KMKG 101100Z 23005KT 5SM BR CLR 23/22 A2996 590 93 1700 240/05 RMK AO2 $
14840KMKG MKG20020910060509709/10/02 06:05:31  5-MIN KMKG 101105Z 24006KT 5SM BR CLR 23/22 A2996 590 93 1700 240/06 RMK AO2 $
14840KMKG MKG20020910061009709/10/02 06:10:31  5-MIN KMKG 101110Z 23008KT 5SM BR CLR 23/22 A2996 590 93 1700 240/08 RMK AO2 $
14840KMKG MKG20020910061509709/10/02 06:15:31  5-MIN KMKG 101115Z 23007KT 5SM BR CLR 24/22 A2996 590 90 1800 240/07 RMK AO2 $
14840KMKG MKG20020910062009709/10/02 06:20:31  5-MIN KMKG 101120Z 23006KT 4SM BR CLR 24/22 A2996 600 90 1800 240/06 RMK AO2 $
14840KMKG MKG20020910062509709/10/02 06:25:31  5-MIN KMKG 101125Z 23005KT 3SM BR CLR 23/22 A2996 600 93 1700 230/05 RMK AO2 $
14840KMKG MKG20020910063009709/10/02 06:30:31  5-MIN KMKG 101130Z 22005KT 3SM BR CLR 23/22 A2995 600 93 1700 220/05 RMK AO2 $
14840KMKG MKG20020910063509709/10/02 06:35:31  5-MIN KMKG 101135Z 22005KT 3SM BR CLR 23/22 A2995 600 93 1700 230/05 RMK AO2 $
14840KMKG MKG20020910064009709/10/02 06:40:31  5-MIN KMKG 101140Z 22005KT 3SM BR CLR 23/22 A2995 600 97 1700 220/05 RMK AO2 $
14840KMKG MKG20020910064509709/10/02 06:45:31  5-MIN KMKG 101145Z 22005KT 3SM BR CLR 23/22 A2995 600 97 1700 230/05 RMK AO2 $
14840KMKG MKG20020910065014409/10/02 06:50:31  5-MIN KMKG 101150Z 22004KT 3SM BR CLR 23/22 A2995 600 93 1700 220/04 RMK AO2 SLP138 6//// 7//// T02330222 10239 20217 56013 $
14840KMKG MKG20020910065513209/10/02 06:55:31  5-MIN KMKG 101155Z 22004KT 3SM BR CLR 23/22 A2995 600 93 1700 230/04 RMK AO2 SLP139 T02330222 10239 20217 56009 $
14840KMKG MKG20020910070009709/10/02 07:00:31  5-MIN KMKG 101200Z 23005KT 3SM BR CLR 23/23 A2995 600 97 1700 230/05 RMK AO2 $
14840KMKG MKG20020910070509709/10/02 07:05:31  5-MIN KMKG 101205Z 23007KT 3SM BR CLR 24/23 A2995 600 93 1800 240/07 RMK AO2 $
14840KMKG MKG20020910071009509/10/02 07:10:31  5-MIN KMKG 101210Z 23007KT 3SM BR CLR 24/23 A2995 600 93 1800 240/07 RMK AO2
14840KMKG MKG20020910071509509/10/02 07:15:31  5-MIN KMKG 101215Z 23007KT 3SM BR CLR 24/23 A2995 600 93 1800 230/07 RMK AO2
14840KMKG MKG20020910072009509/10/02 07:20:31  5-MIN KMKG 101220Z 23007KT 3SM BR CLR 24/23 A2995 600 93 1800 230/07 RMK AO2
14840KMKG MKG20020910072509509/10/02 07:25:31  5-MIN KMKG 101225Z 23008KT 3SM BR CLR 24/23 A2995 600 90 1900 230/08 RMK AO2
14840KMKG MKG20020910073009509/10/02 07:30:31  5-MIN KMKG 101230Z 23008KT 4SM BR CLR 24/23 A2995 600 90 1900 240/08 RMK AO2
14840KMKG MKG20020910073509509/10/02 07:35:31  5-MIN KMKG 101235Z 23008KT 4SM BR CLR 24/22 A2995 600 87 1900 240/08 RMK AO2
14840KMKG MKG20020910074009509/10/02 07:40:31  5-MIN KMKG 101240Z 24007KT 4SM BR CLR 24/22 A2995 600 87 1900 240/07 RMK AO2
14840KMKG MKG20020910074509509/10/02 07:45:31  5-MIN KMKG 101245Z 24008KT 4SM BR CLR 24/22 A2995 600 87 1900 250/08 RMK AO2
14840KMKG MKG20020910075011209/10/02 07:50:31  5-MIN KMKG 101250Z 24007KT 4SM HZ CLR 25/22 A2995 600 84 1900 240/07 RMK AO2 SLP138 T02500222
14840KMKG MKG20020910075511209/10/02 07:55:31  5-MIN KMKG 101255Z 24009KT 4SM HZ CLR 25/22 A2995 600 84 1900 240/09 RMK AO2 SLP138 T02500222
14840KMKG MKG20020910080009509/10/02 08:00:31  5-MIN KMKG 101300Z 24009KT 4SM HZ CLR 25/22 A2995 610 84 1900 240/09 RMK AO2
14840KMKG MKG20020910080509509/10/02 08:05:31  5-MIN KMKG 101305Z 24009KT 5SM HZ CLR 25/22 A2995 610 84 1900 240/09 RMK AO2
14840KMKG MKG20020910081009509/10/02 08:10:31  5-MIN KMKG 101310Z 24008KT 5SM HZ CLR 26/22 A2994 610 79 2000 240/08 RMK AO2
14840KMKG MKG20020910081509509/10/02 08:15:31  5-MIN KMKG 101315Z 24009KT 5SM HZ CLR 26/22 A2994 610 79 2000 240/09 RMK AO2
14840KMKG MKG20020910082009509/10/02 08:20:31  5-MIN KMKG 101320Z 24008KT 5SM HZ CLR 26/22 A2994 610 76 2100 240/08 RMK AO2
14840KMKG MKG20020910082509509/10/02 08:25:31  5-MIN KMKG 101325Z 23008KT 6SM HZ CLR 26/22 A2994 610 76 2100 240/08 RMK AO2
14840KMKG MKG20020910083009509/10/02 08:30:31  5-MIN KMKG 101330Z 23009KT 6SM HZ CLR 26/22 A2994 610 76 2100 230/09 RMK AO2
14840KMKG MKG20020910083509509/10/02 08:35:31  5-MIN KMKG 101335Z 24009KT 6SM HZ CLR 26/21 A2994 620 73 2100 240/09 RMK AO2
14840KMKG MKG20020910084009509/10/02 08:40:31  5-MIN KMKG 101340Z 23009KT 6SM HZ CLR 27/22 A2993 620 73 2100 240/09 RMK AO2
14840KMKG MKG20020910084509509/10/02 08:45:31  5-MIN KMKG 101345Z 24008KT 6SM HZ CLR 27/22 A2993 620 73 2100 240/08 RMK AO2
14840KMKG MKG20020910085011209/10/02 08:50:31  5-MIN KMKG 101350Z 24008KT 6SM HZ CLR 27/22 A2993 620 73 2100 240/08 RMK AO2 SLP133 T02670217
14840KMKG MKG20020910085511209/10/02 08:55:31  5-MIN KMKG 101355Z 23011KT 6SM HZ CLR 27/22 A2994 620 73 2100 230/11 RMK AO2 SLP133 T02670217
14840KMKG MKG20020910090009509/10/02 09:00:31  5-MIN KMKG 101400Z 24009KT 6SM HZ CLR 27/22 A2993 620 73 2100 240/09 RMK AO2
14840KMKG MKG20020910090509509/10/02 09:05:31  5-MIN KMKG 101405Z 24010KT 6SM HZ CLR 27/22 A2993 620 73 2100 240/10 RMK AO2
14840KMKG MKG20020910091009509/10/02 09:10:31  5-MIN KMKG 101410Z 23009KT 6SM HZ CLR 27/21 A2993 620 71 2100 240/09 RMK AO2
14840KMKG MKG20020910091509509/10/02 09:15:31  5-MIN KMKG 101415Z 23009KT 6SM HZ CLR 27/22 A2993 620 73 2100 230/09 RMK AO2
14840KMKG MKG20020910092009509/10/02 09:20:31  5-MIN KMKG 101420Z 23008KT 6SM HZ CLR 27/22 A2993 620 71 2200 240/08 RMK AO2
14840KMKG MKG20020910092509509/10/02 09:25:31  5-MIN KMKG 101425Z 23010KT 6SM HZ CLR 27/22 A2993 620 73 2100 240/10 RMK AO2
14840KMKG MKG20020910093009509/10/02 09:30:31  5-MIN KMKG 101430Z 23010KT 6SM HZ CLR 27/22 A2993 620 73 2200 230/10 RMK AO2
14840KMKG MKG20020910093509509/10/02 09:35:31  5-MIN KMKG 101435Z 23010KT 6SM HZ CLR 27/22 A2993 620 73 2200 230/10 RMK AO2
14840KMKG MKG20020910094009509/10/02 09:40:31  5-MIN KMKG 101440Z 23010KT 6SM HZ CLR 27/22 A2992 630 71 2200 240/10 RMK AO2
14840KMKG MKG20020910094509509/10/02 09:45:31  5-MIN KMKG 101445Z 22012KT 6SM HZ CLR 27/22 A2992 630 71 2200 220/12 RMK AO2
14840KMKG MKG20020910095011809/10/02 09:50:31  5-MIN KMKG 101450Z 22012KT 6SM HZ CLR 27/22 A2992 630 71 2200 230/12 RMK AO2 SLP127 T02720217 56009
14840KMKG MKG20020910095511809/10/02 09:55:31  5-MIN KMKG 101455Z 24011KT 6SM HZ CLR 27/21 A2992 630 69 2200 240/11 RMK AO2 SLP127 T02720211 58012
14840KMKG MKG20020910100009509/10/02 10:00:31  5-MIN KMKG 101500Z 23011KT 6SM HZ CLR 27/21 A2992 630 69 2200 230/11 RMK AO2
14840KMKG MKG20020910100509209/10/02 10:05:31  5-MIN KMKG 101505Z 24010KT 7SM CLR 28/21 A2992 630 66 2300 240/10 RMK AO2
14840KMKG MKG20020910101009209/10/02 10:10:31  5-MIN KMKG 101510Z 23009KT 7SM CLR 28/22 A2992 630 69 2300 240/09 RMK AO2
14840KMKG MKG20020910101509509/10/02 10:15:31  5-MIN KMKG 101515Z 23009KT 6SM HZ CLR 27/22 A2992 630 71 2200 230/09 RMK AO2
14840KMKG MKG20020910102009509/10/02 10:20:31  5-MIN KMKG 101520Z 22012KT 6SM HZ CLR 27/22 A2992 630 73 2200 230/12 RMK AO2
14840KMKG MKG20020910102509509/10/02 10:25:31  5-MIN KMKG 101525Z 22011KT 6SM HZ CLR 27/21 A2992 630 69 2200 230/11 RMK AO2
14840KMKG MKG20020910103009509/10/02 10:30:31  5-MIN KMKG 101530Z 23009KT 6SM HZ CLR 27/21 A2991 640 69 2200 240/09 RMK AO2
14840KMKG MKG20020910103509509/10/02 10:35:31  5-MIN KMKG 101535Z 24009KT 6SM HZ CLR 27/22 A2991 640 71 2200 240/09 RMK AO2
14840KMKG MKG20020910104009509/10/02 10:40:31  5-MIN KMKG 101540Z 23011KT 6SM HZ CLR 28/21 A2991 640 66 2300 240/11 RMK AO2
14840KMKG MKG20020910104509509/10/02 10:45:31  5-MIN KMKG 101545Z 22011KT 6SM HZ CLR 28/22 A2991 640 69 2300 230/11 RMK AO2
14840KMKG MKG20020910105011209/10/02 10:50:31  5-MIN KMKG 101550Z 23011KT 6SM HZ CLR 28/22 A2991 640 66 2400 230/11 RMK AO2 SLP123 T02830217
14840KMKG MKG20020910105510909/10/02 10:55:31  5-MIN KMKG 101555Z 23010KT 7SM CLR 28/21 A2991 640 66 2300 240/10 RMK AO2 SLP123 T02780211
14840KMKG MKG20020910110009509/10/02 11:00:31  5-MIN KMKG 101600Z 22011KT 6SM HZ CLR 28/22 A2991 640 69 2300 220/11 RMK AO2
14840KMKG MKG20020910110509809/10/02 11:05:31  5-MIN KMKG 101605Z 22010KT 6SM HZ FEW060 28/22 A2990 650 66 2400 230/10 RMK AO2
14840KMKG MKG20020910111009809/10/02 11:10:31  5-MIN KMKG 101610Z 22009KT 6SM HZ SCT060 28/22 A2990 650 69 2300 230/09 RMK AO2
14840KMKG MKG20020910111509809/10/02 11:15:31  5-MIN KMKG 101615Z 22013KT 6SM HZ BKN060 28/22 A2990 650 69 2300 220/13 RMK AO2
14840KMKG MKG20020910112009809/10/02 11:20:31  5-MIN KMKG 101620Z 22011KT 6SM HZ BKN065 27/22 A2990 650 71 2200 230/11 RMK AO2
14840KMKG MKG20020910112509809/10/02 11:25:31  5-MIN KMKG 101625Z 22011KT 6SM HZ BKN060 27/22 A2990 650 71 2200 230/11 RMK AO2
14840KMKG MKG20020910113009809/10/02 11:30:31  5-MIN KMKG 101630Z 22012KT 6SM HZ BKN060 27/22 A2990 650 71 2200 220/12 RMK AO2
14840KMKG MKG20020910113509809/10/02 11:35:31  5-MIN KMKG 101635Z 22012KT 6SM HZ BKN065 28/22 A2989 650 69 2300 220/12 RMK AO2
14840KMKG MKG20020910114009809/10/02 11:40:31  5-MIN KMKG 101640Z 23011KT 6SM HZ SCT065 28/22 A2989 660 69 2300 230/11 RMK AO2
14840KMKG MKG20020911235011909/11/02 23:50:31  5-MIN KMKG 120450Z 00000KT 10SM CLR 13/11 A3010 470 86 400 000/00 RMK AO2 SLP191 T01330111 402330128
14840KMKG MKG20020911235511909/11/02 23:55:31  5-MIN KMKG 120455Z 00000KT 10SM CLR 13/12 A3010 470 93 400 000/00 RMK AO2 SLP191 T01280117 402330128
14840KMKG MKG20020912000009209/12/02 00:00:31  5-MIN KMKG 120500Z 00000KT 10SM CLR 13/12 A3010 470 89 400 000/00 RMK AO2
14840KMKG MKG20020912000509209/12/02 00:05:31  5-MIN KMKG 120505Z 00000KT 10SM CLR 13/12 A3010 470 89 400 000/00 RMK AO2
14840KMKG MKG20020912001009209/12/02 00:10:31  5-MIN KMKG 120510Z 00000KT 10SM CLR 13/11 A3010 470 89 400 000/00 RMK AO2
14840KMKG MKG20020912001509209/12/02 00:15:31  5-MIN KMKG 120515Z 00000KT 10SM CLR 12/11 A3010 470 93 300 000/00 RMK AO2
14840KMKG MKG20020912002009209/12/02 00:20:31  5-MIN KMKG 120520Z 00000KT 10SM CLR 12/11 A3010 470 93 300 000/00 RMK AO2
14840KMKG MKG20020912002509209/12/02 00:25:31  5-MIN KMKG 120525Z 00000KT 10SM CLR 12/11 A3009 470 96 200 000/00 RMK AO2
14840KMKG MKG20020912003009209/12/02 00:30:31  5-MIN KMKG 120530Z 00000KT 10SM CLR 12/11 A3009 470 93 300 000/00 RMK AO2
14840KMKG MKG20020912003509209/12/02 00:35:31  5-MIN KMKG 120535Z 00000KT 10SM CLR 12/11 A3009 470 93 300 000/00 RMK AO2
14840KMKG MKG20020912004009209/12/02 00:40:31  5-MIN KMKG 120540Z 00000KT 10SM CLR 13/11 A3009 470 89 400 000/00 RMK AO2
14840KMKG MKG20020912004509209/12/02 00:45:31  5-MIN KMKG 120545Z 00000KT 10SM CLR 12/11 A3009 470 93 300 000/00 RMK AO2
14840KMKG MKG20020912005012709/12/02 00:50:31  5-MIN KMKG 120550Z 00000KT 10SM CLR 12/11 A3009 470 93 300 000/00 RMK AO2 SLP189 T01220111 10194 20117 51012
14840KMKG MKG20020912005512709/12/02 00:55:31  5-MIN KMKG 120555Z 00000KT 10SM CLR 12/11 A3009 470 89 300 000/00 RMK AO2 SLP189 T01220106 10194 20117 58001
14840KMKG MKG20020912010009209/12/02 01:00:31  5-MIN KMKG 120600Z 00000KT 10SM CLR 12/10 A3009 470 89 200 000/00 RMK AO2
14840KMKG MKG20020912010509209/12/02 01:05:31  5-MIN KMKG 120605Z 00000KT 10SM CLR 12/10 A3009 470 89 200 000/00 RMK AO2
14840KMKG MKG20020912011009209/12/02 01:10:31  5-MIN KMKG 120610Z 00000KT 10SM CLR 11/10 A3009 470 93 200 000/00 RMK AO2
14840KMKG MKG20020912011509209/12/02 01:15:31  5-MIN KMKG 120615Z 00000KT 10SM CLR 11/10 A3009 470 93 200 000/00 RMK AO2
14840KMKG MKG20020912012009209/12/02 01:20:31  5-MIN KMKG 120620Z 00000KT 10SM CLR 11/10 A3009 470 93 200 000/00 RMK AO2
14840KMKG MKG20020912012509209/12/02 01:25:31  5-MIN KMKG 120625Z 00000KT 10SM CLR 11/10 A3009 470 93 200 000/00 RMK AO2
14840KMKG MKG20020912013009209/12/02 01:30:31  5-MIN KMKG 120630Z 00000KT 10SM CLR 11/10 A3009 470 96 100 000/00 RMK AO2
14840KMKG MKG20020912013509209/12/02 01:35:31  5-MIN KMKG 120635Z 00000KT 10SM CLR 11/11 A3009 470 96 200 000/00 RMK AO2
14840KMKG MKG20020912014009209/12/02 01:40:31  5-MIN KMKG 120640Z 00000KT 10SM CLR 11/10 A3009 470 93 200 000/00 RMK AO2
14840KMKG MKG20020912014509209/12/02 01:45:31  5-MIN KMKG 120645Z 00000KT 10SM CLR 11/10 A3009 470 93 200 000/00 RMK AO2
14840KMKG MKG20020912015010909/12/02 01:50:31  5-MIN KMKG 120650Z 00000KT 10SM CLR 11/10 A3009 470 93 200 000/00 RMK AO2 SLP190 T01110100
14840KMKG MKG20020912015510909/12/02 01:55:31  5-MIN KMKG 120655Z 12003KT 10SM CLR 11/10 A3009 470 93 200 130/03 RMK AO2 SLP188 T01110100
14840KMKG MKG20020912020009209/12/02 02:00:31  5-MIN KMKG 120700Z 12003KT 10SM CLR 11/10 A3009 470 96 100 120/03 RMK AO2
14840KMKG MKG20020912020509209/12/02 02:05:31  5-MIN KMKG 120705Z 11004KT 10SM CLR 11/10 A3009 480 96 100 120/04 RMK AO2
14840KMKG MKG20020912021009109/12/02 02:10:31  5-MIN KMKG 120710Z 11005KT 10SM CLR 10/10 A3009 480 100 0 120/05 RMK AO2
14840KMKG MKG20020912021509109/12/02 02:15:31  5-MIN KMKG 120715Z 11004KT 10SM CLR 10/10 A3009 480 100 0 120/04 RMK AO2
14840KMKG MKG20020912022009209/12/02 02:20:31  5-MIN KMKG 120720Z 10003KT 10SM CLR 11/10 A3009 480 96 100 100/03 RMK AO2
14840KMKG MKG20020912022509309/12/02 02:25:31  5-MIN KMKG 120725Z 00000KT 10SM CLR 11/11 A3009 480 100 100 000/00 RMK AO2
14840KMKG MKG20020912023009309/12/02 02:30:31  5-MIN KMKG 120730Z 00000KT 10SM CLR 11/11 A3009 480 100 100 000/00 RMK AO2
14840KMKG MKG20020912023509309/12/02 02:35:31  5-MIN KMKG 120735Z 00000KT 10SM CLR 11/11 A3009 480 100 100 000/00 RMK AO2
14840KMKG MKG20020912024009209/12/02 02:40:31  5-MIN KMKG 120740Z 00000KT 10SM CLR 11/11 A3009 480 96 200 000/00 RMK AO2
14840KMKG MKG20020912024509209/12/02 02:45:31  5-MIN KMKG 120745Z 00000KT 10SM CLR 11/11 A3009 480 96 200 000/00 RMK AO2
14840KMKG MKG20020912025011009/12/02 02:50:31  5-MIN KMKG 120750Z 00000KT 10SM CLR 11/11 A3009 480 100 100 000/00 RMK AO2 SLP186 T01060106
14840KMKG MKG20020912025510909/12/02 02:55:31  5-MIN KMKG 120755Z 00000KT 10SM CLR 11/11 A3008 480 96 200 000/00 RMK AO2 SLP186 T01110106
14840KMKG MKG20020912030009209/12/02 03:00:31  5-MIN KMKG 120800Z 00000KT 10SM CLR 12/11 A3008 480 93 200 000/00 RMK AO2
14840KMKG MKG20020912030509209/12/02 03:05:31  5-MIN KMKG 120805Z 00000KT 10SM CLR 11/10 A3008 480 96 100 000/00 RMK AO2
14840KMKG MKG20020912031009209/12/02 03:10:31  5-MIN KMKG 120810Z 00000KT 10SM CLR 11/11 A3008 480 96 200 000/00 RMK AO2
14840KMKG MKG20020912031509209/12/02 03:15:31  5-MIN KMKG 120815Z 00000KT 10SM CLR 11/10 A3009 480 96 100 000/00 RMK AO2
14840KMKG MKG20020912032009109/12/02 03:20:31  5-MIN KMKG 120820Z 00000KT 10SM CLR 10/10 A3009 480 100 0 000/00 RMK AO2
14840KMKG MKG20020912032509009/12/02 03:25:31  5-MIN KMKG 120825Z 00000KT 10SM CLR 10/09 A3009 480 96 0 000/00 RMK AO2
14840KMKG MKG20020912033009109/12/02 03:30:31  5-MIN KMKG 120830Z 00000KT 10SM CLR 09/09 A3009 480 100 0 000/00 RMK AO2
14840KMKG MKG20020912033509109/12/02 03:35:31  5-MIN KMKG 120835Z 00000KT 10SM CLR 09/09 A3009 470 100 0 000/00 RMK AO2
14840KMKG MKG20020912034009009/12/02 03:40:31  5-MIN KMKG 120840Z 00000KT 10SM CLR 10/09 A3009 470 96 0 000/00 RMK AO2
14840KMKG MKG20020912034509409/12/02 03:45:31  5-MIN KMKG 120845Z 00000KT 10SM CLR 09/09 A3009 470 100 -100 000/00 RMK AO2
14840KMKG MKG20020912035011709/12/02 03:50:31  5-MIN KMKG 120850Z 00000KT 10SM CLR 09/09 A3009 480 100 -100 000/00 RMK AO2 SLP189 T00890089 58001
14840KMKG MKG20020912035511709/12/02 03:55:31  5-MIN KMKG 120855Z 00000KT 10SM CLR 09/09 A3009 480 100 -100 000/00 RMK AO2 SLP188 T00890089 55002
14840KMKG MKG20020912040009409/12/02 04:00:31  5-MIN KMKG 120900Z 00000KT 10SM CLR 09/09 A3009 470 100 -100 000/00 RMK AO2
14840KMKG MKG20020912040509109/12/02 04:05:31  5-MIN KMKG 120905Z 00000KT 10SM CLR 09/09 A3009 470 100 0 000/00 RMK AO2
14840KMKG MKG20020912041009109/12/02 04:10:31  5-MIN KMKG 120910Z 00000KT 10SM CLR 09/09 A3009 470 100 0 000/00 RMK AO2
14840KMKG MKG20020912041509109/12/02 04:15:31  5-MIN KMKG 120915Z 00000KT 10SM CLR 09/09 A3009 480 100 0 000/00 RMK AO2
14840KMKG MKG20020912042009009/12/02 04:20:31  5-MIN KMKG 120920Z 00000KT 10SM CLR 10/09 A3009 480 96 0 000/00 RMK AO2
14840KMKG MKG20020912042509009/12/02 04:25:31  5-MIN KMKG 120925Z 00000KT 10SM CLR 10/09 A3009 480 96 0 000/00 RMK AO2
14840KMKG MKG20020912043009009/12/02 04:30:31  5-MIN KMKG 120930Z 00000KT 10SM CLR 10/09 A3009 480 96 0 000/00 RMK AO2
14840KMKG MKG20020912043509009/12/02 04:35:31  5-MIN KMKG 120935Z 00000KT 10SM CLR 09/09 A3009 480 96 0 000/00 RMK AO2
14840KMKG MKG20020912044009109/12/02 04:40:31  5-MIN KMKG 120940Z 00000KT 10SM CLR 10/10 A3009 480 100 0 000/00 RMK AO2
14840KMKG MKG20020912044509009/12/02 04:45:31  5-MIN KMKG 120945Z 00000KT 10SM CLR 10/09 A3009 480 96 0 000/00 RMK AO2
14840KMKG MKG20020912045010809/12/02 04:50:31  5-MIN KMKG 120950Z 00000KT 10SM CLR 09/09 A3009 470 100 0 000/00 RMK AO2 SLP189 T00940094
14840KMKG MKG20020912045510709/12/02 04:55:31  5-MIN KMKG 120955Z 00000KT 10SM CLR 10/09 A3009 470 96 0 000/00 RMK AO2 SLP189 T01000094
14840KMKG MKG20020912050009009/12/02 05:00:31  5-MIN KMKG 121000Z 00000KT 10SM CLR 09/09 A3009 470 96 0 000/00 RMK AO2
14840KMKG MKG20020912050509009/12/02 05:05:31  5-MIN KMKG 121005Z 00000KT 10SM CLR 09/09 A3009 470 96 0 000/00 RMK AO2
14840KMKG MKG20020912051009109/12/02 05:10:31  5-MIN KMKG 121010Z 00000KT 10SM CLR 09/09 A3009 470 100 0 000/00 RMK AO2
14840KMKG MKG20020912051509109/12/02 05:15:31  5-MIN KMKG 121015Z 00000KT 10SM CLR 09/09 A3009 470 100 0 000/00 RMK AO2
14840KMKG MKG20020912052009109/12/02 05:20:31  5-MIN KMKG 121020Z 00000KT 10SM CLR 09/09 A3009 470 100 0 000/00 RMK AO2
14840KMKG MKG20020912052509109/12/02 05:25:31  5-MIN KMKG 121025Z 00000KT 10SM CLR 09/09 A3010 470 100 0 000/00 RMK AO2
14840KMKG MKG20020912053009409/12/02 05:30:31  5-MIN KMKG 121030Z 00000KT 10SM CLR 09/09 A3010 470 100 -100 000/00 RMK AO2
14840KMKG MKG20020912053509109/12/02 05:35:31  5-MIN KMKG 121035Z 00000KT 10SM CLR 09/09 A3010 460 100 0 000/00 RMK AO2
14840KMKG MKG20020912054009109/12/02 05:40:31  5-MIN KMKG 121040Z 00000KT 10SM CLR 09/09 A3010 460 100 0 000/00 RMK AO2
14840KMKG MKG20020912054509109/12/02 05:45:31  5-MIN KMKG 121045Z 00000KT 10SM CLR 09/09 A3010 460 100 0 000/00 RMK AO2
14840KMKG MKG20020912055010709/12/02 05:50:31  5-MIN KMKG 121050Z 00000KT 10SM CLR 10/09 A3011 460 96 0 000/00 RMK AO2 SLP194 T01000094
14840KMKG MKG20020912055510709/12/02 05:55:31  5-MIN KMKG 121055Z 00000KT 10SM CLR 10/09 A3011 460 96 0 000/00 RMK AO2 SLP195 T01000094
14840KMKG MKG20020912060009009/12/02 06:00:31  5-MIN KMKG 121100Z 00000KT 10SM CLR 10/09 A3011 460 96 0 000/00 RMK AO2
14840KMKG MKG20020912060509009/12/02 06:05:31  5-MIN KMKG 121105Z 00000KT 10SM CLR 10/09 A3011 460 96 0 000/00 RMK AO2
14840KMKG MKG20020912061009109/12/02 06:10:31  5-MIN KMKG 121110Z 00000KT 10SM CLR 09/09 A3011 460 100 0 000/00 RMK AO2
14840KMKG MKG20020912061509109/12/02 06:15:31  5-MIN KMKG 121115Z 00000KT 10SM CLR 09/09 A3011 450 100 0 000/00 RMK AO2
14840KMKG MKG20020912062009009/12/02 06:20:31  5-MIN KMKG 121120Z 00000KT 10SM CLR 09/09 A3011 450 96 0 000/00 RMK AO2
14840KMKG MKG20020912062509009/12/02 06:25:31  5-MIN KMKG 121125Z 00000KT 10SM CLR 09/09 A3011 450 96 0 000/00 RMK AO2
14840KMKG MKG20020912063009009/12/02 06:30:31  5-MIN KMKG 121130Z 00000KT 10SM CLR 09/09 A3012 450 96 0 000/00 RMK AO2
14840KMKG MKG20020912063509109/12/02 06:35:31  5-MIN KMKG 121135Z 00000KT 10SM CLR 09/09 A3012 450 100 0 000/00 RMK AO2
14840KMKG MKG20020912064009109/12/02 06:40:31  5-MIN KMKG 121140Z 00000KT 10SM CLR 09/09 A3012 450 100 0 000/00 RMK AO2
14840KMKG MKG20020912064509009/12/02 06:45:31  5-MIN KMKG 121145Z 00000KT 10SM CLR 10/09 A3012 440 96 0 000/00 RMK AO2
14840KMKG MKG20020912065012609/12/02 06:50:31  5-MIN KMKG 121150Z 00000KT 10SM CLR 09/09 A3012 440 100 0 000/00 RMK AO2 SLP201 T00940094 10122 20089 55002
14840KMKG MKG20020912065512609/12/02 06:55:31  5-MIN KMKG 121155Z 00000KT 10SM CLR 09/09 A3012 440 100 0 000/00 RMK AO2 SLP201 T00940094 10122 20089 53012
14840KMKG MKG20020912070009109/12/02 07:00:31  5-MIN KMKG 121200Z 00000KT 10SM CLR 09/09 A3012 440 100 0 000/00 RMK AO2
14840KMKG MKG20020912070509209/12/02 07:05:31  5-MIN KMKG 121205Z 00000KT 10SM CLR 10/09 A3012 440 96 0 000/00 RMK AO2 $
14840KMKG MKG20020912071009409/12/02 07:10:31  5-MIN KMKG 121210Z 00000KT 10SM CLR 11/10 A3013 440 96 100 000/00 RMK AO2 $
14840KMKG MKG20020912071509409/12/02 07:15:31  5-MIN KMKG 121215Z 00000KT 10SM CLR 11/10 A3013 440 96 100 000/00 RMK AO2 $
14840KMKG MKG20020912072009409/12/02 07:20:31  5-MIN KMKG 121220Z 00000KT 10SM CLR 11/10 A3013 440 93 100 000/00 RMK AO2 $
14840KMKG MKG20020912072509409/12/02 07:25:31  5-MIN KMKG 121225Z 00000KT 10SM CLR 11/11 A3013 440 96 100 000/00 RMK AO2 $
14840KMKG MKG20020912073009409/12/02 07:30:31  5-MIN KMKG 121230Z 00000KT 10SM CLR 12/11 A3013 440 96 200 000/00 RMK AO2 $
14840KMKG MKG20020912073509409/12/02 07:35:31  5-MIN KMKG 121235Z 00000KT 10SM CLR 12/11 A3013 440 93 300 000/00 RMK AO2 $
14840KMKG MKG20020912074009409/12/02 07:40:31  5-MIN KMKG 121240Z 00000KT 10SM CLR 13/12 A3013 440 93 300 000/00 RMK AO2 $
14840KMKG MKG20020912074509409/12/02 07:45:31  5-MIN KMKG 121245Z 00000KT 10SM CLR 13/11 A3013 440 86 400 000/00 RMK AO2 $
14840KMKG MKG20020912075011109/12/02 07:50:31  5-MIN KMKG 121250Z 00000KT 10SM CLR 14/12 A3013 440 86 500 000/00 RMK AO2 SLP201 T01390117 $
14840KMKG MKG20020912075511109/12/02 07:55:31  5-MIN KMKG 121255Z 00000KT 10SM CLR 14/11 A3012 440 83 500 000/00 RMK AO2 SLP201 T01390111 $
14840KMKG MKG20020912080009409/12/02 08:00:31  5-MIN KMKG 121300Z VRB03KT 10SM CLR 14/12 A3012 440 83 500 VRB/03 RMK AO2 $
14840KMKG MKG20020912080509409/12/02 08:05:31  5-MIN KMKG 121305Z 19003KT 10SM CLR 16/12 A3012 440 77 700 200/03 RMK AO2 $
14840KMKG MKG20020912081009409/12/02 08:10:31  5-MIN KMKG 121310Z 19004KT 10SM CLR 16/12 A3012 440 75 700 190/04 RMK AO2 $
14840KMKG MKG20020912081509409/12/02 08:15:31  5-MIN KMKG 121315Z 19004KT 10SM CLR 16/12 A3013 440 75 700 200/04 RMK AO2 $
14840KMKG MKG20020912082009409/12/02 08:20:31  5-MIN KMKG 121320Z 19004KT 10SM CLR 17/11 A3013 440 69 800 190/04 RMK AO2 $
14840KMKG MKG20020912082509409/12/02 08:25:31  5-MIN KMKG 121325Z 19005KT 10SM CLR 17/12 A3013 440 72 800 190/05 RMK AO2 $
14840KMKG MKG20020912083009409/12/02 08:30:31  5-MIN KMKG 121330Z 19005KT 10SM CLR 17/12 A3012 440 69 800 200/05 RMK AO2 $
14840KMKG MKG20020912083509409/12/02 08:35:31  5-MIN KMKG 121335Z 19005KT 10SM CLR 17/12 A3012 440 69 800 190/05 RMK AO2 $
14840KMKG MKG20020912084009409/12/02 08:40:31  5-MIN KMKG 121340Z 19005KT 10SM CLR 18/12 A3012 440 69 900 190/05 RMK AO2 $
14840KMKG MKG20020912084509509/12/02 08:45:31  5-MIN KMKG 121345Z 20005KT 10SM CLR 18/13 A3012 440 70 1000 200/05 RMK AO2 $
14840KMKG MKG20020912085011209/12/02 08:50:31  5-MIN KMKG 121350Z 19006KT 10SM CLR 18/13 A3012 440 70 1000 200/06 RMK AO2 SLP199 T01830128 $
14840KMKG MKG20020912085511209/12/02 08:55:31  5-MIN KMKG 121355Z 19006KT 10SM CLR 19/13 A3012 440 70 1000 200/06 RMK AO2 SLP199 T01890133 $
14840KMKG MKG20020912090009509/12/02 09:00:31  5-MIN KMKG 121400Z 19007KT 10SM CLR 19/13 A3012 440 67 1100 190/07 RMK AO2 $
14840KMKG MKG20020912090509509/12/02 09:05:31  5-MIN KMKG 121405Z 20007KT 10SM CLR 20/14 A3012 450 67 1200 200/07 RMK AO2 $
14840KMKG MKG20020912091009509/12/02 09:10:31  5-MIN KMKG 121410Z 19008KT 10SM CLR 20/14 A3012 450 67 1200 200/08 RMK AO2 $
14840KMKG MKG20020912091509509/12/02 09:15:31  5-MIN KMKG 121415Z 19007KT 10SM CLR 21/14 A3012 450 65 1200 190/07 RMK AO2 $
14840KMKG MKG20020912092009509/12/02 09:20:31  5-MIN KMKG 121420Z 19009KT 10SM CLR 21/14 A3012 450 65 1200 190/09 RMK AO2 $
14840KMKG MKG20020912092509509/12/02 09:25:31  5-MIN KMKG 121425Z 20007KT 10SM CLR 21/14 A3012 450 65 1200 210/07 RMK AO2 $
14840KMKG MKG20020912093009509/12/02 09:30:31  5-MIN KMKG 121430Z 20009KT 10SM CLR 21/14 A3012 450 65 1200 200/09 RMK AO2 $
14840KMKG MKG20020912093509509/12/02 09:35:31  5-MIN KMKG 121435Z 19010KT 10SM CLR 21/14 A3012 450 65 1200 200/10 RMK AO2 $
14840KMKG MKG20020912094009509/12/02 09:40:31  5-MIN KMKG 121440Z 20007KT 10SM CLR 21/14 A3012 450 65 1300 210/07 RMK AO2 $
14840KMKG MKG20020912094509509/12/02 09:45:31  5-MIN KMKG 121445Z 19010KT 10SM CLR 21/14 A3012 450 65 1300 190/10 RMK AO2 $
14840KMKG MKG20020912095011809/12/02 09:50:31  5-MIN KMKG 121450Z 18011KT 10SM CLR 21/14 A3012 450 63 1300 190/11 RMK AO2 SLP198 T02110139 53012 $
14840KMKG MKG20020912095511809/12/02 09:55:31  5-MIN KMKG 121455Z 19009KT 10SM CLR 22/14 A3012 450 61 1400 200/09 RMK AO2 SLP198 T02170139 58001 $
14840KMKG MKG20020912100009509/12/02 10:00:31  5-MIN KMKG 121500Z 20009KT 10SM CLR 22/14 A3012 450 61 1400 200/09 RMK AO2 $
14840KMKG MKG20020912100509509/12/02 10:05:31  5-MIN KMKG 121505Z 19011KT 10SM CLR 22/14 A3012 450 63 1400 190/11 RMK AO2 $
14840KMKG MKG20020912101009509/12/02 10:10:31  5-MIN KMKG 121510Z 19010KT 10SM CLR 22/14 A3012 450 63 1400 200/10 RMK AO2 $
14840KMKG MKG20020912101509509/12/02 10:15:31  5-MIN KMKG 121515Z 21009KT 10SM CLR 22/14 A3012 450 61 1400 210/09 RMK AO2 $
14840KMKG MKG20020912102009509/12/02 10:20:31  5-MIN KMKG 121520Z 22011KT 10SM CLR 22/14 A3011 450 63 1400 220/11 RMK AO2 $
14840KMKG MKG20020912102509509/12/02 10:25:31  5-MIN KMKG 121525Z 22009KT 10SM CLR 22/14 A3011 450 63 1400 220/09 RMK AO2 $
14840KMKG MKG20020912103009509/12/02 10:30:31  5-MIN KMKG 121530Z 21010KT 10SM CLR 22/14 A3012 450 63 1400 210/10 RMK AO2 $
14840KMKG MKG20020912103509509/12/02 10:35:31  5-MIN KMKG 121535Z 20009KT 10SM CLR 22/14 A3012 450 61 1400 210/09 RMK AO2 $
14840KMKG MKG20020912104009509/12/02 10:40:31  5-MIN KMKG 121540Z 20012KT 10SM CLR 22/14 A3012 450 61 1400 200/12 RMK AO2 $
14840KMKG MKG20020912104509509/12/02 10:45:31  5-MIN KMKG 121545Z 19012KT 10SM CLR 22/14 A3012 450 61 1400 200/12 RMK AO2 $
14840KMKG MKG20020912105011209/12/02 10:50:31  5-MIN KMKG 121550Z 20011KT 10SM CLR 22/14 A3012 450 61 1400 200/11 RMK AO2 SLP197 T02220144 $
14840KMKG MKG20020912105511509/12/02 10:55:31  5-MIN KMKG 121555Z 22010KT 10SM FEW038 22/14 A3011 450 61 1400 220/10 RMK AO2 SLP196 T02220144 $
14840KMKG MKG20020912110009509/12/02 11:00:31  5-MIN KMKG 121600Z 22011KT 10SM CLR 22/14 A3011 450 61 1400 220/11 RMK AO2 $
14840KMKG MKG20020912110509509/12/02 11:05:31  5-MIN KMKG 121605Z 21011KT 10SM CLR 22/14 A3011 460 61 1400 210/11 RMK AO2 $
14840KMKG MKG20020912111009509/12/02 11:10:31  5-MIN KMKG 121610Z 21011KT 10SM CLR 22/14 A3011 460 61 1400 220/11 RMK AO2 $
14840KMKG MKG20020912111509509/12/02 11:15:31  5-MIN KMKG 121615Z 19011KT 10SM CLR 23/14 A3011 460 59 1500 200/11 RMK AO2 $
14840KMKG MKG20020912112009509/12/02 11:20:31  5-MIN KMKG 121620Z 21011KT 10SM CLR 22/14 A3011 460 61 1400 210/11 RMK AO2 $
14840KMKG MKG20020912112509509/12/02 11:25:31  5-MIN KMKG 121625Z 22013KT 10SM CLR 22/14 A3011 460 61 1400 230/13 RMK AO2 $
14840KMKG MKG20020912113009509/12/02 11:30:31  5-MIN KMKG 121630Z 21012KT 10SM CLR 23/14 A3011 460 59 1500 220/12 RMK AO2 $
14840KMKG MKG20020912113509509/12/02 11:35:31  5-MIN KMKG 121635Z 22013KT 10SM CLR 22/14 A3011 460 61 1400 220/13 RMK AO2 $
14840KMKG MKG20020912114009809/12/02 11:40:31  5-MIN KMKG 121640Z 22013KT 10SM FEW038 22/14 A3011 460 61 1400 220/13 RMK AO2 $
14840KMKG MKG20020912114509809/12/02 11:45:31  5-MIN KMKG 121645Z 21013KT 10SM FEW038 23/14 A3011 460 59 1500 220/13 RMK AO2 $
14840KMKG MKG20020912115011509/12/02 11:50:31  5-MIN KMKG 121650Z 21013KT 10SM FEW038 22/14 A3010 460 61 1400 210/13 RMK AO2 SLP193 T02220144 $
14840KMKG MKG20020912115511509/12/02 11:55:31  5-MIN KMKG 121655Z 20012KT 10SM FEW038 23/15 A3010 460 61 1500 210/12 RMK AO2 SLP193 T02280150 $
14840KMKG MKG20020912120009509/12/02 12:00:31  5-MIN KMKG 121700Z 20013KT 10SM CLR 23/14 A3010 460 57 1600 200/13 RMK AO2 $
14840KMKG MKG20020912120509509/12/02 12:05:31  5-MIN KMKG 121705Z 22012KT 10SM CLR 23/15 A3010 460 61 1500 220/12 RMK AO2 $
14840KMKG MKG20020912121009509/12/02 12:10:31  5-MIN KMKG 121710Z 20014KT 10SM CLR 23/15 A3010 470 59 1600 200/14 RMK AO2 $
14840KMKG MKG20020912121509509/12/02 12:15:31  5-MIN KMKG 121715Z 20011KT 10SM CLR 23/15 A3010 470 59 1600 210/11 RMK AO2 $
14840KMKG MKG20020912122009509/12/02 12:20:31  5-MIN KMKG 121720Z 22013KT 10SM CLR 23/14 A3009 470 59 1500 220/13 RMK AO2 $
14840KMKG MKG20020912122509509/12/02 12:25:31  5-MIN KMKG 121725Z 21013KT 10SM CLR 23/14 A3009 470 59 1500 210/13 RMK AO2 $
14840KMKG MKG20020912123009509/12/02 12:30:31  5-MIN KMKG 121730Z 21014KT 10SM CLR 23/15 A3010 470 61 1500 210/14 RMK AO2 $
14840KMKG MKG20020912123509509/12/02 12:35:31  5-MIN KMKG 121735Z 21013KT 10SM CLR 23/15 A3009 470 61 1500 210/13 RMK AO2 $
14840KMKG MKG20020912124009809/12/02 12:40:31  5-MIN KMKG 121740Z 22012KT 10SM FEW038 23/15 A3009 470 59 1600 220/12 RMK AO2 $
14840KMKG MKG20020912124510409/12/02 12:45:31  5-MIN KMKG 121745Z 20013G17KT 10SM FEW038 23/15 A3009 470 59 1600 200/13G17 RMK AO2 $
14840KMKG MKG20020912125013909/12/02 12:50:31  5-MIN KMKG 121750Z 21012G17KT 10SM FEW038 23/15 A3009 470 59 1600 220/12G17 RMK AO2 SLP188 T02330150 10233 20094 58001 $
14840KMKG MKG20020912125513309/12/02 12:55:31  5-MIN KMKG 121755Z 22012KT 10SM FEW038 23/15 A3009 470 59 1600 220/12 RMK AO2 SLP188 T02330150 10233 20094 58009 $
14840KMKG MKG20020912130009509/12/02 13:00:31  5-MIN KMKG 121800Z 21012KT 10SM CLR 23/15 A3009 470 59 1600 220/12 RMK AO2 $
14840KMKG MKG20020912130509509/12/02 13:05:31  5-MIN KMKG 121805Z 20013KT 10SM CLR 23/15 A3009 470 59 1600 210/13 RMK AO2 $
14840KMKG MKG20020912131009509/12/02 13:10:31  5-MIN KMKG 121810Z 23011KT 10SM CLR 23/15 A3009 470 59 1600 230/11 RMK AO2 $
14840KMKG MKG20020912131511109/12/02 13:15:31  5-MIN KMKG 121815Z 23010KT 200V260 10SM CLR 24/16 A3009 480 59 1700 230/10 200V260 RMK AO2 $
14840KMKG MKG20020912132009509/12/02 13:20:31  5-MIN KMKG 121820Z 22011KT 10SM CLR 23/16 A3009 480 61 1600 220/11 RMK AO2 $
14840KMKG MKG20020912132509509/12/02 13:25:31  5-MIN KMKG 121825Z 23012KT 10SM CLR 23/15 A3008 480 59 1600 240/12 RMK AO2 $
14840KMKG MKG20020912133009509/12/02 13:30:31  5-MIN KMKG 121830Z 24010KT 10SM CLR 23/16 A3008 480 61 1600 240/10 RMK AO2 $
14840KMKG MKG20020912133509509/12/02 13:35:31  5-MIN KMKG 121835Z 23009KT 10SM CLR 23/16 A3008 480 61 1600 230/09 RMK AO2 $
14840KMKG MKG20020912134009809/12/02 13:40:31  5-MIN KMKG 121840Z 24012KT 10SM FEW038 23/16 A3008 480 61 1600 240/12 RMK AO2 $
14840KMKG MKG20020912134509809/12/02 13:45:31  5-MIN KMKG 121845Z 22012KT 10SM FEW038 23/16 A3008 490 61 1600 220/12 RMK AO2 $
14840KMKG MKG20020912135011509/12/02 13:50:31  5-MIN KMKG 121850Z 21012KT 10SM FEW038 23/16 A3007 490 61 1600 210/12 RMK AO2 SLP183 T02330156 $
14840KMKG MKG20020912135511509/12/02 13:55:31  5-MIN KMKG 121855Z 21012KT 10SM FEW038 23/16 A3008 490 61 1600 210/12 RMK AO2 SLP183 T02330156 $
14840KMKG MKG20020912140009509/12/02 14:00:31  5-MIN KMKG 121900Z 21011KT 10SM CLR 23/16 A3007 490 61 1600 220/11 RMK AO2 $
14840KMKG MKG20020912140509509/12/02 14:05:31  5-MIN KMKG 121905Z 21012KT 10SM CLR 23/16 A3007 490 61 1600 210/12 RMK AO2 $
14840KMKG MKG20020912141009509/12/02 14:10:31  5-MIN KMKG 121910Z 21013KT 10SM CLR 23/16 A3007 490 61 1600 210/13 RMK AO2 $
14840KMKG MKG20020912141509509/12/02 14:15:31  5-MIN KMKG 121915Z 20013KT 10SM CLR 24/16 A3007 490 59 1700 210/13 RMK AO2 $
14840KMKG MKG20020912142009809/12/02 14:20:31  5-MIN KMKG 121920Z 21012KT 10SM FEW038 23/16 A3007 490 61 1600 210/12 RMK AO2 $
14840KMKG MKG20020912142509809/12/02 14:25:31  5-MIN KMKG 121925Z 20012KT 10SM FEW038 23/16 A3007 490 61 1600 210/12 RMK AO2 $
14840KMKG MKG20020912143009809/12/02 14:30:31  5-MIN KMKG 121930Z 20012KT 10SM FEW038 23/16 A3007 490 61 1600 210/12 RMK AO2 $
14840KMKG MKG20020912143509809/12/02 14:35:31  5-MIN KMKG 121935Z 22012KT 10SM FEW038 23/16 A3007 490 61 1600 220/12 RMK AO2 $
14840KMKG MKG20020912144009809/12/02 14:40:31  5-MIN KMKG 121940Z 20013KT 10SM FEW038 23/16 A3007 490 61 1600 200/13 RMK AO2 $
14840KMKG MKG20020912144509809/12/02 14:45:31  5-MIN KMKG 121945Z 21011KT 10SM FEW038 23/16 A3007 490 61 1600 210/11 RMK AO2 $
14840KMKG MKG20020912145011509/12/02 14:50:31  5-MIN KMKG 121950Z 24011KT 10SM FEW038 23/16 A3007 490 61 1600 240/11 RMK AO2 SLP181 T02330156 $
14840KMKG MKG20020912145511509/12/02 14:55:31  5-MIN KMKG 121955Z 24011KT 10SM FEW038 23/16 A3007 490 63 1600 240/11 RMK AO2 SLP180 T02280156 $
14840KMKG MKG20020912150009809/12/02 15:00:31  5-MIN KMKG 122000Z 23011KT 10SM FEW038 23/16 A3007 490 65 1600 240/11 RMK AO2 $
14840KMKG MKG20020912150509809/12/02 15:05:31  5-MIN KMKG 122005Z 24010KT 10SM FEW038 23/16 A3007 490 63 1600 240/10 RMK AO2 $
14840KMKG MKG20020912151009809/12/02 15:10:31  5-MIN KMKG 122010Z 22010KT 10SM FEW038 23/16 A3007 490 65 1600 230/10 RMK AO2 $
14840KMKG MKG20020912151509809/12/02 15:15:31  5-MIN KMKG 122015Z 21009KT 10SM FEW038 23/16 A3007 500 65 1600 220/09 RMK AO2 $
14840KMKG MKG20020912152011409/12/02 15:20:31  5-MIN KMKG 122020Z 25009KT 210V270 10SM FEW038 23/16 A3007 500 65 1600 250/09 210V270 RMK AO2 $
14840KMKG MKG20020912152511409/12/02 15:25:31  5-MIN KMKG 122025Z 22008KT 190V250 10SM FEW038 23/16 A3007 500 65 1600 220/08 190V250 RMK AO2 $
14840KMKG MKG20020912153009809/12/02 15:30:31  5-MIN KMKG 122030Z 21009KT 10SM FEW038 23/16 A3006 500 63 1600 210/09 RMK AO2 $
14840KMKG MKG20020912153509809/12/02 15:35:31  5-MIN KMKG 122035Z 26010KT 10SM FEW038 23/14 A3006 500 57 1600 270/10 RMK AO2 $
14840KMKG MKG20020912154009809/12/02 15:40:31  5-MIN KMKG 122040Z 24010KT 10SM FEW038 23/14 A3006 500 57 1600 250/10 RMK AO2 $
14840KMKG MKG20020912154509809/12/02 15:45:31  5-MIN KMKG 122045Z 26009KT 10SM FEW038 23/14 A3006 500 57 1600 260/09 RMK AO2 $
14840KMKG MKG20020912155012109/12/02 15:50:31  5-MIN KMKG 122050Z 23009KT 10SM FEW038 23/14 A3006 500 59 1600 230/09 RMK AO2 SLP180 T02280144 58009 $
14840KMKG MKG20020912155512109/12/02 15:55:31  5-MIN KMKG 122055Z 24007KT 10SM FEW038 23/14 A3006 500 57 1600 250/07 RMK AO2 SLP180 T02280139 56009 $
14840KMKG MKG20020912160011409/12/02 16:00:31  5-MIN KMKG 122100Z 23008KT 200V260 10SM FEW045 23/14 A3006 500 59 1600 240/08 200V260 RMK AO2 $
14840KMKG MKG20020912160509809/12/02 16:05:31  5-MIN KMKG 122105Z 24010KT 10SM FEW045 23/14 A3006 500 59 1600 240/10 RMK AO2 $
14840KMKG MKG20020912161009809/12/02 16:10:31  5-MIN KMKG 122110Z 22010KT 10SM FEW045 23/14 A3006 500 57 1600 230/10 RMK AO2 $
14840KMKG MKG20020912161509809/12/02 16:15:31  5-MIN KMKG 122115Z 23009KT 10SM FEW045 23/14 A3006 500 59 1600 230/09 RMK AO2 $
14840KMKG MKG20020912162009809/12/02 16:20:31  5-MIN KMKG 122120Z 23010KT 10SM FEW045 23/14 A3006 500 59 1600 230/10 RMK AO2 $
14840KMKG MKG20020912162509809/12/02 16:25:31  5-MIN KMKG 122125Z 24011KT 10SM FEW045 22/14 A3006 500 61 1500 240/11 RMK AO2 $
14840KMKG MKG20020912163009809/12/02 16:30:31  5-MIN KMKG 122130Z 21012KT 10SM FEW045 23/14 A3006 500 59 1600 220/12 RMK AO2 $
14840KMKG MKG20020912163509809/12/02 16:35:31  5-MIN KMKG 122135Z 23009KT 10SM FEW045 22/14 A3006 500 61 1500 230/09 RMK AO2 $
14840KMKG MKG20020912164009809/12/02 16:40:31  5-MIN KMKG 122140Z 22010KT 10SM FEW045 22/14 A3006 500 61 1500 230/10 RMK AO2 $
14840KMKG MKG20020912164509609/12/02 16:45:31  5-MIN KMKG 122145Z 23009KT 10SM FEW045 22/14 A3005 510 61 1500 230/09 RMK AO2
14840KMKG MKG20020912165011309/12/02 16:50:31  5-MIN KMKG 122150Z 23010KT 10SM FEW045 22/14 A3005 510 61 1500 240/10 RMK AO2 SLP176 T02220144
14840KMKG MKG20020912165511309/12/02 16:55:31  5-MIN KMKG 122155Z 22009KT 10SM FEW045 23/14 A3005 510 59 1600 220/09 RMK AO2 SLP175 T02280144
14840KMKG MKG20020912170009309/12/02 17:00:31  5-MIN KMKG 122200Z 22010KT 10SM CLR 22/14 A3005 510 59 1500 220/10 RMK AO2
14840KMKG MKG20020912170509309/12/02 17:05:31  5-MIN KMKG 122205Z 21010KT 10SM CLR 22/14 A3005 510 61 1500 210/10 RMK AO2
14840KMKG MKG20020912171009309/12/02 17:10:31  5-MIN KMKG 122210Z 21010KT 10SM CLR 22/14 A3005 510 63 1400 220/10 RMK AO2
14840KMKG MKG20020912171509309/12/02 17:15:31  5-MIN KMKG 122215Z 21008KT 10SM CLR 22/14 A3005 510 63 1400 220/08 RMK AO2
14840KMKG MKG20020912172009309/12/02 17:20:31  5-MIN KMKG 122220Z 22010KT 10SM CLR 22/14 A3005 510 61 1400 220/10 RMK AO2
14840KMKG MKG20020912172509309/12/02 17:25:31  5-MIN KMKG 122225Z 20010KT 10SM CLR 22/14 A3005 510 61 1500 200/10 RMK AO2
14840KMKG MKG20020912173009309/12/02 17:30:31  5-MIN KMKG 122230Z 21009KT 10SM CLR 22/14 A3005 510 63 1400 210/09 RMK AO2
14840KMKG MKG20020912173509309/12/02 17:35:31  5-MIN KMKG 122235Z 21009KT 10SM CLR 22/14 A3005 520 61 1500 210/09 RMK AO2
14840KMKG MKG20020912174009309/12/02 17:40:31  5-MIN KMKG 122240Z 21008KT 10SM CLR 22/14 A3004 520 63 1500 210/08 RMK AO2
14840KMKG MKG20020912174509309/12/02 17:45:31  5-MIN KMKG 122245Z 19007KT 10SM CLR 22/14 A3004 520 63 1500 200/07 RMK AO2
14840KMKG MKG20020912175011009/12/02 17:50:31  5-MIN KMKG 122250Z 20008KT 10SM CLR 22/14 A3004 520 63 1500 200/08 RMK AO2 SLP172 T02170144
14840KMKG MKG20020912175511009/12/02 17:55:31  5-MIN KMKG 122255Z 21008KT 10SM CLR 22/14 A3004 520 63 1500 210/08 RMK AO2 SLP172 T02170144
14840KMKG MKG20020912180009309/12/02 18:00:31  5-MIN KMKG 122300Z 20008KT 10SM CLR 21/14 A3004 520 65 1400 200/08 RMK AO2
14840KMKG MKG20020912180509309/12/02 18:05:31  5-MIN KMKG 122305Z 20009KT 10SM CLR 21/14 A3004 520 65 1400 210/09 RMK AO2
14840KMKG MKG20020912181009309/12/02 18:10:31  5-MIN KMKG 122310Z 20008KT 10SM CLR 21/14 A3004 520 65 1400 210/08 RMK AO2
14840KMKG MKG20020912181509309/12/02 18:15:31  5-MIN KMKG 122315Z 19007KT 10SM CLR 21/14 A3003 530 65 1400 190/07 RMK AO2
14840KMKG MKG20020912182009309/12/02 18:20:31  5-MIN KMKG 122320Z 20008KT 10SM CLR 21/15 A3003 530 70 1300 200/08 RMK AO2
14840KMKG MKG20020912182509309/12/02 18:25:31  5-MIN KMKG 122325Z 20007KT 10SM CLR 21/15 A3003 520 70 1300 200/07 RMK AO2
14840KMKG MKG20020912183009309/12/02 18:30:31  5-MIN KMKG 122330Z 20008KT 10SM CLR 21/15 A3003 530 70 1300 200/08 RMK AO2
14840KMKG MKG20020912183509309/12/02 18:35:31  5-MIN KMKG 122335Z 20007KT 10SM CLR 20/15 A3003 530 72 1300 200/07 RMK AO2
14840KMKG MKG20020912184009309/12/02 18:40:31  5-MIN KMKG 122340Z 20006KT 10SM CLR 20/15 A3003 530 72 1300 210/06 RMK AO2
14840KMKG MKG20020912184509309/12/02 18:45:31  5-MIN KMKG 122345Z 20006KT 10SM CLR 19/15 A3003 530 75 1200 200/06 RMK AO2
14840KMKG MKG20020912185012809/12/02 18:50:31  5-MIN KMKG 122350Z 19006KT 10SM CLR 19/15 A3003 530 75 1200 200/06 RMK AO2 SLP169 T01940150 10239 20194 56009
14840KMKG MKG20020912185512809/12/02 18:55:31  5-MIN KMKG 122355Z 19006KT 10SM CLR 19/15 A3003 530 78 1100 200/06 RMK AO2 SLP169 T01890150 10239 20189 56011
14840KMKG MKG20020912190009309/12/02 19:00:31  5-MIN KMKG 130000Z 20004KT 10SM CLR 19/15 A3003 530 78 1100 200/04 RMK AO2
14840KMKG MKG20020912190509309/12/02 19:05:31  5-MIN KMKG 130005Z 20005KT 10SM CLR 18/15 A3003 530 81 1100 210/05 RMK AO2
14840KMKG MKG20020912191009309/12/02 19:10:31  5-MIN KMKG 130010Z 20004KT 10SM CLR 18/15 A3003 530 83 1000 200/04 RMK AO2
14840KMKG MKG20020912191509309/12/02 19:15:31  5-MIN KMKG 130015Z 19004KT 10SM CLR 18/15 A3003 530 81 1100 190/04 RMK AO2
14840KMKG MKG20020912192009309/12/02 19:20:31  5-MIN KMKG 130020Z 19005KT 10SM CLR 18/15 A3003 530 81 1100 190/05 RMK AO2
14840KMKG MKG20020912192509309/12/02 19:25:31  5-MIN KMKG 130025Z 19004KT 10SM CLR 18/15 A3003 530 83 1000 190/04 RMK AO2
14840KMKG MKG20020912193009309/12/02 19:30:31  5-MIN KMKG 130030Z 18004KT 10SM CLR 18/15 A3003 530 83 1000 190/04 RMK AO2
14840KMKG MKG20020912193509209/12/02 19:35:31  5-MIN KMKG 130035Z 18005KT 10SM CLR 17/15 A3003 520 87 900 180/05 RMK AO2
14840KMKG MKG20020912194009209/12/02 19:40:31  5-MIN KMKG 130040Z 18006KT 10SM CLR 17/15 A3004 520 90 900 190/06 RMK AO2
14840KMKG MKG20020912194509209/12/02 19:45:31  5-MIN KMKG 130045Z 19005KT 10SM CLR 17/15 A3004 520 87 900 190/05 RMK AO2
14840KMKG MKG20020912195010909/12/02 19:50:31  5-MIN KMKG 130050Z 19005KT 10SM CLR 17/15 A3004 520 90 900 200/05 RMK AO2 SLP172 T01670150
14840KMKG MKG20020912195510909/12/02 19:55:31  5-MIN KMKG 130055Z 19005KT 10SM CLR 17/15 A3004 520 90 900 190/05 RMK AO2 SLP171 T01670150
14840KMKG MKG20020912200009209/12/02 20:00:31  5-MIN KMKG 130100Z 19005KT 10SM CLR 17/15 A3004 520 90 900 190/05 RMK AO2
14840KMKG MKG20020912200509209/12/02 20:05:31  5-MIN KMKG 130105Z 19005KT 10SM CLR 17/15 A3004 520 90 900 200/05 RMK AO2
14840KMKG MKG20020912201009209/12/02 20:10:31  5-MIN KMKG 130110Z 20004KT 10SM CLR 17/16 A3004 520 93 900 210/04 RMK AO2
14840KMKG MKG20020912201509209/12/02 20:15:31  5-MIN KMKG 130115Z 20003KT 10SM CLR 17/16 A3004 520 93 900 210/03 RMK AO2
14840KMKG MKG20020912202009209/12/02 20:20:31  5-MIN KMKG 130120Z 20003KT 10SM CLR 17/16 A3004 520 93 900 200/03 RMK AO2
14840KMKG MKG20020912202509209/12/02 20:25:31  5-MIN KMKG 130125Z 19004KT 10SM CLR 17/16 A3004 520 93 900 200/04 RMK AO2
14840KMKG MKG20020912203009209/12/02 20:30:31  5-MIN KMKG 130130Z 19004KT 10SM CLR 17/16 A3004 520 93 900 200/04 RMK AO2
14840KMKG MKG20020912203509209/12/02 20:35:31  5-MIN KMKG 130135Z 19004KT 10SM CLR 17/16 A3004 520 93 900 200/04 RMK AO2
14840KMKG MKG20020912204009209/12/02 20:40:31  5-MIN KMKG 130140Z 19004KT 10SM CLR 17/16 A3004 520 93 900 190/04 RMK AO2
14840KMKG MKG20020912204509209/12/02 20:45:31  5-MIN KMKG 130145Z 19004KT 10SM CLR 17/16 A3004 520 93 900 190/04 RMK AO2
14840KMKG MKG20020912205010909/12/02 20:50:31  5-MIN KMKG 130150Z 19005KT 10SM CLR 17/16 A3004 520 93 900 200/05 RMK AO2 SLP171 T01670156
14840KMKG MKG20020912205510909/12/02 20:55:31  5-MIN KMKG 130155Z 19005KT 10SM CLR 16/16 A3004 520 96 800 200/05 RMK AO2 SLP171 T01610156
14840KMKG MKG20020912210009209/12/02 21:00:31  5-MIN KMKG 130200Z 19005KT 10SM CLR 16/16 A3004 520 96 800 200/05 RMK AO2
14840KMKG MKG20020912210509209/12/02 21:05:31  5-MIN KMKG 130205Z 19004KT 10SM CLR 16/16 A3004 520 96 800 200/04 RMK AO2
14840KMKG MKG20020912211009209/12/02 21:10:31  5-MIN KMKG 130210Z 20004KT 10SM CLR 16/16 A3004 520 96 800 200/04 RMK AO2
14840KMKG MKG20020912211509209/12/02 21:15:31  5-MIN KMKG 130215Z 19003KT 10SM CLR 16/16 A3004 520 96 800 200/03 RMK AO2
14840KMKG MKG20020912212009209/12/02 21:20:31  5-MIN KMKG 130220Z 19004KT 10SM CLR 17/16 A3004 520 93 900 190/04 RMK AO2
14840KMKG MKG20020912212509209/12/02 21:25:31  5-MIN KMKG 130225Z 19004KT 10SM CLR 16/16 A3004 520 96 800 190/04 RMK AO2
14840KMKG MKG20020912213009209/12/02 21:30:31  5-MIN KMKG 130230Z 19004KT 10SM CLR 16/16 A3004 520 96 800 190/04 RMK AO2
14840KMKG MKG20020912213509209/12/02 21:35:31  5-MIN KMKG 130235Z 19004KT 10SM CLR 16/16 A3004 520 96 800 190/04 RMK AO2
14840KMKG MKG20020912214009209/12/02 21:40:31  5-MIN KMKG 130240Z 19004KT 10SM CLR 16/15 A3005 510 96 700 190/04 RMK AO2
14840KMKG MKG20020912214509209/12/02 21:45:31  5-MIN KMKG 130245Z 19004KT 10SM CLR 16/16 A3005 510 96 800 190/04 RMK AO2
14840KMKG MKG20020912215011509/12/02 21:50:31  5-MIN KMKG 130250Z 19004KT 10SM CLR 16/16 A3005 520 96 800 190/04 RMK AO2 SLP173 T01610156 56011
14840KMKG MKG20020912215511509/12/02 21:55:31  5-MIN KMKG 130255Z 19004KT 10SM CLR 16/16 A3005 510 96 800 190/04 RMK AO2 SLP173 T01610156 51006
14840KMKG MKG20020912220009209/12/02 22:00:31  5-MIN KMKG 130300Z 19004KT 10SM CLR 16/16 A3004 520 96 800 190/04 RMK AO2
14840KMKG MKG20020912220509209/12/02 22:05:31  5-MIN KMKG 130305Z 19005KT 10SM CLR 16/15 A3004 520 93 800 190/05 RMK AO2
14840KMKG MKG20020912221009209/12/02 22:10:31  5-MIN KMKG 130310Z 19005KT 10SM CLR 16/15 A3004 520 93 800 190/05 RMK AO2
14840KMKG MKG20020912221509209/12/02 22:15:31  5-MIN KMKG 130315Z 19004KT 10SM CLR 16/15 A3004 520 96 700 190/04 RMK AO2
14840KMKG MKG20020912222009209/12/02 22:20:31  5-MIN KMKG 130320Z 18005KT 10SM CLR 16/15 A3004 520 96 700 190/05 RMK AO2
14840KMKG MKG20020912222509209/12/02 22:25:31  5-MIN KMKG 130325Z 19005KT 10SM CLR 15/14 A3004 520 96 700 190/05 RMK AO2
14840KMKG MKG20020912223009209/12/02 22:30:31  5-MIN KMKG 130330Z 19006KT 10SM CLR 15/14 A3004 520 96 700 200/06 RMK AO2
14840KMKG MKG20020912223509209/12/02 22:35:31  5-MIN KMKG 130335Z 19005KT 10SM CLR 15/14 A3004 520 96 700 200/05 RMK AO2
14840KMKG MKG20020912224009309/12/02 22:40:31  5-MIN KMKG 130340Z 20004KT 10SM CLR 15/15 A3004 520 100 700 200/04 RMK AO2
14840KMKG MKG20020912224509209/12/02 22:45:31  5-MIN KMKG 130345Z 19005KT 10SM CLR 16/15 A3003 520 96 800 200/05 RMK AO2
14840KMKG MKG20020912225010909/12/02 22:50:31  5-MIN KMKG 130350Z 19005KT 10SM CLR 16/15 A3003 530 96 800 200/05 RMK AO2 SLP168 T01560150
14840KMKG MKG20020912225510909/12/02 22:55:31  5-MIN KMKG 130355Z 20004KT 10SM CLR 16/15 A3003 530 96 800 200/04 RMK AO2 SLP169 T01560150
14840KMKG MKG20020912230009309/12/02 23:00:31  5-MIN KMKG 130400Z 20005KT 10SM CLR 16/16 A3003 530 100 800 200/05 RMK AO2
14840KMKG MKG20020912230509309/12/02 23:05:31  5-MIN KMKG 130405Z 21004KT 10SM CLR 16/16 A3003 520 100 800 210/04 RMK AO2
14840KMKG MKG20020912231009209/12/02 23:10:31  5-MIN KMKG 130410Z 21004KT 10SM CLR 16/16 A3004 520 96 800 210/04 RMK AO2
14840KMKG MKG20020912231509309/12/02 23:15:31  5-MIN KMKG 130415Z 20004KT 10SM CLR 16/16 A3004 520 100 800 200/04 RMK AO2
14840KMKG MKG20020912232009309/12/02 23:20:31  5-MIN KMKG 130420Z 20003KT 10SM CLR 16/16 A3004 520 100 800 200/03 RMK AO2
14840KMKG MKG20020912232509309/12/02 23:25:31  5-MIN KMKG 130425Z 18003KT 10SM CLR 16/16 A3004 520 100 800 190/03 RMK AO2
14840KMKG MKG20020912233009309/12/02 23:30:31  5-MIN KMKG 130430Z 18003KT 10SM CLR 16/16 A3003 520 100 800 190/03 RMK AO2
14840KMKG MKG20020912233509309/12/02 23:35:31  5-MIN KMKG 130435Z 20003KT 10SM CLR 16/16 A3004 520 100 800 210/03 RMK AO2
14840KMKG MKG20020912234009309/12/02 23:40:31  5-MIN KMKG 130440Z 19003KT 10SM CLR 16/16 A3004 520 100 800 200/03 RMK AO2
14840KMKG MKG20020912234509309/12/02 23:45:31  5-MIN KMKG 130445Z 19004KT 10SM CLR 16/16 A3003 530 100 800 190/04 RMK AO2
14840KMKG MKG20020912235012009/12/02 23:50:31  5-MIN KMKG 130450Z 18003KT 10SM CLR 17/17 A3003 530 100 900 190/03 RMK AO2 SLP167 T01670167 402390089
14840KMKG MKG20020912235512009/12/02 23:55:31  5-MIN KMKG 130455Z 17003KT 10SM CLR 17/17 A3003 530 100 900 180/03 RMK AO2 SLP167 T01670167 402390089
14840KMKG MKG20020913000009309/13/02 00:00:31  5-MIN KMKG 130500Z 18004KT 10SM CLR 16/16 A3003 530 100 800 190/04 RMK AO2
14840KMKG MKG20020913000509309/13/02 00:05:31  5-MIN KMKG 130505Z 18003KT 10SM CLR 16/16 A3003 530 100 800 190/03 RMK AO2
14840KMKG MKG20020913001009209/13/02 00:10:31  5-MIN KMKG 130510Z 18003KT 10SM CLR 16/16 A3003 530 96 800 190/03 RMK AO2
14840KMKG MKG20020913001509209/13/02 00:15:31  5-MIN KMKG 130515Z 18003KT 10SM CLR 16/16 A3003 530 96 800 180/03 RMK AO2
14840KMKG MKG20020913002009209/13/02 00:20:31  5-MIN KMKG 130520Z 19004KT 10SM CLR 16/16 A3003 530 96 800 190/04 RMK AO2
14840KMKG MKG20020913002509309/13/02 00:25:31  5-MIN KMKG 130525Z 19004KT 10SM CLR 16/16 A3003 530 100 800 190/04 RMK AO2
14840KMKG MKG20020913003009309/13/02 00:30:31  5-MIN KMKG 130530Z 00000KT 10SM CLR 16/16 A3003 530 100 800 000/00 RMK AO2
14840KMKG MKG20020913003509209/13/02 00:35:31  5-MIN KMKG 130535Z 00000KT 10SM CLR 16/16 A3003 530 96 800 000/00 RMK AO2
14840KMKG MKG20020913004009309/13/02 00:40:31  5-MIN KMKG 130540Z 00000KT 10SM CLR 16/16 A3003 530 100 800 000/00 RMK AO2
14840KMKG MKG20020913004509309/13/02 00:45:31  5-MIN KMKG 130545Z 00000KT 10SM CLR 16/16 A3003 530 100 800 000/00 RMK AO2
14840KMKG MKG20020913005012809/13/02 00:50:31  5-MIN KMKG 130550Z 00000KT 10SM CLR 16/16 A3003 530 100 800 000/00 RMK AO2 SLP166 T01560156 10189 20144 51006
14840KMKG MKG20020913005512809/13/02 00:55:31  5-MIN KMKG 130555Z 00000KT 10SM CLR 16/16 A3003 530 100 800 000/00 RMK AO2 SLP166 T01560156 10189 20144 56006
14840KMKG MKG20020913010009309/13/02 01:00:31  5-MIN KMKG 130600Z 00000KT 10SM CLR 16/16 A3003 530 100 800 000/00 RMK AO2
14840KMKG MKG20020913010509309/13/02 01:05:31  5-MIN KMKG 130605Z 21004KT 10SM CLR 16/16 A3003 530 100 800 220/04 RMK AO2
14840KMKG MKG20020913011009309/13/02 01:10:31  5-MIN KMKG 130610Z 21004KT 10SM CLR 16/16 A3003 530 100 800 210/04 RMK AO2
14840KMKG MKG20020913011509309/13/02 01:15:31  5-MIN KMKG 130615Z 22005KT 10SM CLR 16/16 A3003 530 100 800 220/05 RMK AO2
14840KMKG MKG20020913012009209/13/02 01:20:31  5-MIN KMKG 130620Z 23005KT 10SM CLR 16/16 A3003 530 96 800 230/05 RMK AO2
14840KMKG MKG20020913012509209/13/02 01:25:31  5-MIN KMKG 130625Z 23005KT 10SM CLR 16/16 A3003 530 96 800 230/05 RMK AO2
14840KMKG MKG20020913013009209/13/02 01:30:31  5-MIN KMKG 130630Z 23005KT 10SM CLR 16/16 A3002 530 96 800 230/05 RMK AO2
14840KMKG MKG20020913013509209/13/02 01:35:31  5-MIN KMKG 130635Z 23005KT 10SM CLR 16/15 A3002 540 96 800 230/05 RMK AO2
14840KMKG MKG20020913014009209/13/02 01:40:31  5-MIN KMKG 130640Z 24005KT 10SM CLR 16/15 A3002 540 93 800 240/05 RMK AO2
14840KMKG MKG20020913014509209/13/02 01:45:31  5-MIN KMKG 130645Z 24005KT 10SM CLR 17/16 A3002 540 93 900 240/05 RMK AO2
14840KMKG MKG20020913015010909/13/02 01:50:31  5-MIN KMKG 130650Z 24005KT 10SM CLR 16/15 A3002 540 93 800 240/05 RMK AO2 SLP163 T01610150
14840KMKG MKG20020913015510909/13/02 01:55:31  5-MIN KMKG 130655Z 25005KT 10SM CLR 17/15 A3002 540 90 900 250/05 RMK AO2 SLP164 T01670150
14840KMKG MKG20020913020009309/13/02 02:00:31  5-MIN KMKG 130700Z 25005KT 10SM CLR 17/15 A3002 540 87 1000 250/05 RMK AO2
14840KMKG MKG20020913020509309/13/02 02:05:31  5-MIN KMKG 130705Z 24004KT 10SM CLR 18/15 A3002 540 83 1000 240/04 RMK AO2
14840KMKG MKG20020913021009309/13/02 02:10:31  5-MIN KMKG 130710Z 24004KT 10SM CLR 17/15 A3002 540 87 1000 240/04 RMK AO2
14840KMKG MKG20020913021509309/13/02 02:15:31  5-MIN KMKG 130715Z 23004KT 10SM CLR 17/15 A3002 540 87 1000 240/04 RMK AO2
14840KMKG MKG20020913022009309/13/02 02:20:31  5-MIN KMKG 130720Z 23004KT 10SM CLR 17/15 A3002 540 87 1000 230/04 RMK AO2
14840KMKG MKG20020913022509309/13/02 02:25:31  5-MIN KMKG 130725Z 24005KT 10SM CLR 17/15 A3002 540 87 1000 240/05 RMK AO2
14840KMKG MKG20020913023009309/13/02 02:30:31  5-MIN KMKG 130730Z 24005KT 10SM CLR 17/15 A3002 540 87 1000 240/05 RMK AO2
14840KMKG MKG20020913023509309/13/02 02:35:31  5-MIN KMKG 130735Z 24005KT 10SM CLR 17/15 A3002 540 87 1000 240/05 RMK AO2
14840KMKG MKG20020913024009309/13/02 02:40:31  5-MIN KMKG 130740Z 24005KT 10SM CLR 17/15 A3002 540 87 1000 240/05 RMK AO2
14840KMKG MKG20020913024509209/13/02 02:45:31  5-MIN KMKG 130745Z 23004KT 10SM CLR 16/14 A3002 540 90 800 230/04 RMK AO2
14840KMKG MKG20020913025010909/13/02 02:50:31  5-MIN KMKG 130750Z 23004KT 10SM CLR 15/14 A3002 540 93 700 240/04 RMK AO2 SLP162 T01500139
14840KMKG MKG20020913025510909/13/02 02:55:31  5-MIN KMKG 130755Z 24004KT 10SM CLR 15/14 A3002 540 93 700 240/04 RMK AO2 SLP163 T01500139
14840KMKG MKG20020913030009209/13/02 03:00:31  5-MIN KMKG 130800Z 24005KT 10SM CLR 16/14 A3002 540 93 800 250/05 RMK AO2
14840KMKG MKG20020913030509209/13/02 03:05:31  5-MIN KMKG 130805Z 24004KT 10SM CLR 15/14 A3002 540 96 700 240/04 RMK AO2
14840KMKG MKG20020913031009209/13/02 03:10:31  5-MIN KMKG 130810Z 23004KT 10SM CLR 14/14 A3001 540 96 600 240/04 RMK AO2
14840KMKG MKG20020913031509209/13/02 03:15:31  5-MIN KMKG 130815Z 22003KT 10SM CLR 14/14 A3002 540 96 600 220/03 RMK AO2
14840KMKG MKG20020913032009309/13/02 03:20:31  5-MIN KMKG 130820Z 21003KT 10SM CLR 14/14 A3002 540 100 600 220/03 RMK AO2
14840KMKG MKG20020913032509309/13/02 03:25:31  5-MIN KMKG 130825Z 21003KT 10SM CLR 14/14 A3002 540 100 600 210/03 RMK AO2
14840KMKG MKG20020913033009309/13/02 03:30:31  5-MIN KMKG 130830Z 20003KT 10SM CLR 14/14 A3002 540 100 600 210/03 RMK AO2
14840KMKG MKG20020913033509309/13/02 03:35:31  5-MIN KMKG 130835Z 20003KT 10SM CLR 14/14 A3002 540 100 600 210/03 RMK AO2
14840KMKG MKG20020913034009309/13/02 03:40:31  5-MIN KMKG 130840Z 21003KT 10SM CLR 14/14 A3002 540 100 600 210/03 RMK AO2
14840KMKG MKG20020913034509309/13/02 03:45:31  5-MIN KMKG 130845Z 20003KT 10SM CLR 14/14 A3002 540 100 600 210/03 RMK AO2
14840KMKG MKG20020913035011609/13/02 03:50:31  5-MIN KMKG 130850Z 00000KT 10SM CLR 14/14 A3002 540 100 600 000/00 RMK AO2 SLP164 T01390139 56006
14840KMKG MKG20020913035511609/13/02 03:55:31  5-MIN KMKG 130855Z 00000KT 10SM CLR 14/14 A3002 540 100 600 000/00 RMK AO2 SLP163 T01390139 56004
14840KMKG MKG20020913040009209/13/02 04:00:31  5-MIN KMKG 130900Z 00000KT 10SM CLR 14/13 A3002 540 96 600 000/00 RMK AO2
14840KMKG MKG20020913040509309/13/02 04:05:31  5-MIN KMKG 130905Z 20003KT 10SM CLR 13/13 A3002 540 100 500 200/03 RMK AO2
14840KMKG MKG20020913041009309/13/02 04:10:31  5-MIN KMKG 130910Z 20003KT 10SM CLR 13/13 A3002 540 100 500 210/03 RMK AO2
14840KMKG MKG20020913041509309/13/02 04:15:31  5-MIN KMKG 130915Z 21003KT 10SM CLR 13/13 A3002 540 100 500 210/03 RMK AO2
14840KMKG MKG20020913042009309/13/02 04:20:31  5-MIN KMKG 130920Z 21003KT 10SM CLR 14/14 A3002 540 100 600 220/03 RMK AO2
14840KMKG MKG20020913042509209/13/02 04:25:31  5-MIN KMKG 130925Z 21003KT 10SM CLR 14/13 A3002 540 96 600 220/03 RMK AO2
14840KMKG MKG20020913043009309/13/02 04:30:31  5-MIN KMKG 130930Z 22003KT 10SM CLR 14/14 A3002 540 100 600 220/03 RMK AO2
14840KMKG MKG20020913043509209/13/02 04:35:31  5-MIN KMKG 130935Z 22003KT 10SM CLR 14/14 A3002 540 96 600 230/03 RMK AO2
14840KMKG MKG20020913044009309/13/02 04:40:31  5-MIN KMKG 130940Z 23003KT 10SM CLR 14/14 A3002 540 100 600 230/03 RMK AO2
14840KMKG MKG20020913044509209/13/02 04:45:31  5-MIN KMKG 130945Z 23004KT 10SM CLR 15/14 A3002 540 96 700 230/04 RMK AO2
14840KMKG MKG20020913045010909/13/02 04:50:31  5-MIN KMKG 130950Z 23005KT 10SM CLR 15/14 A3002 540 96 700 240/05 RMK AO2 SLP163 T01500144
14840KMKG MKG20020913045510909/13/02 04:55:31  5-MIN KMKG 130955Z 23005KT 10SM CLR 15/14 A3002 540 93 700 240/05 RMK AO2 SLP163 T01500139
14840KMKG MKG20020913050009209/13/02 05:00:31  5-MIN KMKG 131000Z 24005KT 10SM CLR 15/14 A3002 540 96 700 240/05 RMK AO2
14840KMKG MKG20020913050509209/13/02 05:05:31  5-MIN KMKG 131005Z 24005KT 10SM CLR 16/15 A3002 540 93 800 250/05 RMK AO2
14840KMKG MKG20020913051009209/13/02 05:10:31  5-MIN KMKG 131010Z 24005KT 10SM CLR 16/15 A3002 540 93 800 250/05 RMK AO2
14840KMKG MKG20020913051509209/13/02 05:15:31  5-MIN KMKG 131015Z 24005KT 10SM CLR 16/14 A3002 540 90 800 240/05 RMK AO2
14840KMKG MKG20020913052009209/13/02 05:20:31  5-MIN KMKG 131020Z 24005KT 10SM CLR 16/14 A3002 540 93 800 240/05 RMK AO2
14840KMKG MKG20020913052509209/13/02 05:25:31  5-MIN KMKG 131025Z 24005KT 10SM CLR 16/14 A3002 540 90 800 240/05 RMK AO2
14840KMKG MKG20020913053009209/13/02 05:30:31  5-MIN KMKG 131030Z 24005KT 10SM CLR 16/14 A3002 540 93 800 240/05 RMK AO2
14840KMKG MKG20020913053509209/13/02 05:35:31  5-MIN KMKG 131035Z 23004KT 10SM CLR 16/14 A3002 540 90 800 230/04 RMK AO2
14840KMKG MKG20020913054009209/13/02 05:40:31  5-MIN KMKG 131040Z 23005KT 10SM CLR 16/15 A3002 540 93 800 230/05 RMK AO2
14840KMKG MKG20020913054509209/13/02 05:45:31  5-MIN KMKG 131045Z 24005KT 10SM CLR 17/15 A3002 530 90 900 240/05 RMK AO2
14840KMKG MKG20020913055010909/13/02 05:50:31  5-MIN KMKG 131050Z 23005KT 10SM CLR 17/15 A3002 540 90 900 240/05 RMK AO2 SLP165 T01670150
14840KMKG MKG20020913055510909/13/02 05:55:31  5-MIN KMKG 131055Z 23005KT 10SM CLR 16/14 A3002 530 93 800 240/05 RMK AO2 SLP166 T01560144
14840KMKG MKG20020913060009209/13/02 06:00:31  5-MIN KMKG 131100Z 23005KT 10SM CLR 16/14 A3002 530 90 800 240/05 RMK AO2
14840KMKG MKG20020913060509209/13/02 06:05:31  5-MIN KMKG 131105Z 24005KT 10SM CLR 16/14 A3002 530 90 800 240/05 RMK AO2
14840KMKG MKG20020913061009209/13/02 06:10:31  5-MIN KMKG 131110Z 24005KT 10SM CLR 16/14 A3003 530 93 800 240/05 RMK AO2
14840KMKG MKG20020913061509209/13/02 06:15:31  5-MIN KMKG 131115Z 24004KT 10SM CLR 16/14 A3003 530 93 800 240/04 RMK AO2
14840KMKG MKG20020913062009209/13/02 06:20:31  5-MIN KMKG 131120Z 23005KT 10SM CLR 16/14 A3003 530 90 800 230/05 RMK AO2
14840KMKG MKG20020913062509209/13/02 06:25:31  5-MIN KMKG 131125Z 23004KT 10SM CLR 16/15 A3003 530 93 800 240/04 RMK AO2
14840KMKG MKG20020913063009209/13/02 06:30:31  5-MIN KMKG 131130Z 23004KT 10SM CLR 16/15 A3003 530 93 800 230/04 RMK AO2
14840KMKG MKG20020913063509809/13/02 06:35:31  5-MIN KMKG 131135Z 20003KT 10SM CLR 15/14 A3003 530 93 700 210/03 RMK AO2 P0001
14840KMKG MKG20020913064009809/13/02 06:40:31  5-MIN KMKG 131140Z 19003KT 10SM CLR 13/13 A3004 520 96 500 190/03 RMK AO2 P0001
14840KMKG MKG20020913064509909/13/02 06:45:31  5-MIN KMKG 131145Z 20003KT 10SM CLR 13/13 A3004 520 100 500 210/03 RMK AO2 P0001
14840KMKG MKG20020913065012809/13/02 06:50:31  5-MIN KMKG 131150Z 21003KT 10SM CLR 13/13 A3004 520 100 500 210/03 RMK AO2 SLP172 T01330133 10178 20133 56004
14840KMKG MKG20020913065512809/13/02 06:55:31  5-MIN KMKG 131155Z 22003KT 10SM CLR 14/14 A3004 520 100 500 220/03 RMK AO2 SLP172 T01390139 10178 20133 53008
14840KMKG MKG20020913070009209/13/02 07:00:31  5-MIN KMKG 131200Z 22004KT 10SM CLR 15/14 A3004 520 93 700 230/04 RMK AO2
14840KMKG MKG20020913070509209/13/02 07:05:31  5-MIN KMKG 131205Z 23004KT 10SM CLR 16/14 A3004 520 90 800 230/04 RMK AO2
14840KMKG MKG20020913071009209/13/02 07:10:31  5-MIN KMKG 131210Z 24004KT 10SM CLR 16/16 A3004 520 96 800 240/04 RMK AO2
14840KMKG MKG20020913071509209/13/02 07:15:31  5-MIN KMKG 131215Z 24004KT 10SM CLR 17/16 A3004 520 93 900 240/04 RMK AO2
14840KMKG MKG20020913072009309/13/02 07:20:31  5-MIN KMKG 131220Z 23004KT 10SM CLR 18/16 A3004 520 90 1000 240/04 RMK AO2
14840KMKG MKG20020913072509309/13/02 07:25:31  5-MIN KMKG 131225Z 23005KT 10SM CLR 18/17 A3004 520 93 1000 240/05 RMK AO2
14840KMKG MKG20020913073009309/13/02 07:30:31  5-MIN KMKG 131230Z 23005KT 10SM CLR 18/17 A3004 520 90 1100 240/05 RMK AO2
14840KMKG MKG20020913073509309/13/02 07:35:31  5-MIN KMKG 131235Z 24005KT 10SM CLR 19/17 A3004 520 87 1100 240/05 RMK AO2
14840KMKG MKG20020913074009309/13/02 07:40:31  5-MIN KMKG 131240Z 24005KT 10SM CLR 19/17 A3004 520 87 1200 240/05 RMK AO2
14840KMKG MKG20020913074509309/13/02 07:45:31  5-MIN KMKG 131245Z 24006KT 10SM CLR 20/17 A3005 510 81 1300 240/06 RMK AO2
14840KMKG MKG20020913075011009/13/02 07:50:31  5-MIN KMKG 131250Z 24005KT 10SM CLR 20/17 A3005 510 81 1300 240/05 RMK AO2 SLP173 T02000167
14840KMKG MKG20020913075511009/13/02 07:55:31  5-MIN KMKG 131255Z 24005KT 10SM CLR 21/17 A3005 510 81 1300 240/05 RMK AO2 SLP174 T02060172
14840KMKG MKG20020913080009309/13/02 08:00:31  5-MIN KMKG 131300Z 25006KT 10SM CLR 21/17 A3005 510 81 1300 250/06 RMK AO2
14840KMKG MKG20020913080509309/13/02 08:05:31  5-MIN KMKG 131305Z 23007KT 10SM CLR 21/17 A3005 510 78 1300 240/07 RMK AO2
14840KMKG MKG20020913081009309/13/02 08:10:31  5-MIN KMKG 131310Z 24007KT 10SM CLR 21/17 A3005 510 75 1400 240/07 RMK AO2
14840KMKG MKG20020913081509309/13/02 08:15:31  5-MIN KMKG 131315Z 24008KT 10SM CLR 21/17 A3005 510 75 1400 240/08 RMK AO2
14840KMKG MKG20020913082009309/13/02 08:20:31  5-MIN KMKG 131320Z 24007KT 10SM CLR 22/17 A3005 510 73 1400 240/07 RMK AO2
14840KMKG MKG20020913082509309/13/02 08:25:31  5-MIN KMKG 131325Z 24007KT 10SM CLR 22/17 A3005 510 73 1400 240/07 RMK AO2
14840KMKG MKG20020913083009309/13/02 08:30:31  5-MIN KMKG 131330Z 23006KT 10SM CLR 22/17 A3005 510 73 1400 230/06 RMK AO2
14840KMKG MKG20020913083509309/13/02 08:35:31  5-MIN KMKG 131335Z VRB06KT 10SM CLR 22/17 A3006 510 73 1400 VRB/06 RMK AO2
14840KMKG MKG20020913084009309/13/02 08:40:31  5-MIN KMKG 131340Z 25006KT 10SM CLR 22/17 A3006 500 70 1500 250/06 RMK AO2
14840KMKG MKG20020913084509309/13/02 08:45:31  5-MIN KMKG 131345Z 24009KT 10SM CLR 22/16 A3006 500 68 1500 250/09 RMK AO2
14840KMKG MKG20020913085011009/13/02 08:50:31  5-MIN KMKG 131350Z 23009KT 10SM CLR 22/16 A3006 500 68 1500 230/09 RMK AO2 SLP177 T02220161
14840KMKG MKG20020913085511009/13/02 08:55:31  5-MIN KMKG 131355Z 24008KT 10SM CLR 22/16 A3006 500 68 1500 240/08 RMK AO2 SLP177 T02220161
14840KMKG MKG20020913090009309/13/02 09:00:31  5-MIN KMKG 131400Z 24007KT 10SM CLR 23/16 A3006 500 65 1600 250/07 RMK AO2
14840KMKG MKG20020913090509309/13/02 09:05:31  5-MIN KMKG 131405Z 24008KT 10SM CLR 22/16 A3006 500 68 1500 240/08 RMK AO2
14840KMKG MKG20020913091009309/13/02 09:10:31  5-MIN KMKG 131410Z 24008KT 10SM CLR 22/16 A3006 500 68 1500 250/08 RMK AO2
14840KMKG MKG20020913091509309/13/02 09:15:31  5-MIN KMKG 131415Z 24007KT 10SM CLR 22/16 A3007 500 65 1500 240/07 RMK AO2
14840KMKG MKG20020913092009309/13/02 09:20:31  5-MIN KMKG 131420Z 23009KT 10SM CLR 22/16 A3007 500 65 1500 240/09 RMK AO2
14840KMKG MKG20020913092509309/13/02 09:25:31  5-MIN KMKG 131425Z 25008KT 10SM CLR 22/16 A3007 490 65 1500 250/08 RMK AO2
14840KMKG MKG20020913093009309/13/02 09:30:31  5-MIN KMKG 131430Z 23009KT 10SM CLR 23/16 A3007 490 63 1600 230/09 RMK AO2
14840KMKG MKG20020913093509309/13/02 09:35:31  5-MIN KMKG 131435Z 25009KT 10SM CLR 23/16 A3007 490 63 1600 260/09 RMK AO2
14840KMKG MKG20020913094009309/13/02 09:40:31  5-MIN KMKG 131440Z 25008KT 10SM CLR 23/16 A3007 490 61 1600 260/08 RMK AO2
14840KMKG MKG20020913094509309/13/02 09:45:31  5-MIN KMKG 131445Z 26009KT 10SM CLR 23/15 A3007 490 61 1600 270/09 RMK AO2
14840KMKG MKG20020913095011609/13/02 09:50:31  5-MIN KMKG 131450Z 26010KT 10SM CLR 23/15 A3007 490 61 1600 260/10 RMK AO2 SLP179 T02280150 53008
14840KMKG MKG20020913095511609/13/02 09:55:31  5-MIN KMKG 131455Z 24011KT 10SM CLR 23/15 A3007 500 61 1600 250/11 RMK AO2 SLP179 T02280150 52009
14840KMKG MKG20020913100009309/13/02 10:00:31  5-MIN KMKG 131500Z 25009KT 10SM CLR 23/15 A3007 490 61 1600 250/09 RMK AO2
14840KMKG MKG20020913100510909/13/02 10:05:31  5-MIN KMKG 131505Z 24009KT 220V280 10SM CLR 23/15 A3007 490 59 1600 250/09 220V280 RMK AO2
14840KMKG MKG20020913101009309/13/02 10:10:31  5-MIN KMKG 131510Z 24009KT 10SM CLR 23/14 A3007 500 59 1600 240/09 RMK AO2
14840KMKG MKG20020913101509309/13/02 10:15:31  5-MIN KMKG 131515Z 25008KT 10SM CLR 23/15 A3007 500 59 1600 250/08 RMK AO2
14840KMKG MKG20020913102009309/13/02 10:20:31  5-MIN KMKG 131520Z 25010KT 10SM CLR 23/14 A3007 500 57 1600 260/10 RMK AO2
14840KMKG MKG20020913102509309/13/02 10:25:31  5-MIN KMKG 131525Z 24007KT 10SM CLR 23/14 A3007 500 57 1600 250/07 RMK AO2
14840KMKG MKG20020913103009309/13/02 10:30:31  5-MIN KMKG 131530Z 24010KT 10SM CLR 23/14 A3007 500 57 1600 250/10 RMK AO2
14840KMKG MKG20020913103509309/13/02 10:35:31  5-MIN KMKG 131535Z 24010KT 10SM CLR 23/14 A3006 500 57 1600 240/10 RMK AO2
14840KMKG MKG20020913104009309/13/02 10:40:31  5-MIN KMKG 131540Z 26008KT 10SM CLR 23/14 A3006 500 57 1600 260/08 RMK AO2
14840KMKG MKG20020913104509309/13/02 10:45:31  5-MIN KMKG 131545Z 25009KT 10SM CLR 23/14 A3006 500 57 1600 250/09 RMK AO2
14840KMKG MKG20020913105011009/13/02 10:50:31  5-MIN KMKG 131550Z 24009KT 10SM CLR 23/14 A3006 500 57 1600 250/09 RMK AO2 SLP177 T02330144
14840KMKG MKG20020913105511009/13/02 10:55:31  5-MIN KMKG 131555Z 24009KT 10SM CLR 24/14 A3006 500 55 1700 250/09 RMK AO2 SLP177 T02390144
14840KMKG MKG20020913110009309/13/02 11:00:31  5-MIN KMKG 131600Z 24011KT 10SM CLR 24/14 A3006 500 55 1700 250/11 RMK AO2
14840KMKG MKG20020913110509309/13/02 11:05:31  5-MIN KMKG 131605Z 26010KT 10SM CLR 23/14 A3006 500 55 1600 260/10 RMK AO2
14840KMKG MKG20020913111009309/13/02 11:10:31  5-MIN KMKG 131610Z 25010KT 10SM CLR 24/14 A3006 500 53 1700 250/10 RMK AO2
14840KMKG MKG20020913111509309/13/02 11:15:31  5-MIN KMKG 131615Z 27010KT 10SM CLR 23/14 A3006 500 57 1600 270/10 RMK AO2
14840KMKG MKG20020913112009309/13/02 11:20:31  5-MIN KMKG 131620Z 27006KT 10SM CLR 24/14 A3006 500 55 1700 270/06 RMK AO2
14840KMKG MKG20020913112509309/13/02 11:25:31  5-MIN KMKG 131625Z 25009KT 10SM CLR 24/14 A3006 500 55 1700 260/09 RMK AO2
14840KMKG MKG20020913113009309/13/02 11:30:31  5-MIN KMKG 131630Z 25010KT 10SM CLR 24/14 A3006 510 53 1700 250/10 RMK AO2
14840KMKG MKG20020913113509309/13/02 11:35:31  5-MIN KMKG 131635Z 24010KT 10SM CLR 24/14 A3005 510 53 1700 240/10 RMK AO2
14840KMKG MKG20020913114009309/13/02 11:40:31  5-MIN KMKG 131640Z 25010KT 10SM CLR 24/14 A3005 510 53 1700 250/10 RMK AO2
14840KMKG MKG20020913114509309/13/02 11:45:31  5-MIN KMKG 131645Z 23007KT 10SM CLR 24/14 A3005 510 53 1700 230/07 RMK AO2
14840KMKG MKG20020913115012609/13/02 11:50:31  5-MIN KMKG 131650Z 24008KT 200V270 10SM CLR 24/14 A3005 510 55 1700 240/08 200V270 RMK AO2 SLP174 T02390144
14840KMKG MKG20020913115511009/13/02 11:55:31  5-MIN KMKG 131655Z 24010KT 10SM CLR 24/14 A3005 510 55 1700 240/10 RMK AO2 SLP173 T02390144
14840KMKG MKG20020913120009309/13/02 12:00:31  5-MIN KMKG 131700Z 22010KT 10SM CLR 24/14 A3005 510 53 1700 230/10 RMK AO2
14840KMKG MKG20020913120511509/13/02 12:05:31  5-MIN KMKG 131705Z 23007G14KT 200V260 10SM CLR 24/14 A3005 510 53 1700 230/07G14 200V260 RMK AO2
14840KMKG MKG20020913121009309/13/02 12:10:31  5-MIN KMKG 131710Z 23007KT 10SM CLR 24/14 A3005 510 53 1700 230/07 RMK AO2
14840KMKG MKG20020913121509309/13/02 12:15:31  5-MIN KMKG 131715Z 23010KT 10SM CLR 23/13 A3005 510 53 1600 230/10 RMK AO2
14840KMKG MKG20020913122009309/13/02 12:20:31  5-MIN KMKG 131720Z 24010KT 10SM CLR 24/14 A3005 510 53 1700 250/10 RMK AO2
14840KMKG MKG20020913122509309/13/02 12:25:31  5-MIN KMKG 131725Z 23008KT 10SM CLR 23/14 A3004 520 57 1600 230/08 RMK AO2
14840KMKG MKG20020913123010909/13/02 12:30:31  5-MIN KMKG 131730Z 23008KT 200V260 10SM CLR 24/15 A3004 520 57 1700 230/08 200V260 RMK AO2
14840KMKG MKG20020913123509309/13/02 12:35:31  5-MIN KMKG 131735Z 22009KT 10SM CLR 24/15 A3004 520 57 1700 220/09 RMK AO2
14840KMKG MKG20020913124009309/13/02 12:40:31  5-MIN KMKG 131740Z 23008KT 10SM CLR 23/15 A3004 520 59 1600 240/08 RMK AO2
14840KMKG MKG20020913124510909/13/02 12:45:31  5-MIN KMKG 131745Z 24009KT 200V270 10SM CLR 24/16 A3004 520 59 1700 250/09 200V270 RMK AO2
14840KMKG MKG20020913125012809/13/02 12:50:31  5-MIN KMKG 131750Z 21009KT 10SM CLR 24/16 A3004 520 59 1700 220/09 RMK AO2 SLP169 T02390156 10244 20144 52009
14840KMKG MKG20020913125512809/13/02 12:55:31  5-MIN KMKG 131755Z 23007KT 10SM CLR 24/14 A3004 520 55 1700 230/07 RMK AO2 SLP169 T02390144 10244 20144 58010
14840KMKG MKG20020913130009309/13/02 13:00:31  5-MIN KMKG 131800Z 22008KT 10SM CLR 23/14 A3003 530 57 1700 220/08 RMK AO2
14840KMKG MKG20020913130509309/13/02 13:05:31  5-MIN KMKG 131805Z 20006KT 10SM CLR 23/14 A3003 530 55 1700 210/06 RMK AO2
14840KMKG MKG20020913131009309/13/02 13:10:31  5-MIN KMKG 131810Z 24007KT 10SM CLR 24/14 A3003 530 55 1700 240/07 RMK AO2
14840KMKG MKG20020913131509309/13/02 13:15:31  5-MIN KMKG 131815Z 25008KT 10SM CLR 24/14 A3003 530 53 1700 250/08 RMK AO2
14840KMKG MKG20020913132009309/13/02 13:20:31  5-MIN KMKG 131820Z 25007KT 10SM CLR 24/13 A3003 530 49 1800 250/07 RMK AO2
14840KMKG MKG20020913132509309/13/02 13:25:31  5-MIN KMKG 131825Z 23008KT 10SM CLR 24/13 A3003 530 49 1800 230/08 RMK AO2
14840KMKG MKG20020913133009309/13/02 13:30:31  5-MIN KMKG 131830Z VRB06KT 10SM CLR 24/13 A3003 530 47 1800 VRB/06 RMK AO2
14840KMKG MKG20020913133509309/13/02 13:35:31  5-MIN KMKG 131835Z 22009KT 10SM CLR 24/13 A3003 530 47 1800 230/09 RMK AO2
14840KMKG MKG20020913134009309/13/02 13:40:31  5-MIN KMKG 131840Z 22009KT 10SM CLR 24/13 A3003 530 49 1700 220/09 RMK AO2
14840KMKG MKG20020913134509309/13/02 13:45:31  5-MIN KMKG 131845Z 23008KT 10SM CLR 24/12 A3003 530 47 1700 230/08 RMK AO2
14840KMKG MKG20020913135011009/13/02 13:50:31  5-MIN KMKG 131850Z 24008KT 10SM CLR 24/13 A3003 530 49 1700 240/08 RMK AO2 SLP168 T02390128
14840KMKG MKG20020913135511009/13/02 13:55:31  5-MIN KMKG 131855Z 25008KT 10SM CLR 24/13 A3003 530 49 1700 260/08 RMK AO2 SLP168 T02390128
14840KMKG MKG20020913140009309/13/02 14:00:31  5-MIN KMKG 131900Z 24006KT 10SM CLR 23/13 A3003 530 51 1700 240/06 RMK AO2
14840KMKG MKG20020913140509309/13/02 14:05:31  5-MIN KMKG 131905Z 23007KT 10SM CLR 23/13 A3003 530 51 1700 240/07 RMK AO2
14840KMKG MKG20020913141009309/13/02 14:10:31  5-MIN KMKG 131910Z 24007KT 10SM CLR 23/13 A3003 530 53 1600 240/07 RMK AO2
14840KMKG MKG20020913141509309/13/02 14:15:31  5-MIN KMKG 131915Z 24007KT 10SM CLR 23/13 A3003 530 51 1700 240/07 RMK AO2
14840KMKG MKG20020913142009309/13/02 14:20:31  5-MIN KMKG 131920Z 24007KT 10SM CLR 23/13 A3003 530 53 1600 250/07 RMK AO2
14840KMKG MKG20020913142509309/13/02 14:25:31  5-MIN KMKG 131925Z 24006KT 10SM CLR 23/13 A3003 530 55 1600 250/06 RMK AO2
14840KMKG MKG20020913143009309/13/02 14:30:31  5-MIN KMKG 131930Z 25004KT 10SM CLR 23/14 A3003 530 55 1700 260/04 RMK AO2
14840KMKG MKG20020913143509309/13/02 14:35:31  5-MIN KMKG 131935Z 26006KT 10SM CLR 23/14 A3003 530 55 1700 260/06 RMK AO2
14840KMKG MKG20020913144009309/13/02 14:40:31  5-MIN KMKG 131940Z VRB06KT 10SM CLR 24/13 A3002 540 51 1700 VRB/06 RMK AO2
14840KMKG MKG20020913144509309/13/02 14:45:31  5-MIN KMKG 131945Z 22006KT 10SM CLR 24/13 A3002 540 49 1700 220/06 RMK AO2
14840KMKG MKG20020913145011009/13/02 14:50:31  5-MIN KMKG 131950Z VRB06KT 10SM CLR 24/12 A3002 540 46 1800 VRB/06 RMK AO2 SLP164 T02440122
14840KMKG MKG20020913145511009/13/02 14:55:31  5-MIN KMKG 131955Z 26006KT 10SM CLR 24/12 A3002 540 46 1800 270/06 RMK AO2 SLP163 T02440122
14840KMKG MKG20020913150009309/13/02 15:00:31  5-MIN KMKG 132000Z 24008KT 10SM CLR 24/12 A3002 540 46 1800 250/08 RMK AO2
14840KMKG MKG20020913150509309/13/02 15:05:31  5-MIN KMKG 132005Z 24006KT 10SM CLR 24/11 A3002 540 44 1700 240/06 RMK AO2
14840KMKG MKG20020913151009309/13/02 15:10:31  5-MIN KMKG 132010Z 27007KT 10SM CLR 24/12 A3002 540 44 1800 270/07 RMK AO2
14840KMKG MKG20020913151509309/13/02 15:15:31  5-MIN KMKG 132015Z 22007KT 10SM CLR 24/12 A3002 540 44 1800 230/07 RMK AO2
14840KMKG MKG20020913152009309/13/02 15:20:31  5-MIN KMKG 132020Z 25007KT 10SM CLR 24/12 A3002 540 46 1700 250/07 RMK AO2
14840KMKG MKG20020913152509309/13/02 15:25:31  5-MIN KMKG 132025Z VRB06KT 10SM CLR 24/12 A3002 540 46 1800 VRB/06 RMK AO2
14840KMKG MKG20020913153009309/13/02 15:30:31  5-MIN KMKG 132030Z 23006KT 10SM CLR 24/12 A3002 540 47 1700 240/06 RMK AO2
14840KMKG MKG20020913153509309/13/02 15:35:31  5-MIN KMKG 132035Z VRB05KT 10SM CLR 24/12 A3002 540 46 1700 VRB/05 RMK AO2
14840KMKG MKG20020913154009309/13/02 15:40:31  5-MIN KMKG 132040Z 25007KT 10SM CLR 24/12 A3002 540 46 1800 260/07 RMK AO2
14840KMKG MKG20020913154509309/13/02 15:45:31  5-MIN KMKG 132045Z 23006KT 10SM CLR 24/13 A3001 540 49 1700 230/06 RMK AO2
14840KMKG MKG20020913155011609/13/02 15:50:31  5-MIN KMKG 132050Z 22006KT 10SM CLR 24/13 A3001 540 49 1700 220/06 RMK AO2 SLP163 T02390128 58010
14840KMKG MKG20020913155511609/13/02 15:55:31  5-MIN KMKG 132055Z 20006KT 10SM CLR 24/13 A3002 540 49 1700 210/06 RMK AO2 SLP163 T02390128 58007
14840KMKG MKG20020913160009309/13/02 16:00:31  5-MIN KMKG 132100Z 22007KT 10SM CLR 24/13 A3001 540 49 1700 220/07 RMK AO2
14840KMKG MKG20020913160509309/13/02 16:05:31  5-MIN KMKG 132105Z 25006KT 10SM CLR 24/13 A3001 540 49 1700 260/06 RMK AO2
14840KMKG MKG20020913161009309/13/02 16:10:31  5-MIN KMKG 132110Z 22007KT 10SM CLR 23/13 A3001 540 53 1700 230/07 RMK AO2
14840KMKG MKG20020913161509309/13/02 16:15:31  5-MIN KMKG 132115Z 22008KT 10SM CLR 24/13 A3002 540 49 1700 220/08 RMK AO2
14840KMKG MKG20020913162009309/13/02 16:20:31  5-MIN KMKG 132120Z 21008KT 10SM CLR 24/12 A3002 540 47 1700 220/08 RMK AO2
14840KMKG MKG20020913162509309/13/02 16:25:31  5-MIN KMKG 132125Z 23007KT 10SM CLR 23/13 A3002 540 51 1700 230/07 RMK AO2
14840KMKG MKG20020913163009309/13/02 16:30:31  5-MIN KMKG 132130Z 25007KT 10SM CLR 23/13 A3001 540 51 1700 250/07 RMK AO2
14840KMKG MKG20020913163509309/13/02 16:35:31  5-MIN KMKG 132135Z 23007KT 10SM CLR 23/13 A3001 540 51 1700 240/07 RMK AO2
14840KMKG MKG20020913164009309/13/02 16:40:31  5-MIN KMKG 132140Z 21008KT 10SM CLR 23/13 A3001 540 53 1700 210/08 RMK AO2
14840KMKG MKG20020913164509309/13/02 16:45:31  5-MIN KMKG 132145Z 21007KT 10SM CLR 23/13 A3001 540 53 1700 210/07 RMK AO2
14840KMKG MKG20020913165011009/13/02 16:50:31  5-MIN KMKG 132150Z 23006KT 10SM CLR 23/13 A3001 550 51 1700 240/06 RMK AO2 SLP161 T02330128
14840KMKG MKG20020913165512609/13/02 16:55:31  5-MIN KMKG 132155Z 25007KT 210V270 10SM CLR 23/13 A3001 550 51 1700 250/07 210V270 RMK AO2 SLP160 T02330128
14840KMKG MKG20020913170009309/13/02 17:00:31  5-MIN KMKG 132200Z 25006KT 10SM CLR 23/13 A3001 550 51 1700 250/06 RMK AO2
14840KMKG MKG20020913170509309/13/02 17:05:31  5-MIN KMKG 132205Z 23005KT 10SM CLR 23/13 A3001 550 51 1700 230/05 RMK AO2
14840KMKG MKG20020913171009309/13/02 17:10:31  5-MIN KMKG 132210Z 22005KT 10SM CLR 23/13 A3001 550 55 1600 220/05 RMK AO2
14840KMKG MKG20020913171509309/13/02 17:15:31  5-MIN KMKG 132215Z 22006KT 10SM CLR 23/13 A3001 550 55 1600 230/06 RMK AO2
14840KMKG MKG20020913172009309/13/02 17:20:31  5-MIN KMKG 132220Z 22004KT 10SM CLR 23/12 A3001 550 51 1600 220/04 RMK AO2
14840KMKG MKG20020913172509309/13/02 17:25:31  5-MIN KMKG 132225Z 21006KT 10SM CLR 23/13 A3001 550 53 1600 210/06 RMK AO2
14840KMKG MKG20020913173009309/13/02 17:30:31  5-MIN KMKG 132230Z 19005KT 10SM CLR 22/13 A3001 550 56 1600 200/05 RMK AO2
14840KMKG MKG20020913173509309/13/02 17:35:31  5-MIN KMKG 132235Z 20006KT 10SM CLR 22/13 A3000 550 54 1600 200/06 RMK AO2
14840KMKG MKG20020913174009309/13/02 17:40:31  5-MIN KMKG 132240Z 21005KT 10SM CLR 22/13 A3000 550 56 1600 220/05 RMK AO2
14840KMKG MKG20020913174509309/13/02 17:45:31  5-MIN KMKG 132245Z 23004KT 10SM CLR 22/13 A3000 560 56 1600 230/04 RMK AO2
14840KMKG MKG20020913175011009/13/02 17:50:31  5-MIN KMKG 132250Z 24005KT 10SM CLR 22/14 A3000 560 59 1600 250/05 RMK AO2 SLP157 T02220139
14840KMKG MKG20020913175511009/13/02 17:55:31  5-MIN KMKG 132255Z 24004KT 10SM CLR 22/14 A3000 560 59 1600 250/04 RMK AO2 SLP157 T02220139
14840KMKG MKG20020913180009309/13/02 18:00:31  5-MIN KMKG 132300Z 23004KT 10SM CLR 22/14 A3000 560 61 1500 230/04 RMK AO2
14840KMKG MKG20020913180509309/13/02 18:05:31  5-MIN KMKG 132305Z 23004KT 10SM CLR 22/14 A3000 560 59 1600 230/04 RMK AO2
14840KMKG MKG20020913181009309/13/02 18:10:31  5-MIN KMKG 132310Z 23005KT 10SM CLR 22/14 A3000 560 61 1500 240/05 RMK AO2
14840KMKG MKG20020913181509309/13/02 18:15:31  5-MIN KMKG 132315Z 23004KT 10SM CLR 22/14 A3000 560 59 1600 240/04 RMK AO2
14840KMKG MKG20020913182009309/13/02 18:20:31  5-MIN KMKG 132320Z 23004KT 10SM CLR 22/14 A3000 560 59 1600 240/04 RMK AO2
14840KMKG MKG20020913182509309/13/02 18:25:31  5-MIN KMKG 132325Z 22003KT 10SM CLR 22/13 A3000 560 58 1500 230/03 RMK AO2
14840KMKG MKG20020913183009309/13/02 18:30:31  5-MIN KMKG 132330Z 23003KT 10SM CLR 22/13 A3000 560 58 1500 240/03 RMK AO2
14840KMKG MKG20020913183509309/13/02 18:35:31  5-MIN KMKG 132335Z 22003KT 10SM CLR 22/13 A2999 560 58 1500 230/03 RMK AO2
14840KMKG MKG20020913184009309/13/02 18:40:31  5-MIN KMKG 132340Z 00000KT 10SM CLR 22/13 A2999 570 58 1500 000/00 RMK AO2
14840KMKG MKG20020913184509309/13/02 18:45:31  5-MIN KMKG 132345Z 00000KT 10SM CLR 21/13 A2999 570 58 1500 000/00 RMK AO2
14840KMKG MKG20020913185012809/13/02 18:50:31  5-MIN KMKG 132350Z 00000KT 10SM CLR 21/13 A2999 570 61 1500 000/00 RMK AO2 SLP153 T02110133 10250 20211 58007
14840KMKG MKG20020913185512809/13/02 18:55:31  5-MIN KMKG 132355Z 00000KT 10SM CLR 21/13 A2999 570 63 1400 000/00 RMK AO2 SLP153 T02060133 10250 20206 58010
14840KMKG MKG20020913190009309/13/02 19:00:31  5-MIN KMKG 140000Z 00000KT 10SM CLR 21/13 A2998 570 63 1400 000/00 RMK AO2
14840KMKG MKG20020913190509309/13/02 19:05:31  5-MIN KMKG 140005Z 00000KT 10SM CLR 20/14 A2998 570 67 1300 000/00 RMK AO2
14840KMKG MKG20020913191009309/13/02 19:10:31  5-MIN KMKG 140010Z 00000KT 10SM CLR 20/14 A2999 570 67 1300 000/00 RMK AO2
14840KMKG MKG20020913191509309/13/02 19:15:31  5-MIN KMKG 140015Z 00000KT 10SM CLR 19/14 A2999 570 70 1300 000/00 RMK AO2
14840KMKG MKG20020913192009309/13/02 19:20:31  5-MIN KMKG 140020Z 00000KT 10SM CLR 19/13 A2998 570 70 1200 000/00 RMK AO2
14840KMKG MKG20020913192509309/13/02 19:25:31  5-MIN KMKG 140025Z 00000KT 10SM CLR 19/14 A2998 570 72 1200 000/00 RMK AO2
14840KMKG MKG20020913193009309/13/02 19:30:31  5-MIN KMKG 140030Z 00000KT 10SM CLR 19/14 A2998 570 72 1200 000/00 RMK AO2
14840KMKG MKG20020913193509309/13/02 19:35:31  5-MIN KMKG 140035Z 00000KT 10SM CLR 19/13 A2998 570 70 1200 000/00 RMK AO2
14840KMKG MKG20020913194009309/13/02 19:40:31  5-MIN KMKG 140040Z 00000KT 10SM CLR 18/13 A2998 570 72 1100 000/00 RMK AO2
14840KMKG MKG20020913194509309/13/02 19:45:31  5-MIN KMKG 140045Z 00000KT 10SM CLR 18/13 A2998 570 75 1100 000/00 RMK AO2
14840KMKG MKG20020913195011009/13/02 19:50:31  5-MIN KMKG 140050Z 00000KT 10SM CLR 17/13 A2999 570 75 1000 000/00 RMK AO2 SLP153 T01720128
14840KMKG MKG20020913195511009/13/02 19:55:31  5-MIN KMKG 140055Z 00000KT 10SM CLR 17/13 A2999 570 78 1000 000/00 RMK AO2 SLP153 T01720133
14840KMKG MKG20020913200009309/13/02 20:00:31  5-MIN KMKG 140100Z 00000KT 10SM CLR 18/13 A2999 570 75 1100 000/00 RMK AO2
14840KMKG MKG20020913200509309/13/02 20:05:31  5-MIN KMKG 140105Z 00000KT 10SM CLR 17/13 A2999 570 78 1000 000/00 RMK AO2
14840KMKG MKG20020913201009309/13/02 20:10:31  5-MIN KMKG 140110Z 00000KT 10SM CLR 17/13 A2999 560 78 1000 000/00 RMK AO2
14840KMKG MKG20020913201509209/13/02 20:15:31  5-MIN KMKG 140115Z 00000KT 10SM CLR 17/13 A2999 570 80 900 000/00 RMK AO2
14840KMKG MKG20020913202009309/13/02 20:20:31  5-MIN KMKG 140120Z 00000KT 10SM CLR 17/13 A2999 570 78 1000 000/00 RMK AO2
14840KMKG MKG20020913202509209/13/02 20:25:31  5-MIN KMKG 140125Z 00000KT 10SM CLR 17/13 A2999 570 80 900 000/00 RMK AO2
14840KMKG MKG20020913203009209/13/02 20:30:31  5-MIN KMKG 140130Z 00000KT 10SM CLR 17/13 A2999 570 80 900 000/00 RMK AO2
14840KMKG MKG20020913203509209/13/02 20:35:31  5-MIN KMKG 140135Z 00000KT 10SM CLR 17/13 A2999 570 80 900 000/00 RMK AO2
14840KMKG MKG20020913204009209/13/02 20:40:31  5-MIN KMKG 140140Z 00000KT 10SM CLR 16/13 A2999 570 83 900 000/00 RMK AO2
14840KMKG MKG20020913204509209/13/02 20:45:31  5-MIN KMKG 140145Z 00000KT 10SM CLR 16/13 A2999 570 83 900 000/00 RMK AO2
14840KMKG MKG20020913205010909/13/02 20:50:31  5-MIN KMKG 140150Z 00000KT 10SM CLR 16/13 A2999 570 83 900 000/00 RMK AO2 SLP153 T01610133
14840KMKG MKG20020913205510909/13/02 20:55:31  5-MIN KMKG 140155Z 00000KT 10SM CLR 16/14 A2999 570 86 900 000/00 RMK AO2 SLP152 T01610139
14840KMKG MKG20020913210009209/13/02 21:00:31  5-MIN KMKG 140200Z 00000KT 10SM CLR 16/14 A2998 570 86 900 000/00 RMK AO2
14840KMKG MKG20020913210509209/13/02 21:05:31  5-MIN KMKG 140205Z 00000KT 10SM CLR 16/14 A2998 570 86 900 000/00 RMK AO2
14840KMKG MKG20020913211009209/13/02 21:10:31  5-MIN KMKG 140210Z 00000KT 10SM CLR 16/13 A2998 570 86 800 000/00 RMK AO2
14840KMKG MKG20020913211509209/13/02 21:15:31  5-MIN KMKG 140215Z 00000KT 10SM CLR 16/13 A2998 580 86 800 000/00 RMK AO2
14840KMKG MKG20020913212009209/13/02 21:20:31  5-MIN KMKG 140220Z 00000KT 10SM CLR 16/13 A2998 580 86 800 000/00 RMK AO2
14840KMKG MKG20020913212509209/13/02 21:25:31  5-MIN KMKG 140225Z 12003KT 10SM CLR 16/13 A2998 580 86 800 120/03 RMK AO2
14840KMKG MKG20020913213009209/13/02 21:30:31  5-MIN KMKG 140230Z 13003KT 10SM CLR 15/13 A2998 580 90 800 130/03 RMK AO2
14840KMKG MKG20020913213509209/13/02 21:35:31  5-MIN KMKG 140235Z 14003KT 10SM CLR 14/13 A2998 580 90 700 140/03 RMK AO2
14840KMKG MKG20020913214009209/13/02 21:40:31  5-MIN KMKG 140240Z 00000KT 10SM CLR 14/13 A2998 580 93 700 000/00 RMK AO2
14840KMKG MKG20020913214509209/13/02 21:45:31  5-MIN KMKG 140245Z 00000KT 10SM CLR 15/13 A2998 580 90 800 000/00 RMK AO2
14840KMKG MKG20020913215011509/13/02 21:50:31  5-MIN KMKG 140250Z 00000KT 10SM CLR 15/13 A2998 580 90 800 000/00 RMK AO2 SLP149 T01500133 58010
14840KMKG MKG20020913215511509/13/02 21:55:31  5-MIN KMKG 140255Z 00000KT 10SM CLR 15/13 A2998 580 90 800 000/00 RMK AO2 SLP150 T01500133 58002
14840KMKG MKG20020913220009209/13/02 22:00:31  5-MIN KMKG 140300Z 00000KT 10SM CLR 15/13 A2998 580 90 800 000/00 RMK AO2
14840KMKG MKG20020913220509209/13/02 22:05:31  5-MIN KMKG 140305Z 00000KT 10SM CLR 13/13 A2998 580 96 600 000/00 RMK AO2
14840KMKG MKG20020913221009209/13/02 22:10:31  5-MIN KMKG 140310Z 00000KT 10SM CLR 14/13 A2998 580 93 700 000/00 RMK AO2
14840KMKG MKG20020913221509209/13/02 22:15:31  5-MIN KMKG 140315Z 00000KT 10SM CLR 14/13 A2998 580 93 700 000/00 RMK AO2
14840KMKG MKG20020913222009209/13/02 22:20:31  5-MIN KMKG 140320Z 00000KT 10SM CLR 15/13 A2998 580 90 800 000/00 RMK AO2
14840KMKG MKG20020913222509209/13/02 22:25:31  5-MIN KMKG 140325Z 00000KT 10SM CLR 15/13 A2998 580 86 800 000/00 RMK AO2
14840KMKG MKG20020913223009209/13/02 22:30:31  5-MIN KMKG 140330Z 12003KT 10SM CLR 14/13 A2998 580 90 700 120/03 RMK AO2
14840KMKG MKG20020913223509209/13/02 22:35:31  5-MIN KMKG 140335Z 12004KT 10SM CLR 14/12 A2998 580 90 600 130/04 RMK AO2
14840KMKG MKG20020913224009209/13/02 22:40:31  5-MIN KMKG 140340Z 12003KT 10SM CLR 13/12 A2998 580 93 600 120/03 RMK AO2
14840KMKG MKG20020913224509209/13/02 22:45:31  5-MIN KMKG 140345Z 11003KT 10SM CLR 13/12 A2998 580 93 600 110/03 RMK AO2
14840KMKG MKG20020913225010909/13/02 22:50:31  5-MIN KMKG 140350Z 11003KT 10SM CLR 13/12 A2997 580 93 600 110/03 RMK AO2 SLP148 T01330122
14840KMKG MKG20020913225510909/13/02 22:55:31  5-MIN KMKG 140355Z 12004KT 10SM CLR 14/13 A2997 580 93 600 120/04 RMK AO2 SLP148 T01390128
14840KMKG MKG20020913230009209/13/02 23:00:31  5-MIN KMKG 140400Z 12003KT 10SM CLR 14/13 A2997 590 93 600 120/03 RMK AO2
14840KMKG MKG20020913230509209/13/02 23:05:31  5-MIN KMKG 140405Z 12003KT 10SM CLR 14/13 A2997 590 93 600 120/03 RMK AO2
14840KMKG MKG20020913231009209/13/02 23:10:31  5-MIN KMKG 140410Z 12003KT 10SM CLR 14/13 A2997 590 90 700 130/03 RMK AO2
14840KMKG MKG20020913231509209/13/02 23:15:31  5-MIN KMKG 140415Z 14003KT 10SM CLR 14/13 A2997 590 93 600 140/03 RMK AO2
14840KMKG MKG20020913232009209/13/02 23:20:31  5-MIN KMKG 140420Z 00000KT 10SM CLR 14/13 A2997 590 90 700 000/00 RMK AO2
14840KMKG MKG20020913232509209/13/02 23:25:31  5-MIN KMKG 140425Z 00000KT 10SM CLR 13/12 A2997 590 93 600 000/00 RMK AO2
14840KMKG MKG20020913233009209/13/02 23:30:31  5-MIN KMKG 140430Z 00000KT 10SM CLR 13/12 A2997 590 93 600 000/00 RMK AO2
14840KMKG MKG20020913233509209/13/02 23:35:31  5-MIN KMKG 140435Z 00000KT 10SM CLR 13/12 A2997 590 93 600 000/00 RMK AO2
14840KMKG MKG20020913234009209/13/02 23:40:31  5-MIN KMKG 140440Z 00000KT 10SM CLR 13/12 A2997 590 93 600 000/00 RMK AO2
14840KMKG MKG20020913234509209/13/02 23:45:31  5-MIN KMKG 140445Z 00000KT 10SM CLR 14/13 A2997 590 93 600 000/00 RMK AO2
14840KMKG MKG20020913235011909/13/02 23:50:31  5-MIN KMKG 140450Z 00000KT 10SM CLR 13/13 A2996 590 96 600 000/00 RMK AO2 SLP145 T01330128 402500133
14840KMKG MKG20020913235511909/13/02 23:55:31  5-MIN KMKG 140455Z 00000KT 10SM CLR 13/13 A2996 590 96 600 000/00 RMK AO2 SLP145 T01330128 402500133
14840KMKG MKG20020914000009209/14/02 00:00:31  5-MIN KMKG 140500Z 00000KT 10SM CLR 13/12 A2996 590 93 600 000/00 RMK AO2
14840KMKG MKG20020914000509209/14/02 00:05:31  5-MIN KMKG 140505Z 11003KT 10SM CLR 13/12 A2996 590 93 600 110/03 RMK AO2
14840KMKG MKG20020914001009209/14/02 00:10:31  5-MIN KMKG 140510Z 11003KT 10SM CLR 13/12 A2996 590 93 600 110/03 RMK AO2
14840KMKG MKG20020914001509209/14/02 00:15:31  5-MIN KMKG 140515Z 11003KT 10SM CLR 13/12 A2996 590 93 600 120/03 RMK AO2
14840KMKG MKG20020914002009109/14/02 00:20:31  5-MIN KMKG 140520Z 11003KT 9SM CLR 13/12 A2996 600 96 500 110/03 RMK AO2
14840KMKG MKG20020914002509109/14/02 00:25:31  5-MIN KMKG 140525Z 11003KT 9SM CLR 13/12 A2996 600 96 500 120/03 RMK AO2
14840KMKG MKG20020914003009109/14/02 00:30:31  5-MIN KMKG 140530Z 11003KT 9SM CLR 13/12 A2995 600 93 500 110/03 RMK AO2
14840KMKG MKG20020914003509109/14/02 00:35:31  5-MIN KMKG 140535Z 00000KT 9SM CLR 13/12 A2996 600 89 600 000/00 RMK AO2
14840KMKG MKG20020914004009209/14/02 00:40:31  5-MIN KMKG 140540Z 00000KT 10SM CLR 13/12 A2996 600 93 600 000/00 RMK AO2
14840KMKG MKG20020914004509109/14/02 00:45:31  5-MIN KMKG 140545Z 00000KT 9SM CLR 13/12 A2996 600 93 600 000/00 RMK AO2
14840KMKG MKG20020914005012609/14/02 00:50:31  5-MIN KMKG 140550Z 00000KT 9SM CLR 13/12 A2996 600 93 500 000/00 RMK AO2 SLP143 T01280117 10206 20128 58002
14840KMKG MKG20020914005512709/14/02 00:55:31  5-MIN KMKG 140555Z 00000KT 10SM CLR 13/12 A2996 600 93 600 000/00 RMK AO2 SLP143 T01330122 10206 20128 56007
14840KMKG MKG20020914010009209/14/02 01:00:31  5-MIN KMKG 140600Z 00000KT 10SM CLR 13/12 A2996 600 93 600 000/00 RMK AO2
14840KMKG MKG20020914010509209/14/02 01:05:31  5-MIN KMKG 140605Z 00000KT 10SM CLR 13/12 A2995 600 93 500 000/00 RMK AO2
14840KMKG MKG20020914011009209/14/02 01:10:31  5-MIN KMKG 140610Z 00000KT 10SM CLR 13/12 A2995 600 96 500 000/00 RMK AO2
14840KMKG MKG20020914011509109/14/02 01:15:31  5-MIN KMKG 140615Z 00000KT 9SM CLR 13/12 A2995 600 96 500 000/00 RMK AO2
14840KMKG MKG20020914012009109/14/02 01:20:31  5-MIN KMKG 140620Z 00000KT 8SM CLR 13/12 A2996 600 93 500 000/00 RMK AO2
14840KMKG MKG20020914012509109/14/02 01:25:31  5-MIN KMKG 140625Z 00000KT 8SM CLR 13/12 A2995 600 93 500 000/00 RMK AO2
14840KMKG MKG20020914013009109/14/02 01:30:31  5-MIN KMKG 140630Z 00000KT 9SM CLR 13/12 A2995 600 93 500 000/00 RMK AO2
14840KMKG MKG20020914013509109/14/02 01:35:31  5-MIN KMKG 140635Z 00000KT 9SM CLR 13/12 A2995 600 93 500 000/00 RMK AO2
14840KMKG MKG20020914014009109/14/02 01:40:31  5-MIN KMKG 140640Z 11003KT 9SM CLR 12/11 A2995 600 93 500 120/03 RMK AO2
14840KMKG MKG20020914014509109/14/02 01:45:31  5-MIN KMKG 140645Z 00000KT 9SM CLR 12/11 A2995 600 96 400 000/00 RMK AO2
14840KMKG MKG20020914015010809/14/02 01:50:31  5-MIN KMKG 140650Z 00000KT 8SM CLR 12/11 A2995 600 93 500 000/00 RMK AO2 SLP140 T01220111
14840KMKG MKG20020914015510809/14/02 01:55:31  5-MIN KMKG 140655Z 00000KT 8SM CLR 12/12 A2995 610 96 500 000/00 RMK AO2 SLP140 T01220117
14840KMKG MKG20020914020009109/14/02 02:00:31  5-MIN KMKG 140700Z 00000KT 8SM CLR 12/12 A2995 610 96 500 000/00 RMK AO2
14840KMKG MKG20020914020509109/14/02 02:05:31  5-MIN KMKG 140705Z 00000KT 8SM CLR 12/11 A2994 610 93 500 000/00 RMK AO2
14840KMKG MKG20020914021009109/14/02 02:10:31  5-MIN KMKG 140710Z 00000KT 8SM CLR 12/11 A2994 610 93 500 000/00 RMK AO2
14840KMKG MKG20020914021509109/14/02 02:15:31  5-MIN KMKG 140715Z 00000KT 8SM CLR 12/11 A2994 620 96 400 000/00 RMK AO2
14840KMKG MKG20020914022009109/14/02 02:20:31  5-MIN KMKG 140720Z 00000KT 7SM CLR 12/12 A2994 620 96 500 000/00 RMK AO2
14840KMKG MKG20020914022509109/14/02 02:25:31  5-MIN KMKG 140725Z 00000KT 8SM CLR 12/12 A2993 620 96 500 000/00 RMK AO2
14840KMKG MKG20020914023009109/14/02 02:30:31  5-MIN KMKG 140730Z 00000KT 9SM CLR 12/12 A2993 620 96 500 000/00 RMK AO2
14840KMKG MKG20020914023509109/14/02 02:35:31  5-MIN KMKG 140735Z 00000KT 9SM CLR 12/12 A2993 620 96 500 000/00 RMK AO2
14840KMKG MKG20020914024009109/14/02 02:40:31  5-MIN KMKG 140740Z 00000KT 8SM CLR 13/12 A2993 620 93 500 000/00 RMK AO2
14840KMKG MKG20020914024509109/14/02 02:45:31  5-MIN KMKG 140745Z 00000KT 8SM CLR 13/12 A2993 620 93 500 000/00 RMK AO2
14840KMKG MKG20020914025010809/14/02 02:50:31  5-MIN KMKG 140750Z 00000KT 8SM CLR 13/12 A2993 620 93 500 000/00 RMK AO2 SLP135 T01280117
14840KMKG MKG20020914025510809/14/02 02:55:31  5-MIN KMKG 140755Z 00000KT 8SM CLR 13/12 A2993 620 93 500 000/00 RMK AO2 SLP134 T01280117
14840KMKG MKG20020914030009109/14/02 03:00:31  5-MIN KMKG 140800Z 00000KT 8SM CLR 13/12 A2993 620 93 500 000/00 RMK AO2
14840KMKG MKG20020914030509109/14/02 03:05:31  5-MIN KMKG 140805Z 00000KT 9SM CLR 12/12 A2993 620 96 500 000/00 RMK AO2
14840KMKG MKG20020914031009109/14/02 03:10:31  5-MIN KMKG 140810Z 00000KT 9SM CLR 12/11 A2993 620 93 500 000/00 RMK AO2
14840KMKG MKG20020914031509109/14/02 03:15:31  5-MIN KMKG 140815Z 00000KT 8SM CLR 12/11 A2993 620 93 500 000/00 RMK AO2
14840KMKG MKG20020914032009109/14/02 03:20:31  5-MIN KMKG 140820Z 00000KT 7SM CLR 12/12 A2993 620 96 500 000/00 RMK AO2
14840KMKG MKG20020914032509109/14/02 03:25:31  5-MIN KMKG 140825Z 00000KT 7SM CLR 12/12 A2993 620 96 500 000/00 RMK AO2
14840KMKG MKG20020914033009109/14/02 03:30:31  5-MIN KMKG 140830Z 00000KT 8SM CLR 12/11 A2993 620 93 500 000/00 RMK AO2
14840KMKG MKG20020914033509109/14/02 03:35:31  5-MIN KMKG 140835Z 00000KT 8SM CLR 12/11 A2993 620 96 400 000/00 RMK AO2
14840KMKG MKG20020914034009109/14/02 03:40:31  5-MIN KMKG 140840Z 00000KT 8SM CLR 12/11 A2993 620 96 400 000/00 RMK AO2
14840KMKG MKG20020914034509109/14/02 03:45:31  5-MIN KMKG 140845Z 00000KT 7SM CLR 12/11 A2993 620 96 400 000/00 RMK AO2
14840KMKG MKG20020914035011409/14/02 03:50:31  5-MIN KMKG 140850Z 00000KT 7SM CLR 12/11 A2993 620 96 400 000/00 RMK AO2 SLP134 T01170111 56007
14840KMKG MKG20020914035511409/14/02 03:55:31  5-MIN KMKG 140855Z 00000KT 8SM CLR 12/11 A2993 620 96 400 000/00 RMK AO2 SLP135 T01170111 55008
14840KMKG MKG20020914040009109/14/02 04:00:31  5-MIN KMKG 140900Z 00000KT 9SM CLR 12/11 A2993 620 93 400 000/00 RMK AO2
14840KMKG MKG20020914040509109/14/02 04:05:31  5-MIN KMKG 140905Z 00000KT 8SM CLR 12/11 A2994 620 93 400 000/00 RMK AO2
14840KMKG MKG20020914041009109/14/02 04:10:31  5-MIN KMKG 140910Z 00000KT 8SM CLR 12/11 A2993 620 93 400 000/00 RMK AO2
14840KMKG MKG20020914041509109/14/02 04:15:31  5-MIN KMKG 140915Z 00000KT 8SM CLR 12/11 A2993 620 96 400 000/00 RMK AO2
14840KMKG MKG20020914042009109/14/02 04:20:31  5-MIN KMKG 140920Z 00000KT 7SM CLR 12/11 A2993 620 96 400 000/00 RMK AO2
14840KMKG MKG20020914042509109/14/02 04:25:31  5-MIN KMKG 140925Z 00000KT 7SM CLR 12/11 A2993 620 96 400 000/00 RMK AO2
14840KMKG MKG20020914043009109/14/02 04:30:31  5-MIN KMKG 140930Z 11003KT 7SM CLR 11/11 A2993 620 96 300 120/03 RMK AO2
14840KMKG MKG20020914043509109/14/02 04:35:31  5-MIN KMKG 140935Z 00000KT 7SM CLR 11/10 A2994 620 96 300 000/00 RMK AO2
14840KMKG MKG20020914044009509/14/02 04:40:31  5-MIN KMKG 140940Z 00000KT 6SM BR CLR 11/11 A2994 620 100 300 000/00 RMK AO2
14840KMKG MKG20020914044509409/14/02 04:45:31  5-MIN KMKG 140945Z 00000KT 6SM BR CLR 11/11 A2993 620 96 300 000/00 RMK AO2
14840KMKG MKG20020914045011109/14/02 04:50:31  5-MIN KMKG 140950Z 00000KT 6SM BR CLR 12/11 A2993 620 96 400 000/00 RMK AO2 SLP135 T01170111
14840KMKG MKG20020914045511109/14/02 04:55:31  5-MIN KMKG 140955Z 00000KT 6SM BR CLR 12/11 A2993 620 96 400 000/00 RMK AO2 SLP135 T01170111
14840KMKG MKG20020914050009409/14/02 05:00:31  5-MIN KMKG 141000Z 00000KT 6SM BR CLR 11/11 A2993 620 96 300 000/00 RMK AO2
14840KMKG MKG20020914050509409/14/02 05:05:31  5-MIN KMKG 141005Z 00000KT 6SM BR CLR 11/10 A2993 620 93 300 000/00 RMK AO2
14840KMKG MKG20020914051009409/14/02 05:10:31  5-MIN KMKG 141010Z 00000KT 6SM BR CLR 11/11 A2993 620 96 300 000/00 RMK AO2
14840KMKG MKG20020914051509509/14/02 05:15:31  5-MIN KMKG 141015Z 00000KT 6SM BR CLR 11/11 A2993 620 100 300 000/00 RMK AO2
14840KMKG MKG20020914052011209/14/02 05:20:31  5-MIN KMKG 141020Z 00000KT 5SM BR CLR 11/11 A2993 620 100 300 000/00 RMK AO2 VIS 2 1/2 RWY 14
14840KMKG MKG20020914052509509/14/02 05:25:31  5-MIN KMKG 141025Z 00000KT 4SM BR CLR 11/11 A2993 620 100 300 000/00 RMK AO2
14840KMKG MKG20020914053009509/14/02 05:30:31  5-MIN KMKG 141030Z 00000KT 5SM BR CLR 11/11 A2993 620 100 300 000/00 RMK AO2
14840KMKG MKG20020914053509509/14/02 05:35:31  5-MIN KMKG 141035Z 00000KT 5SM BR CLR 11/11 A2993 620 100 300 000/00 RMK AO2
14840KMKG MKG20020914054009509/14/02 05:40:31  5-MIN KMKG 141040Z 00000KT 5SM BR CLR 11/11 A2993 620 100 300 000/00 RMK AO2
14840KMKG MKG20020914054509409/14/02 05:45:31  5-MIN KMKG 141045Z 00000KT 5SM BR CLR 12/11 A2993 620 96 400 000/00 RMK AO2
14840KMKG MKG20020914055011109/14/02 05:50:31  5-MIN KMKG 141050Z 00000KT 5SM BR CLR 12/11 A2993 620 96 400 000/00 RMK AO2 SLP134 T01170111
14840KMKG MKG20020914055512809/14/02 05:55:31  5-MIN KMKG 141055Z 00000KT 6SM BR CLR 11/11 A2993 620 96 300 000/00 RMK AO2 VIS 2 1/2 RWY 14 SLP134 T01110106
14840KMKG MKG20020914060011209/14/02 06:00:31  5-MIN KMKG 141100Z 00000KT 5SM BR CLR 11/11 A2993 630 100 300 000/00 RMK AO2 VIS 2 1/2 RWY 14
14840KMKG MKG20020914060511209/14/02 06:05:31  5-MIN KMKG 141105Z 00000KT 4SM BR CLR 11/11 A2993 620 100 300 000/00 RMK AO2 VIS 2 1/2 RWY 14
14840KMKG MKG20020914061011209/14/02 06:10:31  5-MIN KMKG 141110Z 00000KT 5SM BR CLR 11/11 A2993 620 100 300 000/00 RMK AO2 VIS 2 1/2 RWY 14
14840KMKG MKG20020914061511109/14/02 06:15:31  5-MIN KMKG 141115Z 00000KT 5SM BR SCT100 11/11 A2993 620 100 300 000/00 RMK AO2 VIS 2 RWY 14
14840KMKG MKG20020914062011409/14/02 06:20:31  5-MIN KMKG 141120Z 00000KT 4SM BR SCT100 11/11 A2993 620 96 300 000/00 RMK AO2 VIS 2 1/2 RWY 14
14840KMKG MKG20020914062511409/14/02 06:25:31  5-MIN KMKG 141125Z 11003KT 4SM BR SCT100 11/11 A2993 620 96 300 110/03 RMK AO2 VIS 2 1/2 RWY 14
14840KMKG MKG20020914063010709/14/02 06:30:31  5-MIN KMKG 141130Z 00000KT 3SM BR CLR 11/11 A2993 620 96 300 000/00 RMK AO2 VIS 2 RWY 14
14840KMKG MKG20020914063511109/14/02 06:35:31  5-MIN KMKG 141135Z 00000KT 3SM BR CLR 11/11 A2993 620 96 300 000/00 RMK AO2 VIS 1 1/2 RWY 14
14840KMKG MKG20020914064011209/14/02 06:40:31  5-MIN KMKG 141140Z 00000KT 4SM BR CLR 11/11 A2993 620 100 300 000/00 RMK AO2 VIS 1 1/2 RWY 14
14840KMKG MKG20020914064510809/14/02 06:45:31  5-MIN KMKG 141145Z 00000KT 4SM BR CLR 11/11 A2993 620 100 300 000/00 RMK AO2 VIS 2 RWY 14
14840KMKG MKG20020914065012909/14/02 06:50:31  5-MIN KMKG 141150Z VRB03KT 4SM BR CLR 11/11 A2993 620 96 300 VRB/03 RMK AO2 SLP136 T01110106 10133 20106 55008
14840KMKG MKG20020914065512909/14/02 06:55:31  5-MIN KMKG 141155Z 12003KT 4SM BR CLR 12/11 A2993 620 96 400 120/03 RMK AO2 SLP136 T01170111 10133 20106 55000
14840KMKG MKG20020914070009409/14/02 07:00:31  5-MIN KMKG 141200Z 11004KT 3SM BR CLR 12/11 A2993 620 96 400 120/04 RMK AO2
14840KMKG MKG20020914070509509/14/02 07:05:31  5-MIN KMKG 141205Z 12004KT 3SM BR CLR 12/12 A2993 620 100 400 120/04 RMK AO2
14840KMKG MKG20020914071009509/14/02 07:10:31  5-MIN KMKG 141210Z 12003KT 3SM BR CLR 12/12 A2993 620 100 400 130/03 RMK AO2
14840KMKG MKG20020914071511109/14/02 07:15:31  5-MIN KMKG 141215Z 12003KT 3SM BR CLR 12/12 A2993 620 96 500 120/03 RMK AO2 VIS 2 1/2 RWY 14
14840KMKG MKG20020914072011109/14/02 07:20:31  5-MIN KMKG 141220Z 00000KT 4SM BR CLR 13/12 A2993 620 93 500 000/00 RMK AO2 VIS 2 1/2 RWY 14
14840KMKG MKG20020914072509409/14/02 07:25:31  5-MIN KMKG 141225Z 00000KT 4SM BR CLR 13/12 A2993 620 93 500 000/00 RMK AO2
14840KMKG MKG20020914073009409/14/02 07:30:31  5-MIN KMKG 141230Z 12003KT 4SM BR CLR 13/12 A2993 620 93 600 130/03 RMK AO2
14840KMKG MKG20020914073509409/14/02 07:35:31  5-MIN KMKG 141235Z 11003KT 4SM BR CLR 13/12 A2993 620 93 600 120/03 RMK AO2
14840KMKG MKG20020914074009409/14/02 07:40:31  5-MIN KMKG 141240Z 12003KT 5SM BR CLR 14/13 A2993 620 93 700 130/03 RMK AO2
14840KMKG MKG20020914074509409/14/02 07:45:31  5-MIN KMKG 141245Z 12003KT 5SM BR CLR 14/13 A2993 620 90 700 130/03 RMK AO2
14840KMKG MKG20020914075011109/14/02 07:50:31  5-MIN KMKG 141250Z 12003KT 5SM BR CLR 15/13 A2993 620 86 800 120/03 RMK AO2 SLP135 T01500128
14840KMKG MKG20020914075511109/14/02 07:55:31  5-MIN KMKG 141255Z 00000KT 6SM BR CLR 15/13 A2993 620 90 800 000/00 RMK AO2 SLP134 T01500133
14840KMKG MKG20020914080009409/14/02 08:00:31  5-MIN KMKG 141300Z 14003KT 6SM HZ CLR 16/13 A2993 620 83 900 140/03 RMK AO2
14840KMKG MKG20020914080509109/14/02 08:05:31  5-MIN KMKG 141305Z 00000KT 7SM CLR 16/13 A2993 620 80 900 000/00 RMK AO2
14840KMKG MKG20020914081009109/14/02 08:10:31  5-MIN KMKG 141310Z 00000KT 7SM CLR 16/13 A2993 620 83 900 000/00 RMK AO2
14840KMKG MKG20020914081509209/14/02 08:15:31  5-MIN KMKG 141315Z 15003KT 8SM CLR 17/13 A2993 620 80 1000 150/03 RMK AO2
14840KMKG MKG20020914082009209/14/02 08:20:31  5-MIN KMKG 141320Z 14003KT 8SM CLR 17/13 A2992 630 80 1000 150/03 RMK AO2
14840KMKG MKG20020914082509209/14/02 08:25:31  5-MIN KMKG 141325Z 14003KT 8SM CLR 17/14 A2992 630 80 1100 140/03 RMK AO2
14840KMKG MKG20020914083009209/14/02 08:30:31  5-MIN KMKG 141330Z 14004KT 9SM CLR 17/14 A2992 630 80 1100 150/04 RMK AO2
14840KMKG MKG20020914083509209/14/02 08:35:31  5-MIN KMKG 141335Z 14003KT 9SM CLR 18/14 A2992 630 78 1100 140/03 RMK AO2
14840KMKG MKG20020914084009209/14/02 08:40:31  5-MIN KMKG 141340Z 15003KT 9SM CLR 18/14 A2992 630 81 1100 150/03 RMK AO2
14840KMKG MKG20020914084509309/14/02 08:45:31  5-MIN KMKG 141345Z 00000KT 10SM CLR 18/14 A2992 630 81 1100 000/00 RMK AO2
14840KMKG MKG20020914085011009/14/02 08:50:31  5-MIN KMKG 141350Z 00000KT 10SM CLR 18/14 A2992 630 78 1200 000/00 RMK AO2 SLP131 T01830144
14840KMKG MKG20020914085511009/14/02 08:55:31  5-MIN KMKG 141355Z 18003KT 10SM CLR 19/15 A2992 630 78 1300 180/03 RMK AO2 SLP131 T01890150
14840KMKG MKG20020914090009309/14/02 09:00:31  5-MIN KMKG 141400Z 17003KT 10SM CLR 19/15 A2992 630 78 1300 180/03 RMK AO2
14840KMKG MKG20020914090509309/14/02 09:05:31  5-MIN KMKG 141405Z 17003KT 10SM CLR 19/15 A2992 630 78 1300 170/03 RMK AO2
14840KMKG MKG20020914091009309/14/02 09:10:31  5-MIN KMKG 141410Z 18004KT 10SM CLR 19/15 A2992 630 75 1300 180/04 RMK AO2
14840KMKG MKG20020914091509309/14/02 09:15:31  5-MIN KMKG 141415Z 18005KT 10SM CLR 20/15 A2992 630 72 1400 180/05 RMK AO2
14840KMKG MKG20020914092009309/14/02 09:20:31  5-MIN KMKG 141420Z 16003KT 10SM CLR 20/14 A2992 630 70 1400 160/03 RMK AO2
14840KMKG MKG20020914092509309/14/02 09:25:31  5-MIN KMKG 141425Z VRB04KT 10SM CLR 21/15 A2992 630 70 1500 VRB/04 RMK AO2
14840KMKG MKG20020914093009309/14/02 09:30:31  5-MIN KMKG 141430Z 17004KT 10SM CLR 21/15 A2992 630 68 1500 170/04 RMK AO2
14840KMKG MKG20020914093509309/14/02 09:35:31  5-MIN KMKG 141435Z VRB04KT 10SM CLR 22/14 A2992 630 63 1600 VRB/04 RMK AO2
14840KMKG MKG20020914094009309/14/02 09:40:31  5-MIN KMKG 141440Z VRB04KT 10SM CLR 22/15 A2992 630 63 1700 VRB/04 RMK AO2
14840KMKG MKG20020914094509309/14/02 09:45:31  5-MIN KMKG 141445Z 19004KT 10SM CLR 23/14 A2992 630 59 1700 190/04 RMK AO2
14840KMKG MKG20020914095011609/14/02 09:50:31  5-MIN KMKG 141450Z 19006KT 10SM CLR 23/14 A2993 630 57 1800 200/06 RMK AO2 SLP131 T02330144 55000
14840KMKG MKG20020914095511609/14/02 09:55:31  5-MIN KMKG 141455Z 20007KT 10SM CLR 23/14 A2993 630 55 1800 200/07 RMK AO2 SLP131 T02330139 55002
14840KMKG MKG20020914100009309/14/02 10:00:31  5-MIN KMKG 141500Z 19007KT 10SM CLR 23/14 A2993 630 55 1800 200/07 RMK AO2
14840KMKG MKG20020914100509309/14/02 10:05:31  5-MIN KMKG 141505Z 19008KT 10SM CLR 24/13 A2993 620 49 1900 190/08 RMK AO2
14840KMKG MKG20020914101009309/14/02 10:10:31  5-MIN KMKG 141510Z 19007KT 10SM CLR 24/13 A2993 620 47 1900 200/07 RMK AO2
14840KMKG MKG20020914101509309/14/02 10:15:31  5-MIN KMKG 141515Z 18009KT 10SM CLR 25/12 A2993 620 43 2000 180/09 RMK AO2
14840KMKG MKG20020914102009309/14/02 10:20:31  5-MIN KMKG 141520Z 18008KT 10SM CLR 25/12 A2993 620 43 2000 190/08 RMK AO2
14840KMKG MKG20020914102509309/14/02 10:25:31  5-MIN KMKG 141525Z 19010KT 10SM CLR 25/11 A2993 620 41 2000 200/10 RMK AO2
14840KMKG MKG20020914103009309/14/02 10:30:31  5-MIN KMKG 141530Z 19009KT 10SM CLR 25/11 A2993 620 39 2000 190/09 RMK AO2
14840KMKG MKG20020914103509309/14/02 10:35:31  5-MIN KMKG 141535Z 18008KT 10SM CLR 25/11 A2993 630 39 2000 180/08 RMK AO2
14840KMKG MKG20020914104009309/14/02 10:40:31  5-MIN KMKG 141540Z 18009KT 10SM CLR 25/10 A2993 630 38 2000 180/09 RMK AO2
14840KMKG MKG20020914104509309/14/02 10:45:31  5-MIN KMKG 141545Z 18008KT 10SM CLR 25/10 A2993 630 38 2000 180/08 RMK AO2
14840KMKG MKG20020914105011009/14/02 10:50:31  5-MIN KMKG 141550Z 20006KT 10SM CLR 24/10 A2992 630 39 1900 200/06 RMK AO2 SLP131 T02440100
14840KMKG MKG20020914105511009/14/02 10:55:31  5-MIN KMKG 141555Z VRB06KT 10SM CLR 26/11 A2992 630 38 2000 VRB/06 RMK AO2 SLP131 T02560106
14840KMKG MKG20020914110009309/14/02 11:00:31  5-MIN KMKG 141600Z 22008KT 10SM CLR 26/10 A2992 630 37 2000 220/08 RMK AO2
14840KMKG MKG20020914110509309/14/02 11:05:31  5-MIN KMKG 141605Z 18007KT 10SM CLR 25/10 A2992 630 38 2000 190/07 RMK AO2
14840KMKG MKG20020914111009309/14/02 11:10:31  5-MIN KMKG 141610Z 22007KT 10SM CLR 25/11 A2992 630 39 2000 220/07 RMK AO2
14840KMKG MKG20020914111509309/14/02 11:15:31  5-MIN KMKG 141615Z 22007KT 10SM CLR 25/10 A2992 630 38 2000 220/07 RMK AO2
14840KMKG MKG20020914112009309/14/02 11:20:31  5-MIN KMKG 141620Z 21006KT 10SM CLR 25/11 A2992 630 39 2000 220/06 RMK AO2
14840KMKG MKG20020914112509309/14/02 11:25:31  5-MIN KMKG 141625Z 23007KT 10SM CLR 26/11 A2992 630 38 2000 240/07 RMK AO2
14840KMKG MKG20020914113010909/14/02 11:30:31  5-MIN KMKG 141630Z 22007KT 170V240 10SM CLR 26/11 A2992 630 40 2000 220/07 170V240 RMK AO2
14840KMKG MKG20020914113509309/14/02 11:35:31  5-MIN KMKG 141635Z 22008KT 10SM CLR 25/11 A2992 630 41 2000 220/08 RMK AO2
14840KMKG MKG20020914114009309/14/02 11:40:31  5-MIN KMKG 141640Z 23007KT 10SM CLR 26/11 A2992 630 40 2000 230/07 RMK AO2
14840KMKG MKG20020914114509309/14/02 11:45:31  5-MIN KMKG 141645Z 20009KT 10SM CLR 26/11 A2992 630 38 2000 210/09 RMK AO2
14840KMKG MKG20020914115011009/14/02 11:50:31  5-MIN KMKG 141650Z 22008KT 10SM CLR 26/11 A2992 630 38 2000 220/08 RMK AO2 SLP128 T02560106
14840KMKG MKG20020914115511009/14/02 11:55:31  5-MIN KMKG 141655Z 21007KT 10SM CLR 26/11 A2991 640 40 2000 210/07 RMK AO2 SLP127 T02560111
14840KMKG MKG20020914120009309/14/02 12:00:31  5-MIN KMKG 141700Z VRB05KT 10SM CLR 26/11 A2991 640 40 2000 VRB/05 RMK AO2
14840KMKG MKG20020914120509309/14/02 12:05:31  5-MIN KMKG 141705Z 22008KT 10SM CLR 26/12 A2991 640 41 2000 220/08 RMK AO2
14840KMKG MKG20020914121010909/14/02 12:10:31  5-MIN KMKG 141710Z 23007KT 200V260 10SM CLR 26/12 A2991 640 43 2000 240/07 200V260 RMK AO2
14840KMKG MKG20020914121509309/14/02 12:15:31  5-MIN KMKG 141715Z 24009KT 10SM CLR 26/11 A2991 640 38 2100 240/09 RMK AO2
14840KMKG MKG20020914122009309/14/02 12:20:31  5-MIN KMKG 141720Z 24008KT 10SM CLR 26/11 A2990 650 38 2100 240/08 RMK AO2
14840KMKG MKG20020914122509309/14/02 12:25:31  5-MIN KMKG 141725Z 22009KT 10SM CLR 26/11 A2990 650 37 2100 230/09 RMK AO2
14840KMKG MKG20020914123009309/14/02 12:30:31  5-MIN KMKG 141730Z 21008KT 10SM CLR 26/10 A2990 650 36 2100 220/08 RMK AO2
14840KMKG MKG20020914123509309/14/02 12:35:31  5-MIN KMKG 141735Z 22007KT 10SM CLR 26/11 A2990 650 37 2100 220/07 RMK AO2
14840KMKG MKG20020914124009309/14/02 12:40:31  5-MIN KMKG 141740Z 25007KT 10SM CLR 26/11 A2990 650 38 2100 250/07 RMK AO2
14840KMKG MKG20020914124509309/14/02 12:45:31  5-MIN KMKG 141745Z 24007KT 10SM CLR 26/11 A2990 650 40 2100 250/07 RMK AO2
14840KMKG MKG20020914125012809/14/02 12:50:31  5-MIN KMKG 141750Z 22007KT 10SM CLR 26/11 A2989 650 38 2100 230/07 RMK AO2 SLP120 T02610111 10261 20117 55002
14840KMKG MKG20020914125512809/14/02 12:55:31  5-MIN KMKG 141755Z 24007KT 10SM CLR 26/11 A2989 660 38 2100 250/07 RMK AO2 SLP120 T02610111 10261 20117 58011
14840KMKG MKG20020914130009309/14/02 13:00:31  5-MIN KMKG 141800Z 24007KT 10SM CLR 26/11 A2989 660 38 2100 250/07 RMK AO2
14840KMKG MKG20020914130509309/14/02 13:05:31  5-MIN KMKG 141805Z 24008KT 10SM CLR 26/11 A2989 650 40 2100 240/08 RMK AO2
14840KMKG MKG20020914131009309/14/02 13:10:31  5-MIN KMKG 141810Z 23008KT 10SM CLR 26/11 A2989 660 40 2100 230/08 RMK AO2
14840KMKG MKG20020914131509309/14/02 13:15:31  5-MIN KMKG 141815Z 22006KT 10SM CLR 26/11 A2989 660 40 2100 220/06 RMK AO2
14840KMKG MKG20020914132009309/14/02 13:20:31  5-MIN KMKG 141820Z 23007KT 10SM CLR 26/12 A2989 660 40 2100 230/07 RMK AO2
14840KMKG MKG20020914132509309/14/02 13:25:31  5-MIN KMKG 141825Z 21008KT 10SM CLR 26/12 A2989 660 41 2100 220/08 RMK AO2
14840KMKG MKG20020914133009309/14/02 13:30:31  5-MIN KMKG 141830Z 23008KT 10SM CLR 25/12 A2989 660 44 2000 230/08 RMK AO2
14840KMKG MKG20020914133509309/14/02 13:35:31  5-MIN KMKG 141835Z 23008KT 10SM CLR 26/12 A2989 660 43 2100 230/08 RMK AO2
14840KMKG MKG20020914134009309/14/02 13:40:31  5-MIN KMKG 141840Z 23007KT 10SM CLR 25/13 A2989 660 46 2000 230/07 RMK AO2
14840KMKG MKG20020914134509309/14/02 13:45:31  5-MIN KMKG 141845Z 24007KT 10SM CLR 26/13 A2988 660 43 2100 240/07 RMK AO2
14840KMKG MKG20020914135011009/14/02 13:50:31  5-MIN KMKG 141850Z 22008KT 10SM CLR 26/13 A2988 660 44 2100 230/08 RMK AO2 SLP117 T02610133
14840KMKG MKG20020914135511009/14/02 13:55:31  5-MIN KMKG 141855Z 22008KT 10SM CLR 26/13 A2988 670 46 2100 230/08 RMK AO2 SLP117 T02560133
14840KMKG MKG20020914140009309/14/02 14:00:31  5-MIN KMKG 141900Z 23008KT 10SM CLR 26/13 A2988 670 46 2100 230/08 RMK AO2
14840KMKG MKG20020914140509309/14/02 14:05:31  5-MIN KMKG 141905Z 20007KT 10SM CLR 25/13 A2988 670 48 2000 200/07 RMK AO2
14840KMKG MKG20020914141009309/14/02 14:10:31  5-MIN KMKG 141910Z 20008KT 10SM CLR 24/13 A2988 670 49 2000 210/08 RMK AO2
14840KMKG MKG20020914141509309/14/02 14:15:31  5-MIN KMKG 141915Z 23008KT 10SM CLR 24/13 A2988 670 49 2000 230/08 RMK AO2
14840KMKG MKG20020914142009309/14/02 14:20:31  5-MIN KMKG 141920Z 22005KT 10SM CLR 24/14 A2988 670 51 2000 230/05 RMK AO2
14840KMKG MKG20020914142509309/14/02 14:25:31  5-MIN KMKG 141925Z 21006KT 10SM CLR 24/14 A2988 670 53 2000 210/06 RMK AO2
14840KMKG MKG20020914143009309/14/02 14:30:31  5-MIN KMKG 141930Z 20007KT 10SM CLR 24/14 A2987 670 53 2000 200/07 RMK AO2
14840KMKG MKG20020914143509309/14/02 14:35:31  5-MIN KMKG 141935Z 21007KT 10SM CLR 24/14 A2988 670 53 2000 220/07 RMK AO2
14840KMKG MKG20020914144009309/14/02 14:40:31  5-MIN KMKG 141940Z 20008KT 10SM CLR 25/15 A2988 670 53 2000 210/08 RMK AO2
14840KMKG MKG20020914144509309/14/02 14:45:31  5-MIN KMKG 141945Z 18007KT 10SM CLR 24/15 A2987 670 55 2000 190/07 RMK AO2
14840KMKG MKG20020914145011009/14/02 14:50:31  5-MIN KMKG 141950Z 18007KT 10SM CLR 24/14 A2987 670 53 2000 180/07 RMK AO2 SLP115 T02440144
14840KMKG MKG20020914145511009/14/02 14:55:31  5-MIN KMKG 141955Z 20007KT 10SM CLR 24/14 A2987 670 53 2000 200/07 RMK AO2 SLP115 T02440144
14840KMKG MKG20020914150009309/14/02 15:00:31  5-MIN KMKG 142000Z 19006KT 10SM CLR 24/14 A2987 670 51 2000 190/06 RMK AO2
14840KMKG MKG20020914150509309/14/02 15:05:31  5-MIN KMKG 142005Z 20006KT 10SM CLR 24/13 A2987 680 49 2000 210/06 RMK AO2
14840KMKG MKG20020914151009309/14/02 15:10:31  5-MIN KMKG 142010Z 19006KT 10SM CLR 25/13 A2987 680 48 2000 190/06 RMK AO2
14840KMKG MKG20020914151509309/14/02 15:15:31  5-MIN KMKG 142015Z 20006KT 10SM CLR 25/13 A2987 680 48 2000 200/06 RMK AO2
14840KMKG MKG20020914152009309/14/02 15:20:31  5-MIN KMKG 142020Z 19007KT 10SM CLR 25/13 A2987 670 46 2000 200/07 RMK AO2
14840KMKG MKG20020914152509309/14/02 15:25:31  5-MIN KMKG 142025Z 20008KT 10SM CLR 25/12 A2987 670 44 2000 200/08 RMK AO2
14840KMKG MKG20020914153009309/14/02 15:30:31  5-MIN KMKG 142030Z 20007KT 10SM CLR 25/12 A2987 680 43 2000 210/07 RMK AO2
14840KMKG MKG20020914153509609/14/02 15:35:31  5-MIN KMKG 142035Z 21008KT 10SM FEW070 25/11 A2987 680 41 2000 220/08 RMK AO2
14840KMKG MKG20020914154009609/14/02 15:40:31  5-MIN KMKG 142040Z 21007KT 10SM FEW070 26/12 A2987 680 40 2200 220/07 RMK AO2
14840KMKG MKG20020914154509609/14/02 15:45:31  5-MIN KMKG 142045Z 20008KT 10SM FEW070 26/11 A2987 680 40 2100 200/08 RMK AO2
14840KMKG MKG20020914155011909/14/02 15:50:31  5-MIN KMKG 142050Z 20007KT 10SM FEW070 26/11 A2987 680 38 2100 200/07 RMK AO2 SLP113 T02560106 58011
14840KMKG MKG20020914155511909/14/02 15:55:31  5-MIN KMKG 142055Z 20007KT 10SM FEW070 26/11 A2987 680 38 2100 200/07 RMK AO2 SLP112 T02560106 56008
14840KMKG MKG20020914160009609/14/02 16:00:31  5-MIN KMKG 142100Z 21007KT 10SM FEW070 25/11 A2987 680 41 2000 210/07 RMK AO2
14840KMKG MKG20020914160509609/14/02 16:05:31  5-MIN KMKG 142105Z 21006KT 10SM FEW070 25/12 A2987 680 43 2000 210/06 RMK AO2
14840KMKG MKG20020914161009609/14/02 16:10:31  5-MIN KMKG 142110Z 22007KT 10SM SCT090 25/12 A2987 680 43 2000 220/07 RMK AO2
14840KMKG MKG20020914161509609/14/02 16:15:31  5-MIN KMKG 142115Z 21006KT 10SM SCT090 24/12 A2987 680 44 2000 210/06 RMK AO2
14840KMKG MKG20020914162009609/14/02 16:20:31  5-MIN KMKG 142120Z 24006KT 10SM SCT095 24/13 A2987 680 49 1900 240/06 RMK AO2
14840KMKG MKG20020914162509609/14/02 16:25:31  5-MIN KMKG 142125Z 24006KT 10SM SCT100 24/12 A2987 680 47 1900 240/06 RMK AO2
14840KMKG MKG20020914163009609/14/02 16:30:31  5-MIN KMKG 142130Z 23006KT 10SM SCT100 24/12 A2987 680 47 1900 230/06 RMK AO2
14840KMKG MKG20020914163509609/14/02 16:35:31  5-MIN KMKG 142135Z 23004KT 10SM SCT100 23/13 A2987 680 51 1800 230/04 RMK AO2
14840KMKG MKG20020914164009609/14/02 16:40:31  5-MIN KMKG 142140Z 23004KT 10SM SCT100 24/13 A2987 680 51 1900 240/04 RMK AO2
14840KMKG MKG20020914164509609/14/02 16:45:31  5-MIN KMKG 142145Z 23004KT 10SM SCT100 23/13 A2987 680 53 1800 230/04 RMK AO2
14840KMKG MKG20020914165011309/14/02 16:50:31  5-MIN KMKG 142150Z 22004KT 10SM FEW100 23/13 A2987 670 51 1800 220/04 RMK AO2 SLP114 T02330128
14840KMKG MKG20020914165511309/14/02 16:55:31  5-MIN KMKG 142155Z 22004KT 10SM SCT100 23/13 A2987 670 53 1800 230/04 RMK AO2 SLP114 T02330133
14840KMKG MKG20020914170009609/14/02 17:00:31  5-MIN KMKG 142200Z 22005KT 10SM SCT100 23/12 A2987 680 47 1800 220/05 RMK AO2
14840KMKG MKG20020914170509609/14/02 17:05:31  5-MIN KMKG 142205Z 22005KT 10SM SCT100 23/12 A2987 670 47 1800 220/05 RMK AO2
14840KMKG MKG20020914171010309/14/02 17:10:31  5-MIN KMKG 142210Z 22005KT 10SM FEW095 SCT120 23/12 A2988 670 49 1800 220/05 RMK AO2
14840KMKG MKG20020914171509609/14/02 17:15:31  5-MIN KMKG 142215Z 21003KT 10SM SCT120 23/12 A2988 670 49 1800 210/03 RMK AO2
14840KMKG MKG20020914172009609/14/02 17:20:31  5-MIN KMKG 142220Z 21004KT 10SM FEW120 23/12 A2988 670 49 1800 210/04 RMK AO2
14840KMKG MKG20020914172509609/14/02 17:25:31  5-MIN KMKG 142225Z 21004KT 10SM FEW120 23/12 A2988 670 51 1800 210/04 RMK AO2
14840KMKG MKG20020914173009609/14/02 17:30:31  5-MIN KMKG 142230Z 20003KT 10SM FEW120 23/12 A2988 670 51 1800 210/03 RMK AO2
14840KMKG MKG20020914173511209/14/02 17:35:31  5-MIN KMKG 142235Z 00000KT 10SM -RA FEW120 23/12 A2988 670 51 1800 000/00 RMK AO2 RAB31 P0000
14840KMKG MKG20020914174010809/14/02 17:40:31  5-MIN KMKG 142240Z 18004KT 10SM CLR 23/13 A2988 670 53 1800 190/04 RMK AO2 RAB31E40 P0000
14840KMKG MKG20020914174510309/14/02 17:45:31  5-MIN KMKG 142245Z 10SM SCT110 23/13 A2987 670 53 1800 M /M RMK AO2 RAB31E40 P0000 $
14840KMKG MKG20020914175013009/14/02 17:50:31  5-MIN KMKG 142250Z 18003KT 10SM SCT120 23/13 A2987 670 53 1800 180/03 RMK AO2 RAB31E40 SLP114 P0000 T02280128 $
14840KMKG MKG20020914175513009/14/02 17:55:31  5-MIN KMKG 142255Z 00000KT 10SM SCT120 23/13 A2988 670 53 1800 000/00 RMK AO2 RAB31E40 SLP115 P0000 T02280128 $
14840KMKG MKG20020914180009809/14/02 18:00:31  5-MIN KMKG 142300Z 00000KT 10SM SCT120 23/13 A2988 670 53 1800 000/00 RMK AO2 $
14840KMKG MKG20020914180509809/14/02 18:05:31  5-MIN KMKG 142305Z 19003KT 10SM SCT120 23/13 A2988 670 55 1800 190/03 RMK AO2 $
14840KMKG MKG20020914181009809/14/02 18:10:31  5-MIN KMKG 142310Z 00000KT 10SM SCT120 22/13 A2988 670 56 1700 000/00 RMK AO2 $
14840KMKG MKG20020914181509809/14/02 18:15:31  5-MIN KMKG 142315Z 00000KT 10SM SCT120 22/14 A2988 670 59 1700 000/00 RMK AO2 $
14840KMKG MKG20020914182010509/14/02 18:20:31  5-MIN KMKG 142320Z 00000KT 10SM SCT085 OVC110 22/14 A2988 670 59 1700 000/00 RMK AO2 $
14840KMKG MKG20020914182510509/14/02 18:25:31  5-MIN KMKG 142325Z 00000KT 10SM SCT085 OVC110 22/14 A2988 670 59 1700 000/00 RMK AO2 $
14840KMKG MKG20020914183010509/14/02 18:30:31  5-MIN KMKG 142330Z 00000KT 10SM SCT085 OVC110 22/14 A2988 670 61 1700 000/00 RMK AO2 $
14840KMKG MKG20020914183510509/14/02 18:35:31  5-MIN KMKG 142335Z 00000KT 10SM BKN080 OVC110 22/14 A2988 670 61 1700 000/00 RMK AO2 $
14840KMKG MKG20020914184012009/14/02 18:40:31  5-MIN KMKG 142340Z 00000KT 10SM SCT085 OVC110 22/14 A2987 670 61 1700 000/00 RMK AO2 CIG 085 RWY 14 $
14840KMKG MKG20020914184512009/14/02 18:45:31  5-MIN KMKG 142345Z 00000KT 10SM SCT085 OVC110 22/14 A2988 670 61 1700 000/00 RMK AO2 CIG 085 RWY 14 $
14840KMKG MKG20020914185014609/14/02 18:50:31  5-MIN KMKG 142350Z 00000KT 10SM BKN085 OVC110 22/14 A2988 670 59 1700 000/00 RMK AO2 SLP117 60000 T02220139 10267 20222 56008 $
14840KMKG MKG20020914185514609/14/02 18:55:31  5-MIN KMKG 142355Z 00000KT 10SM BKN080 OVC110 22/14 A2988 670 59 1700 000/00 RMK AO2 SLP116 60000 T02220139 10267 20222 51004 $
14840KMKG MKG20020914190010509/14/02 19:00:31  5-MIN KMKG 150000Z 00000KT 10SM BKN080 OVC110 22/14 A2988 670 61 1600 000/00 RMK AO2 $
14840KMKG MKG20020914190510509/14/02 19:05:31  5-MIN KMKG 150005Z 00000KT 10SM BKN080 OVC090 22/14 A2988 660 61 1600 000/00 RMK AO2 $
14840KMKG MKG20020914191009809/14/02 19:10:31  5-MIN KMKG 150010Z 00000KT 10SM OVC080 22/14 A2988 660 61 1600 000/00 RMK AO2 $
14840KMKG MKG20020914191509809/14/02 19:15:31  5-MIN KMKG 150015Z 00000KT 10SM OVC080 22/14 A2988 660 61 1600 000/00 RMK AO2 $
14840KMKG MKG20020914192009809/14/02 19:20:31  5-MIN KMKG 150020Z 00000KT 10SM OVC080 22/14 A2988 660 63 1600 000/00 RMK AO2 $
14840KMKG MKG20020914192509809/14/02 19:25:31  5-MIN KMKG 150025Z 14003KT 10SM OVC080 22/14 A2989 660 63 1600 140/03 RMK AO2 $
14840KMKG MKG20020914193009809/14/02 19:30:31  5-MIN KMKG 150030Z 15003KT 10SM OVC080 22/15 A2989 660 65 1600 150/03 RMK AO2 $
14840KMKG MKG20020914193509809/14/02 19:35:31  5-MIN KMKG 150035Z 16003KT 10SM OVC080 22/15 A2989 660 65 1600 160/03 RMK AO2 $
14840KMKG MKG20020914194009809/14/02 19:40:31  5-MIN KMKG 150040Z 00000KT 10SM OVC080 22/16 A2989 660 68 1600 000/00 RMK AO2 $
14840KMKG MKG20020914194509809/14/02 19:45:31  5-MIN KMKG 150045Z 00000KT 10SM OVC080 22/16 A2989 660 68 1600 000/00 RMK AO2 $
14840KMKG MKG20020914195011509/14/02 19:50:31  5-MIN KMKG 150050Z 00000KT 10SM OVC080 21/16 A2989 660 70 1600 000/00 RMK AO2 SLP121 T02110156 $
14840KMKG MKG20020914195511509/14/02 19:55:31  5-MIN KMKG 150055Z 00000KT 10SM OVC075 21/16 A2990 650 70 1600 000/00 RMK AO2 SLP122 T02110156 $
14840KMKG MKG20020914200009809/14/02 20:00:31  5-MIN KMKG 150100Z 00000KT 10SM OVC075 21/16 A2990 650 70 1600 000/00 RMK AO2 $
14840KMKG MKG20020914200509809/14/02 20:05:31  5-MIN KMKG 150105Z 00000KT 10SM OVC075 21/16 A2990 650 70 1600 000/00 RMK AO2 $
14840KMKG MKG20020914201009809/14/02 20:10:31  5-MIN KMKG 150110Z 00000KT 10SM OVC075 21/16 A2989 650 70 1600 000/00 RMK AO2 $
14840KMKG MKG20020914201509809/14/02 20:15:31  5-MIN KMKG 150115Z 00000KT 10SM OVC075 21/16 A2990 650 70 1600 000/00 RMK AO2 $
14840KMKG MKG20020914202009809/14/02 20:20:31  5-MIN KMKG 150120Z 00000KT 10SM OVC070 21/16 A2990 650 70 1600 000/00 RMK AO2 $
14840KMKG MKG20020914202509809/14/02 20:25:31  5-MIN KMKG 150125Z 00000KT 10SM OVC070 21/16 A2990 650 70 1600 000/00 RMK AO2 $
14840KMKG MKG20020914203009809/14/02 20:30:31  5-MIN KMKG 150130Z 00000KT 10SM OVC070 21/16 A2990 650 70 1600 000/00 RMK AO2 $
14840KMKG MKG20020914203509809/14/02 20:35:31  5-MIN KMKG 150135Z 00000KT 10SM OVC070 21/16 A2990 650 70 1600 000/00 RMK AO2 $
14840KMKG MKG20020914204009809/14/02 20:40:31  5-MIN KMKG 150140Z 00000KT 10SM OVC070 21/16 A2990 650 70 1600 000/00 RMK AO2 $
14840KMKG MKG20020914204509809/14/02 20:45:31  5-MIN KMKG 150145Z 34005KT 10SM OVC070 21/16 A2990 650 75 1500 340/05 RMK AO2 $
14840KMKG MKG20020914205011509/14/02 20:50:31  5-MIN KMKG 150150Z 34007KT 10SM OVC070 21/17 A2990 650 78 1500 340/07 RMK AO2 SLP124 T02060167 $
14840KMKG MKG20020914205511509/14/02 20:55:31  5-MIN KMKG 150155Z 33005KT 10SM OVC070 21/17 A2991 640 75 1500 330/05 RMK AO2 SLP125 T02110167 $
14840KMKG MKG20020914210009809/14/02 21:00:31  5-MIN KMKG 150200Z 32007KT 10SM OVC070 21/16 A2991 640 73 1500 330/07 RMK AO2 $
14840KMKG MKG20020914210509809/14/02 21:05:31  5-MIN KMKG 150205Z 33007KT 10SM OVC070 22/16 A2991 640 68 1600 330/07 RMK AO2 $
14840KMKG MKG20020914211009809/14/02 21:10:31  5-MIN KMKG 150210Z 33005KT 10SM OVC070 22/16 A2992 630 70 1600 340/05 RMK AO2 $
14840KMKG MKG20020914211509809/14/02 21:15:31  5-MIN KMKG 150215Z 34004KT 10SM OVC065 22/16 A2992 630 70 1600 340/04 RMK AO2 $
14840KMKG MKG20020914212009809/14/02 21:20:31  5-MIN KMKG 150220Z 33005KT 10SM OVC065 21/17 A2992 630 75 1500 330/05 RMK AO2 $
14840KMKG MKG20020914212509809/14/02 21:25:31  5-MIN KMKG 150225Z 32005KT 10SM OVC065 21/17 A2992 630 75 1500 330/05 RMK AO2 $
14840KMKG MKG20020914213010509/14/02 21:30:31  5-MIN KMKG 150230Z 33007KT 10SM FEW025 OVC065 21/17 A2992 630 75 1500 340/07 RMK AO2 $
14840KMKG MKG20020914213511109/14/02 21:35:31  5-MIN KMKG 150235Z 32010G14KT 10SM FEW025 OVC065 22/17 A2993 620 75 1600 330/10G14 RMK AO2 $
14840KMKG MKG20020914214010509/14/02 21:40:31  5-MIN KMKG 150240Z 34008KT 10SM FEW025 OVC065 21/17 A2994 620 78 1500 350/08 RMK AO2 $
14840KMKG MKG20020914214510509/14/02 21:45:31  5-MIN KMKG 150245Z 35010KT 10SM FEW025 OVC065 21/17 A2994 610 78 1500 350/10 RMK AO2 $
14840KMKG MKG20020914215013409/14/02 21:50:31  5-MIN KMKG 150250Z 34012G17KT 10SM FEW025 OVC065 21/17 A2994 610 78 1400 350/12G17 RMK AO2 SLP135 T02060167 51004 $
14840KMKG MKG20020914215514909/14/02 21:55:31  5-MIN KMKG 150255Z 34012KT 9SM -RA FEW025 OVC070 21/17 A2994 610 78 1400 340/12 RMK AO2 RAB53 SLP136 P0000 60000 T02060167 53021 $
14840KMKG MKG20020914220011409/14/02 22:00:31  5-MIN KMKG 150300Z 35011KT 7SM -RA FEW025 OVC070 19/17 A2995 610 84 1300 350/11 RMK AO2 P0000 $
14840KMKG MKG20020914220511009/14/02 22:05:31  5-MIN KMKG 150305Z 36011KT 6SM -RA BR OVC070 19/17 A2995 610 87 1300 360/11 RMK AO2 P0000 $
14840KMKG MKG20020914221011709/14/02 22:10:31  5-MIN KMKG 150310Z 36010KT 6SM -RA BR FEW022 OVC070 19/17 A2995 610 87 1200 360/10 RMK AO2 P0001 $
14840KMKG MKG20020914221511709/14/02 22:15:31  5-MIN KMKG 150315Z 36008KT 5SM -RA BR FEW022 OVC070 18/17 A2995 600 93 1200 010/08 RMK AO2 P0001 $
14840KMKG MKG20020914222011709/14/02 22:20:31  5-MIN KMKG 150320Z 36008KT 6SM -RA BR FEW020 OVC070 18/17 A2995 600 93 1200 010/08 RMK AO2 P0001 $
14840KMKG MKG20020914222512409/14/02 22:25:31  5-MIN KMKG 150325Z 36009KT 5SM -RA BR FEW020 BKN060 OVC075 18/17 A2995 600 93 1200 010/09 RMK AO2 P0002 $
14840KMKG MKG20020914223012409/14/02 22:30:31  5-MIN KMKG 150330Z 36007KT 5SM -RA BR FEW032 BKN060 OVC075 18/17 A2995 600 96 1100 360/07 RMK AO2 P0002 $
14840KMKG MKG20020914223512409/14/02 22:35:31  5-MIN KMKG 150335Z 36008KT 5SM -RA BR FEW032 BKN060 OVC075 18/17 A2995 600 96 1100 010/08 RMK AO2 P0002 $
14840KMKG MKG20020914224011709/14/02 22:40:31  5-MIN KMKG 150340Z 36006KT 5SM -RA BR BKN065 OVC080 18/17 A2996 600 96 1100 360/06 RMK AO2 P0002 $
14840KMKG MKG20020914224512409/14/02 22:45:31  5-MIN KMKG 150345Z 02007KT 5SM -RA BR FEW037 BKN065 OVC075 18/17 A2995 600 96 1100 020/07 RMK AO2 P0003 $
14840KMKG MKG20020914225014109/14/02 22:50:31  5-MIN KMKG 150350Z 36009KT 5SM -RA BR FEW037 BKN060 OVC075 18/17 A2996 600 96 1100 010/09 RMK AO2 SLP142 P0003 T01780172 $
14840KMKG MKG20020914225514109/14/02 22:55:31  5-MIN KMKG 150355Z 01006KT 6SM -RA BR FEW039 BKN065 OVC080 18/17 A2996 600 96 1100 020/06 RMK AO2 SLP141 P0003 T01780172 $
14840KMKG MKG20020914230012809/14/02 23:00:31  5-MIN KMKG 150400Z 02007KT 6SM BR BKN050 BKN060 OVC070 18/17 A2996 600 96 1100 020/07 RMK AO2 RAE0359 P0000 $
14840KMKG MKG20020914230512809/14/02 23:05:31  5-MIN KMKG 150405Z 01006KT 6SM BR SCT050 BKN055 OVC070 18/17 A2996 600 96 1100 020/06 RMK AO2 RAE0359 P0000 $
14840KMKG MKG20020914231012109/14/02 23:10:31  5-MIN KMKG 150410Z 01007KT 6SM BR BKN050 OVC070 18/17 A2995 600 96 1100 020/07 RMK AO2 RAE0359 P0000 $
14840KMKG MKG20020914231512209/14/02 23:15:31  5-MIN KMKG 150415Z 01006KT 6SM BR BKN050 OVC065 18/18 A2996 600 100 1100 010/06 RMK AO2 RAE0359 P0000 $
14840KMKG MKG20020914232012109/14/02 23:20:31  5-MIN KMKG 150420Z 36006KT 6SM BR BKN050 OVC065 18/17 A2996 600 96 1100 010/06 RMK AO2 RAE0359 P0000 $
14840KMKG MKG20020914232512209/14/02 23:25:31  5-MIN KMKG 150425Z 36005KT 6SM BR BKN050 OVC055 18/18 A2996 600 100 1100 010/05 RMK AO2 RAE0359 P0000 $
14840KMKG MKG20020914233011409/14/02 23:30:31  5-MIN KMKG 150430Z 01005KT 6SM BR OVC050 18/17 A2996 600 96 1100 020/05 RMK AO2 RAE0359 P0000 $
14840KMKG MKG20020914233511509/14/02 23:35:31  5-MIN KMKG 150435Z 01005KT 6SM BR OVC050 18/18 A2996 590 100 1100 020/05 RMK AO2 RAE0359 P0000 $
14840KMKG MKG20020914234011509/14/02 23:40:31  5-MIN KMKG 150440Z 01004KT 5SM BR OVC050 18/18 A2996 590 100 1100 020/04 RMK AO2 RAE0359 P0000 $
14840KMKG MKG20020914234511509/14/02 23:45:31  5-MIN KMKG 150445Z 02004KT 5SM BR OVC050 18/18 A2996 600 100 1100 020/04 RMK AO2 RAE0359 P0000 $
14840KMKG MKG20020914235014209/14/02 23:50:31  5-MIN KMKG 150450Z VRB03KT 5SM BR OVC050 18/18 A2996 600 100 1100 VRB/03 RMK AO2 RAE0359 SLP141 P0000 T01780178 402670106 $
14840KMKG MKG20020914235514209/14/02 23:55:31  5-MIN KMKG 150455Z 36006KT 6SM BR OVC050 18/18 A2996 590 100 1100 010/06 RMK AO2 RAE0359 SLP142 P0000 T01780178 402670106 $
14840KMKG MKG20020915000010009/15/02 00:00:31  5-MIN KMKG 150500Z 01006KT 6SM BR OVC050 18/17 A2996 590 96 1100 010/06 RMK AO2 $
14840KMKG MKG20020915000510009/15/02 00:05:31  5-MIN KMKG 150505Z 36005KT 6SM BR OVC048 18/17 A2996 590 96 1100 010/05 RMK AO2 $
14840KMKG MKG20020915001010009/15/02 00:10:31  5-MIN KMKG 150510Z 01005KT 6SM BR OVC048 18/17 A2996 590 96 1100 010/05 RMK AO2 $
14840KMKG MKG20020915001510009/15/02 00:15:31  5-MIN KMKG 150515Z 36005KT 6SM BR OVC048 18/17 A2996 590 96 1100 010/05 RMK AO2 $
14840KMKG MKG20020915002010009/15/02 00:20:31  5-MIN KMKG 150520Z 35005KT 6SM BR OVC048 18/17 A2996 590 96 1100 360/05 RMK AO2 $
14840KMKG MKG20020915002510009/15/02 00:25:31  5-MIN KMKG 150525Z 36004KT 6SM BR OVC048 18/17 A2996 590 96 1100 360/04 RMK AO2 $
14840KMKG MKG20020915003010009/15/02 00:30:31  5-MIN KMKG 150530Z 36005KT 6SM BR OVC048 18/17 A2996 590 96 1100 360/05 RMK AO2 $
14840KMKG MKG20020915003510709/15/02 00:35:31  5-MIN KMKG 150535Z 35006KT 6SM BR BKN050 OVC060 18/17 A2996 590 96 1100 360/06 RMK AO2 $
14840KMKG MKG20020915004010709/15/02 00:40:31  5-MIN KMKG 150540Z 35006KT 6SM BR BKN050 OVC060 18/17 A2996 590 96 1100 360/06 RMK AO2 $
14840KMKG MKG20020915004510009/15/02 00:45:31  5-MIN KMKG 150545Z 36004KT 6SM BR OVC050 18/17 A2996 590 96 1100 360/04 RMK AO2 $
14840KMKG MKG20020915005014209/15/02 00:50:31  5-MIN KMKG 150550Z 35004KT 6SM BR OVC050 18/18 A2996 590 100 1100 350/04 RMK AO2 SLP143 60003 T01780178 10222 20178 53021 $
14840KMKG MKG20020915005514109/15/02 00:55:31  5-MIN KMKG 150555Z 36005KT 6SM BR OVC048 18/17 A2997 590 96 1100 360/05 RMK AO2 SLP144 60003 T01780172 10222 20178 51008 $
14840KMKG MKG20020915010010109/15/02 01:00:31  5-MIN KMKG 150600Z 01003KT 5SM BR OVC048 18/18 A2997 590 100 1100 010/03 RMK AO2 $
14840KMKG MKG20020915010510009/15/02 01:05:31  5-MIN KMKG 150605Z 01005KT 6SM BR OVC046 18/17 A2996 590 96 1100 010/05 RMK AO2 $
14840KMKG MKG20020915011010009/15/02 01:10:31  5-MIN KMKG 150610Z 36005KT 6SM BR OVC046 18/17 A2997 590 96 1100 360/05 RMK AO2 $
14840KMKG MKG20020915011510009/15/02 01:15:31  5-MIN KMKG 150615Z 36006KT 6SM BR OVC046 18/17 A2996 590 96 1100 360/06 RMK AO2 $
14840KMKG MKG20020915012010009/15/02 01:20:31  5-MIN KMKG 150620Z 36006KT 6SM BR OVC046 18/17 A2996 590 96 1100 360/06 RMK AO2 $
14840KMKG MKG20020915012509709/15/02 01:25:31  5-MIN KMKG 150625Z 36005KT 7SM OVC046 18/17 A2996 590 96 1100 360/05 RMK AO2 $
14840KMKG MKG20020915013010009/15/02 01:30:31  5-MIN KMKG 150630Z 01006KT 6SM BR OVC046 18/17 A2997 590 96 1100 010/06 RMK AO2 $
14840KMKG MKG20020915013510009/15/02 01:35:31  5-MIN KMKG 150635Z 36006KT 6SM BR OVC046 18/17 A2997 590 96 1100 360/06 RMK AO2 $
14840KMKG MKG20020915014009709/15/02 01:40:31  5-MIN KMKG 150640Z 01004KT 7SM OVC046 18/17 A2997 580 96 1100 020/04 RMK AO2 $
14840KMKG MKG20020915014509709/15/02 01:45:31  5-MIN KMKG 150645Z 02005KT 7SM OVC048 18/17 A2997 580 96 1100 020/05 RMK AO2 $
14840KMKG MKG20020915015011409/15/02 01:50:31  5-MIN KMKG 150650Z 01005KT 7SM OVC048 18/17 A2998 580 96 1100 020/05 RMK AO2 SLP147 T01780172 $
14840KMKG MKG20020915015511709/15/02 01:55:31  5-MIN KMKG 150655Z 01004KT 6SM BR OVC048 18/17 A2998 580 96 1100 020/04 RMK AO2 SLP148 T01780172 $
14840KMKG MKG20020915020010009/15/02 02:00:31  5-MIN KMKG 150700Z 01003KT 6SM BR OVC048 18/17 A2998 580 96 1100 020/03 RMK AO2 $
14840KMKG MKG20020915020510709/15/02 02:05:31  5-MIN KMKG 150705Z 01004KT 6SM BR FEW015 OVC048 18/17 A2998 580 96 1100 010/04 RMK AO2 $
14840KMKG MKG20020915021010709/15/02 02:10:31  5-MIN KMKG 150710Z 03003KT 6SM BR SCT015 OVC048 18/17 A2998 580 96 1100 030/03 RMK AO2 $
14840KMKG MKG20020915021510709/15/02 02:15:31  5-MIN KMKG 150715Z 00000KT 6SM BR BKN015 OVC048 18/17 A2998 570 96 1100 000/00 RMK AO2 $
14840KMKG MKG20020915022011409/15/02 02:20:31  5-MIN KMKG 150720Z 03005KT 6SM BR BKN013 BKN048 OVC060 18/17 A2998 570 96 1100 040/05 RMK AO2 $
14840KMKG MKG20020915022511409/15/02 02:25:31  5-MIN KMKG 150725Z 36004KT 6SM BR SCT013 BKN048 OVC060 18/17 A2999 570 96 1100 360/04 RMK AO2 $
14840KMKG MKG20020915023012909/15/02 02:30:31  5-MIN KMKG 150730Z 36006KT 6SM BR SCT013 SCT048 OVC065 18/17 A2999 570 96 1100 010/06 RMK AO2 CIG 048 RWY 14 $
14840KMKG MKG20020915023512209/15/02 02:35:31  5-MIN KMKG 150735Z VRB04KT 6SM BR SCT013 OVC065 18/17 A2999 560 96 1100 VRB/04 RMK AO2 CIG 013 RWY 14 $
14840KMKG MKG20020915024011409/15/02 02:40:31  5-MIN KMKG 150740Z 35006KT 6SM BR SCT013 BKN038 OVC065 18/17 A2999 560 96 1100 360/06 RMK AO2 $
14840KMKG MKG20020915024511109/15/02 02:45:31  5-MIN KMKG 150745Z 36006KT 7SM FEW011 BKN044 OVC065 18/17 A2999 560 96 1100 360/06 RMK AO2 $
14840KMKG MKG20020915025012809/15/02 02:50:31  5-MIN KMKG 150750Z 36005KT 7SM FEW011 BKN041 OVC065 18/17 A2999 560 96 1100 010/05 RMK AO2 SLP154 T01780172 $
14840KMKG MKG20020915025512809/15/02 02:55:31  5-MIN KMKG 150755Z 35007KT 7SM FEW013 BKN041 OVC070 18/17 A2999 570 96 1100 360/07 RMK AO2 SLP153 T01780172 $
14840KMKG MKG20020915030010409/15/02 03:00:31  5-MIN KMKG 150800Z 36007KT 7SM SCT013 OVC041 18/17 A2999 570 96 1100 010/07 RMK AO2 $
14840KMKG MKG20020915030511909/15/02 03:05:31  5-MIN KMKG 150805Z 36005KT 7SM SCT013 OVC041 18/17 A2999 560 96 1100 360/05 RMK AO2 CIG 013 RWY 14 $
14840KMKG MKG20020915031012609/15/02 03:10:31  5-MIN KMKG 150810Z 35006KT 8SM SCT013 BKN028 OVC041 18/17 A2999 560 96 1100 360/06 RMK AO2 CIG 013 RWY 14 $
14840KMKG MKG20020915031511109/15/02 03:15:31  5-MIN KMKG 150815Z 35006KT 8SM BKN012 BKN028 OVC041 18/17 A2999 560 96 1100 360/06 RMK AO2 $
14840KMKG MKG20020915032011109/15/02 03:20:31  5-MIN KMKG 150820Z 35006KT 8SM BKN012 BKN028 OVC039 18/17 A3000 560 96 1100 360/06 RMK AO2 $
14840KMKG MKG20020915032510409/15/02 03:25:31  5-MIN KMKG 150825Z 36008KT 8SM BKN012 OVC028 18/17 A3000 560 96 1100 010/08 RMK AO2 $
14840KMKG MKG20020915033010409/15/02 03:30:31  5-MIN KMKG 150830Z 01006KT 9SM BKN012 OVC028 18/17 A3000 560 96 1100 010/06 RMK AO2 $
14840KMKG MKG20020915033509709/15/02 03:35:31  5-MIN KMKG 150835Z 36007KT 8SM OVC012 18/17 A3000 560 96 1100 360/07 RMK AO2 $
14840KMKG MKG20020915034009709/15/02 03:40:31  5-MIN KMKG 150840Z 35007KT 9SM OVC012 18/17 A3000 560 96 1100 360/07 RMK AO2 $
14840KMKG MKG20020915034509709/15/02 03:45:31  5-MIN KMKG 150845Z 01009KT 9SM OVC012 18/17 A3000 550 96 1000 010/09 RMK AO2 $
14840KMKG MKG20020915035012109/15/02 03:50:31  5-MIN KMKG 150850Z 35006KT 10SM OVC012 18/17 A3001 550 96 1000 350/06 RMK AO2 SLP158 T01780172 51008 $
14840KMKG MKG20020915035514109/15/02 03:55:31  5-MIN KMKG 150855Z 35008KT 10SM BKN009 OVC012 17/17 A3001 550 100 1000 350/08 RMK AO2 CIG 007V011 SLP159 T01720172 53014 $
14840KMKG MKG20020915040011809/15/02 04:00:31  5-MIN KMKG 150900Z 35007KT 10SM BKN009 OVC012 17/17 A3001 550 100 1000 360/07 RMK AO2 CIG 007V010 $
14840KMKG MKG20020915040511809/15/02 04:05:31  5-MIN KMKG 150905Z 36005KT 10SM BKN009 OVC012 17/17 A3001 540 100 1000 360/05 RMK AO2 CIG 007V012 $
14840KMKG MKG20020915041011809/15/02 04:10:31  5-MIN KMKG 150910Z 36005KT 10SM BKN009 OVC013 17/17 A3002 540 100 1000 360/05 RMK AO2 CIG 007V010 $
14840KMKG MKG20020915041511809/15/02 04:15:31  5-MIN KMKG 150915Z 36006KT 10SM BKN009 OVC013 17/17 A3002 540 100 1000 010/06 RMK AO2 CIG 007V010 $
14840KMKG MKG20020915042011809/15/02 04:20:31  5-MIN KMKG 150920Z 36005KT 10SM BKN009 OVC013 17/17 A3002 540 100 1000 010/05 RMK AO2 CIG 007V010 $
14840KMKG MKG20020915042511809/15/02 04:25:31  5-MIN KMKG 150925Z 36009KT 10SM BKN007 OVC013 17/17 A3002 540 100 1000 010/09 RMK AO2 CIG 007V010 $
14840KMKG MKG20020915043009909/15/02 04:30:31  5-MIN KMKG 150930Z 36006KT 10SM OVC007 17/17 A3002 530 100 1000 360/06 RMK AO2 $
14840KMKG MKG20020915043509809/15/02 04:35:31  5-MIN KMKG 150935Z 35008KT 10SM OVC007 17/17 A3003 530 96 1000 350/08 RMK AO2 $
14840KMKG MKG20020915044009809/15/02 04:40:31  5-MIN KMKG 150940Z 36006KT 10SM OVC007 17/17 A3003 530 96 1000 360/06 RMK AO2 $
14840KMKG MKG20020915044509809/15/02 04:45:31  5-MIN KMKG 150945Z 36008KT 10SM OVC007 17/17 A3003 530 96 1000 010/08 RMK AO2 $
14840KMKG MKG20020915045011509/15/02 04:50:31  5-MIN KMKG 150950Z 01007KT 10SM OVC007 17/17 A3003 530 100 900 010/07 RMK AO2 SLP166 T01670167 $
14840KMKG MKG20020915045511509/15/02 04:55:31  5-MIN KMKG 150955Z 36011KT 10SM OVC007 17/17 A3003 530 100 900 010/11 RMK AO2 SLP167 T01670167 $
14840KMKG MKG20020915050009709/15/02 05:00:31  5-MIN KMKG 151000Z 36009KT 10SM OVC007 17/16 A3003 520 96 900 010/09 RMK AO2 $
14840KMKG MKG20020915050509709/15/02 05:05:31  5-MIN KMKG 151005Z 36010KT 10SM OVC007 17/16 A3004 520 96 900 360/10 RMK AO2 $
14840KMKG MKG20020915051009709/15/02 05:10:31  5-MIN KMKG 151010Z 36009KT 10SM OVC007 17/16 A3004 520 96 900 360/09 RMK AO2 $
14840KMKG MKG20020915051509709/15/02 05:15:31  5-MIN KMKG 151015Z 36009KT 10SM OVC007 17/16 A3004 520 96 900 010/09 RMK AO2 $
14840KMKG MKG20020915052011609/15/02 05:20:31  5-MIN KMKG 151020Z 01007KT 10SM BKN007 OVC011 17/16 A3004 520 96 900 010/07 RMK AO2 CIG 006V010 $
14840KMKG MKG20020915052510909/15/02 05:25:31  5-MIN KMKG 151025Z 36006KT 10SM OVC009 16/16 A3004 520 96 800 360/06 RMK AO2 CIG 007V012 $
14840KMKG MKG20020915053011609/15/02 05:30:31  5-MIN KMKG 151030Z 36009KT 10SM BKN009 OVC013 16/16 A3004 520 96 800 010/09 RMK AO2 CIG 007V011 $
14840KMKG MKG20020915053509709/15/02 05:35:31  5-MIN KMKG 151035Z 36009KT 10SM OVC011 16/15 A3005 510 93 800 360/09 RMK AO2 $
14840KMKG MKG20020915054010409/15/02 05:40:31  5-MIN KMKG 151040Z 36010KT 10SM BKN011 OVC050 16/15 A3005 510 93 800 360/10 RMK AO2 $
14840KMKG MKG20020915054510409/15/02 05:45:31  5-MIN KMKG 151045Z 01010KT 10SM BKN011 OVC050 16/15 A3005 510 93 800 010/10 RMK AO2 $
14840KMKG MKG20020915055012109/15/02 05:50:31  5-MIN KMKG 151050Z 01009KT 10SM BKN011 OVC050 16/15 A3005 510 93 800 010/09 RMK AO2 SLP174 T01610150 $
14840KMKG MKG20020915055512109/15/02 05:55:31  5-MIN KMKG 151055Z 01010KT 10SM BKN011 BKN050 16/15 A3006 510 93 800 020/10 RMK AO2 SLP175 T01610150 $
14840KMKG MKG20020915060010409/15/02 06:00:31  5-MIN KMKG 151100Z 03007KT 10SM BKN011 OVC050 16/15 A3006 510 93 800 030/07 RMK AO2 $
14840KMKG MKG20020915060510409/15/02 06:05:31  5-MIN KMKG 151105Z 03007KT 10SM BKN011 OVC055 16/15 A3006 500 93 800 030/07 RMK AO2 $
14840KMKG MKG20020915061010409/15/02 06:10:31  5-MIN KMKG 151110Z 02008KT 10SM BKN011 OVC055 16/15 A3006 500 93 800 020/08 RMK AO2 $
14840KMKG MKG20020915061510409/15/02 06:15:31  5-MIN KMKG 151115Z 02007KT 10SM BKN011 OVC055 16/15 A3006 500 93 800 020/07 RMK AO2 $
14840KMKG MKG20020915062010409/15/02 06:20:31  5-MIN KMKG 151120Z 36005KT 10SM BKN011 OVC055 16/15 A3007 490 93 800 360/05 RMK AO2 $
14840KMKG MKG20020915062510409/15/02 06:25:31  5-MIN KMKG 151125Z 36006KT 10SM BKN011 OVC055 16/15 A3007 490 96 700 010/06 RMK AO2 $
14840KMKG MKG20020915063010409/15/02 06:30:31  5-MIN KMKG 151130Z 36006KT 10SM BKN011 BKN055 16/15 A3007 490 96 700 010/06 RMK AO2 $
14840KMKG MKG20020915063510409/15/02 06:35:31  5-MIN KMKG 151135Z 01008KT 10SM BKN011 OVC017 16/15 A3007 490 96 700 010/08 RMK AO2 $
14840KMKG MKG20020915064011109/15/02 06:40:31  5-MIN KMKG 151140Z 01008KT 10SM BKN011 BKN017 OVC055 16/15 A3008 490 96 700 010/08 RMK AO2 $
14840KMKG MKG20020915064511109/15/02 06:45:31  5-MIN KMKG 151145Z 01007KT 10SM SCT011 BKN017 OVC055 16/14 A3008 480 93 700 010/07 RMK AO2 $
14840KMKG MKG20020915065015209/15/02 06:50:31  5-MIN KMKG 151150Z 36007KT 10SM SCT013 BKN055 OVC080 16/14 A3008 480 93 700 010/07 RMK AO2 SLP185 70003 T01560144 10178 20156 53014 $
14840KMKG MKG20020915065515209/15/02 06:55:31  5-MIN KMKG 151155Z 36006KT 10SM FEW013 BKN055 OVC080 16/14 A3008 480 93 700 360/06 RMK AO2 SLP186 70003 T01560144 10178 20156 53025 $
14840KMKG MKG20020915070012609/15/02 07:00:31  5-MIN KMKG 151200Z 35005KT 10SM FEW016 SCT055 OVC080 16/14 A3009 480 93 700 360/05 RMK AO2 CIG 055 RWY 14 $
14840KMKG MKG20020915070510409/15/02 07:05:31  5-MIN KMKG 151205Z 36008KT 10SM FEW055 OVC080 16/14 A3009 480 93 700 360/08 RMK AO2 $
14840KMKG MKG20020915071010409/15/02 07:10:31  5-MIN KMKG 151210Z 01007KT 10SM FEW055 OVC080 16/14 A3009 470 93 700 010/07 RMK AO2 $
14840KMKG MKG20020915071510409/15/02 07:15:31  5-MIN KMKG 151215Z 36006KT 10SM SCT055 OVC080 16/14 A3009 470 93 700 360/06 RMK AO2 $
14840KMKG MKG20020915072010409/15/02 07:20:31  5-MIN KMKG 151220Z 36009KT 10SM BKN055 OVC080 16/14 A3009 470 93 700 360/09 RMK AO2 $
14840KMKG MKG20020915072510409/15/02 07:25:31  5-MIN KMKG 151225Z 36008KT 10SM BKN060 BKN080 15/14 A3009 470 96 600 010/08 RMK AO2 $
14840KMKG MKG20020915073010409/15/02 07:30:31  5-MIN KMKG 151230Z 36009KT 10SM BKN060 BKN080 15/14 A3010 470 96 600 360/09 RMK AO2 $
14840KMKG MKG20020915073510409/15/02 07:35:31  5-MIN KMKG 151235Z 36008KT 10SM BKN060 BKN080 15/14 A3010 470 96 600 360/08 RMK AO2 $
14840KMKG MKG20020915074009709/15/02 07:40:31  5-MIN KMKG 151240Z 01009KT 10SM BKN060 15/14 A3010 470 96 600 010/09 RMK AO2 $
14840KMKG MKG20020915074509709/15/02 07:45:31  5-MIN KMKG 151245Z 35010KT 10SM BKN060 15/14 A3010 470 93 600 360/10 RMK AO2 $
14840KMKG MKG20020915075011409/15/02 07:50:31  5-MIN KMKG 151250Z 36008KT 10SM OVC060 16/14 A3010 460 93 700 360/08 RMK AO2 SLP192 T01560144 $
14840KMKG MKG20020915075511409/15/02 07:55:31  5-MIN KMKG 151255Z 35007KT 10SM OVC060 16/14 A3010 460 93 700 350/07 RMK AO2 SLP192 T01560144 $
14840KMKG MKG20020915080009709/15/02 08:00:31  5-MIN KMKG 151300Z 35006KT 10SM OVC060 16/14 A3010 460 93 700 350/06 RMK AO2 $
14840KMKG MKG20020915080509709/15/02 08:05:31  5-MIN KMKG 151305Z 36008KT 10SM OVC060 16/14 A3010 460 93 700 010/08 RMK AO2 $
14840KMKG MKG20020915081009709/15/02 08:10:31  5-MIN KMKG 151310Z 36008KT 10SM OVC060 16/14 A3010 460 93 700 360/08 RMK AO2 $
14840KMKG MKG20020915081509709/15/02 08:15:31  5-MIN KMKG 151315Z 01007KT 10SM OVC060 16/14 A3010 460 93 700 010/07 RMK AO2 $
14840KMKG MKG20020915082009709/15/02 08:20:31  5-MIN KMKG 151320Z 01008KT 10SM OVC060 16/14 A3010 460 93 700 010/08 RMK AO2 $
14840KMKG MKG20020915082509709/15/02 08:25:31  5-MIN KMKG 151325Z 02009KT 10SM OVC060 16/14 A3010 460 93 700 020/09 RMK AO2 $
14840KMKG MKG20020915083009709/15/02 08:30:31  5-MIN KMKG 151330Z 36010KT 10SM OVC060 16/14 A3011 460 93 700 360/10 RMK AO2 $
14840KMKG MKG20020915083509709/15/02 08:35:31  5-MIN KMKG 151335Z 36008KT 10SM OVC060 16/14 A3011 460 93 700 010/08 RMK AO2 $
14840KMKG MKG20020915084010409/15/02 08:40:31  5-MIN KMKG 151340Z 01010KT 10SM FEW013 OVC060 16/14 A3011 460 90 700 010/10 RMK AO2 $
14840KMKG MKG20020915084510409/15/02 08:45:31  5-MIN KMKG 151345Z 01008KT 10SM FEW013 OVC065 16/14 A3011 460 90 700 020/08 RMK AO2 $
14840KMKG MKG20020915085012109/15/02 08:50:31  5-MIN KMKG 151350Z 02007KT 10SM FEW013 OVC065 16/14 A3011 460 90 700 030/07 RMK AO2 SLP193 T01560139 $
14840KMKG MKG20020915085512109/15/02 08:55:31  5-MIN KMKG 151355Z 03007KT 10SM SCT013 OVC065 16/14 A3010 460 90 700 030/07 RMK AO2 SLP193 T01610144 $
14840KMKG MKG20020915090010409/15/02 09:00:31  5-MIN KMKG 151400Z 01008KT 10SM SCT013 OVC065 16/14 A3011 460 86 700 020/08 RMK AO2 $
14840KMKG MKG20020915090510409/15/02 09:05:31  5-MIN KMKG 151405Z 02008KT 10SM BKN013 OVC065 16/14 A3011 460 90 700 020/08 RMK AO2 $
14840KMKG MKG20020915091010409/15/02 09:10:31  5-MIN KMKG 151410Z 02010KT 10SM BKN013 OVC065 16/14 A3011 460 90 700 020/10 RMK AO2 $
14840KMKG MKG20020915091510409/15/02 09:15:31  5-MIN KMKG 151415Z 01009KT 10SM BKN013 OVC065 16/14 A3011 450 90 700 020/09 RMK AO2 $
14840KMKG MKG20020915092009709/15/02 09:20:31  5-MIN KMKG 151420Z 01010KT 10SM OVC013 16/14 A3012 450 90 700 010/10 RMK AO2 $
14840KMKG MKG20020915092509709/15/02 09:25:31  5-MIN KMKG 151425Z 02008KT 10SM OVC013 16/14 A3012 450 90 700 020/08 RMK AO2 $
14840KMKG MKG20020915093009709/15/02 09:30:31  5-MIN KMKG 151430Z 02007KT 10SM OVC013 16/14 A3012 450 90 700 020/07 RMK AO2 $
14840KMKG MKG20020915093509709/15/02 09:35:31  5-MIN KMKG 151435Z 02007KT 10SM OVC013 16/14 A3011 450 90 700 030/07 RMK AO2 $
14840KMKG MKG20020915094009709/15/02 09:40:31  5-MIN KMKG 151440Z 01009KT 10SM OVC013 16/14 A3011 450 90 700 010/09 RMK AO2 $
14840KMKG MKG20020915094509709/15/02 09:45:31  5-MIN KMKG 151445Z 02008KT 10SM OVC013 16/14 A3012 450 90 700 020/08 RMK AO2 $
14840KMKG MKG20020915095012009/15/02 09:50:31  5-MIN KMKG 151450Z 02007KT 10SM OVC013 17/14 A3011 450 83 900 020/07 RMK AO2 SLP196 T01720144 53025 $
14840KMKG MKG20020915095512009/15/02 09:55:31  5-MIN KMKG 151455Z 02010KT 10SM OVC013 17/14 A3012 450 83 900 030/10 RMK AO2 SLP197 T01720144 51010 $
14840KMKG MKG20020915100009709/15/02 10:00:31  5-MIN KMKG 151500Z 03008KT 10SM OVC013 17/14 A3011 450 83 900 030/08 RMK AO2 $
14840KMKG MKG20020915100509709/15/02 10:05:31  5-MIN KMKG 151505Z 03009KT 10SM OVC013 17/14 A3011 450 83 900 040/09 RMK AO2 $
14840KMKG MKG20020915101009709/15/02 10:10:31  5-MIN KMKG 151510Z 04008KT 10SM OVC013 18/15 A3011 450 83 900 040/08 RMK AO2 $
14840KMKG MKG20020915101509709/15/02 10:15:31  5-MIN KMKG 151515Z 06009KT 10SM OVC013 18/15 A3011 450 83 900 060/09 RMK AO2 $
14840KMKG MKG20020915102009809/15/02 10:20:31  5-MIN KMKG 151520Z 03009KT 10SM OVC013 18/15 A3011 450 81 1000 040/09 RMK AO2 $
14840KMKG MKG20020915102510409/15/02 10:25:31  5-MIN KMKG 151525Z 04009KT 10SM BKN013 OVC019 18/15 A3011 450 83 900 040/09 RMK AO2 $
14840KMKG MKG20020915103009709/15/02 10:30:31  5-MIN KMKG 151530Z 03008KT 10SM OVC013 18/15 A3011 450 83 900 030/08 RMK AO2 $
14840KMKG MKG20020915103509809/15/02 10:35:31  5-MIN KMKG 151535Z 02009KT 10SM OVC013 18/15 A3011 450 81 1000 030/09 RMK AO2 $
14840KMKG MKG20020915104009809/15/02 10:40:31  5-MIN KMKG 151540Z 03009KT 10SM OVC013 18/15 A3011 450 81 1000 030/09 RMK AO2 $
14840KMKG MKG20020915104510509/15/02 10:45:31  5-MIN KMKG 151545Z 03010KT 10SM BKN015 OVC021 18/15 A3011 450 81 1000 030/10 RMK AO2 $
14840KMKG MKG20020915105012209/15/02 10:50:31  5-MIN KMKG 151550Z 04009KT 10SM BKN015 OVC021 18/15 A3012 450 81 1000 050/09 RMK AO2 SLP197 T01830150 $
14840KMKG MKG20020915105512209/15/02 10:55:31  5-MIN KMKG 151555Z 06009KT 10SM BKN015 OVC021 19/15 A3012 450 78 1000 060/09 RMK AO2 SLP197 T01890150 $
14840KMKG MKG20020915110009809/15/02 11:00:31  5-MIN KMKG 151600Z 05007KT 10SM OVC015 18/15 A3011 450 81 1000 050/07 RMK AO2 $
14840KMKG MKG20020915110509809/15/02 11:05:31  5-MIN KMKG 151605Z 02008KT 10SM OVC015 18/15 A3011 450 81 1000 030/08 RMK AO2 $
14840KMKG MKG20020915111009809/15/02 11:10:31  5-MIN KMKG 151610Z 04010KT 10SM OVC015 18/15 A3012 450 81 1000 040/10 RMK AO2 $
14840KMKG MKG20020915111509809/15/02 11:15:31  5-MIN KMKG 151615Z 05010KT 10SM OVC015 18/15 A3012 450 81 1000 050/10 RMK AO2 $
14840KMKG MKG20020915112009809/15/02 11:20:31  5-MIN KMKG 151620Z 03009KT 10SM OVC015 18/15 A3012 450 81 1000 030/09 RMK AO2 $
14840KMKG MKG20020915112509809/15/02 11:25:31  5-MIN KMKG 151625Z 05009KT 10SM OVC015 18/16 A3012 450 84 1000 050/09 RMK AO2 $
14840KMKG MKG20020915113009809/15/02 11:30:31  5-MIN KMKG 151630Z 06009KT 10SM OVC015 18/15 A3012 450 81 1000 070/09 RMK AO2 $
14840KMKG MKG20020915113509809/15/02 11:35:31  5-MIN KMKG 151635Z 05009KT 10SM OVC015 18/16 A3012 450 84 1000 060/09 RMK AO2 $
14840KMKG MKG20020915114009809/15/02 11:40:31  5-MIN KMKG 151640Z 05008KT 10SM OVC015 18/16 A3012 450 84 1000 060/08 RMK AO2 $
14840KMKG MKG20020915114509809/15/02 11:45:31  5-MIN KMKG 151645Z 05008KT 10SM OVC015 19/16 A3011 450 81 1100 050/08 RMK AO2 $
14840KMKG MKG20020915115011509/15/02 11:50:31  5-MIN KMKG 151650Z 06008KT 10SM OVC015 19/16 A3011 450 81 1100 070/08 RMK AO2 SLP197 T01890156 $
14840KMKG MKG20020915115511509/15/02 11:55:31  5-MIN KMKG 151655Z 06008KT 10SM OVC015 19/16 A3011 450 81 1100 060/08 RMK AO2 SLP196 T01890156 $
14840KMKG MKG20020915120009809/15/02 12:00:31  5-MIN KMKG 151700Z 02007KT 10SM OVC015 19/16 A3011 450 81 1100 030/07 RMK AO2 $
14840KMKG MKG20020915120509809/15/02 12:05:31  5-MIN KMKG 151705Z 04009KT 10SM OVC015 19/16 A3012 450 78 1100 050/09 RMK AO2 $
14840KMKG MKG20020915121009809/15/02 12:10:31  5-MIN KMKG 151710Z 04010KT 10SM OVC015 19/16 A3012 450 81 1100 040/10 RMK AO2 $
14840KMKG MKG20020915121509809/15/02 12:15:31  5-MIN KMKG 151715Z 06008KT 10SM OVC015 19/16 A3011 450 78 1100 060/08 RMK AO2 $
14840KMKG MKG20020915122009809/15/02 12:20:31  5-MIN KMKG 151720Z 05008KT 10SM OVC015 19/16 A3011 450 78 1100 050/08 RMK AO2 $
14840KMKG MKG20020915122509809/15/02 12:25:31  5-MIN KMKG 151725Z 05007KT 10SM OVC015 19/16 A3011 450 81 1100 050/07 RMK AO2 $
14840KMKG MKG20020915123009809/15/02 12:30:31  5-MIN KMKG 151730Z 05006KT 10SM OVC015 19/16 A3011 450 81 1100 050/06 RMK AO2 $
14840KMKG MKG20020915123509809/15/02 12:35:31  5-MIN KMKG 151735Z 03006KT 10SM OVC017 19/16 A3011 450 81 1100 040/06 RMK AO2 $
14840KMKG MKG20020915124009809/15/02 12:40:31  5-MIN KMKG 151740Z 02007KT 10SM OVC017 19/16 A3011 450 81 1100 020/07 RMK AO2 $
14840KMKG MKG20020915124509809/15/02 12:45:31  5-MIN KMKG 151745Z 36006KT 10SM OVC017 19/16 A3011 450 81 1100 360/06 RMK AO2 $
14840KMKG MKG20020915125013309/15/02 12:50:31  5-MIN KMKG 151750Z 04006KT 10SM OVC017 19/16 A3011 450 81 1100 050/06 RMK AO2 SLP196 T01890156 10194 20150 51010 $
14840KMKG MKG20020915125513309/15/02 12:55:31  5-MIN KMKG 151755Z 05008KT 10SM OVC017 19/16 A3011 450 81 1100 050/08 RMK AO2 SLP196 T01890156 10194 20150 58001 $
14840KMKG MKG20020915130009809/15/02 13:00:31  5-MIN KMKG 151800Z 05007KT 10SM OVC017 19/16 A3011 450 81 1100 050/07 RMK AO2 $
14840KMKG MKG20020915130509809/15/02 13:05:31  5-MIN KMKG 151805Z 05007KT 10SM OVC017 19/16 A3011 450 81 1100 050/07 RMK AO2 $
14840KMKG MKG20020915131009809/15/02 13:10:31  5-MIN KMKG 151810Z 04007KT 10SM OVC017 19/16 A3011 450 81 1100 040/07 RMK AO2 $
14840KMKG MKG20020915131509809/15/02 13:15:31  5-MIN KMKG 151815Z 02006KT 10SM OVC017 19/16 A3011 450 81 1100 030/06 RMK AO2 $
14840KMKG MKG20020915132009809/15/02 13:20:31  5-MIN KMKG 151820Z 04007KT 10SM OVC017 18/16 A3012 450 84 1000 040/07 RMK AO2 $
14840KMKG MKG20020915132509809/15/02 13:25:31  5-MIN KMKG 151825Z 04007KT 10SM OVC017 19/16 A3011 450 81 1100 050/07 RMK AO2 $
14840KMKG MKG20020915133009809/15/02 13:30:31  5-MIN KMKG 151830Z 04006KT 10SM OVC017 18/16 A3011 450 84 1000 040/06 RMK AO2 $
14840KMKG MKG20020915133509809/15/02 13:35:31  5-MIN KMKG 151835Z 05007KT 10SM OVC017 18/16 A3012 450 84 1000 050/07 RMK AO2 $
14840KMKG MKG20020915134009809/15/02 13:40:31  5-MIN KMKG 151840Z 04007KT 10SM OVC017 18/16 A3012 450 84 1000 050/07 RMK AO2 $
14840KMKG MKG20020915134509809/15/02 13:45:31  5-MIN KMKG 151845Z 04006KT 10SM OVC017 18/16 A3012 450 84 1000 050/06 RMK AO2 $
14840KMKG MKG20020915135011509/15/02 13:50:31  5-MIN KMKG 151850Z 05008KT 10SM OVC017 18/16 A3011 450 84 1000 050/08 RMK AO2 SLP196 T01830156 $
14840KMKG MKG20020915135511509/15/02 13:55:31  5-MIN KMKG 151855Z 04006KT 10SM OVC017 18/16 A3011 450 84 1000 040/06 RMK AO2 SLP196 T01830156 $
14840KMKG MKG20020915140009809/15/02 14:00:31  5-MIN KMKG 151900Z 06006KT 10SM OVC017 18/16 A3011 450 84 1000 060/06 RMK AO2 $
14840KMKG MKG20020915140509809/15/02 14:05:31  5-MIN KMKG 151905Z 06008KT 10SM OVC017 18/16 A3011 460 84 1000 060/08 RMK AO2 $
14840KMKG MKG20020915141009809/15/02 14:10:31  5-MIN KMKG 151910Z 04008KT 10SM OVC017 18/16 A3011 460 84 1000 050/08 RMK AO2 $
14840KMKG MKG20020915141509809/15/02 14:15:31  5-MIN KMKG 151915Z 04008KT 10SM OVC017 18/16 A3011 460 84 1000 050/08 RMK AO2 $
14840KMKG MKG20020915142009809/15/02 14:20:31  5-MIN KMKG 151920Z 04007KT 10SM OVC017 18/16 A3011 460 84 1000 050/07 RMK AO2 $
14840KMKG MKG20020915142509809/15/02 14:25:31  5-MIN KMKG 151925Z 02008KT 10SM OVC017 18/16 A3011 460 84 1000 030/08 RMK AO2 $
14840KMKG MKG20020915143009809/15/02 14:30:31  5-MIN KMKG 151930Z 05008KT 10SM OVC017 18/16 A3011 460 84 1000 050/08 RMK AO2 $
14840KMKG MKG20020915143509809/15/02 14:35:31  5-MIN KMKG 151935Z 03008KT 10SM OVC017 18/16 A3011 460 84 1000 030/08 RMK AO2 $
14840KMKG MKG20020915144009809/15/02 14:40:31  5-MIN KMKG 151940Z 02007KT 10SM OVC017 18/16 A3011 450 84 1000 020/07 RMK AO2 $
14840KMKG MKG20020915144509809/15/02 14:45:31  5-MIN KMKG 151945Z 04008KT 10SM OVC015 18/16 A3011 450 84 1000 040/08 RMK AO2 $
14840KMKG MKG20020915145011509/15/02 14:50:31  5-MIN KMKG 151950Z 05006KT 10SM OVC015 18/16 A3011 450 84 1000 050/06 RMK AO2 SLP195 T01830156 $
14840KMKG MKG20020915145511509/15/02 14:55:31  5-MIN KMKG 151955Z VRB05KT 10SM OVC015 18/16 A3011 450 84 1000 VRB/05 RMK AO2 SLP195 T01830156 $
14840KMKG MKG20020915150009709/15/02 15:00:31  5-MIN KMKG 152000Z 04006KT 10SM OVC015 18/16 A3011 450 87 900 040/06 RMK AO2 $
14840KMKG MKG20020915150509709/15/02 15:05:31  5-MIN KMKG 152005Z 05007KT 10SM OVC015 18/16 A3011 450 87 900 060/07 RMK AO2 $
14840KMKG MKG20020915151009709/15/02 15:10:31  5-MIN KMKG 152010Z 06006KT 10SM OVC015 18/16 A3011 450 87 900 060/06 RMK AO2 $
14840KMKG MKG20020915151509709/15/02 15:15:31  5-MIN KMKG 152015Z 05006KT 10SM OVC015 18/16 A3011 450 87 900 060/06 RMK AO2 $
14840KMKG MKG20020915152009709/15/02 15:20:31  5-MIN KMKG 152020Z 01005KT 10SM OVC015 18/16 A3011 450 87 900 010/05 RMK AO2 $
14840KMKG MKG20020915152509709/15/02 15:25:31  5-MIN KMKG 152025Z 03006KT 10SM OVC015 18/16 A3011 460 87 900 040/06 RMK AO2 $
14840KMKG MKG20020915153009709/15/02 15:30:31  5-MIN KMKG 152030Z 02006KT 10SM OVC015 18/16 A3011 450 87 900 030/06 RMK AO2 $
14840KMKG MKG20020915153509709/15/02 15:35:31  5-MIN KMKG 152035Z 36005KT 10SM OVC015 18/16 A3011 460 87 900 360/05 RMK AO2 $
14840KMKG MKG20020915154009809/15/02 15:40:31  5-MIN KMKG 152040Z 03005KT 10SM OVC015 18/16 A3011 460 84 1000 030/05 RMK AO2 $
14840KMKG MKG20020915154509709/15/02 15:45:31  5-MIN KMKG 152045Z 02006KT 10SM OVC015 18/15 A3011 460 83 900 030/06 RMK AO2 $
14840KMKG MKG20020915155012109/15/02 15:50:31  5-MIN KMKG 152050Z 01007KT 10SM OVC015 18/15 A3011 460 81 1000 010/07 RMK AO2 SLP195 T01830150 58001 $
14840KMKG MKG20020915155512109/15/02 15:55:31  5-MIN KMKG 152055Z 36006KT 10SM OVC017 18/15 A3011 460 81 1000 010/06 RMK AO2 SLP194 T01830150 58001 $
14840KMKG MKG20020915160010409/15/02 16:00:31  5-MIN KMKG 152100Z 02007KT 10SM BKN017 OVC030 18/15 A3011 460 83 900 030/07 RMK AO2 $
14840KMKG MKG20020915160510509/15/02 16:05:31  5-MIN KMKG 152105Z 01005KT 10SM BKN017 OVC030 18/15 A3010 460 81 1000 010/05 RMK AO2 $
14840KMKG MKG20020915161011109/15/02 16:10:31  5-MIN KMKG 152110Z 02007KT 10SM BKN019 BKN024 OVC030 18/15 A3010 460 83 900 020/07 RMK AO2 $
14840KMKG MKG20020915161511109/15/02 16:15:31  5-MIN KMKG 152115Z 02005KT 10SM SCT019 BKN024 OVC030 18/15 A3010 460 83 900 030/05 RMK AO2 $
14840KMKG MKG20020915162010409/15/02 16:20:31  5-MIN KMKG 152120Z 01005KT 10SM FEW019 OVC027 18/15 A3010 460 83 900 020/05 RMK AO2 $
14840KMKG MKG20020915162510509/15/02 16:25:31  5-MIN KMKG 152125Z 01005KT 10SM BKN025 OVC030 18/15 A3010 460 81 1000 010/05 RMK AO2 $
14840KMKG MKG20020915163010509/15/02 16:30:31  5-MIN KMKG 152130Z 36006KT 10SM SCT020 OVC027 18/15 A3010 460 81 1000 360/06 RMK AO2 $
14840KMKG MKG20020915163510409/15/02 16:35:31  5-MIN KMKG 152135Z 34007KT 10SM BKN020 OVC027 18/15 A3010 460 83 900 350/07 RMK AO2 $
14840KMKG MKG20020915164010409/15/02 16:40:31  5-MIN KMKG 152140Z 36007KT 10SM BKN020 OVC027 18/15 A3010 460 83 900 360/07 RMK AO2 $
14840KMKG MKG20020915164510409/15/02 16:45:31  5-MIN KMKG 152145Z 36006KT 10SM BKN020 OVC027 18/15 A3010 460 83 900 010/06 RMK AO2 $
14840KMKG MKG20020915165011409/15/02 16:50:31  5-MIN KMKG 152150Z 36006KT 10SM OVC020 18/15 A3010 460 83 900 010/06 RMK AO2 SLP192 T01780150 $
14840KMKG MKG20020915165511409/15/02 16:55:31  5-MIN KMKG 152155Z 01005KT 10SM OVC020 18/15 A3010 460 83 900 010/05 RMK AO2 SLP192 T01780150 $
14840KMKG MKG20020915170009709/15/02 17:00:31  5-MIN KMKG 152200Z 01004KT 10SM OVC020 18/15 A3010 460 83 900 010/04 RMK AO2 $
14840KMKG MKG20020915170509709/15/02 17:05:31  5-MIN KMKG 152205Z 05006KT 10SM OVC020 18/15 A3010 470 83 900 050/06 RMK AO2 $
14840KMKG MKG20020915171009709/15/02 17:10:31  5-MIN KMKG 152210Z 03006KT 10SM OVC020 18/15 A3010 470 83 900 040/06 RMK AO2 $
14840KMKG MKG20020915171509709/15/02 17:15:31  5-MIN KMKG 152215Z 04006KT 10SM OVC020 18/15 A3010 470 83 900 040/06 RMK AO2 $
14840KMKG MKG20020915172009709/15/02 17:20:31  5-MIN KMKG 152220Z 03007KT 10SM OVC020 18/15 A3010 470 83 900 030/07 RMK AO2 $
14840KMKG MKG20020915172510409/15/02 17:25:31  5-MIN KMKG 152225Z 04006KT 10SM BKN020 OVC025 18/15 A3010 460 83 900 050/06 RMK AO2 $
14840KMKG MKG20020915173010409/15/02 17:30:31  5-MIN KMKG 152230Z 03004KT 10SM BKN022 OVC029 18/15 A3010 460 83 900 030/04 RMK AO2 $
14840KMKG MKG20020915173509809/15/02 17:35:31  5-MIN KMKG 152235Z 05005KT 10SM OVC022 18/15 A3010 460 81 1000 050/05 RMK AO2 $
14840KMKG MKG20020915174009709/15/02 17:40:31  5-MIN KMKG 152240Z 06006KT 10SM OVC022 18/15 A3010 460 83 900 060/06 RMK AO2 $
14840KMKG MKG20020915174509709/15/02 17:45:31  5-MIN KMKG 152245Z 04006KT 10SM OVC022 18/15 A3010 460 83 900 050/06 RMK AO2 $
14840KMKG MKG20020915175011409/15/02 17:50:31  5-MIN KMKG 152250Z 03005KT 10SM OVC022 18/15 A3010 460 83 900 030/05 RMK AO2 SLP192 T01780150 $
14840KMKG MKG20020915175511409/15/02 17:55:31  5-MIN KMKG 152255Z 05005KT 10SM OVC022 18/15 A3010 470 83 900 060/05 RMK AO2 SLP191 T01780150 $
14840KMKG MKG20020915180009709/15/02 18:00:31  5-MIN KMKG 152300Z 05004KT 10SM OVC022 18/15 A3010 460 83 900 060/04 RMK AO2 $
14840KMKG MKG20020915180509709/15/02 18:05:31  5-MIN KMKG 152305Z 03004KT 10SM OVC022 18/15 A3010 460 83 900 030/04 RMK AO2 $
14840KMKG MKG20020915181009709/15/02 18:10:31  5-MIN KMKG 152310Z 03004KT 10SM OVC022 18/15 A3010 460 83 900 030/04 RMK AO2 $
14840KMKG MKG20020915181509709/15/02 18:15:31  5-MIN KMKG 152315Z 05003KT 10SM OVC022 18/15 A3010 460 83 900 050/03 RMK AO2 $
14840KMKG MKG20020915182009709/15/02 18:20:31  5-MIN KMKG 152320Z 04003KT 10SM OVC024 18/15 A3010 460 83 900 040/03 RMK AO2 $
14840KMKG MKG20020915182509709/15/02 18:25:31  5-MIN KMKG 152325Z 04003KT 10SM BKN024 18/14 A3010 460 81 900 050/03 RMK AO2 $
14840KMKG MKG20020915183009709/15/02 18:30:31  5-MIN KMKG 152330Z 03003KT 10SM BKN024 18/15 A3010 460 83 900 030/03 RMK AO2 $
14840KMKG MKG20020915183509709/15/02 18:35:31  5-MIN KMKG 152335Z 03003KT 10SM BKN024 18/14 A3010 460 81 900 030/03 RMK AO2 $
14840KMKG MKG20020915184010409/15/02 18:40:31  5-MIN KMKG 152340Z 00000KT 10SM BKN024 BKN042 18/15 A3010 460 83 900 000/00 RMK AO2 $
14840KMKG MKG20020915184510409/15/02 18:45:31  5-MIN KMKG 152345Z 00000KT 10SM BKN024 OVC042 18/14 A3010 460 81 900 000/00 RMK AO2 $
14840KMKG MKG20020915185015409/15/02 18:50:31  5-MIN KMKG 152350Z 00000KT 10SM SCT024 OVC044 18/14 A3010 460 81 900 000/00 RMK AO2 CIG 022 RWY 14 SLP194 T01780144 10189 20178 58001 $
14840KMKG MKG20020915185515409/15/02 18:55:31  5-MIN KMKG 152355Z 00000KT 10SM SCT024 OVC044 18/14 A3010 460 81 900 000/00 RMK AO2 CIG 022 RWY 14 SLP194 T01780144 10189 20178 55002 $
14840KMKG MKG20020915190011909/15/02 19:00:31  5-MIN KMKG 160000Z 00000KT 10SM SCT024 OVC044 18/14 A3010 460 81 900 000/00 RMK AO2 CIG 024 RWY 14 $
14840KMKG MKG20020915190511909/15/02 19:05:31  5-MIN KMKG 160005Z 00000KT 10SM SCT024 OVC046 18/14 A3010 460 81 900 000/00 RMK AO2 CIG 024 RWY 14 $
14840KMKG MKG20020915191011909/15/02 19:10:31  5-MIN KMKG 160010Z 00000KT 10SM SCT024 OVC046 18/14 A3011 460 81 900 000/00 RMK AO2 CIG 028 RWY 14 $
14840KMKG MKG20020915191510409/15/02 19:15:31  5-MIN KMKG 160015Z 00000KT 10SM BKN024 OVC046 18/14 A3011 460 81 900 000/00 RMK AO2 $
14840KMKG MKG20020915192010409/15/02 19:20:31  5-MIN KMKG 160020Z 00000KT 10SM BKN026 OVC046 18/14 A3011 460 81 900 000/00 RMK AO2 $
14840KMKG MKG20020915192510409/15/02 19:25:31  5-MIN KMKG 160025Z 07003KT 10SM BKN026 OVC048 18/14 A3011 460 81 900 080/03 RMK AO2 $
14840KMKG MKG20020915193010409/15/02 19:30:31  5-MIN KMKG 160030Z 07003KT 10SM BKN026 OVC048 18/14 A3011 460 81 900 070/03 RMK AO2 $
14840KMKG MKG20020915193510409/15/02 19:35:31  5-MIN KMKG 160035Z 00000KT 10SM BKN026 OVC048 18/14 A3011 460 81 900 000/00 RMK AO2 $
14840KMKG MKG20020915194010409/15/02 19:40:31  5-MIN KMKG 160040Z 00000KT 10SM SCT026 OVC050 18/15 A3011 460 83 900 000/00 RMK AO2 $
14840KMKG MKG20020915194510409/15/02 19:45:31  5-MIN KMKG 160045Z 00000KT 10SM SCT028 OVC050 17/14 A3011 450 83 900 000/00 RMK AO2 $
14840KMKG MKG20020915195012109/15/02 19:50:31  5-MIN KMKG 160050Z 00000KT 10SM SCT028 OVC055 17/14 A3011 450 83 900 000/00 RMK AO2 SLP197 T01720144 $
14840KMKG MKG20020915195512109/15/02 19:55:31  5-MIN KMKG 160055Z 00000KT 10SM FEW028 OVC055 17/14 A3011 450 83 900 000/00 RMK AO2 SLP197 T01720144 $
14840KMKG MKG20020915200010409/15/02 20:00:31  5-MIN KMKG 160100Z 00000KT 10SM FEW028 OVC055 17/14 A3011 450 83 900 000/00 RMK AO2 $
14840KMKG MKG20020915200510409/15/02 20:05:31  5-MIN KMKG 160105Z 00000KT 10SM FEW028 BKN055 17/14 A3012 450 86 800 000/00 RMK AO2 $
14840KMKG MKG20020915201010409/15/02 20:10:31  5-MIN KMKG 160110Z 00000KT 10SM FEW028 BKN055 17/14 A3012 450 86 800 000/00 RMK AO2 $
14840KMKG MKG20020915201510409/15/02 20:15:31  5-MIN KMKG 160115Z 00000KT 10SM FEW028 BKN055 16/14 A3012 450 90 700 000/00 RMK AO2 $
14840KMKG MKG20020915202010409/15/02 20:20:31  5-MIN KMKG 160120Z 00000KT 10SM FEW028 SCT055 16/15 A3012 450 93 700 000/00 RMK AO2 $
14840KMKG MKG20020915202509709/15/02 20:25:31  5-MIN KMKG 160125Z 00000KT 10SM FEW028 16/15 A3012 450 93 700 000/00 RMK AO2 $
14840KMKG MKG20020915203009709/15/02 20:30:31  5-MIN KMKG 160130Z 00000KT 10SM SCT028 16/14 A3012 450 93 700 000/00 RMK AO2 $
14840KMKG MKG20020915203509709/15/02 20:35:31  5-MIN KMKG 160135Z 00000KT 10SM FEW028 15/14 A3012 450 96 600 000/00 RMK AO2 $
14840KMKG MKG20020915204010409/15/02 20:40:31  5-MIN KMKG 160140Z 20003KT 10SM FEW028 SCT055 15/14 A3012 450 96 600 200/03 RMK AO2 $
14840KMKG MKG20020915204510409/15/02 20:45:31  5-MIN KMKG 160145Z 19003KT 10SM FEW028 SCT055 16/14 A3012 450 93 700 190/03 RMK AO2 $
14840KMKG MKG20020915205012109/15/02 20:50:31  5-MIN KMKG 160150Z 00000KT 10SM FEW028 SCT055 15/14 A3011 450 96 600 000/00 RMK AO2 SLP198 T01500144 $
14840KMKG MKG20020915205511409/15/02 20:55:31  5-MIN KMKG 160155Z 00000KT 10SM BKN028 15/14 A3011 450 96 600 000/00 RMK AO2 SLP198 T01500144 $
14840KMKG MKG20020915210009709/15/02 21:00:31  5-MIN KMKG 160200Z 00000KT 10SM BKN028 15/14 A3012 450 96 600 000/00 RMK AO2 $
14840KMKG MKG20020915210509709/15/02 21:05:31  5-MIN KMKG 160205Z 00000KT 10SM BKN028 15/14 A3011 450 96 600 000/00 RMK AO2 $
14840KMKG MKG20020915211009709/15/02 21:10:31  5-MIN KMKG 160210Z 00000KT 10SM BKN028 15/14 A3011 450 96 600 000/00 RMK AO2 $
14840KMKG MKG20020915211509709/15/02 21:15:31  5-MIN KMKG 160215Z 00000KT 10SM BKN028 15/14 A3011 450 93 600 000/00 RMK AO2 $
14840KMKG MKG20020915212009809/15/02 21:20:31  5-MIN KMKG 160220Z 00000KT 10SM SCT028 14/14 A3011 450 100 500 000/00 RMK AO2 $
14840KMKG MKG20020915212509809/15/02 21:25:31  5-MIN KMKG 160225Z 00000KT 10SM FEW028 14/14 A3011 450 100 500 000/00 RMK AO2 $
14840KMKG MKG20020915213009509/15/02 21:30:31  5-MIN KMKG 160230Z 00000KT 10SM CLR 14/14 A3011 450 100 500 000/00 RMK AO2 $
14840KMKG MKG20020915213509509/15/02 21:35:31  5-MIN KMKG 160235Z 00000KT 10SM CLR 14/14 A3011 450 100 500 000/00 RMK AO2 $
14840KMKG MKG20020915214009509/15/02 21:40:31  5-MIN KMKG 160240Z 00000KT 10SM CLR 14/14 A3011 450 100 500 000/00 RMK AO2 $
14840KMKG MKG20020915214509509/15/02 21:45:31  5-MIN KMKG 160245Z 00000KT 10SM CLR 14/14 A3011 450 100 500 000/00 RMK AO2 $
14840KMKG MKG20020915215011809/15/02 21:50:31  5-MIN KMKG 160250Z 00000KT 10SM CLR 14/14 A3011 450 100 500 000/00 RMK AO2 SLP196 T01390139 55002 $
14840KMKG MKG20020915215511809/15/02 21:55:31  5-MIN KMKG 160255Z 00000KT 10SM CLR 14/14 A3011 460 100 500 000/00 RMK AO2 SLP195 T01390139 50002 $
14840KMKG MKG20020915220009509/15/02 22:00:31  5-MIN KMKG 160300Z 00000KT 10SM CLR 14/14 A3011 460 100 500 000/00 RMK AO2 $
14840KMKG MKG20020915220509409/15/02 22:05:31  5-MIN KMKG 160305Z 00000KT 10SM CLR 14/13 A3011 460 96 500 000/00 RMK AO2 $
14840KMKG MKG20020915221009509/15/02 22:10:31  5-MIN KMKG 160310Z 00000KT 10SM CLR 14/14 A3011 460 100 500 000/00 RMK AO2 $
14840KMKG MKG20020915221509509/15/02 22:15:31  5-MIN KMKG 160315Z 00000KT 10SM CLR 13/13 A3011 460 100 300 000/00 RMK AO2 $
14840KMKG MKG20020915222009709/15/02 22:20:31  5-MIN KMKG 160320Z 00000KT 5SM BR CLR 13/13 A3011 460 100 400 000/00 RMK AO2 $
14840KMKG MKG20020915222509709/15/02 22:25:31  5-MIN KMKG 160325Z 00000KT 3SM BR CLR 13/13 A3011 460 100 400 000/00 RMK AO2 $
14840KMKG MKG20020915223009709/15/02 22:30:31  5-MIN KMKG 160330Z 00000KT 5SM BR CLR 13/13 A3011 460 100 400 000/00 RMK AO2 $
14840KMKG MKG20020915223509509/15/02 22:35:31  5-MIN KMKG 160335Z 00000KT 10SM CLR 13/13 A3011 450 100 400 000/00 RMK AO2 $
14840KMKG MKG20020915224009509/15/02 22:40:31  5-MIN KMKG 160340Z 00000KT 10SM CLR 13/13 A3011 450 100 300 000/00 RMK AO2 $
14840KMKG MKG20020915224509409/15/02 22:45:31  5-MIN KMKG 160345Z 00000KT 8SM CLR 12/12 A3011 450 100 300 000/00 RMK AO2 $
14840KMKG MKG20020915225011409/15/02 22:50:31  5-MIN KMKG 160350Z 00000KT 3SM BR CLR 12/12 A3011 450 100 300 000/00 RMK AO2 SLP197 T01220122 $
14840KMKG MKG20020915225511409/15/02 22:55:31  5-MIN KMKG 160355Z 00000KT 3SM BR CLR 13/13 A3011 450 100 300 000/00 RMK AO2 SLP196 T01280128 $
14840KMKG MKG20020915230009709/15/02 23:00:31  5-MIN KMKG 160400Z 00000KT 3SM BR CLR 12/12 A3011 450 100 200 000/00 RMK AO2 $
14840KMKG MKG20020915230509709/15/02 23:05:31  5-MIN KMKG 160405Z 00000KT 4SM BR CLR 12/12 A3011 450 100 300 000/00 RMK AO2 $
14840KMKG MKG20020915231009509/15/02 23:10:31  5-MIN KMKG 160410Z 00000KT 10SM CLR 12/12 A3012 450 100 300 000/00 RMK AO2 $
14840KMKG MKG20020915231509509/15/02 23:15:31  5-MIN KMKG 160415Z 00000KT 10SM CLR 12/12 A3011 450 100 300 000/00 RMK AO2 $
14840KMKG MKG20020915232009509/15/02 23:20:31  5-MIN KMKG 160420Z 00000KT 10SM CLR 12/12 A3012 450 100 300 000/00 RMK AO2 $
14840KMKG MKG20020915232509509/15/02 23:25:31  5-MIN KMKG 160425Z 00000KT 10SM CLR 12/12 A3012 450 100 300 000/00 RMK AO2 $
14840KMKG MKG20020915233009509/15/02 23:30:31  5-MIN KMKG 160430Z 00000KT 10SM CLR 12/12 A3012 450 100 300 000/00 RMK AO2 $
14840KMKG MKG20020915233509509/15/02 23:35:31  5-MIN KMKG 160435Z 00000KT 10SM CLR 12/12 A3011 450 100 300 000/00 RMK AO2 $
14840KMKG MKG20020915234009509/15/02 23:40:31  5-MIN KMKG 160440Z 00000KT 10SM CLR 12/12 A3012 450 100 300 000/00 RMK AO2 $
14840KMKG MKG20020915234509509/15/02 23:45:31  5-MIN KMKG 160445Z 00000KT 10SM CLR 12/12 A3012 450 100 200 000/00 RMK AO2 $
14840KMKG MKG20020915235012209/15/02 23:50:31  5-MIN KMKG 160450Z 00000KT 10SM CLR 12/12 A3012 450 100 200 000/00 RMK AO2 SLP198 T01170117 401940117 $
14840KMKG MKG20020915235513909/15/02 23:55:31  5-MIN KMKG 160455Z 00000KT 10SM CLR 11/11 A3011 450 100 100 000/00 RMK AO2 VIS 2 1/2 RWY 14 SLP197 T01110111 401940111 $
14840KMKG MKG20020916000011409/16/02 00:00:31  5-MIN KMKG 160500Z 00000KT 3SM BR CLR 11/11 A3011 450 100 100 000/00 RMK AO2 VIS 2 1/2 RWY 14 $
14840KMKG MKG20020916000509709/16/02 00:05:31  5-MIN KMKG 160505Z 00000KT 3SM BR CLR 12/12 A3012 450 100 200 000/00 RMK AO2 $
14840KMKG MKG20020916001010809/16/02 00:10:31  5-MIN KMKG 160510Z 00000KT 10SM CLR 11/11 A3012 450 100 100 000/00 RMK AO2 VIS 1 RWY 14 $
14840KMKG MKG20020916001511009/16/02 00:15:31  5-MIN KMKG 160515Z 00000KT 10SM CLR 12/12 A3011 450 100 200 000/00 RMK AO2 VIS 1/2 RWY 14 $
14840KMKG MKG20020916002011009/16/02 00:20:31  5-MIN KMKG 160520Z 00000KT 10SM CLR 12/12 A3011 450 100 200 000/00 RMK AO2 VIS 1/2 RWY 14 $
14840KMKG MKG20020916002511009/16/02 00:25:31  5-MIN KMKG 160525Z 00000KT 10SM CLR 12/12 A3011 450 100 200 000/00 RMK AO2 VIS 1/2 RWY 14 $
14840KMKG MKG20020916003011209/16/02 00:30:31  5-MIN KMKG 160530Z 00000KT 10SM CLR 12/12 A3011 450 100 200 000/00 RMK AO2 VIS 1 1/2 RWY 14 $
14840KMKG MKG20020916003511509/16/02 00:35:31  5-MIN KMKG 160535Z 00000KT 10SM FEW025 11/11 A3011 460 100 100 000/00 RMK AO2 VIS 2 1/2 RWY 14 $
14840KMKG MKG20020916004011509/16/02 00:40:31  5-MIN KMKG 160540Z 00000KT 10SM FEW025 11/11 A3011 460 100 100 000/00 RMK AO2 VIS 2 1/2 RWY 14 $
14840KMKG MKG20020916004509809/16/02 00:45:31  5-MIN KMKG 160545Z 00000KT 10SM SCT025 11/11 A3011 460 100 100 000/00 RMK AO2 $
14840KMKG MKG20020916005013309/16/02 00:50:31  5-MIN KMKG 160550Z 00000KT 10SM FEW025 11/11 A3011 460 100 100 000/00 RMK AO2 SLP195 T01060106 10178 20106 50002 $
14840KMKG MKG20020916005513309/16/02 00:55:31  5-MIN KMKG 160555Z 00000KT 10SM FEW025 11/11 A3011 460 100 100 000/00 RMK AO2 SLP195 T01060106 10178 20106 58001 $
14840KMKG MKG20020916010009609/16/02 01:00:31  5-MIN KMKG 160600Z 00000KT 10SM FEW025 10/10 A3010 460 100 0 000/00 RMK AO2 $
14840KMKG MKG20020916010509609/16/02 01:05:31  5-MIN KMKG 160605Z 00000KT 10SM FEW025 10/10 A3011 460 100 0 000/00 RMK AO2 $
14840KMKG MKG20020916011009609/16/02 01:10:31  5-MIN KMKG 160610Z 00000KT 10SM FEW025 10/10 A3011 460 100 0 000/00 RMK AO2 $
14840KMKG MKG20020916011509509/16/02 01:15:31  5-MIN KMKG 160615Z 12003KT 10SM CLR 11/11 A3011 460 100 100 120/03 RMK AO2 $
14840KMKG MKG20020916012009509/16/02 01:20:31  5-MIN KMKG 160620Z 11003KT 10SM CLR 11/11 A3010 460 100 100 120/03 RMK AO2 $
14840KMKG MKG20020916012509409/16/02 01:25:31  5-MIN KMKG 160625Z 00000KT 9SM CLR 11/11 A3010 460 100 100 000/00 RMK AO2 $
14840KMKG MKG20020916013010809/16/02 01:30:31  5-MIN KMKG 160630Z 11003KT 10SM CLR 11/11 A3010 460 100 100 110/03 RMK AO2 VIS 2 RWY 14 $
14840KMKG MKG20020916013510809/16/02 01:35:31  5-MIN KMKG 160635Z 13003KT 10SM CLR 11/11 A3010 460 100 100 130/03 RMK AO2 VIS 2 RWY 14 $
14840KMKG MKG20020916014009509/16/02 01:40:31  5-MIN KMKG 160640Z 00000KT 10SM CLR 11/11 A3011 460 100 100 000/00 RMK AO2 $
14840KMKG MKG20020916014509309/16/02 01:45:31  5-MIN KMKG 160645Z 14003KT 10SM CLR 10/10 A3011 460 100 0 140/03 RMK AO2 $
14840KMKG MKG20020916015011309/16/02 01:50:31  5-MIN KMKG 160650Z 00000KT 10SM SCT026 10/10 A3011 460 100 0 000/00 RMK AO2 SLP195 T01000100 $
14840KMKG MKG20020916015511509/16/02 01:55:31  5-MIN KMKG 160655Z 00000KT 10SM BKN026 11/11 A3010 460 100 100 000/00 RMK AO2 SLP195 T01060106 $
14840KMKG MKG20020916020009709/16/02 02:00:31  5-MIN KMKG 160700Z 00000KT 10SM BKN026 11/11 A3010 460 96 100 000/00 RMK AO2 $
14840KMKG MKG20020916020509809/16/02 02:05:31  5-MIN KMKG 160705Z 00000KT 10SM BKN026 11/11 A3010 460 100 100 000/00 RMK AO2 $
14840KMKG MKG20020916021009809/16/02 02:10:31  5-MIN KMKG 160710Z 00000KT 10SM OVC026 11/11 A3010 460 100 100 000/00 RMK AO2 $
14840KMKG MKG20020916021509809/16/02 02:15:31  5-MIN KMKG 160715Z 00000KT 10SM OVC026 11/11 A3010 460 100 100 000/00 RMK AO2 $
14840KMKG MKG20020916022009809/16/02 02:20:31  5-MIN KMKG 160720Z 12003KT 10SM OVC026 11/11 A3010 470 100 200 130/03 RMK AO2 $
14840KMKG MKG20020916022509809/16/02 02:25:31  5-MIN KMKG 160725Z 12003KT 10SM OVC026 12/12 A3010 460 100 200 120/03 RMK AO2 $
14840KMKG MKG20020916023009809/16/02 02:30:31  5-MIN KMKG 160730Z 12004KT 10SM OVC026 11/11 A3010 460 100 100 120/04 RMK AO2 $
14840KMKG MKG20020916023509709/16/02 02:35:31  5-MIN KMKG 160735Z 12005KT 9SM OVC026 12/12 A3010 460 100 200 120/05 RMK AO2 $
14840KMKG MKG20020916024009709/16/02 02:40:31  5-MIN KMKG 160740Z 12005KT 9SM OVC026 12/12 A3010 470 100 300 120/05 RMK AO2 $
14840KMKG MKG20020916024509709/16/02 02:45:31  5-MIN KMKG 160745Z 12006KT 9SM OVC026 12/12 A3010 470 100 300 130/06 RMK AO2 $
14840KMKG MKG20020916025011409/16/02 02:50:31  5-MIN KMKG 160750Z 12006KT 9SM OVC026 12/12 A3010 470 100 300 120/06 RMK AO2 SLP192 T01220122 $
14840KMKG MKG20020916025511409/16/02 02:55:31  5-MIN KMKG 160755Z 11006KT 8SM BKN026 12/12 A3010 460 100 300 120/06 RMK AO2 SLP193 T01220122 $
14840KMKG MKG20020916030009709/16/02 03:00:31  5-MIN KMKG 160800Z 11006KT 7SM BKN026 12/12 A3010 460 100 300 120/06 RMK AO2 $
14840KMKG MKG20020916030510409/16/02 03:05:31  5-MIN KMKG 160805Z 12005KT 7SM FEW021 BKN028 12/12 A3010 460 100 300 120/05 RMK AO2 $
14840KMKG MKG20020916031011909/16/02 03:10:31  5-MIN KMKG 160810Z 12006KT 8SM SCT021 BKN028 12/12 A3010 460 100 300 120/06 RMK AO2 CIG 022 RWY 14 $
14840KMKG MKG20020916031510409/16/02 03:15:31  5-MIN KMKG 160815Z 12006KT 8SM BKN021 BKN028 12/12 A3010 460 100 300 120/06 RMK AO2 $
14840KMKG MKG20020916032010409/16/02 03:20:31  5-MIN KMKG 160820Z 12006KT 8SM BKN021 OVC028 12/12 A3010 470 100 300 120/06 RMK AO2 $
14840KMKG MKG20020916032510409/16/02 03:25:31  5-MIN KMKG 160825Z 11006KT 9SM BKN021 OVC028 12/12 A3010 470 100 300 120/06 RMK AO2 $
14840KMKG MKG20020916033010409/16/02 03:30:31  5-MIN KMKG 160830Z 12007KT 9SM BKN021 OVC028 12/12 A3010 470 100 300 130/07 RMK AO2 $
14840KMKG MKG20020916033510509/16/02 03:35:31  5-MIN KMKG 160835Z 12007KT 10SM BKN021 OVC026 12/12 A3010 470 100 300 130/07 RMK AO2 $
14840KMKG MKG20020916034009809/16/02 03:40:31  5-MIN KMKG 160840Z 12008KT 10SM BKN023 12/12 A3010 470 100 300 130/08 RMK AO2 $
14840KMKG MKG20020916034510409/16/02 03:45:31  5-MIN KMKG 160845Z 12006KT 10SM BKN021 BKN026 12/12 A3010 470 96 300 130/06 RMK AO2 $
14840KMKG MKG20020916035012809/16/02 03:50:31  5-MIN KMKG 160850Z 12006KT 10SM SCT021 SCT026 12/12 A3010 470 100 200 120/06 RMK AO2 SLP192 T01170117 58001 $
14840KMKG MKG20020916035512009/16/02 03:55:31  5-MIN KMKG 160855Z 12005KT 10SM SCT023 12/11 A3010 470 96 200 120/05 RMK AO2 SLP192 T01170111 58003 $
14840KMKG MKG20020916040009809/16/02 04:00:31  5-MIN KMKG 160900Z 13004KT 10SM FEW023 11/11 A3010 460 100 100 130/04 RMK AO2 $
14840KMKG MKG20020916040509809/16/02 04:05:31  5-MIN KMKG 160905Z 12003KT 10SM FEW021 11/11 A3010 460 100 100 130/03 RMK AO2 $
14840KMKG MKG20020916041009409/16/02 04:10:31  5-MIN KMKG 160910Z 00000KT 9SM CLR 11/11 A3010 460 100 100 000/00 RMK AO2 $
14840KMKG MKG20020916041509409/16/02 04:15:31  5-MIN KMKG 160915Z 00000KT 9SM CLR 12/12 A3010 460 100 200 000/00 RMK AO2 $
14840KMKG MKG20020916042009809/16/02 04:20:31  5-MIN KMKG 160920Z 00000KT 10SM FEW025 12/12 A3011 460 100 200 000/00 RMK AO2 $
14840KMKG MKG20020916042509809/16/02 04:25:31  5-MIN KMKG 160925Z 13003KT 10SM SCT025 12/12 A3010 460 100 200 130/03 RMK AO2 $
14840KMKG MKG20020916043010409/16/02 04:30:31  5-MIN KMKG 160930Z 15004KT 10SM SCT025 BKN038 12/11 A3010 460 96 200 150/04 RMK AO2 $
14840KMKG MKG20020916043510509/16/02 04:35:31  5-MIN KMKG 160935Z 16003KT 10SM SCT027 BKN037 11/11 A3010 460 100 200 160/03 RMK AO2 $
14840KMKG MKG20020916044011109/16/02 04:40:31  5-MIN KMKG 160940Z 00000KT 10SM BKN025 BKN030 BKN037 12/11 A3010 470 96 200 000/00 RMK AO2 $
14840KMKG MKG20020916044510409/16/02 04:45:31  5-MIN KMKG 160945Z 00000KT 10SM BKN025 BKN037 12/11 A3010 460 96 200 000/00 RMK AO2 $
14840KMKG MKG20020916045012809/16/02 04:50:31  5-MIN KMKG 160950Z 14003KT 10SM SCT025 SCT030 BKN037 12/11 A3010 460 96 200 150/03 RMK AO2 SLP193 T01170111 $
14840KMKG MKG20020916045512809/16/02 04:55:31  5-MIN KMKG 160955Z 00000KT 10SM FEW025 SCT030 SCT037 12/11 A3010 460 96 200 000/00 RMK AO2 SLP193 T01170111 $
14840KMKG MKG20020916050009809/16/02 05:00:31  5-MIN KMKG 161000Z 13003KT 10SM FEW027 11/11 A3010 460 100 100 140/03 RMK AO2 $
14840KMKG MKG20020916050509709/16/02 05:05:31  5-MIN KMKG 161005Z 00000KT 10SM FEW027 11/11 A3010 460 96 100 000/00 RMK AO2 $
14840KMKG MKG20020916051009409/16/02 05:10:31  5-MIN KMKG 161010Z 00000KT 10SM CLR 11/11 A3010 460 96 100 000/00 RMK AO2 $
14840KMKG MKG20020916051509709/16/02 05:15:31  5-MIN KMKG 161015Z 13003KT 10SM FEW035 11/11 A3010 460 96 100 130/03 RMK AO2 $
14840KMKG MKG20020916052009409/16/02 05:20:31  5-MIN KMKG 161020Z 12004KT 10SM CLR 11/10 A3011 460 96 100 130/04 RMK AO2 $
14840KMKG MKG20020916052509309/16/02 05:25:31  5-MIN KMKG 161025Z 13005KT 10SM CLR 10/10 A3011 460 100 0 130/05 RMK AO2 $
14840KMKG MKG20020916053009309/16/02 05:30:31  5-MIN KMKG 161030Z 13005KT 10SM CLR 10/10 A3011 460 100 0 140/05 RMK AO2 $
14840KMKG MKG20020916053509609/16/02 05:35:31  5-MIN KMKG 161035Z 13005KT 10SM FEW034 10/10 A3011 460 100 0 140/05 RMK AO2 $
14840KMKG MKG20020916054009309/16/02 05:40:31  5-MIN KMKG 161040Z 14005KT 10SM CLR 10/10 A3011 450 100 0 140/05 RMK AO2 $
14840KMKG MKG20020916054509709/16/02 05:45:31  5-MIN KMKG 161045Z 13005KT 10SM FEW034 11/10 A3011 450 96 100 140/05 RMK AO2 $
14840KMKG MKG20020916055011409/16/02 05:50:31  5-MIN KMKG 161050Z 14004KT 10SM SCT034 11/10 A3011 450 96 100 150/04 RMK AO2 SLP198 T01060100 $
14840KMKG MKG20020916055511509/16/02 05:55:31  5-MIN KMKG 161055Z 15003KT 10SM BKN034 11/11 A3011 450 100 100 160/03 RMK AO2 SLP199 T01060106 $
14840KMKG MKG20020916060009709/16/02 06:00:31  5-MIN KMKG 161100Z 15004KT 10SM BKN034 11/11 A3011 450 96 100 150/04 RMK AO2 $
14840KMKG MKG20020916060509709/16/02 06:05:31  5-MIN KMKG 161105Z 13003KT 10SM BKN034 11/11 A3011 450 96 100 130/03 RMK AO2 $
14840KMKG MKG20020916061009709/16/02 06:10:31  5-MIN KMKG 161110Z 13003KT 10SM BKN034 11/11 A3012 450 96 100 130/03 RMK AO2 $
14840KMKG MKG20020916061509709/16/02 06:15:31  5-MIN KMKG 161115Z 13004KT 10SM BKN034 11/11 A3012 450 96 100 130/04 RMK AO2 $
14840KMKG MKG20020916062009809/16/02 06:20:31  5-MIN KMKG 161120Z 00000KT 10SM BKN034 11/11 A3012 450 100 100 000/00 RMK AO2 $
14840KMKG MKG20020916062509709/16/02 06:25:31  5-MIN KMKG 161125Z 00000KT 10SM BKN034 11/10 A3012 450 96 100 000/00 RMK AO2 $
14840KMKG MKG20020916063009809/16/02 06:30:31  5-MIN KMKG 161130Z 13003KT 10SM BKN034 11/11 A3012 450 100 100 130/03 RMK AO2 $
14840KMKG MKG20020916063509809/16/02 06:35:31  5-MIN KMKG 161135Z 15003KT 10SM BKN034 11/11 A3012 450 100 100 160/03 RMK AO2 $
14840KMKG MKG20020916064009709/16/02 06:40:31  5-MIN KMKG 161140Z 15003KT 10SM SCT034 11/10 A3012 450 96 100 150/03 RMK AO2 $
14840KMKG MKG20020916064509609/16/02 06:45:31  5-MIN KMKG 161145Z 00000KT 10SM FEW034 10/10 A3012 440 100 0 000/00 RMK AO2 $
14840KMKG MKG20020916065013209/16/02 06:50:31  5-MIN KMKG 161150Z 00000KT 10SM FEW034 11/10 A3012 440 96 100 000/00 RMK AO2 SLP202 T01060100 10122 20100 58003 $
14840KMKG MKG20020916065513309/16/02 06:55:31  5-MIN KMKG 161155Z 11003KT 10SM FEW034 11/11 A3012 440 100 100 120/03 RMK AO2 SLP202 T01060106 10122 20100 53009 $
14840KMKG MKG20020916070009209/16/02 07:00:31  5-MIN KMKG 161200Z 13003KT 10SM CLR 11/10 A3013 440 96 100 130/03 RMK AO2
14840KMKG MKG20020916070509609/16/02 07:05:31  5-MIN KMKG 161205Z 12003KT 10SM FEW021 11/11 A3013 440 100 100 130/03 RMK AO2
14840KMKG MKG20020916071009509/16/02 07:10:31  5-MIN KMKG 161210Z 00000KT 10SM FEW021 11/11 A3013 440 96 100 000/00 RMK AO2
14840KMKG MKG20020916071509509/16/02 07:15:31  5-MIN KMKG 161215Z 00000KT 10SM FEW021 12/11 A3013 440 93 200 000/00 RMK AO2
14840KMKG MKG20020916072009509/16/02 07:20:31  5-MIN KMKG 161220Z 00000KT 10SM FEW021 12/11 A3013 440 96 200 000/00 RMK AO2
14840KMKG MKG20020916072509509/16/02 07:25:31  5-MIN KMKG 161225Z 00000KT 10SM FEW021 12/11 A3013 430 96 200 000/00 RMK AO2
14840KMKG MKG20020916073010209/16/02 07:30:31  5-MIN KMKG 161230Z 00000KT 10SM FEW021 SCT032 12/11 A3013 430 93 200 000/00 RMK AO2
14840KMKG MKG20020916073509509/16/02 07:35:31  5-MIN KMKG 161235Z 00000KT 10SM SCT032 12/11 A3013 430 93 200 000/00 RMK AO2
14840KMKG MKG20020916074009509/16/02 07:40:31  5-MIN KMKG 161240Z 00000KT 10SM BKN032 12/11 A3013 430 93 200 000/00 RMK AO2
14840KMKG MKG20020916074509509/16/02 07:45:31  5-MIN KMKG 161245Z 00000KT 10SM BKN032 13/11 A3013 430 89 300 000/00 RMK AO2
14840KMKG MKG20020916075011209/16/02 07:50:31  5-MIN KMKG 161250Z 00000KT 10SM BKN032 13/11 A3013 440 86 400 000/00 RMK AO2 SLP203 T01330111
14840KMKG MKG20020916075511209/16/02 07:55:31  5-MIN KMKG 161255Z 14003KT 10SM BKN032 13/11 A3013 440 86 400 140/03 RMK AO2 SLP203 T01330111
14840KMKG MKG20020916080009509/16/02 08:00:31  5-MIN KMKG 161300Z 00000KT 10SM BKN032 14/12 A3013 440 86 400 000/00 RMK AO2
14840KMKG MKG20020916080509509/16/02 08:05:31  5-MIN KMKG 161305Z 16003KT 10SM SCT032 14/11 A3013 430 83 400 170/03 RMK AO2
14840KMKG MKG20020916081009509/16/02 08:10:31  5-MIN KMKG 161310Z 14003KT 10SM SCT032 14/11 A3013 430 83 400 150/03 RMK AO2
14840KMKG MKG20020916081509509/16/02 08:15:31  5-MIN KMKG 161315Z VRB03KT 10SM FEW032 14/11 A3013 430 80 500 VRB/03 RMK AO2
14840KMKG MKG20020916082009509/16/02 08:20:31  5-MIN KMKG 161320Z 00000KT 10SM FEW032 15/11 A3013 430 77 600 000/00 RMK AO2
14840KMKG MKG20020916082509209/16/02 08:25:31  5-MIN KMKG 161325Z VRB03KT 10SM CLR 15/11 A3014 430 74 600 VRB/03 RMK AO2
14840KMKG MKG20020916083009209/16/02 08:30:31  5-MIN KMKG 161330Z 15003KT 10SM CLR 15/11 A3014 430 74 600 150/03 RMK AO2
14840KMKG MKG20020916083508409/16/02 08:35:31  5-MIN KMKG 161335Z 10SM CLR 15/11 A3014 430 74 600 M /M RMK AO2 $
14840KMKG MKG20020916084008009/16/02 08:40:31  5-MIN KMKG 161340Z 10SM 15/11 A3014 430 74 600 M /M RMK AO2 $
14840KMKG MKG20020916084509409/16/02 08:45:31  5-MIN KMKG 161345Z 00000KT 10SM CLR 16/11 A3014 420 72 600 000/00 RMK AO2 $
14840KMKG MKG20020916085010109/16/02 08:50:31  5-MIN KMKG 161350Z 10SM CLR 16/11 A3014 420 69 700 M /M RMK AO2 SLP208 T01610106 $
14840KMKG MKG20020916085511109/16/02 08:55:31  5-MIN KMKG 161355Z 00000KT 10SM CLR 17/11 A3015 420 69 800 000/00 RMK AO2 SLP208 T01670111 $
14840KMKG MKG20020916090009409/16/02 09:00:31  5-MIN KMKG 161400Z 00000KT 10SM CLR 17/11 A3015 420 69 800 000/00 RMK AO2 $
14840KMKG MKG20020916090509409/16/02 09:05:31  5-MIN KMKG 161405Z 00000KT 10SM CLR 17/12 A3015 420 72 800 000/00 RMK AO2 $
14840KMKG MKG20020916091009409/16/02 09:10:31  5-MIN KMKG 161410Z 00000KT 10SM CLR 17/12 A3015 420 69 800 000/00 RMK AO2 $
14840KMKG MKG20020916091509409/16/02 09:15:31  5-MIN KMKG 161415Z 00000KT 10SM CLR 17/11 A3015 420 67 800 000/00 RMK AO2 $
14840KMKG MKG20020916092009409/16/02 09:20:31  5-MIN KMKG 161420Z 00000KT 10SM CLR 18/12 A3015 420 67 900 000/00 RMK AO2 $
14840KMKG MKG20020916092509209/16/02 09:25:31  5-MIN KMKG 161425Z 00000KT 10SM CLR 18/12 A3015 420 67 900 000/00 RMK AO2
14840KMKG MKG20020916093009209/16/02 09:30:31  5-MIN KMKG 161430Z VRB04KT 10SM CLR 18/12 A3015 420 67 900 VRB/04 RMK AO2
14840KMKG MKG20020916093509209/16/02 09:35:31  5-MIN KMKG 161435Z VRB03KT 10SM CLR 18/12 A3015 420 65 900 VRB/03 RMK AO2
14840KMKG MKG20020916094009209/16/02 09:40:31  5-MIN KMKG 161440Z 19005KT 10SM CLR 18/12 A3015 420 67 900 190/05 RMK AO2
14840KMKG MKG20020916094509209/16/02 09:45:31  5-MIN KMKG 161445Z 19005KT 10SM CLR 18/12 A3015 420 67 900 190/05 RMK AO2
14840KMKG MKG20020916095013009/16/02 09:50:31  5-MIN KMKG 161450Z 19004KT 10SM CLR 18/12 A3015 420 67 900 200/04 RMK AO2 SLP209 T01830122 53009 CHINO RWY 14 $
14840KMKG MKG20020916095512809/16/02 09:55:31  5-MIN KMKG 161455Z VRB04KT 10SM CLR 18/12 A3015 420 67 900 VRB/04 RMK AO2 SLP210 T01830122 51008 CHINO RWY 14
14840KMKG MKG20020916100010509/16/02 10:00:31  5-MIN KMKG 161500Z 18005KT 10SM CLR 18/12 A3015 420 67 900 190/05 RMK AO2 CHINO RWY 14
14840KMKG MKG20020916100510509/16/02 10:05:31  5-MIN KMKG 161505Z 00000KT 10SM CLR 18/12 A3015 420 67 900 000/00 RMK AO2 CHINO RWY 14
14840KMKG MKG20020916101010609/16/02 10:10:31  5-MIN KMKG 161510Z 15004KT 10SM CLR 19/13 A3015 420 65 1100 150/04 RMK AO2 CHINO RWY 14
14840KMKG MKG20020916101510609/16/02 10:15:31  5-MIN KMKG 161515Z 00000KT 10SM CLR 19/12 A3015 420 65 1000 000/00 RMK AO2 CHINO RWY 14
14840KMKG MKG20020916102009609/16/02 10:20:31  5-MIN KMKG 161520Z VRB04KT 10SM FEW029 19/12 A3015 420 65 1000 VRB/04 RMK AO2
14840KMKG MKG20020916102509609/16/02 10:25:31  5-MIN KMKG 161525Z 00000KT 10SM SCT029 19/12 A3015 420 62 1100 000/00 RMK AO2
14840KMKG MKG20020916103009609/16/02 10:30:31  5-MIN KMKG 161530Z VRB03KT 10SM FEW029 20/12 A3014 420 60 1100 VRB/03 RMK AO2
14840KMKG MKG20020916103509609/16/02 10:35:31  5-MIN KMKG 161535Z 27007KT 10SM FEW029 19/12 A3015 420 62 1100 280/07 RMK AO2
14840KMKG MKG20020916104009609/16/02 10:40:31  5-MIN KMKG 161540Z VRB04KT 10SM SCT029 20/12 A3015 420 60 1100 VRB/04 RMK AO2
14840KMKG MKG20020916104509609/16/02 10:45:31  5-MIN KMKG 161545Z 23006KT 10SM SCT029 19/13 A3014 420 65 1100 240/06 RMK AO2
14840KMKG MKG20020916105011309/16/02 10:50:31  5-MIN KMKG 161550Z 18005KT 10SM SCT029 19/12 A3014 420 62 1100 180/05 RMK AO2 SLP207 T01940122
14840KMKG MKG20020916105511309/16/02 10:55:31  5-MIN KMKG 161555Z VRB04KT 10SM SCT029 18/12 A3014 430 65 1000 VRB/04 RMK AO2 SLP207 T01830117
14840KMKG MKG20020916110009609/16/02 11:00:31  5-MIN KMKG 161600Z VRB04KT 10SM SCT029 19/12 A3014 430 62 1000 VRB/04 RMK AO2
14840KMKG MKG20020916110509609/16/02 11:05:31  5-MIN KMKG 161605Z VRB06KT 10SM SCT029 20/12 A3014 420 60 1100 VRB/06 RMK AO2
14840KMKG MKG20020916111009609/16/02 11:10:31  5-MIN KMKG 161610Z 25004KT 10SM SCT029 21/12 A3015 420 56 1200 260/04 RMK AO2
14840KMKG MKG20020916111509609/16/02 11:15:31  5-MIN KMKG 161615Z VRB04KT 10SM SCT029 20/11 A3015 420 56 1100 VRB/04 RMK AO2
14840KMKG MKG20020916112009609/16/02 11:20:31  5-MIN KMKG 161620Z 25007KT 10SM SCT034 21/12 A3015 420 58 1200 260/07 RMK AO2
14840KMKG MKG20020916112509609/16/02 11:25:31  5-MIN KMKG 161625Z 32008KT 10SM SCT034 21/12 A3015 420 58 1200 330/08 RMK AO2
14840KMKG MKG20020916113009609/16/02 11:30:31  5-MIN KMKG 161630Z 31008KT 10SM SCT034 21/12 A3015 420 58 1200 320/08 RMK AO2
14840KMKG MKG20020916113509609/16/02 11:35:31  5-MIN KMKG 161635Z 30007KT 10SM SCT034 21/12 A3015 420 58 1200 300/07 RMK AO2
14840KMKG MKG20020916114009609/16/02 11:40:31  5-MIN KMKG 161640Z 28007KT 10SM SCT034 20/12 A3015 420 60 1100 280/07 RMK AO2
14840KMKG MKG20020916114509609/16/02 11:45:31  5-MIN KMKG 161645Z 24006KT 10SM SCT034 20/12 A3015 420 60 1100 240/06 RMK AO2
14840KMKG MKG20020916115011309/16/02 11:50:31  5-MIN KMKG 161650Z 25009KT 10SM SCT034 21/12 A3014 420 58 1200 250/09 RMK AO2 SLP207 T02060122
14840KMKG MKG20020916115511309/16/02 11:55:31  5-MIN KMKG 161655Z 23006KT 10SM SCT034 20/12 A3014 430 60 1200 240/06 RMK AO2 SLP205 T02000122
14840KMKG MKG20020916120009309/16/02 12:00:31  5-MIN KMKG 161700Z 26006KT 10SM CLR 20/12 A3014 430 60 1200 260/06 RMK AO2
14840KMKG MKG20020916120509309/16/02 12:05:31  5-MIN KMKG 161705Z VRB05KT 10SM CLR 20/12 A3014 430 58 1200 VRB/05 RMK AO2
14840KMKG MKG20020916121009309/16/02 12:10:31  5-MIN KMKG 161710Z 24008KT 10SM CLR 21/12 A3013 430 58 1200 240/08 RMK AO2
14840KMKG MKG20020916121509309/16/02 12:15:31  5-MIN KMKG 161715Z 25006KT 10SM CLR 21/12 A3013 440 58 1200 260/06 RMK AO2
14840KMKG MKG20020916122009309/16/02 12:20:31  5-MIN KMKG 161720Z 23007KT 10SM CLR 21/12 A3013 440 58 1200 230/07 RMK AO2
14840KMKG MKG20020916122509309/16/02 12:25:31  5-MIN KMKG 161725Z VRB06KT 10SM CLR 21/12 A3013 440 58 1200 VRB/06 RMK AO2
14840KMKG MKG20020916123009309/16/02 12:30:31  5-MIN KMKG 161730Z 27008KT 10SM CLR 21/12 A3013 440 54 1300 280/08 RMK AO2
14840KMKG MKG20020916123509309/16/02 12:35:31  5-MIN KMKG 161735Z 26007KT 10SM CLR 21/11 A3013 440 52 1300 260/07 RMK AO2
14840KMKG MKG20020916124009609/16/02 12:40:31  5-MIN KMKG 161740Z 25007KT 10SM FEW034 21/11 A3013 440 52 1300 250/07 RMK AO2
14840KMKG MKG20020916124511209/16/02 12:45:31  5-MIN KMKG 161745Z 24008KT 220V290 10SM FEW034 21/12 A3013 440 54 1300 240/08 220V290 RMK AO2
14840KMKG MKG20020916125013109/16/02 12:50:31  5-MIN KMKG 161750Z 24008KT 10SM FEW034 21/11 A3013 440 54 1200 240/08 RMK AO2 SLP203 T02060111 10211 20106 51008
14840KMKG MKG20020916125513109/16/02 12:55:31  5-MIN KMKG 161755Z 23009KT 10SM FEW034 21/11 A3013 440 54 1200 230/09 RMK AO2 SLP202 T02060111 10211 20106 56007
14840KMKG MKG20020916130009309/16/02 13:00:31  5-MIN KMKG 161800Z 23009KT 10SM CLR 21/12 A3013 440 56 1200 230/09 RMK AO2
14840KMKG MKG20020916130509309/16/02 13:05:31  5-MIN KMKG 161805Z 20009KT 10SM CLR 21/13 A3012 440 60 1200 210/09 RMK AO2
14840KMKG MKG20020916131009309/16/02 13:10:31  5-MIN KMKG 161810Z VRB05KT 10SM CLR 21/12 A3012 440 58 1200 VRB/05 RMK AO2
14840KMKG MKG20020916131509309/16/02 13:15:31  5-MIN KMKG 161815Z 23009KT 10SM CLR 21/13 A3012 450 60 1200 240/09 RMK AO2
14840KMKG MKG20020916132009309/16/02 13:20:31  5-MIN KMKG 161820Z VRB05KT 10SM CLR 21/13 A3012 450 60 1200 VRB/05 RMK AO2
14840KMKG MKG20020916132509309/16/02 13:25:31  5-MIN KMKG 161825Z 25008KT 10SM CLR 21/13 A3012 450 61 1300 250/08 RMK AO2
14840KMKG MKG20020916133009309/16/02 13:30:31  5-MIN KMKG 161830Z 25009KT 10SM CLR 21/13 A3012 450 60 1200 260/09 RMK AO2
14840KMKG MKG20020916133509309/16/02 13:35:31  5-MIN KMKG 161835Z 23009KT 10SM CLR 21/13 A3012 450 63 1200 230/09 RMK AO2
14840KMKG MKG20020916134009309/16/02 13:40:31  5-MIN KMKG 161840Z 22009KT 10SM CLR 21/13 A3012 450 60 1200 220/09 RMK AO2
14840KMKG MKG20020916134510909/16/02 13:45:31  5-MIN KMKG 161845Z 22009KT 190V250 10SM CLR 21/13 A3012 450 63 1200 220/09 190V250 RMK AO2
14840KMKG MKG20020916135011309/16/02 13:50:31  5-MIN KMKG 161850Z 21009KT 10SM FEW034 21/14 A3011 450 63 1300 210/09 RMK AO2 SLP197 T02110139
14840KMKG MKG20020916135511309/16/02 13:55:31  5-MIN KMKG 161855Z 19008KT 10SM FEW034 21/14 A3011 450 65 1200 190/08 RMK AO2 SLP197 T02060139
14840KMKG MKG20020916140009909/16/02 14:00:31  5-MIN KMKG 161900Z 20009G16KT 10SM CLR 21/14 A3011 450 63 1300 210/09G16 RMK AO2
14840KMKG MKG20020916140509909/16/02 14:05:31  5-MIN KMKG 161905Z 22009G16KT 10SM CLR 21/14 A3011 460 65 1300 230/09G16 RMK AO2
14840KMKG MKG20020916141009309/16/02 14:10:31  5-MIN KMKG 161910Z 24008KT 10SM CLR 21/14 A3011 460 63 1300 240/08 RMK AO2
14840KMKG MKG20020916141509309/16/02 14:15:31  5-MIN KMKG 161915Z 25008KT 10SM CLR 21/14 A3011 460 65 1300 260/08 RMK AO2
14840KMKG MKG20020916142009309/16/02 14:20:31  5-MIN KMKG 161920Z 26010KT 10SM CLR 22/14 A3011 460 61 1400 260/10 RMK AO2
14840KMKG MKG20020916142509609/16/02 14:25:31  5-MIN KMKG 161925Z 24008KT 10SM FEW029 21/13 A3010 460 63 1300 240/08 RMK AO2
14840KMKG MKG20020916143009609/16/02 14:30:31  5-MIN KMKG 161930Z VRB06KT 10SM FEW029 21/13 A3010 460 63 1300 VRB/06 RMK AO2
14840KMKG MKG20020916143509609/16/02 14:35:31  5-MIN KMKG 161935Z 25008KT 10SM FEW029 21/14 A3010 460 63 1300 250/08 RMK AO2
14840KMKG MKG20020916144011209/16/02 14:40:31  5-MIN KMKG 161940Z 21007KT 180V240 10SM FEW029 21/14 A3010 460 63 1300 220/07 180V240 RMK AO2
14840KMKG MKG20020916144509609/16/02 14:45:31  5-MIN KMKG 161945Z 24007KT 10SM FEW029 20/14 A3010 460 70 1200 250/07 RMK AO2
14840KMKG MKG20020916145011309/16/02 14:50:31  5-MIN KMKG 161950Z 22008KT 10SM FEW029 21/14 A3010 470 65 1300 230/08 RMK AO2 SLP191 T02110144
14840KMKG MKG20020916145512909/16/02 14:55:31  5-MIN KMKG 161955Z 21007KT 180V260 10SM FEW029 21/14 A3009 470 65 1300 220/07 180V260 RMK AO2 SLP191 T02110144
14840KMKG MKG20020916150009609/16/02 15:00:31  5-MIN KMKG 162000Z 24008KT 10SM FEW024 21/14 A3009 470 67 1300 250/08 RMK AO2
14840KMKG MKG20020916150509609/16/02 15:05:31  5-MIN KMKG 162005Z 25011KT 10SM FEW024 21/14 A3009 470 67 1300 250/11 RMK AO2
14840KMKG MKG20020916151009609/16/02 15:10:31  5-MIN KMKG 162010Z 23009KT 10SM FEW024 21/14 A3009 470 65 1300 230/09 RMK AO2
14840KMKG MKG20020916151509609/16/02 15:15:31  5-MIN KMKG 162015Z 21009KT 10SM FEW024 21/14 A3009 470 65 1300 220/09 RMK AO2
14840KMKG MKG20020916152009309/16/02 15:20:31  5-MIN KMKG 162020Z 21009KT 10SM CLR 21/13 A3009 470 60 1300 210/09 RMK AO2
14840KMKG MKG20020916152509309/16/02 15:25:31  5-MIN KMKG 162025Z 23008KT 10SM CLR 21/13 A3009 470 58 1300 230/08 RMK AO2
14840KMKG MKG20020916153009309/16/02 15:30:31  5-MIN KMKG 162030Z 23009KT 10SM CLR 21/12 A3009 480 58 1300 240/09 RMK AO2
14840KMKG MKG20020916153509309/16/02 15:35:31  5-MIN KMKG 162035Z 23007KT 10SM CLR 21/12 A3009 480 54 1300 240/07 RMK AO2
14840KMKG MKG20020916154009309/16/02 15:40:31  5-MIN KMKG 162040Z 24009KT 10SM CLR 21/11 A3009 480 52 1300 240/09 RMK AO2
14840KMKG MKG20020916154509309/16/02 15:45:31  5-MIN KMKG 162045Z 25007KT 10SM CLR 21/11 A3009 480 52 1300 260/07 RMK AO2
14840KMKG MKG20020916155011609/16/02 15:50:31  5-MIN KMKG 162050Z 25008KT 10SM CLR 21/11 A3009 480 52 1300 250/08 RMK AO2 SLP188 T02060106 56007
14840KMKG MKG20020916155511609/16/02 15:55:31  5-MIN KMKG 162055Z 23008KT 10SM CLR 21/11 A3008 480 50 1300 230/08 RMK AO2 SLP187 T02110106 56015
14840KMKG MKG20020916160009309/16/02 16:00:31  5-MIN KMKG 162100Z 26007KT 10SM CLR 21/11 A3009 480 50 1300 270/07 RMK AO2
14840KMKG MKG20020916160509309/16/02 16:05:31  5-MIN KMKG 162105Z 24007KT 10SM CLR 21/11 A3008 480 52 1300 250/07 RMK AO2
14840KMKG MKG20020916161009309/16/02 16:10:31  5-MIN KMKG 162110Z 24008KT 10SM CLR 21/11 A3008 480 54 1300 240/08 RMK AO2
14840KMKG MKG20020916161509309/16/02 16:15:31  5-MIN KMKG 162115Z 23009KT 10SM CLR 21/11 A3008 490 54 1300 240/09 RMK AO2
14840KMKG MKG20020916162009309/16/02 16:20:31  5-MIN KMKG 162120Z 22009KT 10SM CLR 21/11 A3007 490 54 1300 220/09 RMK AO2
14840KMKG MKG20020916162509309/16/02 16:25:31  5-MIN KMKG 162125Z 22008KT 10SM CLR 21/11 A3008 490 54 1300 230/08 RMK AO2
14840KMKG MKG20020916163010909/16/02 16:30:31  5-MIN KMKG 162130Z 24008KT 210V270 10SM CLR 21/11 A3008 490 50 1400 240/08 210V270 RMK AO2
14840KMKG MKG20020916163509309/16/02 16:35:31  5-MIN KMKG 162135Z 24009KT 10SM CLR 21/11 A3008 490 52 1300 240/09 RMK AO2
14840KMKG MKG20020916164009309/16/02 16:40:31  5-MIN KMKG 162140Z 24008KT 10SM CLR 21/11 A3008 490 52 1300 250/08 RMK AO2
14840KMKG MKG20020916164509309/16/02 16:45:31  5-MIN KMKG 162145Z 21010KT 10SM CLR 21/11 A3008 490 52 1300 210/10 RMK AO2
14840KMKG MKG20020916165011009/16/02 16:50:31  5-MIN KMKG 162150Z 22009KT 10SM CLR 21/11 A3008 490 54 1300 230/09 RMK AO2 SLP185 T02060111
14840KMKG MKG20020916165511009/16/02 16:55:31  5-MIN KMKG 162155Z 22007KT 10SM CLR 21/11 A3008 490 54 1300 230/07 RMK AO2 SLP184 T02060111
14840KMKG MKG20020916170009309/16/02 17:00:31  5-MIN KMKG 162200Z 24009KT 10SM CLR 20/11 A3008 490 54 1200 250/09 RMK AO2
14840KMKG MKG20020916170509309/16/02 17:05:31  5-MIN KMKG 162205Z 23009KT 10SM CLR 20/11 A3007 490 54 1200 230/09 RMK AO2
14840KMKG MKG20020916171009309/16/02 17:10:31  5-MIN KMKG 162210Z 22009KT 10SM CLR 20/11 A3007 490 56 1200 220/09 RMK AO2
14840KMKG MKG20020916171509309/16/02 17:15:31  5-MIN KMKG 162215Z 24007KT 10SM CLR 20/11 A3007 490 56 1200 240/07 RMK AO2
14840KMKG MKG20020916172009309/16/02 17:20:31  5-MIN KMKG 162220Z 21008KT 10SM CLR 20/11 A3007 490 56 1200 210/08 RMK AO2
14840KMKG MKG20020916172509309/16/02 17:25:31  5-MIN KMKG 162225Z 20008KT 10SM CLR 20/11 A3007 490 56 1200 200/08 RMK AO2
14840KMKG MKG20020916173009309/16/02 17:30:31  5-MIN KMKG 162230Z 20008KT 10SM CLR 20/12 A3007 490 58 1200 200/08 RMK AO2
14840KMKG MKG20020916173509309/16/02 17:35:31  5-MIN KMKG 162235Z 21009KT 10SM CLR 20/11 A3007 490 56 1200 210/09 RMK AO2
14840KMKG MKG20020916174009309/16/02 17:40:31  5-MIN KMKG 162240Z 19009KT 10SM CLR 20/11 A3007 490 56 1200 200/09 RMK AO2
14840KMKG MKG20020916174509309/16/02 17:45:31  5-MIN KMKG 162245Z 20009KT 10SM CLR 19/11 A3007 490 58 1200 210/09 RMK AO2
14840KMKG MKG20020916175011009/16/02 17:50:31  5-MIN KMKG 162250Z 20007KT 10SM CLR 19/12 A3006 500 60 1200 200/07 RMK AO2 SLP180 T01940117
14840KMKG MKG20020916175511009/16/02 17:55:31  5-MIN KMKG 162255Z 19008KT 10SM CLR 19/12 A3006 500 60 1200 200/08 RMK AO2 SLP179 T01940117
14840KMKG MKG20020916180009309/16/02 18:00:31  5-MIN KMKG 162300Z 19008KT 10SM CLR 19/12 A3006 500 60 1200 190/08 RMK AO2
14840KMKG MKG20020916180509309/16/02 18:05:31  5-MIN KMKG 162305Z 19008KT 10SM CLR 19/12 A3006 510 60 1200 190/08 RMK AO2
14840KMKG MKG20020916181009309/16/02 18:10:31  5-MIN KMKG 162310Z 20007KT 10SM CLR 19/12 A3005 510 62 1100 200/07 RMK AO2
14840KMKG MKG20020916181509309/16/02 18:15:31  5-MIN KMKG 162315Z 19006KT 10SM CLR 19/12 A3005 510 62 1100 190/06 RMK AO2
14840KMKG MKG20020916182009309/16/02 18:20:31  5-MIN KMKG 162320Z 19007KT 10SM CLR 19/12 A3005 510 65 1100 190/07 RMK AO2
14840KMKG MKG20020916182509309/16/02 18:25:31  5-MIN KMKG 162325Z 18007KT 10SM CLR 19/12 A3005 510 65 1100 190/07 RMK AO2
14840KMKG MKG20020916183009309/16/02 18:30:31  5-MIN KMKG 162330Z 19007KT 10SM CLR 18/13 A3005 510 70 1100 190/07 RMK AO2
14840KMKG MKG20020916183509309/16/02 18:35:31  5-MIN KMKG 162335Z 19006KT 10SM CLR 18/13 A3005 510 70 1100 190/06 RMK AO2
14840KMKG MKG20020916184009309/16/02 18:40:31  5-MIN KMKG 162340Z 19006KT 10SM CLR 18/13 A3005 510 72 1000 190/06 RMK AO2
14840KMKG MKG20020916184509309/16/02 18:45:31  5-MIN KMKG 162345Z 19006KT 10SM CLR 18/13 A3005 510 75 1000 190/06 RMK AO2
14840KMKG MKG20020916185012709/16/02 18:50:31  5-MIN KMKG 162350Z 18005KT 10SM CLR 17/13 A3005 510 78 900 190/05 RMK AO2 SLP176 T01720133 10217 20172 56015
14840KMKG MKG20020916185512709/16/02 18:55:31  5-MIN KMKG 162355Z 18005KT 10SM CLR 17/13 A3005 510 78 900 190/05 RMK AO2 SLP176 T01720133 10217 20172 58012
14840KMKG MKG20020916190009209/16/02 19:00:31  5-MIN KMKG 170000Z 17005KT 10SM CLR 17/13 A3005 510 75 900 170/05 RMK AO2
14840KMKG MKG20020916190509209/16/02 19:05:31  5-MIN KMKG 170005Z 17005KT 10SM CLR 17/13 A3004 520 77 900 180/05 RMK AO2
14840KMKG MKG20020916191009209/16/02 19:10:31  5-MIN KMKG 170010Z 17005KT 10SM CLR 17/13 A3004 520 80 900 170/05 RMK AO2
14840KMKG MKG20020916191509209/16/02 19:15:31  5-MIN KMKG 170015Z 17005KT 10SM CLR 17/13 A3004 520 77 900 180/05 RMK AO2
14840KMKG MKG20020916192009209/16/02 19:20:31  5-MIN KMKG 170020Z 17006KT 10SM CLR 17/13 A3004 520 77 900 170/06 RMK AO2
14840KMKG MKG20020916192509209/16/02 19:25:31  5-MIN KMKG 170025Z 17006KT 10SM CLR 17/13 A3004 520 77 900 170/06 RMK AO2
14840KMKG MKG20020916193009209/16/02 19:30:31  5-MIN KMKG 170030Z 17006KT 10SM CLR 17/13 A3004 520 77 900 170/06 RMK AO2
14840KMKG MKG20020916193509209/16/02 19:35:31  5-MIN KMKG 170035Z 17006KT 10SM CLR 17/13 A3004 520 77 900 180/06 RMK AO2
14840KMKG MKG20020916194009209/16/02 19:40:31  5-MIN KMKG 170040Z 18004KT 10SM CLR 16/13 A3005 510 80 800 180/04 RMK AO2
14840KMKG MKG20020916194509209/16/02 19:45:31  5-MIN KMKG 170045Z 18004KT 10SM CLR 16/13 A3005 510 80 800 180/04 RMK AO2
14840KMKG MKG20020916195010909/16/02 19:50:31  5-MIN KMKG 170050Z 18004KT 10SM CLR 16/13 A3005 510 83 700 180/04 RMK AO2 SLP176 T01560128
14840KMKG MKG20020916195510909/16/02 19:55:31  5-MIN KMKG 170055Z 18004KT 10SM CLR 16/13 A3005 510 83 700 180/04 RMK AO2 SLP177 T01560128
14840KMKG MKG20020916200009209/16/02 20:00:31  5-MIN KMKG 170100Z 17005KT 10SM CLR 16/13 A3005 510 83 700 180/05 RMK AO2
14840KMKG MKG20020916200509209/16/02 20:05:31  5-MIN KMKG 170105Z 17005KT 10SM CLR 16/13 A3005 510 83 700 170/05 RMK AO2
14840KMKG MKG20020916201009209/16/02 20:10:31  5-MIN KMKG 170110Z 17005KT 10SM CLR 16/13 A3005 510 80 800 170/05 RMK AO2
14840KMKG MKG20020916201509209/16/02 20:15:31  5-MIN KMKG 170115Z 17006KT 10SM CLR 16/13 A3005 510 80 800 180/06 RMK AO2
14840KMKG MKG20020916202009209/16/02 20:20:31  5-MIN KMKG 170120Z 17005KT 10SM CLR 16/13 A3005 510 80 800 170/05 RMK AO2
14840KMKG MKG20020916202509209/16/02 20:25:31  5-MIN KMKG 170125Z 17005KT 10SM CLR 16/13 A3005 510 80 800 170/05 RMK AO2
14840KMKG MKG20020916203009209/16/02 20:30:31  5-MIN KMKG 170130Z 17005KT 10SM CLR 16/13 A3005 510 83 700 180/05 RMK AO2
14840KMKG MKG20020916203509209/16/02 20:35:31  5-MIN KMKG 170135Z 17005KT 10SM CLR 16/12 A3005 510 80 700 180/05 RMK AO2
14840KMKG MKG20020916204009209/16/02 20:40:31  5-MIN KMKG 170140Z 17005KT 10SM CLR 16/12 A3005 510 80 700 170/05 RMK AO2
14840KMKG MKG20020916204509209/16/02 20:45:31  5-MIN KMKG 170145Z 16004KT 10SM CLR 16/12 A3006 510 80 700 170/04 RMK AO2
14840KMKG MKG20020916205010909/16/02 20:50:31  5-MIN KMKG 170150Z 00000KT 10SM CLR 15/12 A3006 500 83 700 000/00 RMK AO2 SLP178 T01500122
14840KMKG MKG20020916205510909/16/02 20:55:31  5-MIN KMKG 170155Z 00000KT 10SM CLR 14/12 A3006 500 86 600 000/00 RMK AO2 SLP179 T01440122
14840KMKG MKG20020916210009209/16/02 21:00:31  5-MIN KMKG 170200Z 09003KT 10SM CLR 15/12 A3006 500 83 700 100/03 RMK AO2
14840KMKG MKG20020916210509209/16/02 21:05:31  5-MIN KMKG 170205Z 10003KT 10SM CLR 15/13 A3006 500 86 700 100/03 RMK AO2
14840KMKG MKG20020916211009209/16/02 21:10:31  5-MIN KMKG 170210Z 11003KT 10SM CLR 16/13 A3006 500 83 700 120/03 RMK AO2
14840KMKG MKG20020916211509209/16/02 21:15:31  5-MIN KMKG 170215Z 12003KT 10SM CLR 15/13 A3006 500 86 700 130/03 RMK AO2
14840KMKG MKG20020916212009209/16/02 21:20:31  5-MIN KMKG 170220Z 12003KT 10SM CLR 15/12 A3006 500 83 700 130/03 RMK AO2
14840KMKG MKG20020916212509209/16/02 21:25:31  5-MIN KMKG 170225Z 13003KT 10SM CLR 14/12 A3006 500 86 600 130/03 RMK AO2
14840KMKG MKG20020916213009209/16/02 21:30:31  5-MIN KMKG 170230Z 00000KT 10SM CLR 14/12 A3006 500 90 500 000/00 RMK AO2
14840KMKG MKG20020916213509209/16/02 21:35:31  5-MIN KMKG 170235Z 14003KT 10SM CLR 13/12 A3006 500 93 500 150/03 RMK AO2
14840KMKG MKG20020916214009209/16/02 21:40:31  5-MIN KMKG 170240Z 00000KT 10SM CLR 14/12 A3006 500 90 500 000/00 RMK AO2
14840KMKG MKG20020916214509209/16/02 21:45:31  5-MIN KMKG 170245Z 00000KT 10SM CLR 13/12 A3006 500 93 500 000/00 RMK AO2
14840KMKG MKG20020916215011509/16/02 21:50:31  5-MIN KMKG 170250Z 00000KT 10SM CLR 13/12 A3006 500 93 500 000/00 RMK AO2 SLP180 T01330122 58012
14840KMKG MKG20020916215511509/16/02 21:55:31  5-MIN KMKG 170255Z 00000KT 10SM CLR 13/12 A3006 500 93 400 000/00 RMK AO2 SLP180 T01280117 51004
14840KMKG MKG20020916220009209/16/02 22:00:31  5-MIN KMKG 170300Z 00000KT 10SM CLR 13/12 A3006 500 93 500 000/00 RMK AO2
14840KMKG MKG20020916220509209/16/02 22:05:31  5-MIN KMKG 170305Z 00000KT 10SM CLR 13/12 A3007 500 93 500 000/00 RMK AO2
14840KMKG MKG20020916221009209/16/02 22:10:31  5-MIN KMKG 170310Z 00000KT 10SM CLR 13/12 A3007 500 93 500 000/00 RMK AO2
14840KMKG MKG20020916221509209/16/02 22:15:31  5-MIN KMKG 170315Z 00000KT 10SM CLR 13/12 A3007 500 93 500 000/00 RMK AO2
14840KMKG MKG20020916222009209/16/02 22:20:31  5-MIN KMKG 170320Z 00000KT 10SM CLR 13/12 A3007 500 96 400 000/00 RMK AO2
14840KMKG MKG20020916222509209/16/02 22:25:31  5-MIN KMKG 170325Z 00000KT 10SM CLR 13/12 A3006 500 93 400 000/00 RMK AO2
14840KMKG MKG20020916223009209/16/02 22:30:31  5-MIN KMKG 170330Z 11003KT 10SM CLR 13/12 A3007 500 93 400 110/03 RMK AO2
14840KMKG MKG20020916223509209/16/02 22:35:31  5-MIN KMKG 170335Z 12003KT 10SM CLR 12/12 A3006 500 96 300 120/03 RMK AO2
14840KMKG MKG20020916224009209/16/02 22:40:31  5-MIN KMKG 170340Z 14003KT 10SM CLR 12/12 A3006 500 96 300 140/03 RMK AO2
14840KMKG MKG20020916224509209/16/02 22:45:31  5-MIN KMKG 170345Z 14003KT 10SM CLR 12/12 A3006 500 96 300 140/03 RMK AO2
14840KMKG MKG20020916225010909/16/02 22:50:31  5-MIN KMKG 170350Z 13003KT 10SM CLR 12/12 A3006 500 96 300 140/03 RMK AO2 SLP180 T01220117
14840KMKG MKG20020916225510909/16/02 22:55:31  5-MIN KMKG 170355Z 14003KT 10SM CLR 12/12 A3006 500 96 300 140/03 RMK AO2 SLP180 T01220117
14840KMKG MKG20020916230009309/16/02 23:00:31  5-MIN KMKG 170400Z 14003KT 10SM CLR 12/12 A3006 500 100 300 140/03 RMK AO2
14840KMKG MKG20020916230509309/16/02 23:05:31  5-MIN KMKG 170405Z 14003KT 10SM CLR 12/12 A3006 500 100 300 150/03 RMK AO2
14840KMKG MKG20020916231009209/16/02 23:10:31  5-MIN KMKG 170410Z 00000KT 10SM CLR 12/12 A3006 500 96 300 000/00 RMK AO2
14840KMKG MKG20020916231509309/16/02 23:15:31  5-MIN KMKG 170415Z 15003KT 10SM CLR 12/12 A3006 500 100 300 160/03 RMK AO2
14840KMKG MKG20020916232009309/16/02 23:20:31  5-MIN KMKG 170420Z 00000KT 10SM CLR 12/12 A3006 500 100 300 000/00 RMK AO2
14840KMKG MKG20020916232509209/16/02 23:25:31  5-MIN KMKG 170425Z 00000KT 10SM CLR 12/11 A3006 500 96 300 000/00 RMK AO2
14840KMKG MKG20020916233009209/16/02 23:30:31  5-MIN KMKG 170430Z 00000KT 10SM CLR 12/11 A3006 500 96 300 000/00 RMK AO2
14840KMKG MKG20020916233509309/16/02 23:35:31  5-MIN KMKG 170435Z 00000KT 10SM CLR 12/12 A3006 500 100 300 000/00 RMK AO2
14840KMKG MKG20020916234009209/16/02 23:40:31  5-MIN KMKG 170440Z 00000KT 10SM CLR 12/12 A3006 500 96 300 000/00 RMK AO2
14840KMKG MKG20020916234509209/16/02 23:45:31  5-MIN KMKG 170445Z 00000KT 10SM CLR 12/12 A3006 500 96 300 000/00 RMK AO2
14840KMKG MKG20020916235011909/16/02 23:50:31  5-MIN KMKG 170450Z 00000KT 10SM CLR 12/12 A3006 500 96 300 000/00 RMK AO2 SLP178 T01220117 402170100
14840KMKG MKG20020916235512009/16/02 23:55:31  5-MIN KMKG 170455Z 00000KT 10SM CLR 12/12 A3006 500 100 300 000/00 RMK AO2 SLP178 T01170117 402170100
14840KMKG MKG20020917000009309/17/02 00:00:31  5-MIN KMKG 170500Z 00000KT 10SM CLR 12/12 A3006 500 100 300 000/00 RMK AO2
14840KMKG MKG20020917000509309/17/02 00:05:31  5-MIN KMKG 170505Z 00000KT 10SM CLR 11/11 A3005 510 100 200 000/00 RMK AO2
14840KMKG MKG20020917001009209/17/02 00:10:31  5-MIN KMKG 170510Z 12003KT 10SM CLR 12/11 A3005 510 96 300 130/03 RMK AO2
14840KMKG MKG20020917001509309/17/02 00:15:31  5-MIN KMKG 170515Z 13003KT 10SM CLR 12/12 A3005 510 100 300 130/03 RMK AO2
14840KMKG MKG20020917002009309/17/02 00:20:31  5-MIN KMKG 170520Z 00000KT 10SM CLR 12/12 A3005 510 100 300 000/00 RMK AO2
14840KMKG MKG20020917002509309/17/02 00:25:31  5-MIN KMKG 170525Z 15003KT 10SM CLR 12/12 A3005 510 100 300 150/03 RMK AO2
14840KMKG MKG20020917003009309/17/02 00:30:31  5-MIN KMKG 170530Z 00000KT 10SM CLR 12/12 A3005 510 100 300 000/00 RMK AO2
14840KMKG MKG20020917003509309/17/02 00:35:31  5-MIN KMKG 170535Z 00000KT 10SM CLR 11/11 A3005 510 100 200 000/00 RMK AO2
14840KMKG MKG20020917004009309/17/02 00:40:31  5-MIN KMKG 170540Z 00000KT 10SM CLR 12/12 A3005 510 100 300 000/00 RMK AO2
14840KMKG MKG20020917004509309/17/02 00:45:31  5-MIN KMKG 170545Z 08003KT 10SM CLR 12/12 A3005 510 100 300 080/03 RMK AO2
14840KMKG MKG20020917005012809/17/02 00:50:31  5-MIN KMKG 170550Z 10003KT 10SM CLR 12/12 A3005 510 100 300 110/03 RMK AO2 SLP176 T01220122 10172 20111 51004
14840KMKG MKG20020917005512809/17/02 00:55:31  5-MIN KMKG 170555Z 12004KT 10SM CLR 12/12 A3005 510 100 300 130/04 RMK AO2 SLP176 T01220122 10172 20111 58004
14840KMKG MKG20020917010009309/17/02 01:00:31  5-MIN KMKG 170600Z 12003KT 10SM CLR 12/12 A3005 510 100 300 130/03 RMK AO2
14840KMKG MKG20020917010509209/17/02 01:05:31  5-MIN KMKG 170605Z 12003KT 10SM CLR 12/11 A3005 510 96 300 120/03 RMK AO2
14840KMKG MKG20020917011009309/17/02 01:10:31  5-MIN KMKG 170610Z 12004KT 10SM CLR 11/11 A3005 510 100 200 120/04 RMK AO2
14840KMKG MKG20020917011509309/17/02 01:15:31  5-MIN KMKG 170615Z 10004KT 10SM CLR 11/11 A3006 510 100 200 110/04 RMK AO2
14840KMKG MKG20020917012009309/17/02 01:20:31  5-MIN KMKG 170620Z 11003KT 10SM CLR 11/11 A3006 500 100 200 110/03 RMK AO2
14840KMKG MKG20020917012509309/17/02 01:25:31  5-MIN KMKG 170625Z 11004KT 10SM CLR 11/11 A3006 510 100 200 120/04 RMK AO2
14840KMKG MKG20020917013009309/17/02 01:30:31  5-MIN KMKG 170630Z 12003KT 10SM CLR 11/11 A3005 510 100 200 120/03 RMK AO2
14840KMKG MKG20020917013509309/17/02 01:35:31  5-MIN KMKG 170635Z 13003KT 10SM CLR 11/11 A3005 510 100 200 130/03 RMK AO2
14840KMKG MKG20020917014009309/17/02 01:40:31  5-MIN KMKG 170640Z 12003KT 10SM CLR 11/11 A3005 510 100 200 130/03 RMK AO2
14840KMKG MKG20020917014509309/17/02 01:45:31  5-MIN KMKG 170645Z 11004KT 10SM CLR 11/11 A3005 510 100 100 110/04 RMK AO2
14840KMKG MKG20020917015011009/17/02 01:50:31  5-MIN KMKG 170650Z 11004KT 10SM CLR 11/11 A3005 510 100 200 110/04 RMK AO2 SLP176 T01110111
14840KMKG MKG20020917015511009/17/02 01:55:31  5-MIN KMKG 170655Z 11004KT 10SM CLR 11/11 A3005 510 100 200 110/04 RMK AO2 SLP175 T01110111
14840KMKG MKG20020917020009309/17/02 02:00:31  5-MIN KMKG 170700Z 12004KT 10SM CLR 11/11 A3005 510 100 200 120/04 RMK AO2
14840KMKG MKG20020917020509309/17/02 02:05:31  5-MIN KMKG 170705Z 11004KT 10SM CLR 11/11 A3004 520 100 200 120/04 RMK AO2
14840KMKG MKG20020917021009309/17/02 02:10:31  5-MIN KMKG 170710Z 11004KT 10SM CLR 11/11 A3004 520 100 200 120/04 RMK AO2
14840KMKG MKG20020917021509309/17/02 02:15:31  5-MIN KMKG 170715Z 11004KT 10SM CLR 11/11 A3004 520 100 200 110/04 RMK AO2
14840KMKG MKG20020917022009309/17/02 02:20:31  5-MIN KMKG 170720Z 11004KT 10SM CLR 11/11 A3004 520 100 200 110/04 RMK AO2
14840KMKG MKG20020917022509209/17/02 02:25:31  5-MIN KMKG 170725Z 11004KT 10SM CLR 11/11 A3004 520 96 200 110/04 RMK AO2
14840KMKG MKG20020917023009209/17/02 02:30:31  5-MIN KMKG 170730Z 11004KT 10SM CLR 11/11 A3004 520 96 200 110/04 RMK AO2
14840KMKG MKG20020917023509209/17/02 02:35:31  5-MIN KMKG 170735Z 11004KT 10SM CLR 11/11 A3004 520 96 200 120/04 RMK AO2
14840KMKG MKG20020917024009309/17/02 02:40:31  5-MIN KMKG 170740Z 12005KT 10SM CLR 11/11 A3004 520 100 100 130/05 RMK AO2
14840KMKG MKG20020917024509309/17/02 02:45:31  5-MIN KMKG 170745Z 13005KT 10SM CLR 11/11 A3004 520 100 100 130/05 RMK AO2
14840KMKG MKG20020917025011009/17/02 02:50:31  5-MIN KMKG 170750Z 12004KT 10SM CLR 11/11 A3004 520 100 100 130/04 RMK AO2 SLP173 T01060106
14840KMKG MKG20020917025511009/17/02 02:55:31  5-MIN KMKG 170755Z 12004KT 10SM CLR 11/11 A3005 510 100 100 120/04 RMK AO2 SLP174 T01060106
14840KMKG MKG20020917030009309/17/02 03:00:31  5-MIN KMKG 170800Z 11004KT 10SM CLR 11/11 A3005 510 100 100 110/04 RMK AO2
14840KMKG MKG20020917030509309/17/02 03:05:31  5-MIN KMKG 170805Z 11004KT 10SM CLR 11/11 A3005 510 100 100 110/04 RMK AO2
14840KMKG MKG20020917031009309/17/02 03:10:31  5-MIN KMKG 170810Z 11004KT 10SM CLR 11/11 A3005 510 100 100 110/04 RMK AO2
14840KMKG MKG20020917031509309/17/02 03:15:31  5-MIN KMKG 170815Z 12004KT 10SM CLR 11/11 A3005 510 100 100 120/04 RMK AO2
14840KMKG MKG20020917032009309/17/02 03:20:31  5-MIN KMKG 170820Z 12004KT 10SM CLR 11/11 A3005 510 100 100 120/04 RMK AO2
14840KMKG MKG20020917032509309/17/02 03:25:31  5-MIN KMKG 170825Z 11004KT 10SM CLR 11/11 A3005 510 100 100 120/04 RMK AO2
14840KMKG MKG20020917033009309/17/02 03:30:31  5-MIN KMKG 170830Z 12004KT 10SM CLR 11/11 A3005 510 100 100 120/04 RMK AO2
14840KMKG MKG20020917033509309/17/02 03:35:31  5-MIN KMKG 170835Z 12004KT 10SM CLR 10/10 A3005 510 100 100 130/04 RMK AO2
14840KMKG MKG20020917034009309/17/02 03:40:31  5-MIN KMKG 170840Z 12004KT 10SM CLR 10/10 A3005 510 100 100 120/04 RMK AO2
14840KMKG MKG20020917034509309/17/02 03:45:31  5-MIN KMKG 170845Z 11005KT 10SM CLR 10/10 A3005 510 100 100 110/05 RMK AO2
14840KMKG MKG20020917035011609/17/02 03:50:31  5-MIN KMKG 170850Z 11004KT 10SM CLR 11/11 A3005 510 100 100 110/04 RMK AO2 SLP175 T01060106 58004
14840KMKG MKG20020917035511609/17/02 03:55:31  5-MIN KMKG 170855Z 12004KT 10SM CLR 11/11 A3005 510 100 100 120/04 RMK AO2 SLP175 T01060106 55001
14840KMKG MKG20020917040009309/17/02 04:00:31  5-MIN KMKG 170900Z 12004KT 10SM CLR 11/11 A3005 510 100 100 130/04 RMK AO2
14840KMKG MKG20020917040509309/17/02 04:05:31  5-MIN KMKG 170905Z 12004KT 10SM CLR 11/11 A3005 510 100 100 130/04 RMK AO2
14840KMKG MKG20020917041009309/17/02 04:10:31  5-MIN KMKG 170910Z 14003KT 10SM CLR 10/10 A3005 510 100 100 140/03 RMK AO2
14840KMKG MKG20020917041509309/17/02 04:15:31  5-MIN KMKG 170915Z 15003KT 10SM CLR 10/10 A3005 510 100 100 160/03 RMK AO2
14840KMKG MKG20020917042009309/17/02 04:20:31  5-MIN KMKG 170920Z 00000KT 10SM CLR 10/10 A3005 510 100 100 000/00 RMK AO2
14840KMKG MKG20020917042509309/17/02 04:25:31  5-MIN KMKG 170925Z 12003KT 10SM CLR 10/10 A3005 510 100 100 130/03 RMK AO2
14840KMKG MKG20020917043009309/17/02 04:30:31  5-MIN KMKG 170930Z 12003KT 10SM CLR 10/10 A3005 510 100 100 130/03 RMK AO2
14840KMKG MKG20020917043509309/17/02 04:35:31  5-MIN KMKG 170935Z 11004KT 10SM CLR 11/11 A3005 510 100 100 110/04 RMK AO2
14840KMKG MKG20020917044009309/17/02 04:40:31  5-MIN KMKG 170940Z 11004KT 10SM CLR 11/11 A3005 510 100 100 110/04 RMK AO2
14840KMKG MKG20020917044509309/17/02 04:45:31  5-MIN KMKG 170945Z 11003KT 10SM CLR 11/11 A3005 510 100 200 110/03 RMK AO2
14840KMKG MKG20020917045011009/17/02 04:50:31  5-MIN KMKG 170950Z 11003KT 10SM CLR 11/11 A3005 510 100 200 110/03 RMK AO2 SLP175 T01110111
14840KMKG MKG20020917045511009/17/02 04:55:31  5-MIN KMKG 170955Z 11003KT 10SM CLR 11/11 A3005 510 100 200 120/03 RMK AO2 SLP175 T01110111
14840KMKG MKG20020917050009309/17/02 05:00:31  5-MIN KMKG 171000Z 11004KT 10SM CLR 11/11 A3005 510 100 200 110/04 RMK AO2
14840KMKG MKG20020917050509309/17/02 05:05:31  5-MIN KMKG 171005Z 11004KT 10SM CLR 11/11 A3005 510 100 100 120/04 RMK AO2
14840KMKG MKG20020917051009209/17/02 05:10:31  5-MIN KMKG 171010Z 12004KT 9SM CLR 11/11 A3005 510 100 100 120/04 RMK AO2
14840KMKG MKG20020917051509209/17/02 05:15:31  5-MIN KMKG 171015Z 11004KT 9SM CLR 11/11 A3005 510 100 100 120/04 RMK AO2
14840KMKG MKG20020917052009209/17/02 05:20:31  5-MIN KMKG 171020Z 12004KT 7SM CLR 10/10 A3005 520 100 100 120/04 RMK AO2
14840KMKG MKG20020917052509509/17/02 05:25:31  5-MIN KMKG 171025Z 12003KT 6SM BR CLR 11/11 A3005 510 100 100 120/03 RMK AO2
14840KMKG MKG20020917053009509/17/02 05:30:31  5-MIN KMKG 171030Z 12004KT 6SM BR CLR 11/11 A3005 510 100 100 120/04 RMK AO2
14840KMKG MKG20020917053509509/17/02 05:35:31  5-MIN KMKG 171035Z 12004KT 6SM BR CLR 11/11 A3005 510 100 100 120/04 RMK AO2
14840KMKG MKG20020917054009509/17/02 05:40:31  5-MIN KMKG 171040Z 12003KT 6SM BR CLR 10/10 A3005 510 100 100 130/03 RMK AO2
14840KMKG MKG20020917054509509/17/02 05:45:31  5-MIN KMKG 171045Z 12003KT 6SM BR CLR 10/10 A3005 510 100 100 120/03 RMK AO2
14840KMKG MKG20020917055011209/17/02 05:50:31  5-MIN KMKG 171050Z 12003KT 6SM BR CLR 11/11 A3005 510 100 100 120/03 RMK AO2 SLP175 T01060106
14840KMKG MKG20020917055511209/17/02 05:55:31  5-MIN KMKG 171055Z 12003KT 6SM BR CLR 11/11 A3005 510 100 100 130/03 RMK AO2 SLP175 T01060106
14840KMKG MKG20020917060009709/17/02 06:00:31  5-MIN KMKG 171100Z 13003KT 6SM BR CLR 11/11 A3005 510 100 100 130/03 RMK AO2 $
14840KMKG MKG20020917060509709/17/02 06:05:31  5-MIN KMKG 171105Z 12003KT 6SM BR CLR 11/11 A3005 510 100 100 130/03 RMK AO2 $
14840KMKG MKG20020917061009709/17/02 06:10:31  5-MIN KMKG 171110Z 13003KT 5SM BR CLR 11/11 A3006 510 100 100 130/03 RMK AO2 $
14840KMKG MKG20020917061509709/17/02 06:15:31  5-MIN KMKG 171115Z 00000KT 6SM BR CLR 11/11 A3006 500 100 100 000/00 RMK AO2 $
14840KMKG MKG20020917062009409/17/02 06:20:31  5-MIN KMKG 171120Z 13003KT 7SM CLR 11/11 A3006 500 100 100 140/03 RMK AO2 $
14840KMKG MKG20020917062509709/17/02 06:25:31  5-MIN KMKG 171125Z 12003KT 6SM BR CLR 11/11 A3006 500 100 100 120/03 RMK AO2 $
14840KMKG MKG20020917063010309/17/02 06:30:31  5-MIN KMKG 171130Z 12004KT 5SM BR CLR 11/11 A3006 500 100 100 120/04 RMK AO2 P0001 $
14840KMKG MKG20020917063510309/17/02 06:35:31  5-MIN KMKG 171135Z 13003KT 5SM BR CLR 11/11 A3006 500 100 100 130/03 RMK AO2 P0001 $
14840KMKG MKG20020917064009709/17/02 06:40:31  5-MIN KMKG 171140Z 12003KT 5SM BR CLR 10/10 A3006 500 100 100 120/03 RMK AO2 $
14840KMKG MKG20020917064509709/17/02 06:45:31  5-MIN KMKG 171145Z 11004KT 5SM BR CLR 11/11 A3006 500 100 100 120/04 RMK AO2 $
14840KMKG MKG20020917065013209/17/02 06:50:31  5-MIN KMKG 171150Z 11004KT 5SM BR CLR 11/11 A3006 500 100 100 120/04 RMK AO2 SLP181 T01060106 10122 20100 55001 $
14840KMKG MKG20020917065513209/17/02 06:55:31  5-MIN KMKG 171155Z 12004KT 5SM BR CLR 11/11 A3006 500 100 200 120/04 RMK AO2 SLP181 T01110111 10122 20100 53005 $
14840KMKG MKG20020917070009709/17/02 07:00:31  5-MIN KMKG 171200Z 13004KT 5SM BR CLR 11/11 A3007 500 100 200 130/04 RMK AO2 $
14840KMKG MKG20020917070509709/17/02 07:05:31  5-MIN KMKG 171205Z 13004KT 5SM BR CLR 11/11 A3007 500 100 200 130/04 RMK AO2 $
14840KMKG MKG20020917071009709/17/02 07:10:31  5-MIN KMKG 171210Z 12003KT 5SM BR CLR 12/12 A3007 490 100 300 130/03 RMK AO2 $
14840KMKG MKG20020917071509709/17/02 07:15:31  5-MIN KMKG 171215Z 11003KT 5SM BR CLR 12/12 A3007 490 100 300 110/03 RMK AO2 $
14840KMKG MKG20020917072009709/17/02 07:20:31  5-MIN KMKG 171220Z 11003KT 6SM BR CLR 12/12 A3007 490 100 300 110/03 RMK AO2 $
14840KMKG MKG20020917072509709/17/02 07:25:31  5-MIN KMKG 171225Z 12003KT 6SM BR CLR 12/12 A3007 490 100 300 120/03 RMK AO2 $
14840KMKG MKG20020917073009709/17/02 07:30:31  5-MIN KMKG 171230Z 13004KT 6SM BR CLR 13/13 A3007 490 100 400 130/04 RMK AO2 $
14840KMKG MKG20020917073509709/17/02 07:35:31  5-MIN KMKG 171235Z 13004KT 6SM BR CLR 13/13 A3007 490 100 400 130/04 RMK AO2 $
14840KMKG MKG20020917074009609/17/02 07:40:31  5-MIN KMKG 171240Z 14004KT 6SM BR CLR 14/13 A3007 490 96 500 150/04 RMK AO2 $
14840KMKG MKG20020917074509609/17/02 07:45:31  5-MIN KMKG 171245Z 14004KT 6SM BR CLR 14/13 A3007 490 96 500 150/04 RMK AO2 $
14840KMKG MKG20020917075011009/17/02 07:50:31  5-MIN KMKG 171250Z 13003KT 7SM CLR 14/14 A3008 490 96 600 140/03 RMK AO2 SLP184 T01440139 $
14840KMKG MKG20020917075511009/17/02 07:55:31  5-MIN KMKG 171255Z 00000KT 7SM CLR 15/14 A3008 490 96 600 000/00 RMK AO2 SLP184 T01500144 $
14840KMKG MKG20020917080009309/17/02 08:00:31  5-MIN KMKG 171300Z 17003KT 8SM CLR 16/15 A3008 490 93 800 170/03 RMK AO2 $
14840KMKG MKG20020917080509309/17/02 08:05:31  5-MIN KMKG 171305Z 00000KT 8SM CLR 16/16 A3008 480 96 800 000/00 RMK AO2 $
14840KMKG MKG20020917081009309/17/02 08:10:31  5-MIN KMKG 171310Z 17003KT 9SM CLR 17/16 A3008 480 93 800 170/03 RMK AO2 $
14840KMKG MKG20020917081509309/17/02 08:15:31  5-MIN KMKG 171315Z 17004KT 9SM CLR 17/16 A3008 480 93 900 170/04 RMK AO2 $
14840KMKG MKG20020917082009409/17/02 08:20:31  5-MIN KMKG 171320Z 17004KT 10SM CLR 17/16 A3008 480 93 900 180/04 RMK AO2 $
14840KMKG MKG20020917082509509/17/02 08:25:31  5-MIN KMKG 171325Z 17005KT 10SM CLR 18/17 A3008 480 93 1000 180/05 RMK AO2 $
14840KMKG MKG20020917083009509/17/02 08:30:31  5-MIN KMKG 171330Z 18004KT 10SM CLR 18/17 A3008 480 90 1000 180/04 RMK AO2 $
14840KMKG MKG20020917083509509/17/02 08:35:31  5-MIN KMKG 171335Z 19004KT 10SM CLR 18/17 A3008 480 90 1000 190/04 RMK AO2 $
14840KMKG MKG20020917084009509/17/02 08:40:31  5-MIN KMKG 171340Z 19005KT 10SM CLR 19/17 A3008 480 90 1100 200/05 RMK AO2 $
14840KMKG MKG20020917084509509/17/02 08:45:31  5-MIN KMKG 171345Z 19005KT 10SM CLR 19/18 A3008 480 90 1200 190/05 RMK AO2 $
14840KMKG MKG20020917085011209/17/02 08:50:31  5-MIN KMKG 171350Z 19004KT 10SM CLR 20/18 A3008 480 87 1200 190/04 RMK AO2 SLP184 T02000178 $
14840KMKG MKG20020917085511209/17/02 08:55:31  5-MIN KMKG 171355Z 20006KT 10SM CLR 21/18 A3008 480 87 1300 200/06 RMK AO2 SLP184 T02060183 $
14840KMKG MKG20020917090009509/17/02 09:00:31  5-MIN KMKG 171400Z 19006KT 10SM CLR 21/18 A3008 480 84 1300 190/06 RMK AO2 $
14840KMKG MKG20020917090509509/17/02 09:05:31  5-MIN KMKG 171405Z 19007KT 10SM CLR 22/18 A3008 480 81 1400 190/07 RMK AO2 $
14840KMKG MKG20020917091009509/17/02 09:10:31  5-MIN KMKG 171410Z 21006KT 10SM CLR 22/18 A3008 480 81 1400 210/06 RMK AO2 $
14840KMKG MKG20020917091509509/17/02 09:15:31  5-MIN KMKG 171415Z 22007KT 10SM CLR 22/18 A3008 480 78 1500 220/07 RMK AO2 $
14840KMKG MKG20020917092009509/17/02 09:20:31  5-MIN KMKG 171420Z 21008KT 10SM CLR 22/18 A3008 480 78 1500 210/08 RMK AO2 $
14840KMKG MKG20020917092509509/17/02 09:25:31  5-MIN KMKG 171425Z 21008KT 10SM CLR 23/18 A3008 480 76 1500 220/08 RMK AO2 $
14840KMKG MKG20020917093009509/17/02 09:30:31  5-MIN KMKG 171430Z 21007KT 10SM CLR 23/18 A3008 480 73 1500 210/07 RMK AO2 $
14840KMKG MKG20020917093509509/17/02 09:35:31  5-MIN KMKG 171435Z 23006KT 10SM CLR 23/18 A3008 480 73 1600 230/06 RMK AO2 $
14840KMKG MKG20020917094009509/17/02 09:40:31  5-MIN KMKG 171440Z 22009KT 10SM CLR 23/18 A3008 480 73 1500 230/09 RMK AO2 $
14840KMKG MKG20020917094509509/17/02 09:45:31  5-MIN KMKG 171445Z 22009KT 10SM CLR 23/18 A3008 480 73 1500 220/09 RMK AO2 $
14840KMKG MKG20020917095011809/17/02 09:50:31  5-MIN KMKG 171450Z 21009KT 10SM CLR 23/18 A3009 480 70 1600 210/09 RMK AO2 SLP187 T02330178 53005 $
14840KMKG MKG20020917095511809/17/02 09:55:31  5-MIN KMKG 171455Z 22009KT 10SM CLR 23/18 A3008 480 70 1600 220/09 RMK AO2 SLP186 T02330178 51007 $
14840KMKG MKG20020917100009509/17/02 10:00:31  5-MIN KMKG 171500Z 21010KT 10SM CLR 23/18 A3008 480 70 1600 220/10 RMK AO2 $
14840KMKG MKG20020917100509509/17/02 10:05:31  5-MIN KMKG 171505Z 22008KT 10SM CLR 23/18 A3008 480 70 1600 230/08 RMK AO2 $
14840KMKG MKG20020917101009509/17/02 10:10:31  5-MIN KMKG 171510Z 21009KT 10SM CLR 23/17 A3008 480 68 1600 220/09 RMK AO2 $
14840KMKG MKG20020917101509509/17/02 10:15:31  5-MIN KMKG 171515Z 21010KT 10SM CLR 23/17 A3008 480 68 1600 220/10 RMK AO2 $
14840KMKG MKG20020917102009509/17/02 10:20:31  5-MIN KMKG 171520Z 22010KT 10SM CLR 23/17 A3008 480 68 1600 230/10 RMK AO2 $
14840KMKG MKG20020917102509509/17/02 10:25:31  5-MIN KMKG 171525Z 22009KT 10SM CLR 24/17 A3008 480 63 1700 220/09 RMK AO2 $
14840KMKG MKG20020917103009509/17/02 10:30:31  5-MIN KMKG 171530Z 22009KT 10SM CLR 24/16 A3008 480 61 1700 220/09 RMK AO2 $
14840KMKG MKG20020917103509509/17/02 10:35:31  5-MIN KMKG 171535Z 25008KT 10SM CLR 24/16 A3008 480 61 1700 250/08 RMK AO2 $
14840KMKG MKG20020917104009509/17/02 10:40:31  5-MIN KMKG 171540Z 23007KT 10SM CLR 24/16 A3008 490 59 1700 240/07 RMK AO2 $
14840KMKG MKG20020917104509509/17/02 10:45:31  5-MIN KMKG 171545Z 23007KT 10SM CLR 24/16 A3008 490 59 1700 230/07 RMK AO2 $
14840KMKG MKG20020917105011009/17/02 10:50:31  5-MIN KMKG 171550Z 22006KT 10SM CLR 24/16 A3007 490 59 1700 230/06 RMK AO2 SLP182 T02390156
14840KMKG MKG20020917105511009/17/02 10:55:31  5-MIN KMKG 171555Z 26007KT 10SM CLR 24/15 A3007 490 57 1700 260/07 RMK AO2 SLP182 T02390150
14840KMKG MKG20020917110009309/17/02 11:00:31  5-MIN KMKG 171600Z 24007KT 10SM CLR 24/16 A3007 490 59 1700 240/07 RMK AO2
14840KMKG MKG20020917110509309/17/02 11:05:31  5-MIN KMKG 171605Z 26007KT 10SM CLR 24/15 A3007 490 57 1700 260/07 RMK AO2
14840KMKG MKG20020917111009309/17/02 11:10:31  5-MIN KMKG 171610Z VRB06KT 10SM CLR 24/14 A3007 490 55 1700 VRB/06 RMK AO2
14840KMKG MKG20020917111509309/17/02 11:15:31  5-MIN KMKG 171615Z 26007KT 10SM CLR 24/14 A3007 490 53 1700 260/07 RMK AO2
14840KMKG MKG20020917112009309/17/02 11:20:31  5-MIN KMKG 171620Z 26008KT 10SM CLR 25/15 A3007 490 53 1800 260/08 RMK AO2
14840KMKG MKG20020917112509309/17/02 11:25:31  5-MIN KMKG 171625Z 25008KT 10SM CLR 24/14 A3007 490 53 1700 260/08 RMK AO2
14840KMKG MKG20020917113009309/17/02 11:30:31  5-MIN KMKG 171630Z 26007KT 10SM CLR 24/14 A3007 490 53 1700 260/07 RMK AO2
14840KMKG MKG20020917113509309/17/02 11:35:31  5-MIN KMKG 171635Z 23007KT 10SM CLR 24/15 A3007 490 55 1700 240/07 RMK AO2
14840KMKG MKG20020917114010909/17/02 11:40:31  5-MIN KMKG 171640Z 26008KT 220V290 10SM CLR 24/15 A3007 500 55 1700 260/08 220V290 RMK AO2
14840KMKG MKG20020917114509309/17/02 11:45:31  5-MIN KMKG 171645Z VRB06KT 10SM CLR 24/16 A3006 500 59 1700 VRB/06 RMK AO2
14840KMKG MKG20020917115012609/17/02 11:50:31  5-MIN KMKG 171650Z 26007KT 210V290 10SM CLR 24/16 A3006 500 57 1700 260/07 210V290 RMK AO2 SLP179 T02440156
14840KMKG MKG20020917115511009/17/02 11:55:31  5-MIN KMKG 171655Z 22009KT 10SM CLR 25/16 A3006 500 55 1800 230/09 RMK AO2 SLP179 T02500156
14840KMKG MKG20020917120009309/17/02 12:00:31  5-MIN KMKG 171700Z 25008KT 10SM CLR 24/15 A3006 500 55 1700 260/08 RMK AO2
14840KMKG MKG20020917120510909/17/02 12:05:31  5-MIN KMKG 171705Z 23007KT 220V280 10SM CLR 24/16 A3006 500 57 1700 240/07 220V280 RMK AO2
14840KMKG MKG20020917121009309/17/02 12:10:31  5-MIN KMKG 171710Z 22008KT 10SM CLR 25/16 A3006 500 55 1800 220/08 RMK AO2
14840KMKG MKG20020917121510909/17/02 12:15:31  5-MIN KMKG 171715Z 24010KT 200V270 10SM CLR 24/15 A3006 500 55 1800 240/10 200V270 RMK AO2
14840KMKG MKG20020917122009309/17/02 12:20:31  5-MIN KMKG 171720Z 21008KT 10SM CLR 24/16 A3006 500 57 1800 220/08 RMK AO2
14840KMKG MKG20020917122509309/17/02 12:25:31  5-MIN KMKG 171725Z 21009KT 10SM CLR 24/16 A3006 500 59 1800 210/09 RMK AO2
14840KMKG MKG20020917123009309/17/02 12:30:31  5-MIN KMKG 171730Z 22007KT 10SM CLR 24/16 A3006 500 57 1800 230/07 RMK AO2
14840KMKG MKG20020917123509309/17/02 12:35:31  5-MIN KMKG 171735Z 21007KT 10SM CLR 24/16 A3005 510 59 1700 210/07 RMK AO2
14840KMKG MKG20020917124009309/17/02 12:40:31  5-MIN KMKG 171740Z 21007KT 10SM CLR 24/16 A3005 510 59 1800 210/07 RMK AO2
14840KMKG MKG20020917124509309/17/02 12:45:31  5-MIN KMKG 171745Z 21008KT 10SM CLR 25/16 A3005 510 55 1800 210/08 RMK AO2
14840KMKG MKG20020917125012809/17/02 12:50:31  5-MIN KMKG 171750Z 21007KT 10SM CLR 24/16 A3005 510 59 1700 210/07 RMK AO2 SLP175 T02390156 10250 20111 51007
14840KMKG MKG20020917125512809/17/02 12:55:31  5-MIN KMKG 171755Z 21009KT 10SM CLR 24/16 A3005 510 59 1800 210/09 RMK AO2 SLP175 T02440161 10250 20111 56011
14840KMKG MKG20020917130009309/17/02 13:00:31  5-MIN KMKG 171800Z 24008KT 10SM CLR 24/16 A3005 510 57 1800 240/08 RMK AO2
14840KMKG MKG20020917130509309/17/02 13:05:31  5-MIN KMKG 171805Z 24008KT 10SM CLR 24/16 A3005 510 57 1800 240/08 RMK AO2
14840KMKG MKG20020917131009309/17/02 13:10:31  5-MIN KMKG 171810Z 22009KT 10SM CLR 25/16 A3005 510 55 1800 230/09 RMK AO2
14840KMKG MKG20020917131509309/17/02 13:15:31  5-MIN KMKG 171815Z 20008KT 10SM CLR 25/16 A3004 520 55 1800 200/08 RMK AO2
14840KMKG MKG20020917132009309/17/02 13:20:31  5-MIN KMKG 171820Z 21008KT 10SM CLR 24/16 A3004 520 57 1800 210/08 RMK AO2
14840KMKG MKG20020917132509309/17/02 13:25:31  5-MIN KMKG 171825Z 22007KT 10SM CLR 24/16 A3004 520 59 1800 220/07 RMK AO2
14840KMKG MKG20020917133009309/17/02 13:30:31  5-MIN KMKG 171830Z 20005KT 10SM CLR 24/16 A3003 530 59 1800 200/05 RMK AO2
14840KMKG MKG20020917133509309/17/02 13:35:31  5-MIN KMKG 171835Z 24006KT 10SM CLR 24/16 A3003 530 59 1700 240/06 RMK AO2
14840KMKG MKG20020917134009309/17/02 13:40:31  5-MIN KMKG 171840Z 23007KT 10SM CLR 24/16 A3003 530 59 1800 240/07 RMK AO2
14840KMKG MKG20020917134509309/17/02 13:45:31  5-MIN KMKG 171845Z 23008KT 10SM CLR 25/16 A3003 530 55 1800 240/08 RMK AO2
14840KMKG MKG20020917135011009/17/02 13:50:31  5-MIN KMKG 171850Z 22006KT 10SM CLR 25/16 A3003 530 57 1800 220/06 RMK AO2 SLP167 T02500161
14840KMKG MKG20020917135511009/17/02 13:55:31  5-MIN KMKG 171855Z 20007KT 10SM CLR 25/16 A3003 530 55 1800 210/07 RMK AO2 SLP167 T02500156
14840KMKG MKG20020917140009309/17/02 14:00:31  5-MIN KMKG 171900Z 21008KT 10SM CLR 25/14 A3003 530 51 1900 210/08 RMK AO2
14840KMKG MKG20020917140509309/17/02 14:05:31  5-MIN KMKG 171905Z 21009KT 10SM CLR 25/15 A3003 530 53 1900 220/09 RMK AO2
14840KMKG MKG20020917141009309/17/02 14:10:31  5-MIN KMKG 171910Z 20008KT 10SM CLR 25/16 A3002 530 55 1900 210/08 RMK AO2
14840KMKG MKG20020917141509309/17/02 14:15:31  5-MIN KMKG 171915Z 23006KT 10SM CLR 24/16 A3002 540 57 1800 230/06 RMK AO2
14840KMKG MKG20020917142009309/17/02 14:20:31  5-MIN KMKG 171920Z 23008KT 10SM CLR 25/15 A3002 540 53 1900 230/08 RMK AO2
14840KMKG MKG20020917142509309/17/02 14:25:31  5-MIN KMKG 171925Z 22007KT 10SM CLR 24/16 A3002 540 57 1800 220/07 RMK AO2
14840KMKG MKG20020917143009309/17/02 14:30:31  5-MIN KMKG 171930Z 24006KT 10SM CLR 24/15 A3001 540 55 1800 240/06 RMK AO2
14840KMKG MKG20020917143509309/17/02 14:35:31  5-MIN KMKG 171935Z 23005KT 10SM CLR 24/14 A3001 550 53 1800 240/05 RMK AO2
14840KMKG MKG20020917144009309/17/02 14:40:31  5-MIN KMKG 171940Z 22007KT 10SM CLR 24/14 A3001 550 53 1800 230/07 RMK AO2
14840KMKG MKG20020917144509309/17/02 14:45:31  5-MIN KMKG 171945Z VRB05KT 10SM CLR 24/16 A3001 550 57 1800 VRB/05 RMK AO2
14840KMKG MKG20020917145011009/17/02 14:50:31  5-MIN KMKG 171950Z 24007KT 10SM CLR 24/16 A3001 550 57 1800 250/07 RMK AO2 SLP160 T02440156
14840KMKG MKG20020917145511009/17/02 14:55:31  5-MIN KMKG 171955Z 23007KT 10SM CLR 24/16 A3000 550 57 1800 240/07 RMK AO2 SLP159 T02440156
14840KMKG MKG20020917150009309/17/02 15:00:31  5-MIN KMKG 172000Z 22006KT 10SM CLR 24/15 A3000 560 57 1800 220/06 RMK AO2
14840KMKG MKG20020917150509309/17/02 15:05:31  5-MIN KMKG 172005Z 23007KT 10SM CLR 24/14 A3000 560 53 1800 230/07 RMK AO2
14840KMKG MKG20020917151009309/17/02 15:10:31  5-MIN KMKG 172010Z 24006KT 10SM CLR 24/15 A3000 560 55 1800 240/06 RMK AO2
14840KMKG MKG20020917151509309/17/02 15:15:31  5-MIN KMKG 172015Z 21005KT 10SM CLR 24/14 A3000 560 55 1800 210/05 RMK AO2
14840KMKG MKG20020917152009309/17/02 15:20:31  5-MIN KMKG 172020Z VRB05KT 10SM CLR 25/14 A3000 560 49 1900 VRB/05 RMK AO2
14840KMKG MKG20020917152510909/17/02 15:25:31  5-MIN KMKG 172025Z 22008KT 190V250 10SM CLR 25/14 A3000 560 51 1900 220/08 190V250 RMK AO2
14840KMKG MKG20020917153010909/17/02 15:30:31  5-MIN KMKG 172030Z 22007KT 200V260 10SM CLR 24/16 A2999 560 57 1800 220/07 200V260 RMK AO2
14840KMKG MKG20020917153509309/17/02 15:35:31  5-MIN KMKG 172035Z 25007KT 10SM CLR 24/16 A2999 560 59 1800 260/07 RMK AO2
14840KMKG MKG20020917154009309/17/02 15:40:31  5-MIN KMKG 172040Z 21007KT 10SM CLR 24/16 A2999 560 59 1800 210/07 RMK AO2
14840KMKG MKG20020917154509309/17/02 15:45:31  5-MIN KMKG 172045Z 22008KT 10SM CLR 23/16 A2999 560 63 1700 230/08 RMK AO2
14840KMKG MKG20020917155011609/17/02 15:50:31  5-MIN KMKG 172050Z 22008KT 10SM CLR 23/17 A2999 560 66 1700 220/08 RMK AO2 SLP155 T02330167 56011
14840KMKG MKG20020917155511609/17/02 15:55:31  5-MIN KMKG 172055Z 23008KT 10SM CLR 24/17 A2999 560 66 1800 240/08 RMK AO2 SLP156 T02390172 56019
14840KMKG MKG20020917160009309/17/02 16:00:31  5-MIN KMKG 172100Z 22009KT 10SM CLR 24/17 A3000 560 66 1800 220/09 RMK AO2
14840KMKG MKG20020917160509309/17/02 16:05:31  5-MIN KMKG 172105Z 22007KT 10SM CLR 23/17 A3000 560 70 1600 220/07 RMK AO2
14840KMKG MKG20020917161009309/17/02 16:10:31  5-MIN KMKG 172110Z 22007KT 10SM CLR 23/18 A2999 560 70 1700 220/07 RMK AO2
14840KMKG MKG20020917161509309/17/02 16:15:31  5-MIN KMKG 172115Z 23007KT 10SM CLR 23/18 A2999 560 73 1600 230/07 RMK AO2
14840KMKG MKG20020917162009309/17/02 16:20:31  5-MIN KMKG 172120Z 22007KT 10SM CLR 23/17 A2999 570 70 1600 220/07 RMK AO2
14840KMKG MKG20020917162509309/17/02 16:25:31  5-MIN KMKG 172125Z 22007KT 10SM CLR 23/17 A2999 570 70 1600 220/07 RMK AO2
14840KMKG MKG20020917163009309/17/02 16:30:31  5-MIN KMKG 172130Z 22006KT 10SM CLR 22/17 A2999 570 73 1600 230/06 RMK AO2
14840KMKG MKG20020917163509309/17/02 16:35:31  5-MIN KMKG 172135Z 22006KT 10SM CLR 22/17 A2998 570 73 1600 220/06 RMK AO2
14840KMKG MKG20020917164009309/17/02 16:40:31  5-MIN KMKG 172140Z 22006KT 10SM CLR 22/18 A2998 570 75 1600 230/06 RMK AO2
14840KMKG MKG20020917164509309/17/02 16:45:31  5-MIN KMKG 172145Z 22005KT 10SM CLR 22/18 A2998 570 75 1600 220/05 RMK AO2
14840KMKG MKG20020917165011009/17/02 16:50:31  5-MIN KMKG 172150Z 24005KT 10SM CLR 22/18 A2998 570 75 1600 250/05 RMK AO2 SLP153 T02220178
14840KMKG MKG20020917165511009/17/02 16:55:31  5-MIN KMKG 172155Z 25005KT 10SM CLR 22/18 A2998 570 75 1600 250/05 RMK AO2 SLP152 T02220178
14840KMKG MKG20020917170009309/17/02 17:00:31  5-MIN KMKG 172200Z 22004KT 10SM CLR 22/17 A2998 570 73 1600 230/04 RMK AO2
14840KMKG MKG20020917170509309/17/02 17:05:31  5-MIN KMKG 172205Z 25004KT 10SM CLR 22/17 A2998 570 73 1600 260/04 RMK AO2
14840KMKG MKG20020917171009309/17/02 17:10:31  5-MIN KMKG 172210Z 23004KT 10SM CLR 22/17 A2998 570 73 1600 230/04 RMK AO2
14840KMKG MKG20020917171509309/17/02 17:15:31  5-MIN KMKG 172215Z 23004KT 10SM CLR 22/17 A2998 580 73 1600 230/04 RMK AO2
14840KMKG MKG20020917172009309/17/02 17:20:31  5-MIN KMKG 172220Z 23004KT 10SM CLR 22/17 A2998 570 75 1500 240/04 RMK AO2
14840KMKG MKG20020917172509309/17/02 17:25:31  5-MIN KMKG 172225Z 24004KT 10SM CLR 22/17 A2998 570 75 1500 250/04 RMK AO2
14840KMKG MKG20020917173009309/17/02 17:30:31  5-MIN KMKG 172230Z 24004KT 10SM CLR 22/17 A2998 580 75 1500 240/04 RMK AO2
14840KMKG MKG20020917173509309/17/02 17:35:31  5-MIN KMKG 172235Z 24004KT 10SM CLR 22/17 A2998 580 75 1500 250/04 RMK AO2
14840KMKG MKG20020917174009309/17/02 17:40:31  5-MIN KMKG 172240Z 24004KT 10SM CLR 22/17 A2998 580 75 1500 250/04 RMK AO2
14840KMKG MKG20020917174509309/17/02 17:45:31  5-MIN KMKG 172245Z 24003KT 10SM CLR 22/17 A2998 580 75 1500 240/03 RMK AO2
14840KMKG MKG20020917175011009/17/02 17:50:31  5-MIN KMKG 172250Z 23003KT 10SM CLR 21/17 A2998 580 78 1500 240/03 RMK AO2 SLP150 T02110172
14840KMKG MKG20020917175511009/17/02 17:55:31  5-MIN KMKG 172255Z 24003KT 10SM CLR 21/17 A2998 580 78 1500 240/03 RMK AO2 SLP150 T02110172
14840KMKG MKG20020917180009309/17/02 18:00:31  5-MIN KMKG 172300Z 24003KT 10SM CLR 21/18 A2998 580 81 1500 240/03 RMK AO2
14840KMKG MKG20020917180509309/17/02 18:05:31  5-MIN KMKG 172305Z 24004KT 10SM CLR 21/18 A2998 580 81 1500 250/04 RMK AO2
14840KMKG MKG20020917181009309/17/02 18:10:31  5-MIN KMKG 172310Z 25003KT 10SM CLR 21/18 A2998 580 81 1500 250/03 RMK AO2
14840KMKG MKG20020917181509309/17/02 18:15:31  5-MIN KMKG 172315Z 25003KT 10SM CLR 21/18 A2998 580 81 1500 250/03 RMK AO2
14840KMKG MKG20020917182009309/17/02 18:20:31  5-MIN KMKG 172320Z 25003KT 10SM CLR 21/18 A2998 580 81 1500 250/03 RMK AO2
14840KMKG MKG20020917182509309/17/02 18:25:31  5-MIN KMKG 172325Z 25003KT 10SM CLR 21/18 A2997 580 81 1500 260/03 RMK AO2
14840KMKG MKG20020917183009309/17/02 18:30:31  5-MIN KMKG 172330Z 00000KT 10SM CLR 21/18 A2997 580 81 1500 000/00 RMK AO2
14840KMKG MKG20020917183509309/17/02 18:35:31  5-MIN KMKG 172335Z 00000KT 10SM CLR 21/18 A2997 580 81 1500 000/00 RMK AO2
14840KMKG MKG20020917184009309/17/02 18:40:31  5-MIN KMKG 172340Z 00000KT 10SM CLR 21/18 A2997 580 81 1500 000/00 RMK AO2
14840KMKG MKG20020917184509309/17/02 18:45:31  5-MIN KMKG 172345Z 00000KT 10SM CLR 21/18 A2997 580 84 1400 000/00 RMK AO2
14840KMKG MKG20020917185012809/17/02 18:50:31  5-MIN KMKG 172350Z 00000KT 10SM CLR 21/18 A2997 580 87 1400 000/00 RMK AO2 SLP149 T02060183 10250 20206 56019
14840KMKG MKG20020917185512809/17/02 18:55:31  5-MIN KMKG 172355Z 00000KT 10SM CLR 20/18 A2997 580 90 1300 000/00 RMK AO2 SLP148 T02000183 10250 20200 56008
14840KMKG MKG20020917190009309/17/02 19:00:31  5-MIN KMKG 180000Z 00000KT 10SM CLR 20/18 A2997 580 87 1300 000/00 RMK AO2
14840KMKG MKG20020917190509309/17/02 19:05:31  5-MIN KMKG 180005Z 00000KT 10SM CLR 20/18 A2997 580 87 1300 000/00 RMK AO2
14840KMKG MKG20020917191009309/17/02 19:10:31  5-MIN KMKG 180010Z 00000KT 10SM CLR 20/18 A2997 580 90 1300 000/00 RMK AO2
14840KMKG MKG20020917191509309/17/02 19:15:31  5-MIN KMKG 180015Z 00000KT 10SM CLR 20/18 A2997 580 90 1300 000/00 RMK AO2
14840KMKG MKG20020917192009309/17/02 19:20:31  5-MIN KMKG 180020Z 00000KT 10SM CLR 20/18 A2997 580 90 1300 000/00 RMK AO2
14840KMKG MKG20020917192509309/17/02 19:25:31  5-MIN KMKG 180025Z 00000KT 10SM CLR 19/18 A2997 580 93 1200 000/00 RMK AO2
14840KMKG MKG20020917193009309/17/02 19:30:31  5-MIN KMKG 180030Z 00000KT 10SM CLR 19/18 A2997 580 93 1200 000/00 RMK AO2
14840KMKG MKG20020917193509309/17/02 19:35:31  5-MIN KMKG 180035Z 00000KT 10SM CLR 19/18 A2997 580 93 1200 000/00 RMK AO2
14840KMKG MKG20020917194009309/17/02 19:40:31  5-MIN KMKG 180040Z 00000KT 10SM CLR 19/18 A2997 580 93 1200 000/00 RMK AO2
14840KMKG MKG20020917194509309/17/02 19:45:31  5-MIN KMKG 180045Z 00000KT 10SM CLR 19/18 A2997 580 93 1200 000/00 RMK AO2
14840KMKG MKG20020917195011009/17/02 19:50:31  5-MIN KMKG 180050Z 00000KT 10SM CLR 18/18 A2997 580 96 1100 000/00 RMK AO2 SLP149 T01830178
14840KMKG MKG20020917195511009/17/02 19:55:31  5-MIN KMKG 180055Z 00000KT 10SM CLR 18/18 A2997 580 96 1100 000/00 RMK AO2 SLP149 T01830178
14840KMKG MKG20020917200009309/17/02 20:00:31  5-MIN KMKG 180100Z 00000KT 10SM CLR 19/18 A2997 580 93 1200 000/00 RMK AO2
14840KMKG MKG20020917200509309/17/02 20:05:31  5-MIN KMKG 180105Z 00000KT 10SM CLR 18/17 A2997 580 93 1200 000/00 RMK AO2
14840KMKG MKG20020917201009309/17/02 20:10:31  5-MIN KMKG 180110Z 00000KT 10SM CLR 18/18 A2997 590 96 1200 000/00 RMK AO2
14840KMKG MKG20020917201509309/17/02 20:15:31  5-MIN KMKG 180115Z 00000KT 10SM CLR 18/18 A2997 580 96 1200 000/00 RMK AO2
14840KMKG MKG20020917202009209/17/02 20:20:31  5-MIN KMKG 180120Z 00000KT 9SM CLR 18/17 A2997 580 96 1100 000/00 RMK AO2
14840KMKG MKG20020917202509209/17/02 20:25:31  5-MIN KMKG 180125Z 00000KT 9SM CLR 18/17 A2997 580 96 1100 000/00 RMK AO2
14840KMKG MKG20020917203009209/17/02 20:30:31  5-MIN KMKG 180130Z 00000KT 9SM CLR 18/17 A2997 580 96 1100 000/00 RMK AO2
14840KMKG MKG20020917203509209/17/02 20:35:31  5-MIN KMKG 180135Z 00000KT 9SM CLR 18/17 A2997 580 96 1100 000/00 RMK AO2
14840KMKG MKG20020917204009209/17/02 20:40:31  5-MIN KMKG 180140Z 00000KT 9SM CLR 18/17 A2997 580 96 1100 000/00 RMK AO2
14840KMKG MKG20020917204509209/17/02 20:45:31  5-MIN KMKG 180145Z 10003KT 9SM CLR 18/17 A2997 580 96 1100 110/03 RMK AO2
14840KMKG MKG20020917205010909/17/02 20:50:31  5-MIN KMKG 180150Z 06003KT 9SM CLR 17/17 A2997 590 96 1000 060/03 RMK AO2 SLP147 T01720167
14840KMKG MKG20020917205510909/17/02 20:55:31  5-MIN KMKG 180155Z 07003KT 8SM CLR 17/17 A2997 590 96 1000 070/03 RMK AO2 SLP147 T01720167
14840KMKG MKG20020917210009309/17/02 21:00:31  5-MIN KMKG 180200Z 06003KT 7SM CLR 17/17 A2997 590 100 1000 070/03 RMK AO2
14840KMKG MKG20020917210509209/17/02 21:05:31  5-MIN KMKG 180205Z 07003KT 7SM CLR 17/17 A2997 590 96 1000 070/03 RMK AO2
14840KMKG MKG20020917211009209/17/02 21:10:31  5-MIN KMKG 180210Z 07003KT 7SM CLR 17/17 A2997 590 96 1000 080/03 RMK AO2
14840KMKG MKG20020917211509209/17/02 21:15:31  5-MIN KMKG 180215Z 07003KT 7SM CLR 18/17 A2997 590 96 1100 070/03 RMK AO2
14840KMKG MKG20020917212009509/17/02 21:20:31  5-MIN KMKG 180220Z 08003KT 6SM BR CLR 18/17 A2997 590 96 1100 080/03 RMK AO2
14840KMKG MKG20020917212509509/17/02 21:25:31  5-MIN KMKG 180225Z 07003KT 6SM BR CLR 18/17 A2996 590 96 1100 070/03 RMK AO2
14840KMKG MKG20020917213009509/17/02 21:30:31  5-MIN KMKG 180230Z 00000KT 6SM BR CLR 18/17 A2996 590 96 1100 000/00 RMK AO2
14840KMKG MKG20020917213509509/17/02 21:35:31  5-MIN KMKG 180235Z 06003KT 6SM BR CLR 17/17 A2996 590 96 1000 070/03 RMK AO2
14840KMKG MKG20020917214009509/17/02 21:40:31  5-MIN KMKG 180240Z 06004KT 6SM BR CLR 18/17 A2996 590 96 1100 060/04 RMK AO2
14840KMKG MKG20020917214509509/17/02 21:45:31  5-MIN KMKG 180245Z 06004KT 6SM BR CLR 17/17 A2996 590 96 1000 070/04 RMK AO2
14840KMKG MKG20020917215011909/17/02 21:50:31  5-MIN KMKG 180250Z 07005KT 6SM BR CLR 17/17 A2996 590 100 1000 070/05 RMK AO2 SLP143 T01670167 56008
14840KMKG MKG20020917215511509/17/02 21:55:31  5-MIN KMKG 180255Z 07004KT 7SM CLR 17/16 A2996 590 96 1000 070/04 RMK AO2 SLP143 T01670161 58004
14840KMKG MKG20020917220009209/17/02 22:00:31  5-MIN KMKG 180300Z 07003KT 7SM CLR 17/16 A2996 590 96 1000 080/03 RMK AO2
14840KMKG MKG20020917220509209/17/02 22:05:31  5-MIN KMKG 180305Z 00000KT 7SM CLR 17/16 A2996 590 96 1000 000/00 RMK AO2
14840KMKG MKG20020917221009209/17/02 22:10:31  5-MIN KMKG 180310Z 00000KT 7SM CLR 17/17 A2996 590 96 1000 000/00 RMK AO2
14840KMKG MKG20020917221509209/17/02 22:15:31  5-MIN KMKG 180315Z 00000KT 7SM CLR 17/17 A2996 590 96 1000 000/00 RMK AO2
14840KMKG MKG20020917222009209/17/02 22:20:31  5-MIN KMKG 180320Z 09003KT 7SM CLR 17/17 A2996 600 96 1000 100/03 RMK AO2
14840KMKG MKG20020917222509209/17/02 22:25:31  5-MIN KMKG 180325Z 07003KT 7SM CLR 17/16 A2996 600 96 1000 080/03 RMK AO2
14840KMKG MKG20020917223009209/17/02 22:30:31  5-MIN KMKG 180330Z 07003KT 8SM CLR 17/16 A2996 600 96 1000 080/03 RMK AO2
14840KMKG MKG20020917223509209/17/02 22:35:31  5-MIN KMKG 180335Z 07004KT 9SM CLR 17/16 A2996 600 93 1000 080/04 RMK AO2
14840KMKG MKG20020917224009209/17/02 22:40:31  5-MIN KMKG 180340Z 09003KT 9SM CLR 17/16 A2996 600 93 1000 090/03 RMK AO2
14840KMKG MKG20020917224509209/17/02 22:45:31  5-MIN KMKG 180345Z 10003KT 9SM CLR 17/16 A2996 600 93 1000 100/03 RMK AO2
14840KMKG MKG20020917225010909/17/02 22:50:31  5-MIN KMKG 180350Z 10003KT 9SM CLR 17/16 A2996 600 93 1000 100/03 RMK AO2 SLP142 T01720161
14840KMKG MKG20020917225510909/17/02 22:55:31  5-MIN KMKG 180355Z 11003KT 9SM CLR 17/16 A2996 600 93 1000 110/03 RMK AO2 SLP142 T01720161
14840KMKG MKG20020917230009209/17/02 23:00:31  5-MIN KMKG 180400Z 10003KT 8SM CLR 17/16 A2996 600 93 1000 100/03 RMK AO2
14840KMKG MKG20020917230509209/17/02 23:05:31  5-MIN KMKG 180405Z 10003KT 8SM CLR 17/16 A2996 600 96 1000 110/03 RMK AO2
14840KMKG MKG20020917231009209/17/02 23:10:31  5-MIN KMKG 180410Z 09003KT 8SM CLR 17/16 A2995 600 96 1000 100/03 RMK AO2
14840KMKG MKG20020917231509209/17/02 23:15:31  5-MIN KMKG 180415Z 10004KT 7SM CLR 17/16 A2995 600 93 1000 110/04 RMK AO2
14840KMKG MKG20020917232009109/17/02 23:20:31  5-MIN KMKG 180420Z 11004KT 7SM CLR 16/16 A2995 600 96 900 110/04 RMK AO2
14840KMKG MKG20020917232509109/17/02 23:25:31  5-MIN KMKG 180425Z 10005KT 7SM CLR 16/16 A2995 600 96 900 110/05 RMK AO2
14840KMKG MKG20020917233009109/17/02 23:30:31  5-MIN KMKG 180430Z 11005KT 7SM CLR 16/16 A2995 600 96 900 110/05 RMK AO2
14840KMKG MKG20020917233509109/17/02 23:35:31  5-MIN KMKG 180435Z 11006KT 7SM CLR 16/16 A2995 600 96 900 110/06 RMK AO2
14840KMKG MKG20020917234009109/17/02 23:40:31  5-MIN KMKG 180440Z 11006KT 7SM CLR 16/16 A2995 600 96 900 110/06 RMK AO2
14840KMKG MKG20020917234509109/17/02 23:45:31  5-MIN KMKG 180445Z 11006KT 7SM CLR 16/16 A2995 610 96 900 110/06 RMK AO2
14840KMKG MKG20020917235011809/17/02 23:50:31  5-MIN KMKG 180450Z 10006KT 7SM CLR 16/16 A2994 610 96 900 110/06 RMK AO2 SLP137 T01610156 402500100
14840KMKG MKG20020917235511809/17/02 23:55:31  5-MIN KMKG 180455Z 10005KT 8SM CLR 16/16 A2994 610 96 900 110/05 RMK AO2 SLP136 T01610156 402500100
14840KMKG MKG20020918000009109/18/02 00:00:31  5-MIN KMKG 180500Z 11005KT 7SM CLR 16/16 A2994 610 96 900 120/05 RMK AO2
14840KMKG MKG20020918000509109/18/02 00:05:31  5-MIN KMKG 180505Z 12005KT 7SM CLR 16/16 A2994 610 96 900 130/05 RMK AO2
14840KMKG MKG20020918001009109/18/02 00:10:31  5-MIN KMKG 180510Z 12005KT 8SM CLR 16/16 A2994 610 96 900 130/05 RMK AO2
14840KMKG MKG20020918001509109/18/02 00:15:31  5-MIN KMKG 180515Z 12004KT 8SM CLR 16/16 A2994 610 96 900 120/04 RMK AO2
14840KMKG MKG20020918002009109/18/02 00:20:31  5-MIN KMKG 180520Z 11005KT 8SM CLR 16/15 A2994 610 93 900 110/05 RMK AO2
14840KMKG MKG20020918002509109/18/02 00:25:31  5-MIN KMKG 180525Z 11004KT 8SM CLR 16/16 A2994 610 96 900 110/04 RMK AO2
14840KMKG MKG20020918003009109/18/02 00:30:31  5-MIN KMKG 180530Z 11004KT 7SM CLR 16/15 A2994 610 93 900 110/04 RMK AO2
14840KMKG MKG20020918003509109/18/02 00:35:31  5-MIN KMKG 180535Z 09004KT 7SM CLR 16/15 A2994 620 96 900 100/04 RMK AO2
14840KMKG MKG20020918004009109/18/02 00:40:31  5-MIN KMKG 180540Z 10004KT 7SM CLR 16/15 A2994 620 96 900 100/04 RMK AO2
14840KMKG MKG20020918004509109/18/02 00:45:31  5-MIN KMKG 180545Z 10004KT 7SM CLR 16/15 A2994 620 96 900 100/04 RMK AO2
14840KMKG MKG20020918005012609/18/02 00:50:31  5-MIN KMKG 180550Z 09004KT 7SM CLR 16/15 A2993 620 96 900 100/04 RMK AO2 SLP134 T01560150 10200 20156 58004
14840KMKG MKG20020918005512609/18/02 00:55:31  5-MIN KMKG 180555Z 09004KT 7SM CLR 16/15 A2993 620 96 900 100/04 RMK AO2 SLP133 T01560150 10200 20156 58009
14840KMKG MKG20020918010009109/18/02 01:00:31  5-MIN KMKG 180600Z 09005KT 7SM CLR 16/15 A2993 620 96 900 090/05 RMK AO2
14840KMKG MKG20020918010509109/18/02 01:05:31  5-MIN KMKG 180605Z 10003KT 7SM CLR 16/15 A2993 620 96 900 110/03 RMK AO2
14840KMKG MKG20020918011009109/18/02 01:10:31  5-MIN KMKG 180610Z 11003KT 7SM CLR 16/14 A2993 620 93 900 110/03 RMK AO2
14840KMKG MKG20020918011509409/18/02 01:15:31  5-MIN KMKG 180615Z 11003KT 6SM BR CLR 15/14 A2993 620 96 800 110/03 RMK AO2
14840KMKG MKG20020918012009409/18/02 01:20:31  5-MIN KMKG 180620Z 11003KT 6SM BR CLR 15/14 A2993 620 96 800 110/03 RMK AO2
14840KMKG MKG20020918012509409/18/02 01:25:31  5-MIN KMKG 180625Z 00000KT 6SM BR CLR 15/14 A2992 630 96 800 000/00 RMK AO2
14840KMKG MKG20020918013009409/18/02 01:30:31  5-MIN KMKG 180630Z 00000KT 5SM BR CLR 15/14 A2992 630 96 800 000/00 RMK AO2
14840KMKG MKG20020918013509409/18/02 01:35:31  5-MIN KMKG 180635Z 10003KT 5SM BR CLR 15/14 A2992 630 96 800 110/03 RMK AO2
14840KMKG MKG20020918014009409/18/02 01:40:31  5-MIN KMKG 180640Z 10004KT 6SM BR CLR 15/14 A2992 630 96 800 110/04 RMK AO2
14840KMKG MKG20020918014509409/18/02 01:45:31  5-MIN KMKG 180645Z 11005KT 6SM BR CLR 16/15 A2992 630 96 900 110/05 RMK AO2
14840KMKG MKG20020918015011209/18/02 01:50:31  5-MIN KMKG 180650Z 10007KT 6SM BR CLR 15/15 A2992 630 100 800 110/07 RMK AO2 SLP129 T01500150
14840KMKG MKG20020918015511209/18/02 01:55:31  5-MIN KMKG 180655Z 11006KT 6SM BR CLR 15/15 A2992 630 100 800 110/06 RMK AO2 SLP129 T01500150
14840KMKG MKG20020918020009409/18/02 02:00:31  5-MIN KMKG 180700Z 10006KT 6SM BR CLR 16/15 A2991 640 96 900 110/06 RMK AO2
14840KMKG MKG20020918020509409/18/02 02:05:31  5-MIN KMKG 180705Z 10005KT 6SM BR CLR 16/15 A2991 640 96 900 100/05 RMK AO2
14840KMKG MKG20020918021009409/18/02 02:10:31  5-MIN KMKG 180710Z 09005KT 6SM BR CLR 16/15 A2991 640 96 900 100/05 RMK AO2
14840KMKG MKG20020918021509109/18/02 02:15:31  5-MIN KMKG 180715Z 11005KT 7SM CLR 16/15 A2991 640 96 900 110/05 RMK AO2
14840KMKG MKG20020918022009109/18/02 02:20:31  5-MIN KMKG 180720Z 11006KT 7SM CLR 16/14 A2991 640 93 900 110/06 RMK AO2
14840KMKG MKG20020918022509409/18/02 02:25:31  5-MIN KMKG 180725Z 11006KT 6SM BR CLR 16/14 A2991 640 93 900 110/06 RMK AO2
14840KMKG MKG20020918023009409/18/02 02:30:31  5-MIN KMKG 180730Z 11007KT 6SM BR CLR 15/14 A2991 640 96 800 110/07 RMK AO2
14840KMKG MKG20020918023509409/18/02 02:35:31  5-MIN KMKG 180735Z 10007KT 6SM BR CLR 16/14 A2991 640 93 900 110/07 RMK AO2
14840KMKG MKG20020918024009209/18/02 02:40:31  5-MIN KMKG 180740Z 11006KT 7SM CLR 16/14 A2991 640 90 1000 110/06 RMK AO2
14840KMKG MKG20020918024509109/18/02 02:45:31  5-MIN KMKG 180745Z 11007KT 8SM CLR 16/14 A2991 640 93 900 110/07 RMK AO2
14840KMKG MKG20020918025010809/18/02 02:50:31  5-MIN KMKG 180750Z 10007KT 8SM CLR 16/14 A2991 640 93 900 110/07 RMK AO2 SLP125 T01560144
14840KMKG MKG20020918025510809/18/02 02:55:31  5-MIN KMKG 180755Z 11007KT 8SM CLR 16/14 A2991 640 93 900 110/07 RMK AO2 SLP125 T01560144
14840KMKG MKG20020918030009109/18/02 03:00:31  5-MIN KMKG 180800Z 11006KT 8SM CLR 16/14 A2991 640 93 900 110/06 RMK AO2
14840KMKG MKG20020918030509109/18/02 03:05:31  5-MIN KMKG 180805Z 11006KT 8SM CLR 16/14 A2990 650 90 900 110/06 RMK AO2
14840KMKG MKG20020918031009109/18/02 03:10:31  5-MIN KMKG 180810Z 10006KT 8SM CLR 16/14 A2990 650 90 900 110/06 RMK AO2
14840KMKG MKG20020918031509109/18/02 03:15:31  5-MIN KMKG 180815Z 10005KT 8SM CLR 16/14 A2990 650 90 900 110/05 RMK AO2
14840KMKG MKG20020918032009109/18/02 03:20:31  5-MIN KMKG 180820Z 10005KT 9SM CLR 16/14 A2990 650 90 900 100/05 RMK AO2
14840KMKG MKG20020918032509109/18/02 03:25:31  5-MIN KMKG 180825Z 10006KT 9SM CLR 16/14 A2990 650 90 900 110/06 RMK AO2
14840KMKG MKG20020918033009209/18/02 03:30:31  5-MIN KMKG 180830Z 10006KT 9SM CLR 16/14 A2989 650 86 1000 110/06 RMK AO2
14840KMKG MKG20020918033509209/18/02 03:35:31  5-MIN KMKG 180835Z 10006KT 9SM CLR 16/14 A2989 660 86 1000 110/06 RMK AO2
14840KMKG MKG20020918034009309/18/02 03:40:31  5-MIN KMKG 180840Z 10006KT 10SM CLR 16/14 A2989 660 86 1000 110/06 RMK AO2
14840KMKG MKG20020918034509309/18/02 03:45:31  5-MIN KMKG 180845Z 11006KT 10SM CLR 16/14 A2989 660 86 1000 110/06 RMK AO2
14840KMKG MKG20020918035011509/18/02 03:50:31  5-MIN KMKG 180850Z 10006KT 10SM CLR 16/14 A2989 660 90 900 110/06 RMK AO2 SLP118 T01560139 58009
14840KMKG MKG20020918035511509/18/02 03:55:31  5-MIN KMKG 180855Z 11007KT 10SM CLR 16/13 A2989 660 86 900 110/07 RMK AO2 SLP119 T01560133 58015
14840KMKG MKG20020918040009209/18/02 04:00:31  5-MIN KMKG 180900Z 11007KT 10SM CLR 16/13 A2989 660 86 900 110/07 RMK AO2
14840KMKG MKG20020918040509309/18/02 04:05:31  5-MIN KMKG 180905Z 11007KT 10SM CLR 16/13 A2989 660 83 1000 110/07 RMK AO2
14840KMKG MKG20020918041009309/18/02 04:10:31  5-MIN KMKG 180910Z 10007KT 10SM CLR 16/13 A2989 660 83 1000 110/07 RMK AO2
14840KMKG MKG20020918041509309/18/02 04:15:31  5-MIN KMKG 180915Z 10007KT 10SM CLR 16/13 A2989 660 83 1000 110/07 RMK AO2
14840KMKG MKG20020918042009309/18/02 04:20:31  5-MIN KMKG 180920Z 11008KT 10SM CLR 16/13 A2989 660 83 1000 120/08 RMK AO2
14840KMKG MKG20020918042509309/18/02 04:25:31  5-MIN KMKG 180925Z 12007KT 10SM CLR 16/13 A2989 660 83 1000 120/07 RMK AO2
14840KMKG MKG20020918043009309/18/02 04:30:31  5-MIN KMKG 180930Z 11008KT 10SM CLR 16/13 A2988 670 83 1000 120/08 RMK AO2
14840KMKG MKG20020918043509309/18/02 04:35:31  5-MIN KMKG 180935Z 11008KT 10SM CLR 17/13 A2988 670 80 1100 110/08 RMK AO2
14840KMKG MKG20020918044009309/18/02 04:40:31  5-MIN KMKG 180940Z 11008KT 10SM CLR 16/13 A2988 670 83 1000 120/08 RMK AO2
14840KMKG MKG20020918044509309/18/02 04:45:31  5-MIN KMKG 180945Z 11008KT 10SM CLR 16/13 A2988 670 83 1000 110/08 RMK AO2
14840KMKG MKG20020918045011009/18/02 04:50:31  5-MIN KMKG 180950Z 11008KT 10SM CLR 16/13 A2988 670 80 1000 110/08 RMK AO2 SLP115 T01610128
14840KMKG MKG20020918045511009/18/02 04:55:31  5-MIN KMKG 180955Z 10008KT 10SM CLR 16/13 A2988 670 80 1000 110/08 RMK AO2 SLP115 T01610128
14840KMKG MKG20020918050009309/18/02 05:00:31  5-MIN KMKG 181000Z 10008KT 10SM CLR 16/13 A2988 670 80 1000 110/08 RMK AO2
14840KMKG MKG20020918050509309/18/02 05:05:31  5-MIN KMKG 181005Z 11007KT 10SM CLR 17/13 A2988 670 77 1100 120/07 RMK AO2
14840KMKG MKG20020918051009309/18/02 05:10:31  5-MIN KMKG 181010Z 12007KT 10SM CLR 16/13 A2988 670 80 1000 120/07 RMK AO2
14840KMKG MKG20020918051509309/18/02 05:15:31  5-MIN KMKG 181015Z 11007KT 10SM CLR 16/13 A2988 670 83 1000 110/07 RMK AO2
14840KMKG MKG20020918052009309/18/02 05:20:31  5-MIN KMKG 181020Z 12009KT 10SM CLR 17/13 A2988 670 77 1100 120/09 RMK AO2
14840KMKG MKG20020918052509309/18/02 05:25:31  5-MIN KMKG 181025Z 11008KT 10SM CLR 17/13 A2988 670 77 1100 120/08 RMK AO2
14840KMKG MKG20020918053009309/18/02 05:30:31  5-MIN KMKG 181030Z 12008KT 10SM CLR 17/13 A2988 670 77 1100 120/08 RMK AO2
14840KMKG MKG20020918053509309/18/02 05:35:31  5-MIN KMKG 181035Z 12007KT 10SM CLR 16/13 A2988 670 80 1000 120/07 RMK AO2
14840KMKG MKG20020918054009309/18/02 05:40:31  5-MIN KMKG 181040Z 12007KT 10SM CLR 16/13 A2988 670 80 1000 120/07 RMK AO2
14840KMKG MKG20020918054509309/18/02 05:45:31  5-MIN KMKG 181045Z 11007KT 10SM CLR 16/13 A2988 670 80 1000 110/07 RMK AO2
14840KMKG MKG20020918055011009/18/02 05:50:31  5-MIN KMKG 181050Z 11007KT 10SM CLR 17/13 A2988 670 77 1100 110/07 RMK AO2 SLP116 T01670128
14840KMKG MKG20020918055511009/18/02 05:55:31  5-MIN KMKG 181055Z 11007KT 10SM CLR 17/13 A2987 670 77 1100 110/07 RMK AO2 SLP115 T01670128
14840KMKG MKG20020918060009309/18/02 06:00:31  5-MIN KMKG 181100Z 11006KT 10SM CLR 17/13 A2988 670 77 1100 110/06 RMK AO2
14840KMKG MKG20020918060509309/18/02 06:05:31  5-MIN KMKG 181105Z 11006KT 10SM CLR 17/13 A2988 670 77 1100 110/06 RMK AO2
14840KMKG MKG20020918061011209/18/02 06:10:31  5-MIN KMKG 181110Z 11006KT 10SM -RA FEW046 16/13 A2988 670 80 1000 110/06 RMK AO2 RAB10 P0000
14840KMKG MKG20020918061511909/18/02 06:15:31  5-MIN KMKG 181115Z 10007KT 10SM -RA FEW046 SCT060 17/13 A2988 670 80 1100 100/07 RMK AO2 RAB10 P0000
14840KMKG MKG20020918062011809/18/02 06:20:31  5-MIN KMKG 181120Z 10008KT 9SM -RA FEW046 BKN060 17/13 A2988 670 80 1100 110/08 RMK AO2 RAB10 P0000
14840KMKG MKG20020918062511809/18/02 06:25:31  5-MIN KMKG 181125Z 10009KT 7SM -RA FEW034 BKN060 17/14 A2987 670 83 1100 110/09 RMK AO2 RAB10 P0001
14840KMKG MKG20020918063012509/18/02 06:30:31  5-MIN KMKG 181130Z 11009KT 7SM -RA SCT034 SCT046 BKN060 16/14 A2987 670 90 1000 110/09 RMK AO2 RAB10 P0001
14840KMKG MKG20020918063512509/18/02 06:35:31  5-MIN KMKG 181135Z 10008KT 8SM -RA BKN034 BKN046 OVC060 16/14 A2987 680 90 1000 110/08 RMK AO2 RAB10 P0001
14840KMKG MKG20020918064012509/18/02 06:40:31  5-MIN KMKG 181140Z 11010KT 8SM -RA SCT033 BKN041 OVC060 16/14 A2987 670 90 1000 110/10 RMK AO2 RAB10 P0001
14840KMKG MKG20020918064512509/18/02 06:45:31  5-MIN KMKG 181145Z 10008KT 8SM -RA SCT032 BKN041 OVC060 16/14 A2987 680 90 1000 110/08 RMK AO2 RAB10 P0001
14840KMKG MKG20020918065017209/18/02 06:50:31  5-MIN KMKG 181150Z 10007KT 7SM -RA FEW025 BKN041 OVC060 16/14 A2987 680 90 1000 110/07 RMK AO2 RAB10 SLP112 P0002 60002 70002 T01610144 10167 20150 58015
14840KMKG MKG20020918065518909/18/02 06:55:31  5-MIN KMKG 181155Z 10007KT 6SM -RA BR FEW026 BKN037 OVC065 16/15 A2986 680 93 1000 100/07 RMK AO2 RAB10 SLP111 LTG DSNT SW-W P0002 60002 70002 T01610150 10167 20150 56008
14840KMKG MKG20020918070012109/18/02 07:00:31  5-MIN KMKG 181200Z 10006KT 5SM -RA BR FEW031 BKN040 OVC065 16/15 A2986 680 96 900 100/06 RMK AO2 P0000
14840KMKG MKG20020918070515209/18/02 07:05:31  5-MIN KMKG 181205Z 09005KT 5SM -TSRA BR BKN040 BKN065 OVC095 16/15 A2986 690 96 1000 100/05 RMK AO2 OCNL LTGIC TSB03 SW-W MOV N P0000
14840KMKG MKG20020918071016609/18/02 07:10:31  5-MIN KMKG 181210Z 11004KT 5SM -TSRA BR SCT040 BKN065 OVC090 16/15 A2986 680 96 900 110/04 RMK AO2 CIG 039 RWY 14 OCNL LTGIC TSB03 SW-W MOV N P0000
14840KMKG MKG20020918071515109/18/02 07:15:31  5-MIN KMKG 181215Z 09005KT 3SM TSRA BR BKN038 BKN065 OVC090 16/16 A2986 690 96 1000 090/05 RMK AO2 OCNL LTGIC TSB03 SW-W MOV N P0002
14840KMKG MKG20020918072015209/18/02 07:20:31  5-MIN KMKG 181220Z 08006KT 3SM -TSRA BR FEW032 BKN038 OVC090 16/16 A2985 690 96 1000 080/06 RMK AO2 OCNL LTGIC TSB03 SW-W MOV N P0002
14840KMKG MKG20020918072515209/18/02 07:25:31  5-MIN KMKG 181225Z 08006KT 4SM -TSRA BR SCT038 BKN045 OVC085 16/16 A2986 690 96 1000 080/06 RMK AO2 OCNL LTGIC TSB03 SW-W MOV N P0002
14840KMKG MKG20020918073015009/18/02 07:30:31  5-MIN KMKG 181230Z 10005KT 4SM TS BR BKN038 BKN045 OVC090 16/16 A2985 690 100 1000 110/05 RMK AO2 OCNL LTGIC TSB03 SW-W MOV N P0002
14840KMKG MKG20020918073515509/18/02 07:35:31  5-MIN KMKG 181235Z 08007KT 4SM TS BR BKN038 BKN045 OVC090 16/16 A2985 690 96 1000 090/07 RMK AO2 OCNL LTGIC RAE26 TSB03 SW-W MOV N P0002
14840KMKG MKG20020918074017009/18/02 07:40:31  5-MIN KMKG 181240Z 10007KT 4SM TS BR FEW024 SCT040 BKN060 16/16 A2985 690 96 1000 100/07 RMK AO2 CIG 046 RWY 14 OCNL LTGIC RAE26 TSB03 SW-W MOV N P0002
14840KMKG MKG20020918074513409/18/02 07:45:31  5-MIN KMKG 181245Z 11006KT 4SM BR SCT038 SCT045 BKN060 16/16 A2985 690 100 1000 110/06 RMK AO2 RAE26 TSB03E43 P0002
14840KMKG MKG20020918075015009/18/02 07:50:31  5-MIN KMKG 181250Z 10006KT 4SM BR SCT038 SCT044 BKN050 16/16 A2985 690 96 1000 100/06 RMK AO2 SLP107 RAE26 TSB03E43 P0002 T01610156
14840KMKG MKG20020918075515009/18/02 07:55:31  5-MIN KMKG 181255Z 10008KT 4SM BR SCT036 BKN050 BKN055 16/16 A2985 700 96 1000 110/08 RMK AO2 RAE26 TSB03E43 SLP106 P0002 T01610156
14840KMKG MKG20020918080010609/18/02 08:00:31  5-MIN KMKG 181300Z 10008KT 3SM BR BKN034 BKN050 16/16 A2985 700 100 1000 110/08 RMK AO2
14840KMKG MKG20020918080510609/18/02 08:05:31  5-MIN KMKG 181305Z 11008KT 3SM BR BKN034 BKN050 16/16 A2985 700 100 1000 110/08 RMK AO2
14840KMKG MKG20020918081011309/18/02 08:10:31  5-MIN KMKG 181310Z 10008KT 3SM BR BKN034 BKN050 OVC060 16/16 A2985 700 100 1000 110/08 RMK AO2
14840KMKG MKG20020918081512809/18/02 08:15:31  5-MIN KMKG 181315Z 11007KT 3SM -RA BR BKN034 BKN050 OVC090 17/16 A2985 700 96 1100 120/07 RMK AO2 RAB12 P0000
14840KMKG MKG20020918082013309/18/02 08:20:31  5-MIN KMKG 181320Z 12007KT 2 1/2SM -RA BR SCT028 BKN034 OVC090 17/17 A2985 700 100 1100 120/07 RMK AO2 RAB12 P0000
14840KMKG MKG20020918082512909/18/02 08:25:31  5-MIN KMKG 181325Z 11008KT 3SM -RA BR FEW028 BKN034 BKN070 17/17 A2984 700 100 1100 110/08 RMK AO2 RAB12 P0000
14840KMKG MKG20020918083012809/18/02 08:30:31  5-MIN KMKG 181330Z 12008KT 3SM -RA BR SCT029 BKN036 BKN075 17/17 A2985 700 96 1200 120/08 RMK AO2 RAB12 P0000
14840KMKG MKG20020918083512909/18/02 08:35:31  5-MIN KMKG 181335Z 11008KT 3SM -RA BR FEW029 SCT036 BKN075 17/17 A2984 700 100 1200 120/08 RMK AO2 RAB12 P0000
14840KMKG MKG20020918084012909/18/02 08:40:31  5-MIN KMKG 181340Z 11009KT 3SM -RA BR FEW031 SCT060 BKN075 17/17 A2984 700 100 1200 110/09 RMK AO2 RAB12 P0000
14840KMKG MKG20020918084514509/18/02 08:45:31  5-MIN KMKG 181345Z 11009KT 3SM BR FEW019 SCT031 BKN060 17/17 A2984 700 100 1200 120/09 RMK AO2 VIS 2 1/2 RWY 14 RAB12E44 P0000
14840KMKG MKG20020918085014509/18/02 08:50:31  5-MIN KMKG 181350Z 11009KT 3SM BR SCT019 BKN033 BKN060 17/17 A2984 700 100 1200 120/09 RMK AO2 RAB12E44 SLP104 P0000 T01720172
14840KMKG MKG20020918085514409/18/02 08:55:31  5-MIN KMKG 181355Z 12009KT 3SM BR BKN017 BKN033 BKN075 18/17 A2984 710 96 1200 120/09 RMK AO2 RAB12E44 SLP103 P0000 T01780172
14840KMKG MKG20020918090010509/18/02 09:00:31  5-MIN KMKG 181400Z 11010KT 3SM BR BKN019 BKN033 18/17 A2984 710 96 1200 120/10 RMK AO2
14840KMKG MKG20020918090511209/18/02 09:05:31  5-MIN KMKG 181405Z 12010KT 3SM BR BKN019 BKN024 OVC029 18/17 A2984 710 96 1200 120/10 RMK AO2
14840KMKG MKG20020918091010509/18/02 09:10:31  5-MIN KMKG 181410Z 12011KT 3SM BR BKN019 OVC027 18/17 A2984 710 96 1200 120/11 RMK AO2
14840KMKG MKG20020918091510509/18/02 09:15:31  5-MIN KMKG 181415Z 12011KT 3SM BR BKN019 OVC027 18/17 A2983 710 96 1200 120/11 RMK AO2
14840KMKG MKG20020918092010509/18/02 09:20:31  5-MIN KMKG 181420Z 12012KT 3SM BR BKN019 OVC027 18/17 A2983 710 93 1300 130/12 RMK AO2
14840KMKG MKG20020918092510509/18/02 09:25:31  5-MIN KMKG 181425Z 12010KT 4SM BR BKN019 OVC029 18/17 A2983 710 93 1300 130/10 RMK AO2
14840KMKG MKG20020918093010509/18/02 09:30:31  5-MIN KMKG 181430Z 12011KT 4SM BR BKN019 OVC029 18/17 A2983 710 93 1300 130/11 RMK AO2
14840KMKG MKG20020918093511409/18/02 09:35:31  5-MIN KMKG 181435Z 12011KT 4SM -RA BR OVC019 18/18 A2983 710 96 1300 130/11 RMK AO2 RAB33 P0000
14840KMKG MKG20020918094011409/18/02 09:40:31  5-MIN KMKG 181440Z 13010KT 3SM -RA BR OVC019 18/18 A2983 710 96 1300 130/10 RMK AO2 RAB33 P0000
14840KMKG MKG20020918094511309/18/02 09:45:31  5-MIN KMKG 181445Z 13012KT 3SM RA BR OVC019 18/18 A2983 710 96 1300 130/12 RMK AO2 RAB33 P0001
14840KMKG MKG20020918095014309/18/02 09:50:31  5-MIN KMKG 181450Z 13013KT 3SM -RA BR OVC019 18/18 A2983 710 96 1300 140/13 RMK AO2 RAB33 SLP100 P0001 60003 T01830178 56008
14840KMKG MKG20020918095514309/18/02 09:55:31  5-MIN KMKG 181455Z 13011KT 3SM -RA BR OVC019 18/18 A2983 710 96 1300 130/11 RMK AO2 RAB33 SLP101 P0001 60003 T01830178 56010
14840KMKG MKG20020918100012509/18/02 10:00:31  5-MIN KMKG 181500Z 14010KT 3SM -RA BR OVC017 18/18 A2983 710 96 1300 140/10 RMK AO2 VIS 2 1/2 RWY 14 P0000
14840KMKG MKG20020918100511009/18/02 10:05:31  5-MIN KMKG 181505Z 13012KT 3SM BR OVC017 18/18 A2984 710 96 1300 140/12 RMK AO2 RAE03 P0000
14840KMKG MKG20020918101011009/18/02 10:10:31  5-MIN KMKG 181510Z 13011KT 3SM BR OVC017 18/18 A2983 710 96 1300 140/11 RMK AO2 RAE03 P0000
14840KMKG MKG20020918101511409/18/02 10:15:31  5-MIN KMKG 181515Z 13012KT 2 1/2SM BR OVC017 18/18 A2983 710 96 1300 140/12 RMK AO2 RAE03 P0000
14840KMKG MKG20020918102011009/18/02 10:20:31  5-MIN KMKG 181520Z 13012KT 2SM BR OVC017 18/18 A2983 710 96 1300 140/12 RMK AO2 RAE03 P0000
14840KMKG MKG20020918102513109/18/02 10:25:31  5-MIN KMKG 181525Z 13011KT 1SM -RA BR OVC017 18/18 A2983 710 96 1300 140/11 RMK AO2 SFC VIS 1 1/2 RAE03B25 P0000
14840KMKG MKG20020918103013209/18/02 10:30:31  5-MIN KMKG 181530Z 14012KT 1SM -RA BR OVC017 18/18 A2983 710 100 1300 140/12 RMK AO2 SFC VIS 1 1/4 RAE03B25 P0000
14840KMKG MKG20020918103512809/18/02 10:35:31  5-MIN KMKG 181535Z 13012KT 1SM -RA BR OVC017 18/18 A2983 710 100 1300 140/12 RMK AO2 SFC VIS 2 RAE03B25 P0000
14840KMKG MKG20020918104013109/18/02 10:40:31  5-MIN KMKG 181540Z 14011KT 1SM BR OVC017 18/18 A2984 710 100 1300 140/11 RMK AO2 SFC VIS 2 1/2 RAE03B25E37 P0000
14840KMKG MKG20020918104513109/18/02 10:45:31  5-MIN KMKG 181545Z 13010KT 1SM BR OVC017 18/18 A2984 710 100 1300 140/10 RMK AO2 SFC VIS 2 1/2 RAE03B25E37 P0000
14840KMKG MKG20020918105014709/18/02 10:50:31  5-MIN KMKG 181550Z 14010KT 1SM BR OVC017 19/18 A2984 710 97 1400 150/10 RMK AO2 SFC VIS 2 1/2 RAE03B25E37 SLP102 P0000 T01890183
14840KMKG MKG20020918105514709/18/02 10:55:31  5-MIN KMKG 181555Z 14013KT 2SM BR OVC015 19/18 A2984 710 97 1400 140/13 RMK AO2 SFC VIS 2 1/2 RAE03B25E37 SLP102 P0000 T01890183
14840KMKG MKG20020918110011209/18/02 11:00:31  5-MIN KMKG 181600Z 15010KT 2SM BR OVC015 19/18 A2984 710 97 1400 160/10 RMK AO2 SFC VIS 2 1/2
14840KMKG MKG20020918110510809/18/02 11:05:31  5-MIN KMKG 181605Z 16012KT 2SM BR OVC013 19/18 A2984 710 97 1400 160/12 RMK AO2 SFC VIS 3
14840KMKG MKG20020918111010809/18/02 11:10:31  5-MIN KMKG 181610Z 16012KT 2SM BR OVC013 19/18 A2984 710 97 1400 160/12 RMK AO2 SFC VIS 3
14840KMKG MKG20020918111511409/18/02 11:15:31  5-MIN KMKG 181615Z 16015G20KT 2SM BR OVC013 19/18 A2984 710 93 1400 170/15G20 RMK AO2 SFC VIS 3
14840KMKG MKG20020918112011409/18/02 11:20:31  5-MIN KMKG 181620Z 17015G21KT 2SM BR OVC013 19/18 A2984 700 93 1400 170/15G21 RMK AO2 SFC VIS 3
14840KMKG MKG20020918112511409/18/02 11:25:31  5-MIN KMKG 181625Z 17013G21KT 2SM BR OVC013 19/18 A2984 700 93 1400 170/13G21 RMK AO2 SFC VIS 3
14840KMKG MKG20020918113012109/18/02 11:30:31  5-MIN KMKG 181630Z 16014G18KT 2SM BR BKN013 OVC022 19/19 A2984 710 97 1400 170/14G18 RMK AO2 SFC VIS 4
14840KMKG MKG20020918113512109/18/02 11:35:31  5-MIN KMKG 181635Z 17011G18KT 2SM BR BKN013 OVC020 19/19 A2983 710 97 1400 170/11G18 RMK AO2 SFC VIS 4
14840KMKG MKG20020918114011509/18/02 11:40:31  5-MIN KMKG 181640Z 17011KT 2SM BR BKN013 OVC020 19/19 A2984 710 97 1400 170/11 RMK AO2 SFC VIS 4
14840KMKG MKG20020918114511109/18/02 11:45:31  5-MIN KMKG 181645Z 17014G20KT 5SM BR SCT013 OVC020 19/18 A2984 710 93 1400 170/14G20 RMK AO2
14840KMKG MKG20020918115012809/18/02 11:50:31  5-MIN KMKG 181650Z 17016G20KT 5SM BR SCT013 OVC022 19/18 A2984 710 93 1400 180/16G20 RMK AO2 SLP103 T01940183
14840KMKG MKG20020918115512809/18/02 11:55:31  5-MIN KMKG 181655Z 17014G19KT 5SM BR FEW013 OVC022 19/18 A2984 700 93 1400 170/14G19 RMK AO2 SLP104 T01940183
14840KMKG MKG20020918120010509/18/02 12:00:31  5-MIN KMKG 181700Z 18013KT 5SM BR FEW013 OVC020 20/18 A2984 700 90 1500 180/13 RMK AO2
14840KMKG MKG20020918120510509/18/02 12:05:31  5-MIN KMKG 181705Z 17016KT 6SM BR SCT014 OVC020 19/18 A2984 700 93 1400 170/16 RMK AO2
14840KMKG MKG20020918121011109/18/02 12:10:31  5-MIN KMKG 181710Z 17016G22KT 5SM BR BKN016 OVC022 19/18 A2984 710 93 1400 170/16G22 RMK AO2
14840KMKG MKG20020918121511109/18/02 12:15:31  5-MIN KMKG 181715Z 17014G21KT 5SM BR BKN016 OVC020 19/18 A2984 700 93 1400 180/14G21 RMK AO2
14840KMKG MKG20020918122011809/18/02 12:20:31  5-MIN KMKG 181720Z 17015G21KT 5SM BR SCT014 BKN020 OVC026 19/18 A2984 700 93 1400 170/15G21 RMK AO2
14840KMKG MKG20020918122510509/18/02 12:25:31  5-MIN KMKG 181725Z 18017KT 6SM BR BKN014 OVC020 20/18 A2984 700 90 1500 180/17 RMK AO2
14840KMKG MKG20020918123011109/18/02 12:30:31  5-MIN KMKG 181730Z 17016G21KT 6SM BR BKN014 OVC023 19/18 A2984 700 93 1400 180/16G21 RMK AO2
14840KMKG MKG20020918123511109/18/02 12:35:31  5-MIN KMKG 181735Z 17014G21KT 6SM BR BKN014 OVC021 19/18 A2984 700 93 1400 180/14G21 RMK AO2
14840KMKG MKG20020918124010509/18/02 12:40:31  5-MIN KMKG 181740Z 18016KT 6SM BR BKN014 OVC025 19/18 A2984 700 93 1400 180/16 RMK AO2
14840KMKG MKG20020918124510509/18/02 12:45:31  5-MIN KMKG 181745Z 18011KT 6SM BR BKN014 OVC025 19/18 A2984 700 93 1400 180/11 RMK AO2
14840KMKG MKG20020918125015209/18/02 12:50:31  5-MIN KMKG 181750Z 18015G20KT 6SM BR BKN014 OVC021 20/18 A2984 700 90 1500 180/15G20 RMK AO2 SLP105 60003 T02000183 10200 20156 56010
14840KMKG MKG20020918125515209/18/02 12:55:31  5-MIN KMKG 181755Z 18014G20KT 6SM BR BKN014 OVC023 20/18 A2984 700 90 1500 180/14G20 RMK AO2 SLP104 60003 T02000183 10200 20156 51004
14840KMKG MKG20020918130011209/18/02 13:00:31  5-MIN KMKG 181800Z 18012KT 5SM BR BKN014 BKN019 OVC025 20/18 A2984 700 90 1500 180/12 RMK AO2
14840KMKG MKG20020918130511109/18/02 13:05:31  5-MIN KMKG 181805Z 18015G19KT 5SM BR BKN014 OVC023 19/18 A2984 700 93 1400 180/15G19 RMK AO2
14840KMKG MKG20020918131012709/18/02 13:10:31  5-MIN KMKG 181810Z 18012G19KT 5SM -RA BR BKN014 OVC020 19/18 A2984 700 93 1400 180/12G19 RMK AO2 RAB06 P0000
14840KMKG MKG20020918131512809/18/02 13:15:31  5-MIN KMKG 181815Z 18011KT 6SM -RA BR BKN016 BKN020 OVC026 20/19 A2984 710 93 1500 180/11 RMK AO2 RAB06 P0000
14840KMKG MKG20020918132012109/18/02 13:20:31  5-MIN KMKG 181820Z 18013KT 6SM -RA BR BKN016 OVC026 20/19 A2984 710 93 1500 180/13 RMK AO2 RAB06 P0000
14840KMKG MKG20020918132512809/18/02 13:25:31  5-MIN KMKG 181825Z 18012KT 6SM -RA BR FEW013 BKN020 BKN026 21/19 A2984 710 90 1600 180/12 RMK AO2 RAB06 P0000
14840KMKG MKG20020918133013309/18/02 13:30:31  5-MIN KMKG 181830Z 18015G19KT 6SM BR FEW013 BKN020 BKN026 21/19 A2983 710 90 1600 190/15G19 RMK AO2 RAB06E27 P0000
14840KMKG MKG20020918133512609/18/02 13:35:31  5-MIN KMKG 181835Z 18013G19KT 6SM BR SCT018 BKN026 21/19 A2983 720 90 1600 190/13G19 RMK AO2 RAB06E27 P0000
14840KMKG MKG20020918134012609/18/02 13:40:31  5-MIN KMKG 181840Z 18013G19KT 6SM BR FEW013 SCT026 21/18 A2982 720 87 1600 180/13G19 RMK AO2 RAB06E27 P0000
14840KMKG MKG20020918134511909/18/02 13:45:31  5-MIN KMKG 181845Z 18015G20KT 6SM BR FEW013 21/18 A2983 720 87 1600 180/15G20 RMK AO2 RAB06E27 P0000
14840KMKG MKG20020918135013609/18/02 13:50:31  5-MIN KMKG 181850Z 18013G20KT 6SM BR FEW013 21/19 A2982 720 90 1600 190/13G20 RMK AO2 RAB06E27 SLP098 P0000 T02060189
14840KMKG MKG20020918135513609/18/02 13:55:31  5-MIN KMKG 181855Z 19014G20KT 6SM HZ SCT013 21/18 A2982 720 84 1600 190/14G20 RMK AO2 RAB06E27 SLP097 P0000 T02110183
14840KMKG MKG20020918140009809/18/02 14:00:31  5-MIN KMKG 181900Z 19012G20KT 7SM CLR 22/18 A2982 720 81 1700 200/12G20 RMK AO2
14840KMKG MKG20020918140509809/18/02 14:05:31  5-MIN KMKG 181905Z 19014G19KT 7SM CLR 22/19 A2982 720 84 1700 190/14G19 RMK AO2
14840KMKG MKG20020918141009809/18/02 14:10:31  5-MIN KMKG 181910Z 19014G19KT 8SM CLR 22/19 A2982 720 81 1800 200/14G19 RMK AO2
14840KMKG MKG20020918141509809/18/02 14:15:31  5-MIN KMKG 181915Z 18012G19KT 8SM CLR 22/19 A2982 720 81 1800 180/12G19 RMK AO2
14840KMKG MKG20020918142009809/18/02 14:20:31  5-MIN KMKG 181920Z 17012G19KT 8SM CLR 22/19 A2982 720 81 1800 170/12G19 RMK AO2
14840KMKG MKG20020918142509809/18/02 14:25:31  5-MIN KMKG 181925Z 18011G18KT 8SM CLR 22/19 A2982 730 81 1800 180/11G18 RMK AO2
14840KMKG MKG20020918143009809/18/02 14:30:31  5-MIN KMKG 181930Z 17014G18KT 8SM CLR 23/19 A2981 730 78 1800 180/14G18 RMK AO2
14840KMKG MKG20020918143509809/18/02 14:35:31  5-MIN KMKG 181935Z 17014G19KT 9SM CLR 22/18 A2981 730 78 1800 180/14G19 RMK AO2
14840KMKG MKG20020918144009809/18/02 14:40:31  5-MIN KMKG 181940Z 19012G18KT 9SM CLR 23/18 A2981 730 76 1800 190/12G18 RMK AO2
14840KMKG MKG20020918144509309/18/02 14:45:31  5-MIN KMKG 181945Z 18015KT 10SM CLR 23/18 A2982 730 76 1800 180/15 RMK AO2
14840KMKG MKG20020918145011609/18/02 14:50:31  5-MIN KMKG 181950Z 19014G20KT 10SM CLR 23/18 A2982 730 73 1800 200/14G20 RMK AO2 SLP095 T02280178
14840KMKG MKG20020918145511609/18/02 14:55:31  5-MIN KMKG 181955Z 19013G20KT 10SM CLR 23/18 A2982 720 76 1800 200/13G20 RMK AO2 SLP095 T02280183
14840KMKG MKG20020918150009909/18/02 15:00:31  5-MIN KMKG 182000Z 18015G21KT 10SM CLR 23/18 A2982 730 76 1800 190/15G21 RMK AO2
14840KMKG MKG20020918150509909/18/02 15:05:31  5-MIN KMKG 182005Z 19013G21KT 10SM CLR 23/18 A2982 730 73 1800 200/13G21 RMK AO2
14840KMKG MKG20020918151009909/18/02 15:10:31  5-MIN KMKG 182010Z 19011G21KT 10SM CLR 23/18 A2982 730 73 1800 190/11G21 RMK AO2
14840KMKG MKG20020918151509609/18/02 15:15:31  5-MIN KMKG 182015Z 19010KT 10SM FEW070 23/18 A2982 730 70 1900 190/10 RMK AO2
14840KMKG MKG20020918152009609/18/02 15:20:31  5-MIN KMKG 182020Z 18012KT 10SM SCT070 23/18 A2982 730 70 1900 180/12 RMK AO2
14840KMKG MKG20020918152510209/18/02 15:25:31  5-MIN KMKG 182025Z 19010G17KT 10SM SCT070 24/18 A2982 730 68 2000 200/10G17 RMK AO2
14840KMKG MKG20020918153010209/18/02 15:30:31  5-MIN KMKG 182030Z 19011G16KT 10SM SCT070 24/18 A2982 730 68 2000 190/11G16 RMK AO2
14840KMKG MKG20020918153510209/18/02 15:35:31  5-MIN KMKG 182035Z 20011G16KT 10SM FEW070 24/18 A2981 730 68 2000 210/11G16 RMK AO2
14840KMKG MKG20020918154009609/18/02 15:40:31  5-MIN KMKG 182040Z 19011KT 10SM FEW070 23/17 A2981 730 68 1900 200/11 RMK AO2
14840KMKG MKG20020918154510309/18/02 15:45:31  5-MIN KMKG 182045Z 19011KT 10SM FEW070 SCT085 23/17 A2981 730 68 1900 200/11 RMK AO2
14840KMKG MKG20020918155013209/18/02 15:50:31  5-MIN KMKG 182050Z 20010KT 10SM FEW030 BKN080 23/17 A2981 730 68 1900 200/10 RMK AO2 SLP092 60000 T02330172 51004
14840KMKG MKG20020918155513209/18/02 15:55:31  5-MIN KMKG 182055Z 20009KT 10SM FEW030 BKN080 23/17 A2981 730 70 1800 200/09 RMK AO2 SLP091 60000 T02280172 56012
14840KMKG MKG20020918160009609/18/02 16:00:31  5-MIN KMKG 182100Z 19010KT 10SM BKN085 23/18 A2980 740 73 1800 200/10 RMK AO2
14840KMKG MKG20020918160509609/18/02 16:05:31  5-MIN KMKG 182105Z 19008KT 10SM BKN090 23/18 A2981 740 73 1800 200/08 RMK AO2
14840KMKG MKG20020918161009609/18/02 16:10:31  5-MIN KMKG 182110Z 19009KT 10SM BKN090 23/18 A2981 740 73 1800 200/09 RMK AO2
14840KMKG MKG20020918161509609/18/02 16:15:31  5-MIN KMKG 182115Z 19008KT 10SM BKN090 23/18 A2980 740 73 1900 190/08 RMK AO2
14840KMKG MKG20020918162009609/18/02 16:20:31  5-MIN KMKG 182120Z 20008KT 10SM BKN095 23/18 A2980 740 73 1900 200/08 RMK AO2
14840KMKG MKG20020918162509609/18/02 16:25:31  5-MIN KMKG 182125Z 21007KT 10SM SCT095 23/18 A2980 740 73 1900 210/07 RMK AO2
14840KMKG MKG20020918163009509/18/02 16:30:31  5-MIN KMKG 182130Z 20006KT 9SM SCT095 23/18 A2980 740 76 1900 200/06 RMK AO2
14840KMKG MKG20020918163510209/18/02 16:35:31  5-MIN KMKG 182135Z 18005KT 9SM FEW034 SCT100 23/18 A2980 750 76 1900 180/05 RMK AO2
14840KMKG MKG20020918164010209/18/02 16:40:31  5-MIN KMKG 182140Z 18005KT 9SM FEW034 SCT100 23/18 A2979 750 76 1900 180/05 RMK AO2
14840KMKG MKG20020918164509509/18/02 16:45:31  5-MIN KMKG 182145Z 19004KT 9SM FEW034 23/18 A2979 750 76 1900 190/04 RMK AO2
14840KMKG MKG20020918165011909/18/02 16:50:31  5-MIN KMKG 182150Z 17006KT 9SM FEW034 SCT080 23/18 A2979 750 76 1900 180/06 RMK AO2 SLP085 T02280183
14840KMKG MKG20020918165511909/18/02 16:55:31  5-MIN KMKG 182155Z 19003KT 9SM FEW034 SCT080 23/19 A2979 750 78 1900 190/03 RMK AO2 SLP085 T02280189
14840KMKG MKG20020918170009509/18/02 17:00:31  5-MIN KMKG 182200Z 18004KT 9SM FEW034 23/19 A2979 750 76 1900 190/04 RMK AO2
14840KMKG MKG20020918170509209/18/02 17:05:31  5-MIN KMKG 182205Z 18004KT 9SM CLR 23/19 A2979 750 76 1900 190/04 RMK AO2
14840KMKG MKG20020918171009209/18/02 17:10:31  5-MIN KMKG 182210Z 19005KT 9SM CLR 23/19 A2979 750 78 1900 190/05 RMK AO2
14840KMKG MKG20020918171509209/18/02 17:15:31  5-MIN KMKG 182215Z 17005KT 9SM CLR 23/19 A2979 750 76 1900 170/05 RMK AO2
14840KMKG MKG20020918172009209/18/02 17:20:31  5-MIN KMKG 182220Z 18005KT 9SM CLR 23/19 A2979 750 76 1900 190/05 RMK AO2
14840KMKG MKG20020918172509209/18/02 17:25:31  5-MIN KMKG 182225Z 18005KT 9SM CLR 23/19 A2979 750 76 1900 190/05 RMK AO2
14840KMKG MKG20020918173009509/18/02 17:30:31  5-MIN KMKG 182230Z 17006KT 9SM FEW110 23/19 A2979 750 76 1900 180/06 RMK AO2
14840KMKG MKG20020918173509509/18/02 17:35:31  5-MIN KMKG 182235Z 18005KT 9SM FEW110 23/19 A2979 750 76 1900 180/05 RMK AO2
14840KMKG MKG20020918174009509/18/02 17:40:31  5-MIN KMKG 182240Z 16005KT 9SM FEW110 23/19 A2979 750 76 1900 160/05 RMK AO2
14840KMKG MKG20020918174509509/18/02 17:45:31  5-MIN KMKG 182245Z 18004KT 9SM FEW110 23/19 A2979 750 76 1900 180/04 RMK AO2
14840KMKG MKG20020918175011209/18/02 17:50:31  5-MIN KMKG 182250Z 19004KT 9SM FEW110 23/19 A2979 750 76 1900 190/04 RMK AO2 SLP084 T02330189
14840KMKG MKG20020918175510909/18/02 17:55:31  5-MIN KMKG 182255Z 19004KT 9SM CLR 23/19 A2979 750 81 1900 190/04 RMK AO2 SLP085 T02280194
14840KMKG MKG20020918180009209/18/02 18:00:31  5-MIN KMKG 182300Z 20005KT 9SM CLR 22/19 A2979 750 84 1800 200/05 RMK AO2
14840KMKG MKG20020918180509209/18/02 18:05:31  5-MIN KMKG 182305Z 19004KT 8SM CLR 22/19 A2979 750 84 1800 190/04 RMK AO2
14840KMKG MKG20020918181009209/18/02 18:10:31  5-MIN KMKG 182310Z 19003KT 8SM CLR 22/19 A2979 750 84 1800 200/03 RMK AO2
14840KMKG MKG20020918181509209/18/02 18:15:31  5-MIN KMKG 182315Z 17003KT 8SM CLR 22/19 A2979 750 87 1700 180/03 RMK AO2
14840KMKG MKG20020918182009209/18/02 18:20:31  5-MIN KMKG 182320Z 00000KT 8SM CLR 22/19 A2979 760 87 1700 000/00 RMK AO2
14840KMKG MKG20020918182509209/18/02 18:25:31  5-MIN KMKG 182325Z 15003KT 8SM CLR 22/19 A2979 750 87 1700 160/03 RMK AO2
14840KMKG MKG20020918183009209/18/02 18:30:31  5-MIN KMKG 182330Z 00000KT 8SM CLR 22/19 A2978 760 87 1700 000/00 RMK AO2
14840KMKG MKG20020918183509209/18/02 18:35:31  5-MIN KMKG 182335Z 00000KT 8SM CLR 22/19 A2978 760 87 1700 000/00 RMK AO2
14840KMKG MKG20020918184009209/18/02 18:40:31  5-MIN KMKG 182340Z 00000KT 8SM CLR 21/19 A2978 760 90 1700 000/00 RMK AO2
14840KMKG MKG20020918184509209/18/02 18:45:31  5-MIN KMKG 182345Z 00000KT 7SM CLR 21/19 A2978 760 90 1700 000/00 RMK AO2
14840KMKG MKG20020918185013309/18/02 18:50:31  5-MIN KMKG 182350Z 00000KT 7SM CLR 21/19 A2978 760 90 1700 000/00 RMK AO2 SLP082 60000 T02110194 10239 20194 56012
14840KMKG MKG20020918185513309/18/02 18:55:31  5-MIN KMKG 182355Z 00000KT 7SM CLR 21/19 A2978 760 90 1700 000/00 RMK AO2 SLP081 60000 T02110194 10239 20194 56011
14840KMKG MKG20020918190009209/18/02 19:00:31  5-MIN KMKG 190000Z 00000KT 7SM CLR 21/19 A2977 770 90 1600 000/00 RMK AO2
14840KMKG MKG20020918190509209/18/02 19:05:31  5-MIN KMKG 190005Z 00000KT 7SM CLR 20/19 A2977 770 93 1600 000/00 RMK AO2
14840KMKG MKG20020918191009209/18/02 19:10:31  5-MIN KMKG 190010Z 10003KT 7SM CLR 20/19 A2977 770 93 1600 110/03 RMK AO2
14840KMKG MKG20020918191509209/18/02 19:15:31  5-MIN KMKG 190015Z 10003KT 8SM CLR 19/18 A2977 770 93 1500 110/03 RMK AO2
14840KMKG MKG20020918192009209/18/02 19:20:31  5-MIN KMKG 190020Z 10005KT 7SM CLR 19/18 A2977 770 93 1500 100/05 RMK AO2
14840KMKG MKG20020918192509209/18/02 19:25:31  5-MIN KMKG 190025Z 10005KT 7SM CLR 19/18 A2977 770 93 1500 100/05 RMK AO2
14840KMKG MKG20020918193009209/18/02 19:30:31  5-MIN KMKG 190030Z 10004KT 7SM CLR 19/18 A2977 770 93 1500 100/04 RMK AO2
14840KMKG MKG20020918193509209/18/02 19:35:31  5-MIN KMKG 190035Z 10004KT 8SM CLR 19/18 A2977 770 93 1500 100/04 RMK AO2
14840KMKG MKG20020918194009209/18/02 19:40:31  5-MIN KMKG 190040Z 10004KT 7SM CLR 19/19 A2977 770 97 1500 100/04 RMK AO2
14840KMKG MKG20020918194509209/18/02 19:45:31  5-MIN KMKG 190045Z 11004KT 7SM CLR 19/18 A2977 770 97 1400 110/04 RMK AO2
14840KMKG MKG20020918195010909/18/02 19:50:31  5-MIN KMKG 190050Z 10005KT 7SM CLR 19/19 A2977 770 97 1500 100/05 RMK AO2 SLP080 T01940189
14840KMKG MKG20020918195510909/18/02 19:55:31  5-MIN KMKG 190055Z 10004KT 7SM CLR 20/19 A2978 760 93 1600 100/04 RMK AO2 SLP081 T02000189
14840KMKG MKG20020918200009209/18/02 20:00:31  5-MIN KMKG 190100Z 00000KT 7SM CLR 19/19 A2978 760 97 1500 000/00 RMK AO2
14840KMKG MKG20020918200509209/18/02 20:05:31  5-MIN KMKG 190105Z 13003KT 7SM CLR 20/19 A2978 760 93 1600 130/03 RMK AO2
14840KMKG MKG20020918201009209/18/02 20:10:31  5-MIN KMKG 190110Z 11004KT 7SM CLR 20/19 A2978 760 93 1600 110/04 RMK AO2
14840KMKG MKG20020918201509209/18/02 20:15:31  5-MIN KMKG 190115Z 11004KT 7SM CLR 20/19 A2978 760 93 1600 120/04 RMK AO2
14840KMKG MKG20020918202009809/18/02 20:20:31  5-MIN KMKG 190120Z 11005KT 6SM BR FEW120 19/19 A2978 760 97 1500 110/05 RMK AO2
14840KMKG MKG20020918202509809/18/02 20:25:31  5-MIN KMKG 190125Z 11006KT 6SM BR SCT120 19/19 A2977 770 97 1500 110/06 RMK AO2
14840KMKG MKG20020918203009809/18/02 20:30:31  5-MIN KMKG 190130Z 11006KT 6SM BR BKN120 21/19 A2977 770 87 1700 110/06 RMK AO2
14840KMKG MKG20020918203509809/18/02 20:35:31  5-MIN KMKG 190135Z 11006KT 6SM BR BKN120 20/19 A2978 760 93 1600 110/06 RMK AO2
14840KMKG MKG20020918204009809/18/02 20:40:31  5-MIN KMKG 190140Z 12006KT 6SM BR SCT120 20/19 A2978 760 93 1600 120/06 RMK AO2
14840KMKG MKG20020918204509809/18/02 20:45:31  5-MIN KMKG 190145Z 12006KT 6SM BR SCT120 20/19 A2978 760 93 1600 130/06 RMK AO2
14840KMKG MKG20020918205011509/18/02 20:50:31  5-MIN KMKG 190150Z 12007KT 6SM BR SCT120 20/19 A2978 760 97 1600 120/07 RMK AO2 SLP083 T02000194
14840KMKG MKG20020918205511509/18/02 20:55:31  5-MIN KMKG 190155Z 12006KT 6SM BR SCT120 20/19 A2978 760 97 1600 130/06 RMK AO2 SLP084 T02000194
14840KMKG MKG20020918210009509/18/02 21:00:31  5-MIN KMKG 190200Z 12006KT 6SM BR CLR 20/19 A2978 760 97 1600 120/06 RMK AO2
14840KMKG MKG20020918210509209/18/02 21:05:31  5-MIN KMKG 190205Z 12005KT 7SM CLR 20/19 A2978 760 97 1600 120/05 RMK AO2
14840KMKG MKG20020918211009809/18/02 21:10:31  5-MIN KMKG 190210Z 12005KT 6SM BR FEW120 20/19 A2978 760 97 1600 130/05 RMK AO2
14840KMKG MKG20020918211509809/18/02 21:15:31  5-MIN KMKG 190215Z 12005KT 6SM BR FEW120 20/19 A2978 760 97 1600 130/05 RMK AO2
14840KMKG MKG20020918212009809/18/02 21:20:31  5-MIN KMKG 190220Z 13005KT 6SM BR FEW120 20/19 A2978 760 97 1600 130/05 RMK AO2
14840KMKG MKG20020918212509809/18/02 21:25:31  5-MIN KMKG 190225Z 12005KT 6SM BR SCT120 20/19 A2978 760 97 1600 130/05 RMK AO2
14840KMKG MKG20020918213009809/18/02 21:30:31  5-MIN KMKG 190230Z 12005KT 6SM BR SCT120 20/19 A2978 760 97 1600 120/05 RMK AO2
14840KMKG MKG20020918213509809/18/02 21:35:31  5-MIN KMKG 190235Z 11005KT 6SM BR SCT120 20/19 A2978 760 97 1600 110/05 RMK AO2
14840KMKG MKG20020918214009809/18/02 21:40:31  5-MIN KMKG 190240Z 11005KT 6SM BR FEW120 20/19 A2978 760 97 1600 110/05 RMK AO2
14840KMKG MKG20020918214509809/18/02 21:45:31  5-MIN KMKG 190245Z 11005KT 6SM BR FEW120 20/19 A2978 760 97 1600 110/05 RMK AO2
14840KMKG MKG20020918215012109/18/02 21:50:31  5-MIN KMKG 190250Z 12005KT 6SM BR FEW120 20/19 A2977 770 97 1600 130/05 RMK AO2 SLP079 T02000194 56011
14840KMKG MKG20020918215512109/18/02 21:55:31  5-MIN KMKG 190255Z 12006KT 6SM BR FEW120 20/19 A2977 770 97 1600 120/06 RMK AO2 SLP079 T02000194 58002
14840KMKG MKG20020918220009509/18/02 22:00:31  5-MIN KMKG 190300Z 12005KT 6SM BR CLR 20/19 A2977 770 97 1600 130/05 RMK AO2
14840KMKG MKG20020918220509509/18/02 22:05:31  5-MIN KMKG 190305Z 12006KT 6SM BR CLR 20/19 A2977 770 97 1600 120/06 RMK AO2
14840KMKG MKG20020918221009509/18/02 22:10:31  5-MIN KMKG 190310Z 12006KT 6SM BR CLR 20/19 A2977 770 97 1600 130/06 RMK AO2
14840KMKG MKG20020918221509509/18/02 22:15:31  5-MIN KMKG 190315Z 12007KT 6SM BR CLR 20/19 A2976 780 97 1600 130/07 RMK AO2
14840KMKG MKG20020918222009509/18/02 22:20:31  5-MIN KMKG 190320Z 12006KT 6SM BR CLR 21/19 A2976 780 93 1600 120/06 RMK AO2
14840KMKG MKG20020918222509509/18/02 22:25:31  5-MIN KMKG 190325Z 12006KT 6SM BR CLR 21/19 A2977 770 93 1600 130/06 RMK AO2
14840KMKG MKG20020918223009509/18/02 22:30:31  5-MIN KMKG 190330Z 13007KT 6SM BR CLR 21/19 A2977 770 93 1600 130/07 RMK AO2
14840KMKG MKG20020918223509509/18/02 22:35:31  5-MIN KMKG 190335Z 13006KT 6SM BR CLR 21/19 A2977 770 93 1600 140/06 RMK AO2
14840KMKG MKG20020918224009509/18/02 22:40:31  5-MIN KMKG 190340Z 14006KT 6SM BR CLR 21/20 A2977 770 93 1700 140/06 RMK AO2
14840KMKG MKG20020918224509509/18/02 22:45:31  5-MIN KMKG 190345Z 13007KT 6SM BR CLR 21/19 A2976 780 90 1700 140/07 RMK AO2
14840KMKG MKG20020918225011209/18/02 22:50:31  5-MIN KMKG 190350Z 13007KT 6SM BR CLR 21/20 A2976 780 93 1700 140/07 RMK AO2 SLP075 T02110200
14840KMKG MKG20020918225511209/18/02 22:55:31  5-MIN KMKG 190355Z 14007KT 6SM BR CLR 21/20 A2976 780 93 1700 140/07 RMK AO2 SLP075 T02110200
14840KMKG MKG20020918230009509/18/02 23:00:31  5-MIN KMKG 190400Z 14007KT 6SM BR CLR 21/20 A2976 780 93 1700 140/07 RMK AO2
14840KMKG MKG20020918230509509/18/02 23:05:31  5-MIN KMKG 190405Z 14008KT 6SM BR CLR 22/20 A2976 780 90 1800 150/08 RMK AO2
14840KMKG MKG20020918231009509/18/02 23:10:31  5-MIN KMKG 190410Z 15008KT 6SM BR CLR 22/20 A2976 780 90 1800 150/08 RMK AO2
14840KMKG MKG20020918231509509/18/02 23:15:31  5-MIN KMKG 190415Z 14008KT 6SM BR CLR 22/20 A2976 780 90 1800 150/08 RMK AO2
14840KMKG MKG20020918232009509/18/02 23:20:31  5-MIN KMKG 190420Z 15008KT 6SM BR CLR 22/20 A2975 780 90 1800 150/08 RMK AO2
14840KMKG MKG20020918232509509/18/02 23:25:31  5-MIN KMKG 190425Z 14009KT 6SM BR CLR 22/20 A2975 790 90 1800 150/09 RMK AO2
14840KMKG MKG20020918233009509/18/02 23:30:31  5-MIN KMKG 190430Z 15009KT 6SM BR CLR 22/20 A2975 790 90 1800 150/09 RMK AO2
14840KMKG MKG20020918233509509/18/02 23:35:31  5-MIN KMKG 190435Z 15009KT 6SM BR CLR 22/20 A2975 780 90 1800 150/09 RMK AO2
14840KMKG MKG20020918234009509/18/02 23:40:31  5-MIN KMKG 190440Z 15009KT 6SM BR CLR 22/20 A2975 790 90 1800 150/09 RMK AO2
14840KMKG MKG20020918234509509/18/02 23:45:31  5-MIN KMKG 190445Z 15009KT 6SM BR CLR 22/20 A2975 790 90 1800 150/09 RMK AO2
14840KMKG MKG20020918235012209/18/02 23:50:31  5-MIN KMKG 190450Z 15009KT 5SM BR CLR 22/20 A2975 790 90 1800 150/09 RMK AO2 SLP071 T02170200 402390150
14840KMKG MKG20020918235512209/18/02 23:55:31  5-MIN KMKG 190455Z 15009KT 5SM BR CLR 22/20 A2975 790 90 1800 160/09 RMK AO2 SLP072 T02170200 402390150
14840KMKG MKG20020919000009509/19/02 00:00:31  5-MIN KMKG 190500Z 16009KT 5SM BR CLR 22/20 A2976 780 90 1800 160/09 RMK AO2
14840KMKG MKG20020919000509509/19/02 00:05:31  5-MIN KMKG 190505Z 14009KT 5SM BR CLR 22/20 A2975 790 90 1800 150/09 RMK AO2
14840KMKG MKG20020919001009509/19/02 00:10:31  5-MIN KMKG 190510Z 15009KT 5SM BR CLR 22/20 A2975 790 90 1800 150/09 RMK AO2
14840KMKG MKG20020919001509509/19/02 00:15:31  5-MIN KMKG 190515Z 15007KT 5SM BR CLR 22/20 A2975 780 90 1800 150/07 RMK AO2
14840KMKG MKG20020919002009509/19/02 00:20:31  5-MIN KMKG 190520Z 15009KT 5SM BR CLR 22/20 A2975 790 90 1800 150/09 RMK AO2
14840KMKG MKG20020919002509509/19/02 00:25:31  5-MIN KMKG 190525Z 14008KT 5SM BR CLR 22/20 A2975 790 90 1800 150/08 RMK AO2
14840KMKG MKG20020919003009509/19/02 00:30:31  5-MIN KMKG 190530Z 14010KT 5SM BR CLR 22/20 A2975 790 90 1800 140/10 RMK AO2
14840KMKG MKG20020919003509509/19/02 00:35:31  5-MIN KMKG 190535Z 14008KT 5SM BR CLR 22/20 A2975 790 90 1800 140/08 RMK AO2
14840KMKG MKG20020919004009509/19/02 00:40:31  5-MIN KMKG 190540Z 14008KT 5SM BR CLR 22/20 A2975 790 90 1800 150/08 RMK AO2
14840KMKG MKG20020919004509509/19/02 00:45:31  5-MIN KMKG 190545Z 14009KT 5SM BR CLR 22/20 A2975 790 90 1800 140/09 RMK AO2
14840KMKG MKG20020919005013009/19/02 00:50:31  5-MIN KMKG 190550Z 14009KT 5SM BR CLR 22/20 A2975 790 90 1800 140/09 RMK AO2 SLP070 T02170200 10217 20189 58002
14840KMKG MKG20020919005513009/19/02 00:55:31  5-MIN KMKG 190555Z 14010KT 5SM BR CLR 22/20 A2975 790 90 1800 140/10 RMK AO2 SLP070 T02170200 10217 20189 56008
14840KMKG MKG20020919010009509/19/02 01:00:31  5-MIN KMKG 190600Z 14008KT 5SM BR CLR 22/20 A2975 790 90 1800 140/08 RMK AO2
14840KMKG MKG20020919010509509/19/02 01:05:31  5-MIN KMKG 190605Z 14009KT 5SM BR CLR 22/20 A2975 790 90 1800 150/09 RMK AO2
14840KMKG MKG20020919011009509/19/02 01:10:31  5-MIN KMKG 190610Z 15008KT 5SM BR CLR 22/20 A2975 790 90 1800 150/08 RMK AO2
14840KMKG MKG20020919011509509/19/02 01:15:31  5-MIN KMKG 190615Z 15007KT 5SM BR CLR 22/20 A2975 790 90 1800 150/07 RMK AO2
14840KMKG MKG20020919012009509/19/02 01:20:31  5-MIN KMKG 190620Z 14008KT 5SM BR CLR 22/20 A2976 780 90 1800 150/08 RMK AO2
14840KMKG MKG20020919012509509/19/02 01:25:31  5-MIN KMKG 190625Z 14008KT 5SM BR CLR 22/20 A2975 780 90 1800 150/08 RMK AO2
14840KMKG MKG20020919013009509/19/02 01:30:31  5-MIN KMKG 190630Z 14009KT 5SM BR CLR 22/20 A2975 780 90 1800 140/09 RMK AO2
14840KMKG MKG20020919013509509/19/02 01:35:31  5-MIN KMKG 190635Z 14009KT 5SM BR CLR 22/20 A2976 780 90 1800 150/09 RMK AO2
14840KMKG MKG20020919014009509/19/02 01:40:31  5-MIN KMKG 190640Z 14008KT 5SM BR CLR 22/20 A2975 780 90 1800 140/08 RMK AO2
14840KMKG MKG20020919014509509/19/02 01:45:31  5-MIN KMKG 190645Z 13008KT 5SM BR CLR 22/20 A2975 790 90 1800 130/08 RMK AO2
14840KMKG MKG20020919015011209/19/02 01:50:31  5-MIN KMKG 190650Z 13008KT 5SM BR CLR 21/20 A2975 790 93 1700 140/08 RMK AO2 SLP073 T02110200
14840KMKG MKG20020919015511209/19/02 01:55:31  5-MIN KMKG 190655Z 14007KT 5SM BR CLR 22/20 A2975 780 90 1800 140/07 RMK AO2 SLP072 T02170200
14840KMKG MKG20020919020009509/19/02 02:00:31  5-MIN KMKG 190700Z 14007KT 5SM BR CLR 21/20 A2976 780 93 1700 140/07 RMK AO2
14840KMKG MKG20020919020509509/19/02 02:05:31  5-MIN KMKG 190705Z 14008KT 5SM BR CLR 22/20 A2975 790 90 1800 140/08 RMK AO2
14840KMKG MKG20020919021009509/19/02 02:10:31  5-MIN KMKG 190710Z 14007KT 5SM BR CLR 21/20 A2975 790 93 1700 140/07 RMK AO2
14840KMKG MKG20020919021509509/19/02 02:15:31  5-MIN KMKG 190715Z 13008KT 5SM BR CLR 21/20 A2974 790 93 1700 140/08 RMK AO2
14840KMKG MKG20020919022009509/19/02 02:20:31  5-MIN KMKG 190720Z 14008KT 5SM BR CLR 21/20 A2974 800 93 1700 140/08 RMK AO2
14840KMKG MKG20020919022509509/19/02 02:25:31  5-MIN KMKG 190725Z 14009KT 5SM BR CLR 21/20 A2974 800 93 1700 140/09 RMK AO2
14840KMKG MKG20020919023009509/19/02 02:30:31  5-MIN KMKG 190730Z 14008KT 5SM BR CLR 21/20 A2973 800 93 1700 140/08 RMK AO2
14840KMKG MKG20020919023509509/19/02 02:35:31  5-MIN KMKG 190735Z 14009KT 5SM BR CLR 21/20 A2973 800 93 1700 140/09 RMK AO2
14840KMKG MKG20020919024009509/19/02 02:40:31  5-MIN KMKG 190740Z 14008KT 5SM BR CLR 21/20 A2973 800 93 1700 140/08 RMK AO2
14840KMKG MKG20020919024509509/19/02 02:45:31  5-MIN KMKG 190745Z 14010KT 5SM BR CLR 22/20 A2973 810 90 1800 140/10 RMK AO2
14840KMKG MKG20020919025011209/19/02 02:50:31  5-MIN KMKG 190750Z 14010KT 5SM BR CLR 22/20 A2972 810 90 1800 150/10 RMK AO2 SLP062 T02170200
14840KMKG MKG20020919025511209/19/02 02:55:31  5-MIN KMKG 190755Z 14010KT 5SM BR CLR 22/20 A2972 810 90 1800 150/10 RMK AO2 SLP062 T02170200
14840KMKG MKG20020919030009509/19/02 03:00:31  5-MIN KMKG 190800Z 15010KT 5SM BR CLR 22/20 A2973 810 90 1800 150/10 RMK AO2
14840KMKG MKG20020919030509509/19/02 03:05:31  5-MIN KMKG 190805Z 15010KT 6SM BR CLR 22/20 A2973 810 90 1800 150/10 RMK AO2
14840KMKG MKG20020919031009509/19/02 03:10:31  5-MIN KMKG 190810Z 15009KT 6SM BR CLR 22/20 A2973 810 90 1800 150/09 RMK AO2
14840KMKG MKG20020919031509509/19/02 03:15:31  5-MIN KMKG 190815Z 15009KT 6SM BR CLR 22/20 A2973 810 90 1800 150/09 RMK AO2
14840KMKG MKG20020919032009509/19/02 03:20:31  5-MIN KMKG 190820Z 15010KT 5SM BR CLR 21/20 A2973 810 93 1700 150/10 RMK AO2
14840KMKG MKG20020919032509509/19/02 03:25:31  5-MIN KMKG 190825Z 15009KT 5SM BR CLR 21/20 A2973 810 93 1700 150/09 RMK AO2
14840KMKG MKG20020919033009509/19/02 03:30:31  5-MIN KMKG 190830Z 15008KT 6SM BR CLR 22/20 A2973 810 90 1800 160/08 RMK AO2
14840KMKG MKG20020919033509809/19/02 03:35:31  5-MIN KMKG 190835Z 15008KT 6SM BR SCT110 22/20 A2973 810 90 1800 150/08 RMK AO2
14840KMKG MKG20020919034009809/19/02 03:40:31  5-MIN KMKG 190840Z 15009KT 6SM BR BKN110 22/20 A2973 810 90 1800 160/09 RMK AO2
14840KMKG MKG20020919034509809/19/02 03:45:31  5-MIN KMKG 190845Z 16008KT 6SM BR BKN110 22/20 A2973 810 90 1800 160/08 RMK AO2
14840KMKG MKG20020919035012109/19/02 03:50:31  5-MIN KMKG 190850Z 16008KT 6SM BR BKN110 22/20 A2973 800 90 1800 160/08 RMK AO2 SLP065 T02170200 56008
14840KMKG MKG20020919035512809/19/02 03:55:31  5-MIN KMKG 190855Z 16008KT 6SM BR FEW045 BKN110 22/20 A2973 800 90 1800 160/08 RMK AO2 SLP065 T02170200 55004
14840KMKG MKG20020919040010209/19/02 04:00:31  5-MIN KMKG 190900Z 15010KT 7SM SCT045 OVC110 22/20 A2973 810 90 1800 160/10 RMK AO2
14840KMKG MKG20020919040510209/19/02 04:05:31  5-MIN KMKG 190905Z 16010KT 7SM BKN045 OVC110 22/20 A2973 810 87 1900 160/10 RMK AO2
14840KMKG MKG20020919041010209/19/02 04:10:31  5-MIN KMKG 190910Z 16010KT 7SM BKN045 OVC110 22/20 A2973 810 87 1900 170/10 RMK AO2
14840KMKG MKG20020919041510209/19/02 04:15:31  5-MIN KMKG 190915Z 16009KT 8SM BKN045 OVC110 23/20 A2973 810 84 1900 160/09 RMK AO2
14840KMKG MKG20020919042010809/19/02 04:20:31  5-MIN KMKG 190920Z 17013G18KT 9SM BKN043 OVC110 23/20 A2973 810 81 2000 170/13G18 RMK AO2
14840KMKG MKG20020919042510909/19/02 04:25:31  5-MIN KMKG 190925Z 17015G19KT 10SM BKN043 OVC110 23/20 A2972 810 81 2000 170/15G19 RMK AO2
14840KMKG MKG20020919043010909/19/02 04:30:31  5-MIN KMKG 190930Z 17013G19KT 10SM BKN041 OVC048 23/20 A2973 810 81 2000 180/13G19 RMK AO2
14840KMKG MKG20020919043510909/19/02 04:35:31  5-MIN KMKG 190935Z 17012G21KT 10SM SCT036 OVC044 23/20 A2973 810 81 2000 170/12G21 RMK AO2
14840KMKG MKG20020919044010909/19/02 04:40:31  5-MIN KMKG 190940Z 17013G21KT 10SM BKN036 OVC043 23/20 A2973 810 81 2000 170/13G21 RMK AO2
14840KMKG MKG20020919044510309/19/02 04:45:31  5-MIN KMKG 190945Z 17013KT 10SM BKN036 OVC044 24/20 A2973 810 78 2100 170/13 RMK AO2
14840KMKG MKG20020919045012009/19/02 04:50:31  5-MIN KMKG 190950Z 17013KT 10SM BKN036 OVC045 24/20 A2973 810 78 2100 170/13 RMK AO2 SLP064 T02390200
14840KMKG MKG20020919045512609/19/02 04:55:31  5-MIN KMKG 190955Z 17011G19KT 10SM BKN036 OVC045 24/20 A2973 810 78 2100 180/11G19 RMK AO2 SLP064 T02390200
14840KMKG MKG20020919050010909/19/02 05:00:31  5-MIN KMKG 191000Z 17013G19KT 10SM BKN036 OVC045 24/20 A2973 810 78 2100 170/13G19 RMK AO2
14840KMKG MKG20020919050510309/19/02 05:05:31  5-MIN KMKG 191005Z 17014KT 10SM SCT036 OVC045 24/20 A2973 810 78 2100 170/14 RMK AO2
14840KMKG MKG20020919051010909/19/02 05:10:31  5-MIN KMKG 191010Z 17015G21KT 10SM SCT036 OVC045 24/20 A2973 810 78 2100 170/15G21 RMK AO2
14840KMKG MKG20020919051510909/19/02 05:15:31  5-MIN KMKG 191015Z 17013G21KT 10SM FEW036 OVC047 24/20 A2973 810 78 2100 170/13G21 RMK AO2
14840KMKG MKG20020919052010909/19/02 05:20:31  5-MIN KMKG 191020Z 17015G21KT 10SM BKN047 OVC110 24/20 A2972 810 78 2100 170/15G21 RMK AO2
14840KMKG MKG20020919052510909/19/02 05:25:31  5-MIN KMKG 191025Z 17015G21KT 10SM BKN047 OVC110 24/20 A2972 820 78 2100 170/15G21 RMK AO2
14840KMKG MKG20020919053013109/19/02 05:30:31  5-MIN KMKG 191030Z 17014G20KT 10SM SCT047 BKN055 OVC110 24/20 A2972 820 78 2100 170/14G20 RMK AO2 CIG 047 RWY 14
14840KMKG MKG20020919053513109/19/02 05:35:31  5-MIN KMKG 191035Z 17012G20KT 10SM SCT047 SCT055 OVC110 24/20 A2972 820 78 2100 170/12G20 RMK AO2 CIG 055 RWY 14
14840KMKG MKG20020919054010309/19/02 05:40:31  5-MIN KMKG 191040Z 17012KT 10SM SCT049 OVC110 24/20 A2972 810 78 2100 170/12 RMK AO2
14840KMKG MKG20020919054513109/19/02 05:45:31  5-MIN KMKG 191045Z 17015G19KT 10SM SCT032 SCT049 OVC110 24/20 A2973 810 78 2100 170/15G19 RMK AO2 CIG 047 RWY 14
14840KMKG MKG20020919055013309/19/02 05:50:31  5-MIN KMKG 191050Z 17014G21KT 10SM BKN030 BKN047 OVC110 24/20 A2972 810 78 2100 170/14G21 RMK AO2 SLP062 T02390200
14840KMKG MKG20020919055513309/19/02 05:55:31  5-MIN KMKG 191055Z 17014G21KT 10SM BKN030 BKN047 OVC110 24/20 A2972 810 78 2100 170/14G21 RMK AO2 SLP061 T02390200
14840KMKG MKG20020919060011609/19/02 06:00:31  5-MIN KMKG 191100Z 17016G21KT 10SM BKN030 BKN047 OVC110 24/20 A2972 820 78 2100 170/16G21 RMK AO2
14840KMKG MKG20020919060510209/19/02 06:05:31  5-MIN KMKG 191105Z 17014G21KT 10SM OVC030 24/20 A2972 820 78 2100 180/14G21 RMK AO2
14840KMKG MKG20020919061010209/19/02 06:10:31  5-MIN KMKG 191110Z 17015G21KT 10SM OVC028 24/20 A2972 820 78 2100 170/15G21 RMK AO2
14840KMKG MKG20020919061510209/19/02 06:15:31  5-MIN KMKG 191115Z 17014G23KT 10SM OVC028 24/20 A2972 820 78 2100 180/14G23 RMK AO2
14840KMKG MKG20020919062010209/19/02 06:20:31  5-MIN KMKG 191120Z 17015G23KT 10SM OVC028 24/21 A2972 810 81 2100 180/15G23 RMK AO2
14840KMKG MKG20020919062510209/19/02 06:25:31  5-MIN KMKG 191125Z 17015G23KT 10SM OVC026 24/21 A2973 810 81 2100 180/15G23 RMK AO2
14840KMKG MKG20020919063010209/19/02 06:30:31  5-MIN KMKG 191130Z 18015G22KT 10SM OVC026 24/21 A2973 800 81 2100 190/15G22 RMK AO2
14840KMKG MKG20020919063510209/19/02 06:35:31  5-MIN KMKG 191135Z 18015G22KT 10SM OVC026 24/21 A2973 800 81 2100 180/15G22 RMK AO2
14840KMKG MKG20020919064010209/19/02 06:40:31  5-MIN KMKG 191140Z 18015G20KT 10SM OVC026 24/21 A2974 800 81 2100 180/15G20 RMK AO2
14840KMKG MKG20020919064510209/19/02 06:45:31  5-MIN KMKG 191145Z 17014G19KT 10SM OVC026 23/21 A2973 800 84 2000 170/14G19 RMK AO2
14840KMKG MKG20020919065014309/19/02 06:50:31  5-MIN KMKG 191150Z 17015G21KT 10SM OVC026 23/21 A2973 800 84 2000 180/15G21 RMK AO2 SLP065 70003 T02330206 10239 20211 55004
14840KMKG MKG20020919065514309/19/02 06:55:31  5-MIN KMKG 191155Z 17013G21KT 10SM OVC026 23/21 A2973 800 84 2000 180/13G21 RMK AO2 SLP065 70003 T02330206 10239 20211 55000
14840KMKG MKG20020919070010209/19/02 07:00:31  5-MIN KMKG 191200Z 18010G18KT 10SM OVC026 23/21 A2973 810 84 2000 180/10G18 RMK AO2
14840KMKG MKG20020919070510209/19/02 07:05:31  5-MIN KMKG 191205Z 18012G18KT 10SM OVC026 23/21 A2973 810 84 2000 180/12G18 RMK AO2
14840KMKG MKG20020919071010209/19/02 07:10:31  5-MIN KMKG 191210Z 18015G21KT 10SM OVC026 23/21 A2973 810 84 2000 180/15G21 RMK AO2
14840KMKG MKG20020919071510209/19/02 07:15:31  5-MIN KMKG 191215Z 18014G21KT 10SM OVC028 23/21 A2973 810 84 2000 180/14G21 RMK AO2
14840KMKG MKG20020919072010209/19/02 07:20:31  5-MIN KMKG 191220Z 18013G20KT 10SM OVC028 23/21 A2973 810 84 2000 180/13G20 RMK AO2
14840KMKG MKG20020919072510209/19/02 07:25:31  5-MIN KMKG 191225Z 18015G20KT 10SM OVC028 23/21 A2973 810 84 2000 180/15G20 RMK AO2
14840KMKG MKG20020919073010209/19/02 07:30:31  5-MIN KMKG 191230Z 18013G20KT 10SM OVC028 23/21 A2973 810 84 2000 180/13G20 RMK AO2
14840KMKG MKG20020919073510209/19/02 07:35:31  5-MIN KMKG 191235Z 18014G22KT 10SM OVC030 23/21 A2973 810 84 2000 180/14G22 RMK AO2
14840KMKG MKG20020919074010209/19/02 07:40:31  5-MIN KMKG 191240Z 18011G22KT 10SM OVC030 23/21 A2973 810 84 2000 180/11G22 RMK AO2
14840KMKG MKG20020919074510909/19/02 07:45:31  5-MIN KMKG 191245Z 18014G20KT 10SM BKN028 OVC034 23/21 A2973 810 84 2000 190/14G20 RMK AO2
14840KMKG MKG20020919075011909/19/02 07:50:31  5-MIN KMKG 191250Z 18015G20KT 10SM OVC030 23/21 A2973 810 84 2000 180/15G20 RMK AO2 SLP064 T02330206
14840KMKG MKG20020919075512609/19/02 07:55:31  5-MIN KMKG 191255Z 18016G25KT 10SM BKN030 OVC040 23/21 A2973 810 84 2000 180/16G25 RMK AO2 SLP064 T02330206
14840KMKG MKG20020919080011609/19/02 08:00:31  5-MIN KMKG 191300Z 18013G25KT 10SM BKN030 BKN040 OVC060 23/21 A2973 810 84 2000 190/13G25 RMK AO2
14840KMKG MKG20020919080511609/19/02 08:05:31  5-MIN KMKG 191305Z 18015G19KT 10SM SCT028 BKN033 BKN042 23/21 A2972 810 84 2000 180/15G19 RMK AO2
14840KMKG MKG20020919081011609/19/02 08:10:31  5-MIN KMKG 191310Z 18017G22KT 10SM SCT028 SCT040 BKN060 23/21 A2972 810 84 2000 190/17G22 RMK AO2
14840KMKG MKG20020919081511609/19/02 08:15:31  5-MIN KMKG 191315Z 19015G22KT 10SM FEW030 SCT040 SCT060 23/21 A2972 810 84 2000 190/15G22 RMK AO2
14840KMKG MKG20020919082010909/19/02 08:20:31  5-MIN KMKG 191320Z 18015G22KT 10SM FEW042 SCT060 23/21 A2973 810 84 2000 180/15G22 RMK AO2
14840KMKG MKG20020919082510209/19/02 08:25:31  5-MIN KMKG 191325Z 18013G22KT 10SM BKN060 23/21 A2973 810 87 2000 180/13G22 RMK AO2
14840KMKG MKG20020919083010209/19/02 08:30:31  5-MIN KMKG 191330Z 18015G21KT 10SM BKN060 23/21 A2972 810 87 2000 190/15G21 RMK AO2
14840KMKG MKG20020919083510209/19/02 08:35:31  5-MIN KMKG 191335Z 19013G21KT 10SM BKN060 23/21 A2972 810 87 2000 190/13G21 RMK AO2
14840KMKG MKG20020919084009609/19/02 08:40:31  5-MIN KMKG 191340Z 18013KT 10SM BKN060 23/21 A2972 810 87 2000 180/13 RMK AO2
14840KMKG MKG20020919084510209/19/02 08:45:31  5-MIN KMKG 191345Z 19014G20KT 10SM BKN060 23/21 A2972 810 87 2000 190/14G20 RMK AO2
14840KMKG MKG20020919085011909/19/02 08:50:31  5-MIN KMKG 191350Z 18012G20KT 10SM BKN060 23/21 A2972 810 87 2000 190/12G20 RMK AO2 SLP062 T02330211
14840KMKG MKG20020919085511309/19/02 08:55:31  5-MIN KMKG 191355Z 18014KT 10SM SCT060 24/21 A2972 810 84 2100 190/14 RMK AO2 SLP061 T02390211
14840KMKG MKG20020919090010209/19/02 09:00:31  5-MIN KMKG 191400Z 18013G19KT 10SM FEW060 24/21 A2972 810 84 2100 190/13G19 RMK AO2
14840KMKG MKG20020919090509609/19/02 09:05:31  5-MIN KMKG 191405Z 18015KT 10SM FEW060 24/21 A2972 810 81 2100 180/15 RMK AO2
14840KMKG MKG20020919091009609/19/02 09:10:31  5-MIN KMKG 191410Z 19012KT 10SM FEW065 24/22 A2972 820 84 2100 190/12 RMK AO2
14840KMKG MKG20020919091509909/19/02 09:15:31  5-MIN KMKG 191415Z 18017G22KT 10SM CLR 24/22 A2972 820 84 2100 190/17G22 RMK AO2
14840KMKG MKG20020919092009909/19/02 09:20:31  5-MIN KMKG 191420Z 18015G22KT 10SM CLR 24/22 A2972 820 84 2100 180/15G22 RMK AO2
14840KMKG MKG20020919092509909/19/02 09:25:31  5-MIN KMKG 191425Z 18016G22KT 10SM CLR 24/22 A2972 820 84 2100 190/16G22 RMK AO2
14840KMKG MKG20020919093011709/19/02 09:30:31  5-MIN KMKG 191430Z 17016G26KT 10SM CLR 24/22 A2971 820 84 2100 180/16G26 RMK AO2 PK WND 17026/1429
14840KMKG MKG20020919093511709/19/02 09:35:31  5-MIN KMKG 191435Z 18014G26KT 10SM CLR 25/22 A2971 820 81 2200 180/14G26 RMK AO2 PK WND 17026/1429
14840KMKG MKG20020919094011709/19/02 09:40:31  5-MIN KMKG 191440Z 18018G24KT 10SM CLR 25/22 A2971 820 81 2200 180/18G24 RMK AO2 PK WND 17026/1429
14840KMKG MKG20020919094511709/19/02 09:45:31  5-MIN KMKG 191445Z 17018G25KT 10SM CLR 25/22 A2971 820 81 2200 170/18G25 RMK AO2 PK WND 17026/1429
14840KMKG MKG20020919095014009/19/02 09:50:31  5-MIN KMKG 191450Z 18016G25KT 10SM CLR 26/22 A2971 820 79 2300 190/16G25 RMK AO2 PK WND 17026/1429 SLP059 T02560217 55000
14840KMKG MKG20020919095514009/19/02 09:55:31  5-MIN KMKG 191455Z 18016G23KT 10SM CLR 26/22 A2972 820 79 2300 190/16G23 RMK AO2 PK WND 17026/1429 SLP059 T02560217 58006
14840KMKG MKG20020919100009909/19/02 10:00:31  5-MIN KMKG 191500Z 18015G23KT 10SM CLR 26/22 A2971 820 79 2300 180/15G23 RMK AO2
14840KMKG MKG20020919100509909/19/02 10:05:31  5-MIN KMKG 191505Z 18016G21KT 10SM CLR 26/22 A2972 820 79 2300 190/16G21 RMK AO2
14840KMKG MKG20020919101009909/19/02 10:10:31  5-MIN KMKG 191510Z 18016G21KT 10SM CLR 26/22 A2972 820 79 2300 190/16G21 RMK AO2
14840KMKG MKG20020919101509909/19/02 10:15:31  5-MIN KMKG 191515Z 18015G21KT 10SM CLR 26/22 A2971 820 79 2300 180/15G21 RMK AO2
14840KMKG MKG20020919102009909/19/02 10:20:31  5-MIN KMKG 191520Z 18016G24KT 10SM CLR 26/22 A2971 830 79 2300 180/16G24 RMK AO2
14840KMKG MKG20020919102509909/19/02 10:25:31  5-MIN KMKG 191525Z 18016G24KT 10SM CLR 26/22 A2970 830 76 2300 180/16G24 RMK AO2
14840KMKG MKG20020919103010209/19/02 10:30:31  5-MIN KMKG 191530Z 18019G25KT 10SM FEW018 26/22 A2971 820 79 2300 180/19G25 RMK AO2
14840KMKG MKG20020919103510209/19/02 10:35:31  5-MIN KMKG 191535Z 18016G25KT 10SM SCT018 26/22 A2971 820 79 2300 180/16G25 RMK AO2
14840KMKG MKG20020919104010209/19/02 10:40:31  5-MIN KMKG 191540Z 19015G25KT 10SM BKN018 26/22 A2972 820 79 2300 190/15G25 RMK AO2
14840KMKG MKG20020919104510209/19/02 10:45:31  5-MIN KMKG 191545Z 18016G25KT 10SM BKN018 26/22 A2971 820 79 2300 190/16G25 RMK AO2
14840KMKG MKG20020919105011909/19/02 10:50:31  5-MIN KMKG 191550Z 19018G21KT 10SM BKN018 26/22 A2971 820 79 2300 190/18G21 RMK AO2 SLP059 T02560217
14840KMKG MKG20020919105511909/19/02 10:55:31  5-MIN KMKG 191555Z 18016G23KT 10SM BKN018 26/22 A2971 820 79 2300 180/16G23 RMK AO2 SLP058 T02560217
14840KMKG MKG20020919110010209/19/02 11:00:31  5-MIN KMKG 191600Z 19017G25KT 10SM BKN018 26/22 A2971 820 76 2300 190/17G25 RMK AO2
14840KMKG MKG20020919110510209/19/02 11:05:31  5-MIN KMKG 191605Z 18019G25KT 10SM BKN018 26/22 A2971 820 76 2300 190/19G25 RMK AO2
14840KMKG MKG20020919111010209/19/02 11:10:31  5-MIN KMKG 191610Z 18017G24KT 10SM BKN018 26/22 A2971 830 76 2300 180/17G24 RMK AO2
14840KMKG MKG20020919111510209/19/02 11:15:31  5-MIN KMKG 191615Z 19014G24KT 10SM BKN018 26/22 A2971 830 76 2300 190/14G24 RMK AO2
14840KMKG MKG20020919112010209/19/02 11:20:31  5-MIN KMKG 191620Z 18014G21KT 10SM BKN018 26/22 A2971 830 76 2300 190/14G21 RMK AO2
14840KMKG MKG20020919112510209/19/02 11:25:31  5-MIN KMKG 191625Z 18018G24KT 10SM BKN018 26/22 A2970 830 76 2300 180/18G24 RMK AO2
14840KMKG MKG20020919113010209/19/02 11:30:31  5-MIN KMKG 191630Z 17015G24KT 10SM BKN018 27/22 A2970 840 76 2400 170/15G24 RMK AO2
14840KMKG MKG20020919113510209/19/02 11:35:31  5-MIN KMKG 191635Z 19015G22KT 10SM BKN018 27/22 A2970 840 74 2500 190/15G22 RMK AO2
14840KMKG MKG20020919114010209/19/02 11:40:31  5-MIN KMKG 191640Z 18016G23KT 10SM BKN018 27/22 A2970 840 76 2400 180/16G23 RMK AO2
14840KMKG MKG20020919114510209/19/02 11:45:31  5-MIN KMKG 191645Z 18017G23KT 10SM BKN018 27/22 A2970 830 76 2400 180/17G23 RMK AO2
14840KMKG MKG20020919115011909/19/02 11:50:31  5-MIN KMKG 191650Z 18019G25KT 10SM BKN018 26/22 A2970 840 79 2300 180/19G25 RMK AO2 SLP053 T02610222
14840KMKG MKG20020919115511909/19/02 11:55:31  5-MIN KMKG 191655Z 18016G25KT 10SM OVC018 26/22 A2970 840 79 2400 190/16G25 RMK AO2 SLP052 T02610222
14840KMKG MKG20020919120010209/19/02 12:00:31  5-MIN KMKG 191700Z 18016G22KT 10SM OVC018 27/22 A2969 840 76 2400 190/16G22 RMK AO2
14840KMKG MKG20020919120510209/19/02 12:05:31  5-MIN KMKG 191705Z 18018G24KT 10SM OVC018 27/22 A2969 840 76 2400 180/18G24 RMK AO2
14840KMKG MKG20020919121010209/19/02 12:10:31  5-MIN KMKG 191710Z 18016G24KT 10SM OVC018 27/22 A2969 850 76 2400 180/16G24 RMK AO2
14840KMKG MKG20020919121510209/19/02 12:15:31  5-MIN KMKG 191715Z 18013G23KT 10SM OVC018 27/22 A2968 850 76 2400 180/13G23 RMK AO2
14840KMKG MKG20020919122010209/19/02 12:20:31  5-MIN KMKG 191720Z 17017G20KT 10SM OVC018 26/22 A2968 850 79 2400 180/17G20 RMK AO2
14840KMKG MKG20020919122510209/19/02 12:25:31  5-MIN KMKG 191725Z 18016G21KT 10SM OVC020 26/22 A2969 850 79 2400 180/16G21 RMK AO2
14840KMKG MKG20020919123009609/19/02 12:30:31  5-MIN KMKG 191730Z 17019KT 10SM OVC020 26/22 A2969 850 79 2400 180/19 RMK AO2
14840KMKG MKG20020919123510209/19/02 12:35:31  5-MIN KMKG 191735Z 17016G23KT 10SM OVC020 26/22 A2968 850 79 2400 180/16G23 RMK AO2
14840KMKG MKG20020919124010209/19/02 12:40:31  5-MIN KMKG 191740Z 18016G23KT 10SM OVC022 27/22 A2968 860 76 2400 180/16G23 RMK AO2
14840KMKG MKG20020919124510309/19/02 12:45:31  5-MIN KMKG 191745Z 16019KT 10SM BKN022 OVC030 27/22 A2967 860 76 2400 170/19 RMK AO2
14840KMKG MKG20020919125014409/19/02 12:50:31  5-MIN KMKG 191750Z 17015G24KT 10SM BKN022 OVC030 27/22 A2967 860 76 2400 170/15G24 RMK AO2 SLP042 T02670222 10272 20233 58006
14840KMKG MKG20020919125514409/19/02 12:55:31  5-MIN KMKG 191755Z 17015G24KT 10SM SCT022 OVC030 27/22 A2967 870 76 2400 180/15G24 RMK AO2 SLP041 T02670222 10272 20233 58016
14840KMKG MKG20020919130010909/19/02 13:00:31  5-MIN KMKG 191800Z 18017G24KT 10SM FEW022 OVC032 27/22 A2967 860 76 2400 180/17G24 RMK AO2
14840KMKG MKG20020919130510909/19/02 13:05:31  5-MIN KMKG 191805Z 18015G24KT 10SM SCT025 OVC032 27/22 A2967 860 76 2400 190/15G24 RMK AO2
14840KMKG MKG20020919131010909/19/02 13:10:31  5-MIN KMKG 191810Z 17016G25KT 10SM SCT025 OVC032 27/22 A2967 860 76 2400 180/16G25 RMK AO2
14840KMKG MKG20020919131510909/19/02 13:15:31  5-MIN KMKG 191815Z 18014G25KT 10SM BKN025 OVC032 27/22 A2967 860 76 2400 180/14G25 RMK AO2
14840KMKG MKG20020919132010909/19/02 13:20:31  5-MIN KMKG 191820Z 17015G21KT 10SM BKN027 OVC032 27/22 A2967 860 76 2400 180/15G21 RMK AO2
14840KMKG MKG20020919132510909/19/02 13:25:31  5-MIN KMKG 191825Z 18013G21KT 10SM BKN027 OVC032 27/22 A2967 870 76 2400 180/13G21 RMK AO2
14840KMKG MKG20020919133010909/19/02 13:30:31  5-MIN KMKG 191830Z 18018G25KT 10SM BKN027 OVC032 27/22 A2967 860 76 2400 180/18G25 RMK AO2
14840KMKG MKG20020919133510909/19/02 13:35:31  5-MIN KMKG 191835Z 18016G25KT 10SM BKN027 OVC033 27/22 A2966 870 76 2400 180/16G25 RMK AO2
14840KMKG MKG20020919134010909/19/02 13:40:31  5-MIN KMKG 191840Z 18013G21KT 10SM BKN029 OVC034 27/22 A2966 870 74 2500 180/13G21 RMK AO2
14840KMKG MKG20020919134511609/19/02 13:45:31  5-MIN KMKG 191845Z 18015G20KT 10SM FEW027 BKN032 OVC045 27/22 A2966 870 74 2500 180/15G20 RMK AO2
14840KMKG MKG20020919135012609/19/02 13:50:31  5-MIN KMKG 191850Z 18012G20KT 10SM BKN030 OVC043 27/22 A2965 880 76 2500 180/12G20 RMK AO2 SLP038 T02670222
14840KMKG MKG20020919135513509/19/02 13:55:31  5-MIN KMKG 191855Z 18014KT 10SM SCT030 OVC041 27/22 A2966 880 76 2500 180/14 RMK AO2 CIG 031 RWY 14 SLP037 T02670222
14840KMKG MKG20020919140010309/19/02 14:00:31  5-MIN KMKG 191900Z 17014KT 10SM SCT030 OVC041 27/22 A2965 880 76 2500 170/14 RMK AO2
14840KMKG MKG20020919140510309/19/02 14:05:31  5-MIN KMKG 191905Z 18009KT 10SM FEW032 OVC041 27/22 A2965 880 76 2500 190/09 RMK AO2
14840KMKG MKG20020919141010909/19/02 14:10:31  5-MIN KMKG 191910Z 19011G16KT 10SM FEW032 OVC041 27/22 A2965 880 76 2500 190/11G16 RMK AO2
14840KMKG MKG20020919141510209/19/02 14:15:31  5-MIN KMKG 191915Z 18011G16KT 10SM BKN041 27/23 A2964 890 76 2500 180/11G16 RMK AO2
14840KMKG MKG20020919142010909/19/02 14:20:31  5-MIN KMKG 191920Z 19016G20KT 10SM FEW033 BKN041 27/23 A2964 890 76 2500 190/16G20 RMK AO2
14840KMKG MKG20020919142510909/19/02 14:25:31  5-MIN KMKG 191925Z 20014G20KT 10SM SCT033 BKN041 27/22 A2964 890 76 2500 200/14G20 RMK AO2
14840KMKG MKG20020919143011609/19/02 14:30:31  5-MIN KMKG 191930Z 19013G20KT 10SM FEW024 BKN031 BKN041 27/22 A2965 890 76 2500 190/13G20 RMK AO2
14840KMKG MKG20020919143511009/19/02 14:35:31  5-MIN KMKG 191935Z 19013KT 10SM FEW024 SCT031 BKN037 26/22 A2965 880 79 2400 190/13 RMK AO2
14840KMKG MKG20020919144011009/19/02 14:40:31  5-MIN KMKG 191940Z 19015KT 10SM FEW024 SCT029 BKN037 26/22 A2965 880 79 2400 200/15 RMK AO2
14840KMKG MKG20020919144511609/19/02 14:45:31  5-MIN KMKG 191945Z 19015G19KT 10SM FEW024 BKN037 OVC047 26/22 A2965 880 81 2300 200/15G19 RMK AO2
14840KMKG MKG20020919145012009/19/02 14:50:31  5-MIN KMKG 191950Z 19013KT 10SM FEW024 OVC039 26/22 A2966 870 81 2300 200/13 RMK AO2 SLP040 T02560222
14840KMKG MKG20020919145513309/19/02 14:55:31  5-MIN KMKG 191955Z 20017G23KT 10SM FEW015 SCT022 OVC039 25/22 A2966 870 84 2300 200/17G23 RMK AO2 SLP040 T02500222
14840KMKG MKG20020919150011509/19/02 15:00:31  5-MIN KMKG 192000Z 19015G23KT 9SM FEW015 SCT022 OVC039 24/22 A2965 880 87 2200 190/15G23 RMK AO2
14840KMKG MKG20020919150511509/19/02 15:05:31  5-MIN KMKG 192005Z 18014G22KT 9SM FEW015 BKN039 OVC047 24/22 A2965 880 90 2100 190/14G22 RMK AO2
14840KMKG MKG20020919151011509/19/02 15:10:31  5-MIN KMKG 192010Z 18013G22KT 9SM FEW015 BKN039 BKN048 24/22 A2966 870 87 2100 180/13G22 RMK AO2
14840KMKG MKG20020919151511009/19/02 15:15:31  5-MIN KMKG 192015Z 18015KT 10SM FEW015 SCT034 BKN041 24/22 A2966 870 87 2100 190/15 RMK AO2
14840KMKG MKG20020919152011009/19/02 15:20:31  5-MIN KMKG 192020Z 19013KT 10SM FEW015 SCT034 BKN045 23/21 A2966 870 87 2100 190/13 RMK AO2
14840KMKG MKG20020919152511009/19/02 15:25:31  5-MIN KMKG 192025Z 17014KT 10SM FEW015 SCT034 BKN045 23/21 A2966 870 84 2100 180/14 RMK AO2
14840KMKG MKG20020919153010309/19/02 15:30:31  5-MIN KMKG 192030Z 18009KT 10SM BKN032 BKN042 23/21 A2966 870 84 2100 190/09 RMK AO2
14840KMKG MKG20020919153510309/19/02 15:35:31  5-MIN KMKG 192035Z 17011KT 10SM BKN030 BKN042 23/21 A2965 880 84 2100 180/11 RMK AO2
14840KMKG MKG20020919154011009/19/02 15:40:31  5-MIN KMKG 192040Z 17009KT 10SM BKN030 BKN035 BKN042 23/20 A2965 880 81 2100 180/09 RMK AO2
14840KMKG MKG20020919154510309/19/02 15:45:31  5-MIN KMKG 192045Z 18012KT 10SM SCT028 BKN037 23/19 A2965 880 78 2100 180/12 RMK AO2
14840KMKG MKG20020919155012609/19/02 15:50:31  5-MIN KMKG 192050Z 18009KT 10SM SCT028 BKN037 23/19 A2965 880 78 2100 180/09 RMK AO2 SLP036 T02330194 58016
14840KMKG MKG20020919155513209/19/02 15:55:31  5-MIN KMKG 192055Z 18012G16KT 10SM SCT024 BKN033 24/19 A2965 880 76 2200 180/12G16 RMK AO2 SLP036 T02390194 56006
14840KMKG MKG20020919160012509/19/02 16:00:31  5-MIN KMKG 192100Z 18011KT 10SM SCT024 SCT028 BKN036 24/19 A2965 880 76 2200 180/11 RMK AO2 CIG 024 RWY 14
14840KMKG MKG20020919160511009/19/02 16:05:31  5-MIN KMKG 192105Z 17011KT 10SM SCT024 BKN029 BKN036 23/19 A2965 880 78 2100 180/11 RMK AO2
14840KMKG MKG20020919161011009/19/02 16:10:31  5-MIN KMKG 192110Z 18011KT 10SM BKN024 BKN029 BKN038 23/19 A2965 880 78 2100 190/11 RMK AO2
14840KMKG MKG20020919161510309/19/02 16:15:31  5-MIN KMKG 192115Z 17011KT 10SM BKN024 BKN036 23/20 A2965 880 81 2100 180/11 RMK AO2
14840KMKG MKG20020919162011009/19/02 16:20:31  5-MIN KMKG 192120Z 18011KT 10SM BKN024 BKN035 BKN110 23/20 A2965 890 81 2100 180/11 RMK AO2
14840KMKG MKG20020919162511009/19/02 16:25:31  5-MIN KMKG 192125Z 18013KT 10SM SCT024 BKN035 BKN100 23/20 A2965 880 81 2100 180/13 RMK AO2
14840KMKG MKG20020919163011609/19/02 16:30:31  5-MIN KMKG 192130Z 18015G19KT 10SM SCT024 SCT031 BKN100 23/20 A2964 890 81 2100 180/15G19 RMK AO2
14840KMKG MKG20020919163510909/19/02 16:35:31  5-MIN KMKG 192135Z 18014G19KT 10SM FEW024 BKN100 23/20 A2964 890 81 2100 180/14G19 RMK AO2
14840KMKG MKG20020919164011009/19/02 16:40:31  5-MIN KMKG 192140Z 18012KT 10SM FEW024 SCT090 BKN110 23/21 A2964 890 84 2100 180/12 RMK AO2
14840KMKG MKG20020919164509609/19/02 16:45:31  5-MIN KMKG 192145Z 18011KT 10SM BKN100 24/21 A2964 890 81 2200 180/11 RMK AO2
14840KMKG MKG20020919165012009/19/02 16:50:31  5-MIN KMKG 192150Z 17015KT 10SM SCT100 SCT110 24/21 A2964 890 84 2200 180/15 RMK AO2 SLP033 T02390211
14840KMKG MKG20020919165511309/19/02 16:55:31  5-MIN KMKG 192155Z 18015KT 10SM BKN100 24/21 A2964 890 84 2200 180/15 RMK AO2 SLP034 T02390211
14840KMKG MKG20020919170012609/19/02 17:00:31  5-MIN KMKG 192200Z 18013KT 10SM TS BKN100 24/21 A2965 880 84 2200 190/13 RMK AO2 TSB2158 TS DSNT W-SW MOV E
14840KMKG MKG20020919170513209/19/02 17:05:31  5-MIN KMKG 192205Z 18011G18KT 10SM TS BKN100 24/21 A2965 880 81 2200 190/11G18 RMK AO2 TSB2158 TS DSNT W-SW MOV E
14840KMKG MKG20020919171013909/19/02 17:10:31  5-MIN KMKG 192210Z 19014G20KT 10SM TS SCT060 BKN110 24/22 A2965 880 84 2200 190/14G20 RMK AO2 TSB2158 TS DSNT W-SW MOV E
14840KMKG MKG20020919171515409/19/02 17:15:31  5-MIN KMKG 192215Z 18013G20KT 10SM TS BKN060 BKN110 24/22 A2965 880 84 2200 190/13G20 RMK AO2 TSB2158 OCNL LTGICCG W-SW TS NW-SW MOV NE
14840KMKG MKG20020919172017709/19/02 17:20:31  5-MIN KMKG 192220Z 23016G19KT 200V260 10SM TS FEW026 BKN060 BKN110 24/22 A2966 870 84 2200 240/16G19 200V260 RMK AO2 OCNL LTGICCG W-SW TSB2158 TS NW-SW MOV NE
14840KMKG MKG20020919172519409/19/02 17:25:31  5-MIN KMKG 192225Z 25020G27KT 8SM -TSRA FEW017 BKN060 OVC110 23/21 A2968 860 90 2000 260/20G27 RMK AO2 PK WND 24027/2225 PRESRR OCNL LTGICCG W-SW TSB2158 TS NW-SW MOV NE P0001
14840KMKG MKG20020919173021809/19/02 17:30:31  5-MIN KMKG 192230Z 24018G27KT 1 3/4SM +TSRA BR SCT010 BKN044 OVC060 21/20 A2968 850 97 1700 250/18G27 RMK AO2 PK WND 25027/2226 WSHFT 2212 TWR VIS 2 PRESRR OCNL LTGICCG VC TSB2158 TS N-S MOV NE P0017
14840KMKG MKG20020919173520209/19/02 17:35:31  5-MIN KMKG 192235Z 24008G27KT 1SM +TSRA BR BKN010 BKN026 OVC060 20/20 A2966 870 100 1700 250/08G27 RMK AO2 PK WND 25027/2226 WSHFT 2212 OCNL LTGIC OHD TSB2158RAB23 TS OHD MOV NE P0026
14840KMKG MKG20020919174020609/19/02 17:40:31  5-MIN KMKG 192240Z 23009G16KT 1 3/4SM +TSRA BR BKN014 BKN033 OVC060 21/20 A2966 870 97 1800 230/09G16 RMK AO2 PK WND 25027/2226 WSHFT 2212 OCNL LTGICCG VC TSB2158RAB23 TS OHD MOV NE P0029
14840KMKG MKG20020919174519509/19/02 17:45:31  5-MIN KMKG 192245Z 23009KT 2SM TSRA BR BKN019 BKN029 OVC038 21/20 A2967 870 97 1800 230/09 RMK AO2 PK WND 25027/2226 WSHFT 2212 OCNL LTGICCG VC TSB2158RAB23 TS OHD MOV NE P0031
14840KMKG MKG20020919175019909/19/02 17:50:31  5-MIN KMKG 192250Z 23008KT 3SM -TSRA BR OVC019 21/20 A2966 870 97 1800 240/08 RMK AO2 PK WND 25027/2226 WSHFT 2212 SLP042 OCNL LTGICCG VC TSB2158RAB23 TS N-S MOV NE P0033 T02060200
14840KMKG MKG20020919175520309/19/02 17:55:31  5-MIN KMKG 192255Z 21007KT 2 1/2SM TSRA BR OVC019 20/20 A2966 870 100 1700 220/07 RMK AO2 PK WND 25027/2226 WSHFT 2212 OCNL LTGICCG VC TSB2158RAB23 TS N-S MOV NE SLP042 P0035 T02000200
14840KMKG MKG20020919180011509/19/02 18:00:31  5-MIN KMKG 192300Z 19007KT 2 1/2SM -TSRA BR OVC019 20/20 A2966 880 100 1700 190/07 RMK AO2 P0002
14840KMKG MKG20020919180514709/19/02 18:05:31  5-MIN KMKG 192305Z 17004KT 4SM -TSRA BR BKN019 21/21 A2965 880 100 1800 170/04 RMK AO2 OCNL LTG DSNT E TS DSNT N-SE MOV NE P0002
14840KMKG MKG20020919181014409/19/02 18:10:31  5-MIN KMKG 192310Z 14006KT 8SM -TSRA BKN021 21/21 A2965 880 100 1800 150/06 RMK AO2 OCNL LTG DSNT E TS DSNT N-SE MOV NE P0002
14840KMKG MKG20020919181512309/19/02 18:15:31  5-MIN KMKG 192315Z 15007KT 10SM -TSRA SCT019 21/21 A2964 890 100 1800 150/07 RMK AO2 TS DSNT NE-SE P0002
14840KMKG MKG20020919182011409/19/02 18:20:31  5-MIN KMKG 192320Z 16006KT 10SM SCT019 21/21 A2965 880 100 1800 170/06 RMK AO2 TSE16RAE16 P0002
14840KMKG MKG20020919182511409/19/02 18:25:31  5-MIN KMKG 192325Z 15005KT 10SM FEW019 21/21 A2965 880 100 1800 150/05 RMK AO2 TSE16RAE16 P0002
14840KMKG MKG20020919183011109/19/02 18:30:31  5-MIN KMKG 192330Z 15006KT 10SM CLR 21/21 A2965 880 100 1800 150/06 RMK AO2 TSE16RAE16 P0002
14840KMKG MKG20020919183511409/19/02 18:35:31  5-MIN KMKG 192335Z 14007KT 10SM FEW020 21/21 A2965 880 100 1800 140/07 RMK AO2 TSE16RAE16 P0002
14840KMKG MKG20020919184011409/19/02 18:40:31  5-MIN KMKG 192340Z 14007KT 10SM SCT015 21/21 A2965 880 100 1800 140/07 RMK AO2 TSE16RAE16 P0002
14840KMKG MKG20020919184511409/19/02 18:45:31  5-MIN KMKG 192345Z 14006KT 10SM SCT015 21/21 A2965 880 100 1800 140/06 RMK AO2 TSE16RAE16 P0002
14840KMKG MKG20020919185015509/19/02 18:50:31  5-MIN KMKG 192350Z 14006KT 10SM FEW015 21/21 A2965 880 100 1800 150/06 RMK AO2 TSE16RAE16 SLP037 P0002 60037 T02060206 10272 20200 56006
14840KMKG MKG20020919185515509/19/02 18:55:31  5-MIN KMKG 192355Z 15006KT 10SM FEW015 21/21 A2965 880 100 1800 160/06 RMK AO2 TSE16RAE16 SLP036 P0002 60037 T02060206 10272 20200 50000
14840KMKG MKG20020919190009709/19/02 19:00:31  5-MIN KMKG 200000Z 15007KT 10SM FEW015 21/21 A2965 880 100 1800 160/07 RMK AO2
14840KMKG MKG20020919190509709/19/02 19:05:31  5-MIN KMKG 200005Z 15007KT 10SM FEW015 21/21 A2965 880 100 1800 160/07 RMK AO2
14840KMKG MKG20020919191009409/19/02 19:10:31  5-MIN KMKG 200010Z 16007KT 10SM CLR 21/21 A2965 880 100 1800 160/07 RMK AO2
14840KMKG MKG20020919191509409/19/02 19:15:31  5-MIN KMKG 200015Z 16007KT 10SM CLR 21/21 A2965 880 100 1800 160/07 RMK AO2
14840KMKG MKG20020919192009409/19/02 19:20:31  5-MIN KMKG 200020Z 16008KT 10SM CLR 21/21 A2965 880 100 1800 170/08 RMK AO2
14840KMKG MKG20020919192509409/19/02 19:25:31  5-MIN KMKG 200025Z 16008KT 10SM CLR 21/21 A2965 880 100 1800 160/08 RMK AO2
14840KMKG MKG20020919193009709/19/02 19:30:31  5-MIN KMKG 200030Z 16006KT 10SM FEW060 21/21 A2965 880 100 1800 160/06 RMK AO2
14840KMKG MKG20020919193509709/19/02 19:35:31  5-MIN KMKG 200035Z 16006KT 10SM FEW060 21/21 A2965 880 100 1800 160/06 RMK AO2
14840KMKG MKG20020919194009409/19/02 19:40:31  5-MIN KMKG 200040Z 17006KT 10SM CLR 21/21 A2965 880 100 1800 170/06 RMK AO2
14840KMKG MKG20020919194509409/19/02 19:45:31  5-MIN KMKG 200045Z 18007KT 10SM CLR 21/21 A2966 870 100 1800 180/07 RMK AO2
14840KMKG MKG20020919195011109/19/02 19:50:31  5-MIN KMKG 200050Z 18008KT 10SM CLR 22/22 A2966 870 100 1900 180/08 RMK AO2 SLP039 T02170217
14840KMKG MKG20020919195511109/19/02 19:55:31  5-MIN KMKG 200055Z 18010KT 10SM CLR 22/22 A2966 870 100 1900 180/10 RMK AO2 SLP041 T02170217
14840KMKG MKG20020919200009409/19/02 20:00:31  5-MIN KMKG 200100Z 18009KT 10SM CLR 22/22 A2966 870 100 1900 180/09 RMK AO2
14840KMKG MKG20020919200509309/19/02 20:05:31  5-MIN KMKG 200105Z 18009KT 10SM CLR 22/22 A2966 870 97 1900 180/09 RMK AO2
14840KMKG MKG20020919201009309/19/02 20:10:31  5-MIN KMKG 200110Z 18008KT 10SM CLR 22/22 A2966 870 97 1900 190/08 RMK AO2
14840KMKG MKG20020919201509309/19/02 20:15:31  5-MIN KMKG 200115Z 18011KT 10SM CLR 22/22 A2966 870 97 1900 190/11 RMK AO2
14840KMKG MKG20020919202009309/19/02 20:20:31  5-MIN KMKG 200120Z 18010KT 10SM CLR 22/21 A2966 870 93 2000 190/10 RMK AO2
14840KMKG MKG20020919202509909/19/02 20:25:31  5-MIN KMKG 200125Z 18011G17KT 10SM CLR 22/21 A2966 870 93 2000 190/11G17 RMK AO2
14840KMKG MKG20020919203009909/19/02 20:30:31  5-MIN KMKG 200130Z 19012G17KT 10SM CLR 22/21 A2966 870 97 1900 190/12G17 RMK AO2
14840KMKG MKG20020919203509309/19/02 20:35:31  5-MIN KMKG 200135Z 18010KT 10SM CLR 22/21 A2966 870 90 2000 190/10 RMK AO2
14840KMKG MKG20020919204009309/19/02 20:40:31  5-MIN KMKG 200140Z 18011KT 10SM CLR 22/21 A2966 870 93 1900 180/11 RMK AO2
14840KMKG MKG20020919204509309/19/02 20:45:31  5-MIN KMKG 200145Z 19012KT 10SM CLR 22/21 A2966 870 90 2000 190/12 RMK AO2
14840KMKG MKG20020919205011009/19/02 20:50:31  5-MIN KMKG 200150Z 18012KT 10SM CLR 22/21 A2966 870 90 1900 190/12 RMK AO2 SLP040 T02220206
14840KMKG MKG20020919205511009/19/02 20:55:31  5-MIN KMKG 200155Z 18012KT 10SM CLR 22/21 A2966 870 90 1900 190/12 RMK AO2 SLP041 T02220206
14840KMKG MKG20020919210009309/19/02 21:00:31  5-MIN KMKG 200200Z 18012KT 10SM CLR 22/21 A2966 870 90 1900 190/12 RMK AO2
14840KMKG MKG20020919210509909/19/02 21:05:31  5-MIN KMKG 200205Z 18013G20KT 10SM CLR 22/21 A2966 870 90 1900 180/13G20 RMK AO2
14840KMKG MKG20020919211009909/19/02 21:10:31  5-MIN KMKG 200210Z 18015G20KT 10SM CLR 22/21 A2967 870 90 1900 190/15G20 RMK AO2
14840KMKG MKG20020919211509909/19/02 21:15:31  5-MIN KMKG 200215Z 18013G20KT 10SM CLR 22/21 A2967 860 90 1900 190/13G20 RMK AO2
14840KMKG MKG20020919212009909/19/02 21:20:31  5-MIN KMKG 200220Z 18015G19KT 10SM CLR 22/21 A2967 860 93 1900 190/15G19 RMK AO2
14840KMKG MKG20020919212509309/19/02 21:25:31  5-MIN KMKG 200225Z 18013KT 10SM CLR 22/21 A2968 860 93 1900 190/13 RMK AO2
14840KMKG MKG20020919213009309/19/02 21:30:31  5-MIN KMKG 200230Z 18015KT 10SM CLR 22/21 A2968 860 93 1900 190/15 RMK AO2
14840KMKG MKG20020919213509309/19/02 21:35:31  5-MIN KMKG 200235Z 18014KT 10SM CLR 22/21 A2968 860 93 1900 180/14 RMK AO2
14840KMKG MKG20020919214009309/19/02 21:40:31  5-MIN KMKG 200240Z 18014KT 10SM CLR 22/21 A2968 860 93 1900 180/14 RMK AO2
14840KMKG MKG20020919214509909/19/02 21:45:31  5-MIN KMKG 200245Z 18014G20KT 10SM CLR 22/21 A2968 850 93 1900 180/14G20 RMK AO2
14840KMKG MKG20020919215012209/19/02 21:50:31  5-MIN KMKG 200250Z 18013G20KT 10SM CLR 22/21 A2968 850 93 1900 180/13G20 RMK AO2 SLP047 T02220211 50000
14840KMKG MKG20020919215511609/19/02 21:55:31  5-MIN KMKG 200255Z 18012KT 10SM CLR 22/21 A2968 850 93 1900 180/12 RMK AO2 SLP047 T02220211 53010
14840KMKG MKG20020919220009909/19/02 22:00:31  5-MIN KMKG 200300Z 18012G18KT 10SM CLR 22/21 A2968 850 93 1900 180/12G18 RMK AO2
14840KMKG MKG20020919220509309/19/02 22:05:31  5-MIN KMKG 200305Z 18014KT 10SM CLR 22/21 A2968 850 93 1900 180/14 RMK AO2
14840KMKG MKG20020919221009609/19/02 22:10:31  5-MIN KMKG 200310Z 18013KT 10SM FEW031 22/21 A2968 850 93 1900 180/13 RMK AO2
14840KMKG MKG20020919221509609/19/02 22:15:31  5-MIN KMKG 200315Z 18014KT 10SM FEW031 22/21 A2969 850 93 1900 180/14 RMK AO2
14840KMKG MKG20020919222009609/19/02 22:20:31  5-MIN KMKG 200320Z 18014KT 10SM SCT031 22/21 A2969 850 93 1900 190/14 RMK AO2
14840KMKG MKG20020919222509609/19/02 22:25:31  5-MIN KMKG 200325Z 18015KT 10SM BKN031 22/21 A2969 850 93 1900 180/15 RMK AO2
14840KMKG MKG20020919223009609/19/02 22:30:31  5-MIN KMKG 200330Z 18014KT 10SM BKN031 23/21 A2968 850 90 2000 190/14 RMK AO2
14840KMKG MKG20020919223509609/19/02 22:35:31  5-MIN KMKG 200335Z 18015KT 10SM BKN031 23/21 A2969 850 90 2000 180/15 RMK AO2
14840KMKG MKG20020919224009609/19/02 22:40:31  5-MIN KMKG 200340Z 18014KT 10SM BKN031 22/21 A2969 850 93 1900 190/14 RMK AO2
14840KMKG MKG20020919224510209/19/02 22:45:31  5-MIN KMKG 200345Z 18016G21KT 10SM OVC031 22/21 A2969 840 93 1900 190/16G21 RMK AO2
14840KMKG MKG20020919225011909/19/02 22:50:31  5-MIN KMKG 200350Z 18014G21KT 10SM BKN031 23/21 A2969 850 90 2000 190/14G21 RMK AO2 SLP049 T02280211
14840KMKG MKG20020919225511309/19/02 22:55:31  5-MIN KMKG 200355Z 19014KT 10SM BKN031 22/21 A2969 850 93 1900 190/14 RMK AO2 SLP049 T02220211
14840KMKG MKG20020919230009609/19/02 23:00:31  5-MIN KMKG 200400Z 18015KT 10SM SCT031 22/21 A2969 850 93 1900 180/15 RMK AO2
14840KMKG MKG20020919230509609/19/02 23:05:31  5-MIN KMKG 200405Z 18014KT 10SM SCT031 22/21 A2968 850 93 1900 190/14 RMK AO2
14840KMKG MKG20020919231009609/19/02 23:10:31  5-MIN KMKG 200410Z 18015KT 10SM FEW031 22/21 A2968 850 93 1900 180/15 RMK AO2
14840KMKG MKG20020919231509609/19/02 23:15:31  5-MIN KMKG 200415Z 18014KT 10SM FEW031 22/21 A2968 850 93 1900 190/14 RMK AO2
14840KMKG MKG20020919232009309/19/02 23:20:31  5-MIN KMKG 200420Z 19014KT 10SM CLR 22/21 A2969 850 93 1900 190/14 RMK AO2
14840KMKG MKG20020919232509309/19/02 23:25:31  5-MIN KMKG 200425Z 19014KT 10SM CLR 22/21 A2969 850 93 1900 190/14 RMK AO2
14840KMKG MKG20020919233009909/19/02 23:30:31  5-MIN KMKG 200430Z 19013G20KT 10SM CLR 22/21 A2969 850 93 1900 190/13G20 RMK AO2
14840KMKG MKG20020919233509909/19/02 23:35:31  5-MIN KMKG 200435Z 19013G20KT 10SM CLR 22/21 A2969 850 93 1900 190/13G20 RMK AO2
14840KMKG MKG20020919234009309/19/02 23:40:31  5-MIN KMKG 200440Z 19013KT 10SM CLR 22/21 A2968 850 93 1900 190/13 RMK AO2
14840KMKG MKG20020919234509909/19/02 23:45:31  5-MIN KMKG 200445Z 19012G18KT 10SM CLR 22/21 A2968 850 93 1900 190/12G18 RMK AO2
14840KMKG MKG20020919235012609/19/02 23:50:31  5-MIN KMKG 200450Z 19014G19KT 10SM CLR 22/21 A2968 850 93 1900 190/14G19 RMK AO2 SLP046 T02220211 402720200
14840KMKG MKG20020919235512009/19/02 23:55:31  5-MIN KMKG 200455Z 18013KT 10SM CLR 22/21 A2968 850 93 1900 190/13 RMK AO2 SLP046 T02220211 402720200
14840KMKG MKG20020920000009909/20/02 00:00:31  5-MIN KMKG 200500Z 18011G19KT 10SM CLR 22/21 A2968 850 93 1900 190/11G19 RMK AO2
14840KMKG MKG20020920000509309/20/02 00:05:31  5-MIN KMKG 200505Z 18011KT 10SM CLR 22/21 A2969 850 93 1900 190/11 RMK AO2
14840KMKG MKG20020920001009309/20/02 00:10:31  5-MIN KMKG 200510Z 18013KT 10SM CLR 22/21 A2969 850 93 1900 190/13 RMK AO2
14840KMKG MKG20020920001509309/20/02 00:15:31  5-MIN KMKG 200515Z 18013KT 10SM CLR 22/21 A2969 850 93 1900 190/13 RMK AO2
14840KMKG MKG20020920002009309/20/02 00:20:31  5-MIN KMKG 200520Z 18014KT 10SM CLR 22/21 A2969 840 93 1900 190/14 RMK AO2
14840KMKG MKG20020920002509309/20/02 00:25:31  5-MIN KMKG 200525Z 18012KT 10SM CLR 22/21 A2969 840 93 1900 180/12 RMK AO2
14840KMKG MKG20020920003009309/20/02 00:30:31  5-MIN KMKG 200530Z 18013KT 10SM CLR 22/21 A2969 840 97 1900 180/13 RMK AO2
14840KMKG MKG20020920003509609/20/02 00:35:31  5-MIN KMKG 200535Z 18012KT 10SM FEW065 22/21 A2969 840 97 1900 180/12 RMK AO2
14840KMKG MKG20020920004010309/20/02 00:40:31  5-MIN KMKG 200540Z 18012KT 10SM FEW065 SCT085 22/21 A2969 850 97 1900 180/12 RMK AO2
14840KMKG MKG20020920004510909/20/02 00:45:31  5-MIN KMKG 200545Z 18015G20KT 10SM SCT060 BKN085 22/22 A2969 850 97 1900 190/15G20 RMK AO2
14840KMKG MKG20020920005014409/20/02 00:50:31  5-MIN KMKG 200550Z 18014G20KT 10SM BKN060 BKN085 22/22 A2969 850 97 1900 190/14G20 RMK AO2 SLP048 T02220217 10228 20206 53010
14840KMKG MKG20020920005514409/20/02 00:55:31  5-MIN KMKG 200555Z 19013G19KT 10SM BKN060 BKN085 22/22 A2969 850 97 1900 190/13G19 RMK AO2 SLP048 T02220217 10228 20206 51002
14840KMKG MKG20020920010010309/20/02 01:00:31  5-MIN KMKG 200600Z 19013KT 10SM BKN060 OVC085 22/22 A2969 850 97 1900 190/13 RMK AO2
14840KMKG MKG20020920010510309/20/02 01:05:31  5-MIN KMKG 200605Z 19012KT 10SM FEW029 OVC060 22/22 A2968 850 97 1900 200/12 RMK AO2
14840KMKG MKG20020920011010909/20/02 01:10:31  5-MIN KMKG 200610Z 19014G19KT 10SM SCT029 OVC060 22/22 A2968 850 97 1900 200/14G19 RMK AO2
14840KMKG MKG20020920011510909/20/02 01:15:31  5-MIN KMKG 200615Z 19013G19KT 10SM SCT029 OVC055 22/22 A2969 850 97 1900 190/13G19 RMK AO2
14840KMKG MKG20020920012012409/20/02 01:20:31  5-MIN KMKG 200620Z 19013G20KT 10SM SCT029 OVC055 22/22 A2969 850 97 1900 190/13G20 RMK AO2 CIG 048 RWY 14
14840KMKG MKG20020920012513209/20/02 01:25:31  5-MIN KMKG 200625Z 18014G20KT 10SM -RA SCT029 BKN060 OVC070 22/22 A2968 850 97 1900 190/14G20 RMK AO2 RAB24 P0000
14840KMKG MKG20020920013012609/20/02 01:30:31  5-MIN KMKG 200630Z 19012KT 10SM -RA FEW010 BKN050 OVC110 22/22 A2968 850 97 1900 190/12 RMK AO2 RAB24 P0000
14840KMKG MKG20020920013512709/20/02 01:35:31  5-MIN KMKG 200635Z 18012KT 10SM -RA FEW008 BKN050 OVC110 22/22 A2968 850 100 1900 190/12 RMK AO2 RAB24 P0000
14840KMKG MKG20020920014012609/20/02 01:40:31  5-MIN KMKG 200640Z 18014KT 10SM SCT008 BKN030 OVC110 22/22 A2969 850 100 1900 190/14 RMK AO2 RAB24E38 P0000
14840KMKG MKG20020920014514409/20/02 01:45:31  5-MIN KMKG 200645Z 19011G18KT 10SM BKN008 BKN030 OVC070 22/22 A2969 850 100 1900 190/11G18 RMK AO2 RAB24E38 CIG 007V013 P0000
14840KMKG MKG20020920015015309/20/02 01:50:31  5-MIN KMKG 200650Z 19012G18KT 9SM BKN008 OVC060 22/22 A2969 850 100 1900 190/12G18 RMK AO2 RAB24E38 CIG 007V013 SLP048 P0000 T02170217
14840KMKG MKG20020920015513509/20/02 01:55:31  5-MIN KMKG 200655Z 18013KT 9SM BKN008 OVC070 22/22 A2969 850 100 1900 190/13 RMK AO2 RAB24E38 SLP048 P0000 T02170217
14840KMKG MKG20020920020010909/20/02 02:00:31  5-MIN KMKG 200700Z 19015KT 9SM BKN008 BKN060 OVC075 22/22 A2969 850 97 1900 200/15 RMK AO2
14840KMKG MKG20020920020511509/20/02 02:05:31  5-MIN KMKG 200705Z 18016G21KT 9SM BKN008 BKN060 OVC075 22/22 A2969 850 97 1900 190/16G21 RMK AO2
14840KMKG MKG20020920021012709/20/02 02:10:31  5-MIN KMKG 200710Z 19014G21KT 9SM BKN008 BKN043 OVC060 22/22 A2969 850 97 1900 190/14G21 RMK AO2 CIG 007V011
14840KMKG MKG20020920021513709/20/02 02:15:31  5-MIN KMKG 200715Z 18013KT 9SM -RA BKN008 BKN043 OVC060 22/22 A2968 850 97 1900 190/13 RMK AO2 RAB13 CIG 007V011 P0000
14840KMKG MKG20020920022013909/20/02 02:20:31  5-MIN KMKG 200720Z 18014KT 9SM FEW008 BKN043 OVC070 22/22 A2968 850 97 1900 190/14 RMK AO2 RAB13E17 CIG 009 RWY 14 P0000
14840KMKG MKG20020920022513009/20/02 02:25:31  5-MIN KMKG 200725Z 18015G20KT 9SM SCT008 BKN016 OVC060 22/22 A2968 850 97 1900 190/15G20 RMK AO2 RAB13E17 P0000
14840KMKG MKG20020920023014609/20/02 02:30:31  5-MIN KMKG 200730Z 18015G20KT 5SM -RA BR BKN010 BKN016 OVC055 22/22 A2969 840 97 1900 190/15G20 RMK AO2 RAB13 CIG 007V013 P0002
14840KMKG MKG20020920023513509/20/02 02:35:31  5-MIN KMKG 200735Z 18013G21KT 4SM -RA BR SCT008 BKN012 OVC043 22/22 A2969 840 100 1900 190/13G21 RMK AO2 RAB13 P0003
14840KMKG MKG20020920024014709/20/02 02:40:31  5-MIN KMKG 200740Z 19015G21KT 5SM -RA BR BKN008 BKN015 OVC043 22/22 A2969 850 100 1900 190/15G21 RMK AO2 RAB13 CIG 005V013 P0003
14840KMKG MKG20020920024514409/20/02 02:45:31  5-MIN KMKG 200745Z 19014G23KT 7SM -RA BKN008 BKN015 OVC028 22/22 A2969 850 100 1900 200/14G23 RMK AO2 RAB13 CIG 005V013 P0003
14840KMKG MKG20020920025016009/20/02 02:50:31  5-MIN KMKG 200750Z 19014G23KT 9SM -RA BKN008 BKN028 OVC036 22/21 A2968 850 97 1900 200/14G23 RMK AO2 RAB13 CIG 005V018 SLP048 P0004 T02170211
14840KMKG MKG20020920025518409/20/02 02:55:31  5-MIN KMKG 200755Z 18020G26KT 4SM -RA BR SCT008 BKN011 OVC040 22/21 A2968 860 97 1900 190/20G26 RMK AO2 PK WND 17026/0755 RAB13 CIG 007 RWY 14 SLP046 P0008 T02170211
14840KMKG MKG20020920030016109/20/02 03:00:31  5-MIN KMKG 200800Z 19016G29KT 2SM +RA BR SCT008 BKN012 OVC041 21/21 A2968 850 97 1800 190/16G29 RMK AO2 PK WND 19029/0757 CIG 007 RWY 14 P0007
14840KMKG MKG20020920030514609/20/02 03:05:31  5-MIN KMKG 200805Z 19019G29KT 2SM RA BR SCT008 BKN027 OVC038 21/21 A2968 860 100 1700 200/19G29 RMK AO2 PK WND 19029/0757 P0009
14840KMKG MKG20020920031017809/20/02 03:10:31  5-MIN KMKG 200810Z 20015G24KT 4SM RA BR FEW008 BKN031 OVC049 21/21 A2967 860 100 1700 200/15G24 RMK AO2 PK WND 19029/0757 VIS 2 1/2 RWY 14 CIG 024 RWY 14 P0010
14840KMKG MKG20020920031515609/20/02 03:15:31  5-MIN KMKG 200815Z 20015KT 5SM -RA BR FEW010 BKN033 OVC070 21/21 A2967 860 100 1700 210/15 RMK AO2 PK WND 19029/0757 CIG 027 RWY 14 P0010
14840KMKG MKG20020920032015209/20/02 03:20:31  5-MIN KMKG 200820Z 20013KT 8SM -RA FEW010 BKN035 OVC100 21/20 A2967 860 97 1700 200/13 RMK AO2 PK WND 19029/0757 CIG 029 RWY 14 P0010
14840KMKG MKG20020920032514409/20/02 03:25:31  5-MIN KMKG 200825Z 19014G19KT 10SM -RA SCT033 BKN060 OVC100 21/20 A2967 860 97 1700 190/14G19 RMK AO2 PK WND 19029/0757 P0011
14840KMKG MKG20020920033015309/20/02 03:30:31  5-MIN KMKG 200830Z 19012KT 10SM -RA SCT036 SCT065 OVC100 21/20 A2968 860 97 1700 190/12 RMK AO2 PK WND 19029/0757 CIG 065 RWY 14 P0011
14840KMKG MKG20020920033515309/20/02 03:35:31  5-MIN KMKG 200835Z 19010KT 10SM -RA SCT046 SCT065 OVC100 21/20 A2968 860 97 1700 190/10 RMK AO2 PK WND 19029/0757 CIG 065 RWY 14 P0011
14840KMKG MKG20020920034015509/20/02 03:40:31  5-MIN KMKG 200840Z 18009KT 10SM FEW021 BKN090 OVC110 21/20 A2968 850 97 1700 190/09 RMK AO2 PK WND 19029/0757 RAE39 CIG 065 RWY 14 P0011
14840KMKG MKG20020920034515509/20/02 03:45:31  5-MIN KMKG 200845Z 18010KT 10SM SCT021 BKN060 OVC100 21/20 A2968 850 93 1800 190/10 RMK AO2 PK WND 19029/0757 RAE39 CIG 050 RWY 14 P0011
14840KMKG MKG20020920035018409/20/02 03:50:31  5-MIN KMKG 200850Z 18008KT 10SM SCT023 BKN060 OVC110 21/21 A2968 850 97 1800 180/08 RMK AO2 PK WND 19029/0757 RAE39 CIG 050 RWY 14 SLP048 P0011 60019 T02110206 51002
14840KMKG MKG20020920035516909/20/02 03:55:31  5-MIN KMKG 200855Z 17007KT 10SM SCT023 BKN085 OVC110 21/21 A2968 850 97 1800 170/07 RMK AO2 PK WND 19029/0757 RAE39 SLP047 P0011 60019 T02110206 55002
14840KMKG MKG20020920040011009/20/02 04:00:31  5-MIN KMKG 200900Z 18008KT 10SM SCT023 BKN085 OVC110 21/21 A2968 850 97 1800 180/08 RMK AO2
14840KMKG MKG20020920040512609/20/02 04:05:31  5-MIN KMKG 200905Z 17008KT 10SM SCT023 SCT080 OVC110 21/21 A2968 850 100 1800 180/08 RMK AO2 CIG 085 RWY 14
14840KMKG MKG20020920041011109/20/02 04:10:31  5-MIN KMKG 200910Z 17009KT 10SM FEW023 SCT080 BKN110 21/21 A2968 860 100 1800 170/09 RMK AO2
14840KMKG MKG20020920041510209/20/02 04:15:31  5-MIN KMKG 200915Z 17008KT 9SM FEW023 SCT110 22/21 A2968 860 97 1900 180/08 RMK AO2
14840KMKG MKG20020920042009509/20/02 04:20:31  5-MIN KMKG 200920Z 17010KT 9SM FEW110 22/21 A2967 860 97 1900 170/10 RMK AO2
14840KMKG MKG20020920042509609/20/02 04:25:31  5-MIN KMKG 200925Z 18010KT 9SM FEW110 21/21 A2968 860 100 1800 180/10 RMK AO2
14840KMKG MKG20020920043009209/20/02 04:30:31  5-MIN KMKG 200930Z 18010KT 9SM CLR 22/21 A2968 850 97 1900 180/10 RMK AO2
14840KMKG MKG20020920043509209/20/02 04:35:31  5-MIN KMKG 200935Z 18011KT 9SM CLR 22/21 A2968 860 97 1900 180/11 RMK AO2
14840KMKG MKG20020920044009609/20/02 04:40:31  5-MIN KMKG 200940Z 18010KT 10SM FEW017 22/21 A2968 860 97 1900 180/10 RMK AO2
14840KMKG MKG20020920044509709/20/02 04:45:31  5-MIN KMKG 200945Z 18010KT 10SM FEW017 21/21 A2968 860 100 1800 180/10 RMK AO2
14840KMKG MKG20020920045011409/20/02 04:50:31  5-MIN KMKG 200950Z 19011KT 10SM SCT017 21/21 A2968 850 100 1800 190/11 RMK AO2 SLP047 T02110211
14840KMKG MKG20020920045511409/20/02 04:55:31  5-MIN KMKG 200955Z 19011KT 10SM SCT017 21/21 A2968 860 100 1800 190/11 RMK AO2 SLP046 T02110211
14840KMKG MKG20020920050009609/20/02 05:00:31  5-MIN KMKG 201000Z 18008KT 10SM SCT017 21/21 A2968 860 97 1800 190/08 RMK AO2
14840KMKG MKG20020920050509609/20/02 05:05:31  5-MIN KMKG 201005Z 18009KT 10SM FEW017 21/21 A2968 860 97 1800 180/09 RMK AO2
14840KMKG MKG20020920051009609/20/02 05:10:31  5-MIN KMKG 201010Z 18011KT 10SM FEW017 21/21 A2967 860 97 1800 180/11 RMK AO2
14840KMKG MKG20020920051509609/20/02 05:15:31  5-MIN KMKG 201015Z 17010KT 10SM FEW017 21/21 A2967 860 97 1800 180/10 RMK AO2
14840KMKG MKG20020920052009309/20/02 05:20:31  5-MIN KMKG 201020Z 17010KT 10SM CLR 21/21 A2967 860 97 1800 170/10 RMK AO2
14840KMKG MKG20020920052509209/20/02 05:25:31  5-MIN KMKG 201025Z 17011KT 9SM CLR 21/21 A2967 870 97 1800 180/11 RMK AO2
14840KMKG MKG20020920053009309/20/02 05:30:31  5-MIN KMKG 201030Z 18010KT 10SM CLR 21/21 A2967 860 97 1800 180/10 RMK AO2
14840KMKG MKG20020920053509609/20/02 05:35:31  5-MIN KMKG 201035Z 18010KT 10SM FEW016 21/21 A2967 860 97 1800 180/10 RMK AO2
14840KMKG MKG20020920054010309/20/02 05:40:31  5-MIN KMKG 201040Z 17010KT 10SM SCT016 SCT021 21/21 A2967 860 97 1800 180/10 RMK AO2
14840KMKG MKG20020920054510309/20/02 05:45:31  5-MIN KMKG 201045Z 17010KT 10SM BKN018 BKN023 21/21 A2967 860 97 1800 180/10 RMK AO2
14840KMKG MKG20020920055011309/20/02 05:50:31  5-MIN KMKG 201050Z 17010KT 10SM BKN018 21/21 A2967 860 97 1800 170/10 RMK AO2 SLP045 T02110206
14840KMKG MKG20020920055511309/20/02 05:55:31  5-MIN KMKG 201055Z 17010KT 10SM BKN018 21/21 A2968 850 97 1800 180/10 RMK AO2 SLP047 T02110206
14840KMKG MKG20020920060010209/20/02 06:00:31  5-MIN KMKG 201100Z 18012G19KT 10SM OVC018 21/21 A2968 850 97 1800 180/12G19 RMK AO2
14840KMKG MKG20020920060510209/20/02 06:05:31  5-MIN KMKG 201105Z 18011G19KT 10SM OVC018 21/21 A2968 850 97 1800 180/11G19 RMK AO2
14840KMKG MKG20020920061009609/20/02 06:10:31  5-MIN KMKG 201110Z 17011KT 10SM OVC018 21/21 A2968 850 97 1800 180/11 RMK AO2
14840KMKG MKG20020920061509609/20/02 06:15:31  5-MIN KMKG 201115Z 17013KT 10SM OVC018 21/21 A2968 860 97 1800 180/13 RMK AO2
14840KMKG MKG20020920062009609/20/02 06:20:31  5-MIN KMKG 201120Z 17013KT 10SM OVC020 21/21 A2968 850 97 1800 180/13 RMK AO2
14840KMKG MKG20020920062510309/20/02 06:25:31  5-MIN KMKG 201125Z 17012KT 10SM BKN020 OVC024 21/21 A2968 850 97 1800 170/12 RMK AO2
14840KMKG MKG20020920063010309/20/02 06:30:31  5-MIN KMKG 201130Z 17009KT 10SM BKN020 OVC024 21/21 A2968 850 97 1800 170/09 RMK AO2
14840KMKG MKG20020920063510309/20/02 06:35:31  5-MIN KMKG 201135Z 17012KT 10SM BKN020 OVC024 21/21 A2968 850 97 1800 170/12 RMK AO2
14840KMKG MKG20020920064009609/20/02 06:40:31  5-MIN KMKG 201140Z 17012KT 10SM OVC020 21/21 A2968 850 97 1800 170/12 RMK AO2
14840KMKG MKG20020920064511609/20/02 06:45:31  5-MIN KMKG 201145Z 17012G17KT 10SM FEW013 BKN020 OVC024 21/21 A2968 850 97 1800 180/12G17 RMK AO2
14840KMKG MKG20020920065015009/20/02 06:50:31  5-MIN KMKG 201150Z 17013KT 10SM BKN018 OVC024 21/21 A2968 850 97 1800 170/13 RMK AO2 SLP049 60019 70056 T02110206 10222 20206 55002
14840KMKG MKG20020920065514309/20/02 06:55:31  5-MIN KMKG 201155Z 17012KT 10SM OVC018 21/21 A2968 850 97 1800 180/12 RMK AO2 SLP049 60019 70056 T02110206 10222 20206 53001
14840KMKG MKG20020920070010309/20/02 07:00:31  5-MIN KMKG 201200Z 18011KT 10SM BKN018 OVC022 21/21 A2969 850 97 1800 180/11 RMK AO2
14840KMKG MKG20020920070509609/20/02 07:05:31  5-MIN KMKG 201205Z 18010KT 10SM OVC018 21/21 A2969 850 97 1800 180/10 RMK AO2
14840KMKG MKG20020920071010209/20/02 07:10:31  5-MIN KMKG 201210Z 17012G17KT 10SM OVC016 21/21 A2969 840 97 1800 180/12G17 RMK AO2
14840KMKG MKG20020920071509609/20/02 07:15:31  5-MIN KMKG 201215Z 18012KT 10SM OVC016 21/21 A2969 840 97 1800 180/12 RMK AO2
14840KMKG MKG20020920072009609/20/02 07:20:31  5-MIN KMKG 201220Z 17011KT 10SM OVC016 21/21 A2969 850 97 1800 180/11 RMK AO2
14840KMKG MKG20020920072509609/20/02 07:25:31  5-MIN KMKG 201225Z 18011KT 10SM OVC016 21/21 A2969 840 97 1800 180/11 RMK AO2
14840KMKG MKG20020920073010209/20/02 07:30:31  5-MIN KMKG 201230Z 17013G19KT 10SM OVC016 21/21 A2969 840 97 1800 180/13G19 RMK AO2
14840KMKG MKG20020920073510209/20/02 07:35:31  5-MIN KMKG 201235Z 17011G19KT 10SM OVC016 21/21 A2969 840 97 1800 180/11G19 RMK AO2
14840KMKG MKG20020920074010209/20/02 07:40:31  5-MIN KMKG 201240Z 18015G19KT 10SM OVC014 22/21 A2969 850 93 1900 180/15G19 RMK AO2
14840KMKG MKG20020920074510209/20/02 07:45:31  5-MIN KMKG 201245Z 18011G19KT 10SM OVC014 22/21 A2969 850 93 1900 180/11G19 RMK AO2
14840KMKG MKG20020920075011309/20/02 07:50:31  5-MIN KMKG 201250Z 18013KT 10SM OVC014 22/21 A2968 850 93 1900 180/13 RMK AO2 SLP048 T02170206
14840KMKG MKG20020920075511909/20/02 07:55:31  5-MIN KMKG 201255Z 17012G17KT 10SM OVC016 22/21 A2968 850 93 1900 180/12G17 RMK AO2 SLP048 T02170206
14840KMKG MKG20020920080010209/20/02 08:00:31  5-MIN KMKG 201300Z 18013G18KT 10SM OVC016 22/21 A2968 850 93 1900 180/13G18 RMK AO2
14840KMKG MKG20020920080509609/20/02 08:05:31  5-MIN KMKG 201305Z 17013KT 10SM OVC016 22/21 A2969 850 93 1900 180/13 RMK AO2
14840KMKG MKG20020920081009609/20/02 08:10:31  5-MIN KMKG 201310Z 17013KT 10SM OVC016 22/21 A2968 850 93 1900 180/13 RMK AO2
14840KMKG MKG20020920081509609/20/02 08:15:31  5-MIN KMKG 201315Z 18014KT 10SM OVC016 22/21 A2969 850 93 1900 190/14 RMK AO2
14840KMKG MKG20020920082009609/20/02 08:20:31  5-MIN KMKG 201320Z 17014KT 10SM OVC016 22/21 A2969 850 93 1900 170/14 RMK AO2
14840KMKG MKG20020920082509609/20/02 08:25:31  5-MIN KMKG 201325Z 18013KT 10SM OVC016 22/21 A2969 850 93 1900 180/13 RMK AO2
14840KMKG MKG20020920083009609/20/02 08:30:31  5-MIN KMKG 201330Z 18013KT 10SM OVC016 22/21 A2969 850 93 1900 180/13 RMK AO2
14840KMKG MKG20020920083509609/20/02 08:35:31  5-MIN KMKG 201335Z 17011KT 10SM OVC016 22/21 A2969 840 93 1900 180/11 RMK AO2
14840KMKG MKG20020920084010209/20/02 08:40:31  5-MIN KMKG 201340Z 18013G19KT 10SM OVC016 22/21 A2969 840 93 1900 180/13G19 RMK AO2
14840KMKG MKG20020920084510209/20/02 08:45:31  5-MIN KMKG 201345Z 18015G23KT 10SM OVC016 22/21 A2969 840 93 1900 180/15G23 RMK AO2
14840KMKG MKG20020920085011909/20/02 08:50:31  5-MIN KMKG 201350Z 17013G23KT 10SM OVC016 22/21 A2969 840 93 1900 180/13G23 RMK AO2 SLP051 T02170206
14840KMKG MKG20020920085511909/20/02 08:55:31  5-MIN KMKG 201355Z 18012G19KT 10SM OVC016 22/21 A2969 840 93 1900 180/12G19 RMK AO2 SLP051 T02170206
14840KMKG MKG20020920090010209/20/02 09:00:31  5-MIN KMKG 201400Z 17015G19KT 10SM OVC016 22/21 A2969 840 93 1900 180/15G19 RMK AO2
14840KMKG MKG20020920090510209/20/02 09:05:31  5-MIN KMKG 201405Z 18012G19KT 10SM OVC016 22/21 A2969 840 93 1800 180/12G19 RMK AO2
14840KMKG MKG20020920091010209/20/02 09:10:31  5-MIN KMKG 201410Z 18014G19KT 10SM OVC016 22/21 A2969 840 93 1900 180/14G19 RMK AO2
14840KMKG MKG20020920091509609/20/02 09:15:31  5-MIN KMKG 201415Z 17012KT 10SM OVC016 22/21 A2969 840 93 1900 180/12 RMK AO2
14840KMKG MKG20020920092009609/20/02 09:20:31  5-MIN KMKG 201420Z 17012KT 10SM OVC016 22/21 A2969 840 93 1800 170/12 RMK AO2
14840KMKG MKG20020920092511209/20/02 09:25:31  5-MIN KMKG 201425Z 18011KT 10SM -RA OVC016 22/21 A2969 840 93 1900 180/11 RMK AO2 RAB23 P0000
14840KMKG MKG20020920093011209/20/02 09:30:31  5-MIN KMKG 201430Z 16015KT 10SM -RA OVC016 22/21 A2969 840 93 1900 170/15 RMK AO2 RAB23 P0000
14840KMKG MKG20020920093511809/20/02 09:35:31  5-MIN KMKG 201435Z 17016G20KT 10SM -RA OVC016 22/21 A2969 840 93 1900 170/16G20 RMK AO2 RAB23 P0000
14840KMKG MKG20020920094011809/20/02 09:40:31  5-MIN KMKG 201440Z 17012G20KT 10SM -RA OVC016 22/21 A2969 840 93 1900 180/12G20 RMK AO2 RAB23 P0000
14840KMKG MKG20020920094511209/20/02 09:45:31  5-MIN KMKG 201445Z 17013KT 10SM -RA OVC016 22/21 A2969 840 93 1900 170/13 RMK AO2 RAB23 P0000
14840KMKG MKG20020920095014709/20/02 09:50:31  5-MIN KMKG 201450Z 17014G19KT 10SM -RA OVC016 22/21 A2969 840 93 1900 180/14G19 RMK AO2 RAB23 SLP050 P0000 60000 T02170206 53001
14840KMKG MKG20020920095514109/20/02 09:55:31  5-MIN KMKG 201455Z 17015KT 10SM -RA OVC016 22/21 A2969 850 93 1900 170/15 RMK AO2 RAB23 SLP050 P0000 60000 T02170206 50002
14840KMKG MKG20020920100010609/20/02 10:00:31  5-MIN KMKG 201500Z 17011KT 10SM -RA OVC016 22/21 A2969 850 93 1900 170/11 RMK AO2 P0000
14840KMKG MKG20020920100510609/20/02 10:05:31  5-MIN KMKG 201505Z 17012KT 10SM -RA OVC016 22/21 A2969 850 93 1900 170/12 RMK AO2 P0000
14840KMKG MKG20020920101010609/20/02 10:10:31  5-MIN KMKG 201510Z 17013KT 10SM -RA OVC016 22/21 A2968 850 93 1900 170/13 RMK AO2 P0000
14840KMKG MKG20020920101510609/20/02 10:15:31  5-MIN KMKG 201515Z 17010KT 10SM -RA OVC016 22/21 A2968 850 93 1900 180/10 RMK AO2 P0000
14840KMKG MKG20020920102010609/20/02 10:20:31  5-MIN KMKG 201520Z 17010KT 10SM -RA OVC016 22/21 A2968 850 93 1900 170/10 RMK AO2 P0000
14840KMKG MKG20020920102511209/20/02 10:25:31  5-MIN KMKG 201525Z 17012G18KT 10SM -RA OVC016 22/21 A2968 850 93 1900 170/12G18 RMK AO2 P0000
14840KMKG MKG20020920103011109/20/02 10:30:31  5-MIN KMKG 201530Z 17016G20KT 8SM -RA OVC016 22/21 A2968 850 93 1900 170/16G20 RMK AO2 P0001
14840KMKG MKG20020920103511109/20/02 10:35:31  5-MIN KMKG 201535Z 17014G20KT 7SM -RA OVC016 22/21 A2968 850 93 1900 170/14G20 RMK AO2 P0001
14840KMKG MKG20020920104010509/20/02 10:40:31  5-MIN KMKG 201540Z 16015KT 7SM -RA OVC014 22/21 A2968 850 93 1900 170/15 RMK AO2 P0001
14840KMKG MKG20020920104510509/20/02 10:45:31  5-MIN KMKG 201545Z 17014KT 8SM -RA OVC014 22/21 A2968 850 93 1900 170/14 RMK AO2 P0001
14840KMKG MKG20020920105012209/20/02 10:50:31  5-MIN KMKG 201550Z 17013KT 8SM -RA OVC014 22/21 A2968 850 93 1900 180/13 RMK AO2 SLP047 P0002 T02170206
14840KMKG MKG20020920105512809/20/02 10:55:31  5-MIN KMKG 201555Z 17016G20KT 8SM -RA OVC014 22/21 A2968 850 93 1900 170/16G20 RMK AO2 SLP048 P0002 T02170206
14840KMKG MKG20020920110011109/20/02 11:00:31  5-MIN KMKG 201600Z 18014G20KT 8SM -RA OVC014 21/21 A2968 850 97 1800 180/14G20 RMK AO2 P0000
14840KMKG MKG20020920110512509/20/02 11:05:31  5-MIN KMKG 201605Z 16012G20KT 8SM -RA BKN014 BKN021 OVC029 22/21 A2968 850 97 1900 170/12G20 RMK AO2 P0000
14840KMKG MKG20020920111012509/20/02 11:10:31  5-MIN KMKG 201610Z 17012G20KT 9SM -RA BKN014 BKN021 OVC029 22/21 A2968 860 97 1900 170/12G20 RMK AO2 P0000
14840KMKG MKG20020920111512009/20/02 11:15:31  5-MIN KMKG 201615Z 17014KT 10SM -RA SCT011 BKN016 OVC027 22/21 A2967 860 97 1900 170/14 RMK AO2 P0000
14840KMKG MKG20020920112012609/20/02 11:20:31  5-MIN KMKG 201620Z 16011G18KT 10SM -RA BKN013 BKN025 OVC030 22/21 A2967 860 97 1900 170/11G18 RMK AO2 P0000
14840KMKG MKG20020920112512509/20/02 11:25:31  5-MIN KMKG 201625Z 16013G17KT 9SM -RA SCT013 BKN027 OVC036 22/21 A2967 870 97 1900 170/13G17 RMK AO2 P0001
14840KMKG MKG20020920113012509/20/02 11:30:31  5-MIN KMKG 201630Z 16015G19KT 8SM -RA SCT013 BKN027 OVC036 22/21 A2966 870 97 1900 160/15G19 RMK AO2 P0001
14840KMKG MKG20020920113512509/20/02 11:35:31  5-MIN KMKG 201635Z 16015G20KT 8SM -RA SCT013 BKN027 OVC034 22/21 A2966 870 97 1900 170/15G20 RMK AO2 P0001
14840KMKG MKG20020920114012809/20/02 11:40:31  5-MIN KMKG 201640Z 16012G20KT 6SM -RA BR BKN013 BKN027 OVC034 22/21 A2966 880 97 1900 160/12G20 RMK AO2 P0001
14840KMKG MKG20020920114512209/20/02 11:45:31  5-MIN KMKG 201645Z 17012KT 4SM -RA BR BKN013 BKN027 OVC034 22/21 A2965 880 97 1900 170/12 RMK AO2 P0002
14840KMKG MKG20020920115015409/20/02 11:50:31  5-MIN KMKG 201650Z 16013KT 4SM -RA BR SCT013 BKN029 OVC034 22/21 A2965 880 97 1900 160/13 RMK AO2 CIG 013 RWY 14 SLP036 P0002 T02170211
14840KMKG MKG20020920115513809/20/02 11:55:31  5-MIN KMKG 201655Z 16011G19KT 5SM -RA BR BKN013 OVC031 22/21 A2964 890 97 1900 170/11G19 RMK AO2 SLP035 P0002 T02170211
14840KMKG MKG20020920120012609/20/02 12:00:31  5-MIN KMKG 201700Z 17010G19KT 7SM -RA BKN013 BKN027 OVC035 22/22 A2964 890 100 1900 170/10G19 RMK AO2 P0000
14840KMKG MKG20020920120512909/20/02 12:05:31  5-MIN KMKG 201705Z 16010G18KT 5SM -RA BR BKN013 BKN020 OVC033 22/22 A2964 890 100 1900 160/10G18 RMK AO2 P0001
14840KMKG MKG20020920121012309/20/02 12:10:31  5-MIN KMKG 201710Z 17008KT 5SM -RA BR FEW010 BKN016 OVC033 22/22 A2964 890 100 1900 170/08 RMK AO2 P0001
14840KMKG MKG20020920121512009/20/02 12:15:31  5-MIN KMKG 201715Z 16010KT 8SM -RA SCT010 BKN021 OVC031 22/22 A2963 900 100 1900 160/10 RMK AO2 P0001
14840KMKG MKG20020920122011209/20/02 12:20:31  5-MIN KMKG 201720Z 16010KT 9SM -RA BKN014 OVC021 22/22 A2963 900 97 2000 170/10 RMK AO2 P0002
14840KMKG MKG20020920122512609/20/02 12:25:31  5-MIN KMKG 201725Z 16011G17KT 8SM -RA FEW011 BKN016 OVC021 22/22 A2963 900 100 1900 160/11G17 RMK AO2 P0002
14840KMKG MKG20020920123012509/20/02 12:30:31  5-MIN KMKG 201730Z 17010G17KT 7SM -RA FEW011 BKN016 OVC022 22/22 A2962 910 97 2000 170/10G17 RMK AO2 P0002
14840KMKG MKG20020920123511909/20/02 12:35:31  5-MIN KMKG 201735Z 16012KT 7SM -RA FEW011 BKN016 OVC022 22/21 A2962 910 93 2000 170/12 RMK AO2 P0002
14840KMKG MKG20020920124011209/20/02 12:40:31  5-MIN KMKG 201740Z 17010KT 8SM -RA BKN016 OVC020 22/21 A2962 910 93 2000 170/10 RMK AO2 P0002
14840KMKG MKG20020920124511209/20/02 12:45:31  5-MIN KMKG 201745Z 16009KT 7SM -RA BKN016 OVC020 22/22 A2962 910 97 2000 170/09 RMK AO2 P0002
14840KMKG MKG20020920125015609/20/02 12:50:31  5-MIN KMKG 201750Z 16009KT 6SM -RA BR BKN016 OVC020 22/22 A2961 910 97 2000 160/09 RMK AO2 SLP024 P0003 60007 T02220217 10222 20211 50002
14840KMKG MKG20020920125516309/20/02 12:55:31  5-MIN KMKG 201755Z 17011KT 6SM -RA BR FEW009 BKN014 OVC020 22/22 A2961 920 97 2000 170/11 RMK AO2 SLP023 P0003 60007 T02220217 10222 20211 58026
14840KMKG MKG20020920130012109/20/02 13:00:31  5-MIN KMKG 201800Z 17013G18KT 6SM -RA BR FEW009 OVC014 22/22 A2961 920 97 2000 170/13G18 RMK AO2 P0000
14840KMKG MKG20020920130511409/20/02 13:05:31  5-MIN KMKG 201805Z 18010G18KT 6SM -RA BR OVC014 22/22 A2961 920 97 2000 180/10G18 RMK AO2 P0001
14840KMKG MKG20020920131012309/20/02 13:10:31  5-MIN KMKG 201810Z 18013KT 6SM -RA BR BKN011 BKN016 OVC022 22/22 A2960 930 100 2000 180/13 RMK AO2 P0001
14840KMKG MKG20020920131512809/20/02 13:15:31  5-MIN KMKG 201815Z 17012G19KT 6SM -RA BR BKN011 BKN016 OVC023 22/21 A2960 930 97 2000 180/12G19 RMK AO2 P0001
14840KMKG MKG20020920132012809/20/02 13:20:31  5-MIN KMKG 201820Z 17014G20KT 6SM -RA BR SCT011 BKN016 OVC037 22/21 A2959 930 97 2000 170/14G20 RMK AO2 P0002
14840KMKG MKG20020920132512609/20/02 13:25:31  5-MIN KMKG 201825Z 17011G20KT 8SM -RA BKN013 BKN024 OVC037 22/22 A2959 940 100 2000 180/11G20 RMK AO2 P0002
14840KMKG MKG20020920133012109/20/02 13:30:31  5-MIN KMKG 201830Z 17013KT 10SM -RA BKN013 BKN019 OVC025 22/22 A2959 940 100 2000 180/13 RMK AO2 P0002
14840KMKG MKG20020920133514209/20/02 13:35:31  5-MIN KMKG 201835Z 17015G20KT 10SM -RA SCT010 BKN019 OVC025 22/22 A2958 940 100 2000 170/15G20 RMK AO2 CIG 011 RWY 14 P0002
14840KMKG MKG20020920134012609/20/02 13:40:31  5-MIN KMKG 201840Z 17014G20KT 10SM -RA BKN011 BKN018 OVC024 22/21 A2958 950 97 2000 180/14G20 RMK AO2 P0002
14840KMKG MKG20020920134513809/20/02 13:45:31  5-MIN KMKG 201845Z 17014G23KT 10SM -RA BKN011 BKN018 OVC036 22/21 A2958 950 97 2000 180/14G23 RMK AO2 CIG 007V013 P0002
14840KMKG MKG20020920135014809/20/02 13:50:31  5-MIN KMKG 201850Z 17016G23KT 10SM -RA BKN011 OVC017 22/21 A2957 950 97 2000 180/16G23 RMK AO2 CIG 007V014 SLP011 P0002 T02170211
14840KMKG MKG20020920135514909/20/02 13:55:31  5-MIN KMKG 201855Z 18016G22KT 10SM -RA BKN009 OVC017 22/22 A2958 950 100 2000 180/16G22 RMK AO2 CIG 007V012 SLP011 P0002 T02170217
14840KMKG MKG20020920140013309/20/02 14:00:31  5-MIN KMKG 201900Z 18019G22KT 10SM BKN009 OVC017 22/21 A2958 950 97 2000 180/19G22 RMK AO2 RAE00 CIG 007V012 P0000
14840KMKG MKG20020920140513009/20/02 14:05:31  5-MIN KMKG 201905Z 18015KT 10SM SCT009 OVC017 22/21 A2958 950 97 2000 180/15 RMK AO2 RAE00 CIG 010 RWY 14 P0000
14840KMKG MKG20020920141012109/20/02 14:10:31  5-MIN KMKG 201910Z 18016G21KT 10SM SCT009 OVC017 22/21 A2958 950 97 2000 190/16G21 RMK AO2 RAE00 P0000
14840KMKG MKG20020920141512109/20/02 14:15:31  5-MIN KMKG 201915Z 18017G24KT 10SM SCT009 OVC017 22/21 A2958 940 97 2000 180/17G24 RMK AO2 RAE00 P0000
14840KMKG MKG20020920142013909/20/02 14:20:31  5-MIN KMKG 201920Z 19020G27KT 10SM FEW009 OVC017 22/21 A2958 940 97 2000 190/20G27 RMK AO2 PK WND 18027/1919 RAE00 P0000
14840KMKG MKG20020920142513909/20/02 14:25:31  5-MIN KMKG 201925Z 18019G28KT 10SM FEW008 OVC017 22/21 A2959 940 97 2000 190/19G28 RMK AO2 PK WND 18028/1925 RAE00 P0000
14840KMKG MKG20020920143014609/20/02 14:30:31  5-MIN KMKG 201930Z 18020G28KT 10SM FEW011 BKN017 OVC024 22/21 A2959 940 93 2000 190/20G28 RMK AO2 PK WND 18028/1925 RAE00 P0000
14840KMKG MKG20020920143514609/20/02 14:35:31  5-MIN KMKG 201935Z 18019G25KT 10SM FEW011 BKN017 OVC024 22/21 A2959 940 93 2000 190/19G25 RMK AO2 PK WND 18028/1925 RAE00 P0000
14840KMKG MKG20020920144014609/20/02 14:40:31  5-MIN KMKG 201940Z 19017G25KT 10SM BKN017 BKN024 OVC032 22/21 A2959 940 93 2000 200/17G25 RMK AO2 PK WND 18028/1925 RAE00 P0000
14840KMKG MKG20020920144514609/20/02 14:45:31  5-MIN KMKG 201945Z 19016G23KT 10SM FEW011 BKN017 OVC029 22/21 A2959 940 93 2000 190/16G23 RMK AO2 PK WND 18028/1925 RAE00 P0000
14840KMKG MKG20020920145017809/20/02 14:50:31  5-MIN KMKG 201950Z 19016G23KT 10SM SCT017 BKN025 OVC034 22/21 A2960 930 93 2000 200/16G23 RMK AO2 PK WND 18028/1925 RAE00 CIG 019 RWY 14 SLP018 P0000 T02170206
14840KMKG MKG20020920145516309/20/02 14:55:31  5-MIN KMKG 201955Z 20018G25KT 10SM SCT017 BKN021 OVC042 22/21 A2960 930 93 2000 200/18G25 RMK AO2 PK WND 18028/1925 RAE00 SLP019 P0000 T02170206
14840KMKG MKG20020920150011609/20/02 15:00:31  5-MIN KMKG 202000Z 20017G25KT 10SM FEW017 BKN024 OVC042 22/20 A2960 930 90 2000 210/17G25 RMK AO2
14840KMKG MKG20020920150511609/20/02 15:05:31  5-MIN KMKG 202005Z 20016G24KT 10SM FEW017 BKN029 OVC044 22/20 A2960 930 90 2000 200/16G24 RMK AO2
14840KMKG MKG20020920151013209/20/02 15:10:31  5-MIN KMKG 202010Z 19017G23KT 10SM -RA FEW017 BKN036 OVC044 21/20 A2960 930 93 1900 200/17G23 RMK AO2 RAB08 P0000
14840KMKG MKG20020920151513209/20/02 15:15:31  5-MIN KMKG 202015Z 20017G24KT 10SM -RA FEW017 BKN036 OVC044 21/20 A2960 930 93 1900 200/17G24 RMK AO2 RAB08 P0000
14840KMKG MKG20020920152013209/20/02 15:20:31  5-MIN KMKG 202020Z 20013G24KT 10SM -RA FEW028 BKN038 OVC049 21/20 A2959 930 93 1900 210/13G24 RMK AO2 RAB08 P0000
14840KMKG MKG20020920152513209/20/02 15:25:31  5-MIN KMKG 202025Z 21016G20KT 10SM -RA FEW030 BKN038 BKN049 21/20 A2959 940 93 1900 210/16G20 RMK AO2 RAB08 P0000
14840KMKG MKG20020920153012509/20/02 15:30:31  5-MIN KMKG 202030Z 20015G20KT 10SM -RA SCT035 BKN049 22/20 A2959 940 90 2000 210/15G20 RMK AO2 RAB08 P0000
14840KMKG MKG20020920153512509/20/02 15:35:31  5-MIN KMKG 202035Z 21015KT 10SM SCT037 SCT049 BKN055 22/19 A2959 940 87 2000 210/15 RMK AO2 RAB08E33 P0000
14840KMKG MKG20020920154012509/20/02 15:40:31  5-MIN KMKG 202040Z 20014KT 10SM FEW037 SCT049 BKN055 22/19 A2958 950 87 2000 200/14 RMK AO2 RAB08E33 P0000
14840KMKG MKG20020920154513109/20/02 15:45:31  5-MIN KMKG 202045Z 20013G21KT 10SM FEW017 SCT037 OVC055 22/19 A2958 950 87 2000 200/13G21 RMK AO2 RAB08E33 P0000
14840KMKG MKG20020920155016009/20/02 15:50:31  5-MIN KMKG 202050Z 20013G21KT 10SM FEW017 SCT037 OVC055 21/19 A2958 940 90 1900 200/13G21 RMK AO2 RAB08E33 SLP015 P0000 60002 T02110194 58026
14840KMKG MKG20020920155516009/20/02 15:55:31  5-MIN KMKG 202055Z 20014G19KT 10SM FEW017 SCT037 OVC055 21/19 A2959 940 87 1900 210/14G19 RMK AO2 RAB08E33 SLP016 P0000 60002 T02110189 56007
14840KMKG MKG20020920160010909/20/02 16:00:31  5-MIN KMKG 202100Z 19013G19KT 10SM SCT049 BKN055 21/19 A2959 940 87 1900 200/13G19 RMK AO2
14840KMKG MKG20020920160511909/20/02 16:05:31  5-MIN KMKG 202105Z 19013KT 10SM -RA BKN049 BKN055 21/19 A2959 940 87 1900 200/13 RMK AO2 RAB03 P0000
14840KMKG MKG20020920161012509/20/02 16:10:31  5-MIN KMKG 202110Z 20015G19KT 10SM -RA BKN049 BKN055 21/19 A2959 940 87 1900 200/15G19 RMK AO2 RAB03 P0000
14840KMKG MKG20020920161511209/20/02 16:15:31  5-MIN KMKG 202115Z 20013KT 10SM -RA BKN049 21/19 A2959 930 87 1900 200/13 RMK AO2 RAB03 P0000
14840KMKG MKG20020920162011209/20/02 16:20:31  5-MIN KMKG 202120Z 19013KT 10SM -RA BKN049 21/19 A2960 930 87 1900 200/13 RMK AO2 RAB03 P0000
14840KMKG MKG20020920162512609/20/02 16:25:31  5-MIN KMKG 202125Z 19015KT 10SM -RA FEW030 BKN047 OVC055 21/19 A2960 930 87 1900 200/15 RMK AO2 RAB03 P0000
14840KMKG MKG20020920163013209/20/02 16:30:31  5-MIN KMKG 202130Z 20018G22KT 10SM -RA SCT028 BKN047 OVC055 21/19 A2960 930 90 1800 200/18G22 RMK AO2 RAB03 P0000
14840KMKG MKG20020920163514709/20/02 16:35:31  5-MIN KMKG 202135Z 20013G22KT 10SM -RA SCT030 BKN047 OVC060 21/19 A2960 930 90 1800 200/13G22 RMK AO2 RAB03 CIG 032 RWY 14 P0000
14840KMKG MKG20020920164014109/20/02 16:40:31  5-MIN KMKG 202140Z 19014KT 10SM -RA SCT030 BKN049 OVC065 21/18 A2959 940 87 1800 200/14 RMK AO2 RAB03 CIG 032 RWY 14 P0000
14840KMKG MKG20020920164512609/20/02 16:45:31  5-MIN KMKG 202145Z 19013KT 10SM -RA BKN030 BKN047 OVC060 21/18 A2959 940 87 1800 200/13 RMK AO2 RAB03 P0001
14840KMKG MKG20020920165014209/20/02 16:50:31  5-MIN KMKG 202150Z 19014G20KT 10SM -RA BKN030 OVC050 20/18 A2959 940 90 1800 200/14G20 RMK AO2 RAB03 SLP017 P0001 T02000183
14840KMKG MKG20020920165513609/20/02 16:55:31  5-MIN KMKG 202155Z 19013KT 10SM -RA BKN030 OVC050 20/18 A2959 940 90 1800 190/13 RMK AO2 RAB03 SLP017 P0001 T02000183
14840KMKG MKG20020920170011309/20/02 17:00:31  5-MIN KMKG 202200Z 19013KT 10SM -RA BKN030 OVC050 20/18 A2959 940 90 1800 200/13 RMK AO2 P0000
14840KMKG MKG20020920170511309/20/02 17:05:31  5-MIN KMKG 202205Z 20013KT 10SM -RA BKN030 OVC050 20/18 A2960 930 90 1800 200/13 RMK AO2 P0000
14840KMKG MKG20020920171011309/20/02 17:10:31  5-MIN KMKG 202210Z 20014KT 10SM -RA BKN030 OVC050 20/18 A2960 930 90 1800 200/14 RMK AO2 P0000
14840KMKG MKG20020920171510609/20/02 17:15:31  5-MIN KMKG 202215Z 20013KT 10SM -RA BKN023 20/18 A2959 930 90 1800 200/13 RMK AO2 P0001
14840KMKG MKG20020920172010609/20/02 17:20:31  5-MIN KMKG 202220Z 20012KT 10SM -RA BKN023 19/18 A2959 930 93 1700 200/12 RMK AO2 P0001
14840KMKG MKG20020920172510609/20/02 17:25:31  5-MIN KMKG 202225Z 19013KT 10SM -RA BKN025 20/18 A2959 930 90 1800 200/13 RMK AO2 P0001
14840KMKG MKG20020920173011309/20/02 17:30:31  5-MIN KMKG 202230Z 19012KT 10SM -RA BKN025 OVC050 20/18 A2959 940 90 1800 200/12 RMK AO2 P0001
14840KMKG MKG20020920173511309/20/02 17:35:31  5-MIN KMKG 202235Z 20014KT 10SM -RA BKN025 OVC050 20/18 A2959 940 90 1800 200/14 RMK AO2 P0001
14840KMKG MKG20020920174011309/20/02 17:40:31  5-MIN KMKG 202240Z 19012KT 10SM -RA BKN025 OVC050 20/19 A2959 940 93 1800 190/12 RMK AO2 P0001
14840KMKG MKG20020920174511309/20/02 17:45:31  5-MIN KMKG 202245Z 19010KT 10SM -RA BKN025 OVC050 20/19 A2959 940 93 1800 190/10 RMK AO2 P0001
14840KMKG MKG20020920175013209/20/02 17:50:31  5-MIN KMKG 202250Z 19012KT 10SM FEW025 BKN050 20/19 A2959 940 93 1800 200/12 RMK AO2 RAE48 SLP018 P0001 T02000189
14840KMKG MKG20020920175513209/20/02 17:55:31  5-MIN KMKG 202255Z 19014KT 10SM FEW025 BKN050 20/19 A2959 940 93 1800 200/14 RMK AO2 RAE48 SLP017 P0001 T02000189
14840KMKG MKG20020920180012009/20/02 18:00:31  5-MIN KMKG 202300Z 19013G20KT 10SM -RA FEW065 20/19 A2959 940 93 1800 200/13G20 RMK AO2 RAB2256 P0000
14840KMKG MKG20020920180512009/20/02 18:05:31  5-MIN KMKG 202305Z 19014G20KT 10SM -RA FEW065 20/18 A2959 940 90 1800 200/14G20 RMK AO2 RAB2256 P0000
14840KMKG MKG20020920181011309/20/02 18:10:31  5-MIN KMKG 202310Z 20013KT 10SM FEW070 20/19 A2959 940 93 1800 200/13 RMK AO2 RAB2256E09 P0000
14840KMKG MKG20020920181511309/20/02 18:15:31  5-MIN KMKG 202315Z 20012KT 10SM SCT018 20/19 A2959 940 93 1800 200/12 RMK AO2 RAB2256E09 P0000
14840KMKG MKG20020920182013309/20/02 18:20:31  5-MIN KMKG 202320Z 19016G21KT 10SM FEW015 SCT020 BKN055 20/19 A2959 940 93 1800 200/16G21 RMK AO2 RAB2256E09 P0000
14840KMKG MKG20020920182512609/20/02 18:25:31  5-MIN KMKG 202325Z 20015G21KT 10SM SCT018 BKN050 20/19 A2958 940 93 1800 210/15G21 RMK AO2 RAB2256E09 P0000
14840KMKG MKG20020920183012609/20/02 18:30:31  5-MIN KMKG 202330Z 20014G19KT 10SM SCT018 BKN050 20/19 A2959 930 93 1800 210/14G19 RMK AO2 RAB2256E09 P0000
14840KMKG MKG20020920183513309/20/02 18:35:31  5-MIN KMKG 202335Z 20015G20KT 10SM FEW018 SCT023 BKN050 20/19 A2960 930 93 1800 200/15G20 RMK AO2 RAB2256E09 P0000
14840KMKG MKG20020920184014809/20/02 18:40:31  5-MIN KMKG 202340Z 20015G20KT 10SM FEW017 BKN050 OVC065 21/19 A2960 930 90 1800 200/15G20 RMK AO2 RAB2256E09 CIG 025 RWY 14 P0000
14840KMKG MKG20020920184513309/20/02 18:45:31  5-MIN KMKG 202345Z 20014G20KT 10SM FEW020 BKN050 OVC070 21/19 A2960 920 90 1800 200/14G20 RMK AO2 RAB2256E09 P0000
14840KMKG MKG20020920185016809/20/02 18:50:31  5-MIN KMKG 202350Z 19014KT 10SM SCT020 BKN050 OVC070 20/19 A2960 930 93 1800 200/14 RMK AO2 RAB2256E09 SLP020 P0000 60004 T02000189 10222 20194 56007
14840KMKG MKG20020920185516809/20/02 18:55:31  5-MIN KMKG 202355Z 19014KT 10SM SCT020 BKN050 OVC070 20/19 A2959 930 93 1800 190/14 RMK AO2 RAB2256E09 SLP019 P0000 60004 T02000189 10222 20194 53002
14840KMKG MKG20020920190010909/20/02 19:00:31  5-MIN KMKG 210000Z 19015G19KT 10SM FEW016 BKN070 20/19 A2959 940 93 1800 200/15G19 RMK AO2
14840KMKG MKG20020920190511609/20/02 19:05:31  5-MIN KMKG 210005Z 20016G19KT 10SM FEW016 SCT021 BKN070 20/19 A2959 940 93 1800 200/16G19 RMK AO2
14840KMKG MKG20020920191011609/20/02 19:10:31  5-MIN KMKG 210010Z 20016G20KT 10SM SCT016 BKN021 BKN070 21/19 A2960 930 90 1800 210/16G20 RMK AO2
14840KMKG MKG20020920191511609/20/02 19:15:31  5-MIN KMKG 210015Z 20018G25KT 10SM SCT016 BKN021 OVC045 21/19 A2960 920 90 1800 210/18G25 RMK AO2
14840KMKG MKG20020920192011609/20/02 19:20:31  5-MIN KMKG 210020Z 20014G25KT 10SM SCT016 BKN021 OVC045 21/19 A2960 920 90 1800 200/14G25 RMK AO2
14840KMKG MKG20020920192511609/20/02 19:25:31  5-MIN KMKG 210025Z 20015G22KT 10SM SCT016 BKN021 OVC045 20/19 A2961 920 93 1800 210/15G22 RMK AO2
14840KMKG MKG20020920193012809/20/02 19:30:31  5-MIN KMKG 210030Z 20015G22KT 10SM BKN019 BKN041 OVC095 20/19 A2961 920 93 1800 200/15G22 RMK AO2 CIG 014V026
14840KMKG MKG20020920193513209/20/02 19:35:31  5-MIN KMKG 210035Z 20016G24KT 10SM -RA BKN019 BKN041 OVC060 21/19 A2961 920 90 1800 200/16G24 RMK AO2 RAB32 P0000
14840KMKG MKG20020920194013209/20/02 19:40:31  5-MIN KMKG 210040Z 20012G24KT 10SM -RA BKN019 BKN041 OVC060 20/19 A2961 920 93 1800 200/12G24 RMK AO2 RAB32 P0000
14840KMKG MKG20020920194513109/20/02 19:45:31  5-MIN KMKG 210045Z 20015G20KT 10SM BKN019 BKN041 OVC060 20/19 A2961 920 93 1800 200/15G20 RMK AO2 RAB32E43 P0000
14840KMKG MKG20020920195014809/20/02 19:50:31  5-MIN KMKG 210050Z 21015G21KT 10SM BKN016 BKN060 OVC090 20/19 A2961 920 93 1800 210/15G21 RMK AO2 RAB32E43 SLP023 P0000 T02000189
14840KMKG MKG20020920195514809/20/02 19:55:31  5-MIN KMKG 210055Z 20018G21KT 10SM BKN016 BKN060 OVC090 20/19 A2960 930 93 1800 210/18G21 RMK AO2 RAB32E43 SLP021 P0000 T02000189
14840KMKG MKG20020920200011009/20/02 20:00:31  5-MIN KMKG 210100Z 20018KT 10SM BKN016 BKN060 OVC090 20/19 A2961 920 93 1700 210/18 RMK AO2
14840KMKG MKG20020920200511009/20/02 20:05:31  5-MIN KMKG 210105Z 21015KT 10SM BKN016 BKN060 OVC090 20/19 A2961 910 93 1700 210/15 RMK AO2
14840KMKG MKG20020920201011009/20/02 20:10:31  5-MIN KMKG 210110Z 20017KT 10SM BKN016 BKN060 OVC090 20/19 A2961 910 93 1700 210/17 RMK AO2
14840KMKG MKG20020920201511609/20/02 20:15:31  5-MIN KMKG 210115Z 20014G22KT 10SM BKN016 BKN060 OVC090 20/19 A2961 920 93 1800 200/14G22 RMK AO2
14840KMKG MKG20020920202011009/20/02 20:20:31  5-MIN KMKG 210120Z 20015KT 10SM BKN016 BKN060 OVC090 20/19 A2961 920 93 1800 210/15 RMK AO2
14840KMKG MKG20020920202511009/20/02 20:25:31  5-MIN KMKG 210125Z 20016KT 10SM SCT016 BKN042 OVC090 20/19 A2961 920 93 1800 210/16 RMK AO2
14840KMKG MKG20020920203011009/20/02 20:30:31  5-MIN KMKG 210130Z 20016KT 10SM SCT016 BKN042 OVC090 20/19 A2961 920 93 1800 210/16 RMK AO2
14840KMKG MKG20020920203511009/20/02 20:35:31  5-MIN KMKG 210135Z 21015KT 10SM SCT016 BKN042 OVC090 20/18 A2962 910 90 1700 210/15 RMK AO2
14840KMKG MKG20020920204011009/20/02 20:40:31  5-MIN KMKG 210140Z 20016KT 10SM SCT016 BKN042 OVC090 20/18 A2963 900 90 1700 210/16 RMK AO2
14840KMKG MKG20020920204511009/20/02 20:45:31  5-MIN KMKG 210145Z 20016KT 10SM SCT016 BKN042 OVC090 21/19 A2963 900 90 1800 210/16 RMK AO2
14840KMKG MKG20020920205013309/20/02 20:50:31  5-MIN KMKG 210150Z 20017G22KT 10SM SCT016 BKN042 OVC090 20/19 A2963 900 93 1700 200/17G22 RMK AO2 SLP030 T02000189
14840KMKG MKG20020920205513309/20/02 20:55:31  5-MIN KMKG 210155Z 20014G22KT 10SM SCT016 BKN042 OVC090 20/19 A2962 910 93 1700 200/14G22 RMK AO2 SLP029 T02000189
14840KMKG MKG20020920210011609/20/02 21:00:31  5-MIN KMKG 210200Z 20015G22KT 10SM FEW020 BKN039 BKN048 20/19 A2963 900 93 1700 200/15G22 RMK AO2
14840KMKG MKG20020920210513209/20/02 21:05:31  5-MIN KMKG 210205Z 21016G22KT 10SM -RA SCT019 BKN036 OVC043 20/19 A2963 900 93 1700 210/16G22 RMK AO2 RAB05 P0000
14840KMKG MKG20020920211014709/20/02 21:10:31  5-MIN KMKG 210210Z 23015G23KT 3SM +RA BR SCT011 BKN024 OVC046 19/18 A2963 900 93 1700 230/15G23 RMK AO2 VIS 2 RWY 14 RAB05 P0007
14840KMKG MKG20020920211516609/20/02 21:15:31  5-MIN KMKG 210215Z 22015G23KT 3SM -RA BR SCT010 BKN024 OVC049 19/18 A2964 890 97 1600 230/15G23 RMK AO2 VIS 1 3/4 RWY 14 RAB05 CIG 014 RWY 14 P0007
14840KMKG MKG20020920212013509/20/02 21:20:31  5-MIN KMKG 210220Z 21013G21KT 6SM -RA BR SCT011 BKN026 OVC049 18/18 A2964 890 100 1500 220/13G21 RMK AO2 RAB05 P0008
14840KMKG MKG20020920212513209/20/02 21:25:31  5-MIN KMKG 210225Z 21013G19KT 7SM -RA SCT011 BKN026 OVC060 18/18 A2963 900 100 1500 220/13G19 RMK AO2 RAB05 P0008
14840KMKG MKG20020920213014109/20/02 21:30:31  5-MIN KMKG 210230Z 22012KT 9SM -RA SCT011 BKN039 OVC070 18/18 A2964 900 100 1500 230/12 RMK AO2 RAB05 CIG 029 RWY 14 P0008
14840KMKG MKG20020920213512509/20/02 21:35:31  5-MIN KMKG 210235Z 22011KT 10SM SCT011 BKN030 OVC065 19/18 A2963 900 97 1600 230/11 RMK AO2 RAB05E34 P0008
14840KMKG MKG20020920214013209/20/02 21:40:31  5-MIN KMKG 210240Z 23013G19KT 10SM -RA SCT011 BKN030 OVC065 19/18 A2964 890 97 1600 230/13G19 RMK AO2 RAB05 P0008
14840KMKG MKG20020920214513209/20/02 21:45:31  5-MIN KMKG 210245Z 23012G19KT 10SM -RA SCT011 BKN030 OVC065 19/18 A2963 900 93 1700 230/12G19 RMK AO2 RAB05 P0008
14840KMKG MKG20020920215015409/20/02 21:50:31  5-MIN KMKG 210250Z 23012KT 10SM SCT011 BKN030 OVC065 19/18 A2963 900 93 1700 230/12 RMK AO2 RAB05E50 SLP032 P0008 60008 T01940183 53002
14840KMKG MKG20020920215516009/20/02 21:55:31  5-MIN KMKG 210255Z 23011G19KT 10SM FEW014 BKN040 OVC065 19/18 A2964 890 90 1700 240/11G19 RMK AO2 RAB05E50 SLP033 P0008 60008 T01940178 53014
14840KMKG MKG20020920220011609/20/02 22:00:31  5-MIN KMKG 210300Z 23014G19KT 10SM FEW016 BKN050 OVC080 19/18 A2964 890 93 1700 240/14G19 RMK AO2
14840KMKG MKG20020920220513109/20/02 22:05:31  5-MIN KMKG 210305Z 23012G18KT 10SM FEW016 SCT055 OVC080 19/18 A2964 890 93 1700 230/12G18 RMK AO2 CIG 065 RWY 14
14840KMKG MKG20020920221011009/20/02 22:10:31  5-MIN KMKG 210310Z 23013KT 10SM FEW020 SCT050 OVC085 19/18 A2964 890 93 1600 230/13 RMK AO2
14840KMKG MKG20020920221511009/20/02 22:15:31  5-MIN KMKG 210315Z 23012KT 10SM SCT020 BKN047 OVC090 19/18 A2964 890 93 1700 230/12 RMK AO2
14840KMKG MKG20020920222013109/20/02 22:20:31  5-MIN KMKG 210320Z 23013G19KT 10SM SCT020 BKN050 OVC085 19/18 A2965 880 90 1600 230/13G19 RMK AO2 CIG 021 RWY 14
14840KMKG MKG20020920222513109/20/02 22:25:31  5-MIN KMKG 210325Z 23014G19KT 10SM SCT023 BKN060 OVC085 19/18 A2965 880 90 1600 230/14G19 RMK AO2 CIG 023 RWY 14
14840KMKG MKG20020920223011609/20/02 22:30:31  5-MIN KMKG 210330Z 24013G19KT 10SM FEW019 BKN060 OVC090 19/18 A2965 880 90 1600 240/13G19 RMK AO2
14840KMKG MKG20020920223511609/20/02 22:35:31  5-MIN KMKG 210335Z 23016G22KT 10SM SCT021 BKN060 OVC090 19/17 A2965 880 87 1600 230/16G22 RMK AO2
14840KMKG MKG20020920224011609/20/02 22:40:31  5-MIN KMKG 210340Z 23014G22KT 10SM FEW021 BKN060 OVC090 19/17 A2965 880 90 1600 240/14G22 RMK AO2
14840KMKG MKG20020920224511609/20/02 22:45:31  5-MIN KMKG 210345Z 24013G19KT 10SM FEW024 BKN060 OVC085 19/17 A2965 880 90 1600 240/13G19 RMK AO2
14840KMKG MKG20020920225012709/20/02 22:50:31  5-MIN KMKG 210350Z 24013KT 10SM FEW024 SCT060 OVC085 19/17 A2965 880 90 1600 240/13 RMK AO2 SLP039 T01890172
14840KMKG MKG20020920225513309/20/02 22:55:31  5-MIN KMKG 210355Z 24012G20KT 10SM FEW026 SCT060 OVC085 19/17 A2965 880 87 1600 240/12G20 RMK AO2 SLP039 T01940172
14840KMKG MKG20020920230011609/20/02 23:00:31  5-MIN KMKG 210400Z 24012G20KT 10SM FEW023 SCT070 OVC085 19/17 A2965 880 87 1600 240/12G20 RMK AO2
14840KMKG MKG20020920230511609/20/02 23:05:31  5-MIN KMKG 210405Z 24013G19KT 10SM FEW025 BKN080 OVC090 19/17 A2966 880 87 1600 240/13G19 RMK AO2
14840KMKG MKG20020920231011609/20/02 23:10:31  5-MIN KMKG 210410Z 24016G20KT 10SM FEW025 SCT037 OVC080 19/17 A2966 870 84 1600 250/16G20 RMK AO2
14840KMKG MKG20020920231511609/20/02 23:15:31  5-MIN KMKG 210415Z 24012G20KT 10SM FEW025 BKN080 OVC100 19/17 A2966 870 84 1600 250/12G20 RMK AO2
14840KMKG MKG20020920232013109/20/02 23:20:31  5-MIN KMKG 210420Z 24018G22KT 10SM SCT025 BKN080 OVC100 19/17 A2966 870 84 1600 250/18G22 RMK AO2 CIG 041 RWY 14
14840KMKG MKG20020920232513109/20/02 23:25:31  5-MIN KMKG 210425Z 24015G22KT 10SM SCT025 BKN044 OVC075 19/17 A2966 870 84 1600 250/15G22 RMK AO2 CIG 026 RWY 14
14840KMKG MKG20020920233013109/20/02 23:30:31  5-MIN KMKG 210430Z 24014G20KT 10SM SCT027 BKN060 OVC100 19/17 A2967 860 84 1600 240/14G20 RMK AO2 CIG 026 RWY 14
14840KMKG MKG20020920233511609/20/02 23:35:31  5-MIN KMKG 210435Z 24015G19KT 10SM SCT025 BKN038 OVC075 19/17 A2967 860 84 1600 250/15G19 RMK AO2
14840KMKG MKG20020920234011609/20/02 23:40:31  5-MIN KMKG 210440Z 24016G20KT 10SM SCT025 BKN040 OVC075 19/17 A2967 860 87 1600 250/16G20 RMK AO2
14840KMKG MKG20020920234511609/20/02 23:45:31  5-MIN KMKG 210445Z 24013G22KT 10SM SCT025 BKN042 OVC060 19/17 A2968 860 84 1600 240/13G22 RMK AO2
14840KMKG MKG20020920235014309/20/02 23:50:31  5-MIN KMKG 210450Z 24013G22KT 10SM SCT025 BKN047 OVC065 19/17 A2968 860 84 1600 250/13G22 RMK AO2 SLP047 T01940167 402220183
14840KMKG MKG20020920235514309/20/02 23:55:31  5-MIN KMKG 210455Z 24013G22KT 10SM SCT023 BKN042 OVC065 19/17 A2968 850 84 1600 250/13G22 RMK AO2 SLP047 T01940167 402220183
14840KMKG MKG20020921000011609/21/02 00:00:31  5-MIN KMKG 210500Z 24011G22KT 10SM SCT023 BKN043 OVC070 19/17 A2968 850 87 1600 250/11G22 RMK AO2
14840KMKG MKG20020921000513109/21/02 00:05:31  5-MIN KMKG 210505Z 25013G22KT 10SM SCT023 SCT045 OVC065 19/17 A2968 850 84 1600 260/13G22 RMK AO2 CIG 047 RWY 14
14840KMKG MKG20020921001011609/21/02 00:10:31  5-MIN KMKG 210510Z 24013G20KT 10SM FEW023 SCT047 OVC065 19/17 A2968 850 84 1600 250/13G20 RMK AO2
14840KMKG MKG20020921001510909/21/02 00:15:31  5-MIN KMKG 210515Z 24012G19KT 10SM FEW023 OVC070 19/17 A2968 850 84 1600 250/12G19 RMK AO2
14840KMKG MKG20020921002011609/21/02 00:20:31  5-MIN KMKG 210520Z 24014G20KT 10SM FEW023 BKN065 OVC080 19/17 A2968 850 84 1600 250/14G20 RMK AO2
14840KMKG MKG20020921002511609/21/02 00:25:31  5-MIN KMKG 210525Z 25012G20KT 10SM FEW025 BKN065 OVC090 19/17 A2969 850 84 1600 250/12G20 RMK AO2
14840KMKG MKG20020921003012509/21/02 00:30:31  5-MIN KMKG 210530Z 25013KT 10SM SCT065 BKN080 OVC090 19/17 A2969 850 84 1600 250/13 RMK AO2 CIG 065 RWY 14
14840KMKG MKG20020921003510309/21/02 00:35:31  5-MIN KMKG 210535Z 25013KT 10SM SCT070 OVC090 19/17 A2969 850 84 1600 260/13 RMK AO2
14840KMKG MKG20020921004010309/21/02 00:40:31  5-MIN KMKG 210540Z 25013KT 10SM SCT075 OVC095 19/17 A2969 840 84 1600 250/13 RMK AO2
14840KMKG MKG20020921004510909/21/02 00:45:31  5-MIN KMKG 210545Z 24011G19KT 10SM FEW080 OVC095 19/16 A2969 840 81 1600 250/11G19 RMK AO2
14840KMKG MKG20020921005014309/21/02 00:50:31  5-MIN KMKG 210550Z 25012G19KT 10SM OVC090 19/16 A2969 840 81 1600 250/12G19 RMK AO2 SLP052 60008 T01940161 10206 20183 53014
14840KMKG MKG20020921005513709/21/02 00:55:31  5-MIN KMKG 210555Z 25010KT 10SM OVC090 19/17 A2969 840 84 1600 250/10 RMK AO2 SLP051 60008 T01940167 10206 20183 51018
14840KMKG MKG20020921010009609/21/02 01:00:31  5-MIN KMKG 210600Z 25011KT 10SM OVC090 19/16 A2970 840 81 1600 250/11 RMK AO2
14840KMKG MKG20020921010509609/21/02 01:05:31  5-MIN KMKG 210605Z 24011KT 10SM OVC090 19/16 A2969 840 81 1600 240/11 RMK AO2
14840KMKG MKG20020921011010209/21/02 01:10:31  5-MIN KMKG 210610Z 24014G18KT 10SM OVC090 19/16 A2970 840 81 1600 250/14G18 RMK AO2
14840KMKG MKG20020921011510209/21/02 01:15:31  5-MIN KMKG 210615Z 23010G18KT 10SM OVC085 19/16 A2970 830 84 1500 240/10G18 RMK AO2
14840KMKG MKG20020921012009609/21/02 01:20:31  5-MIN KMKG 210620Z 24011KT 10SM BKN085 19/17 A2970 830 87 1500 240/11 RMK AO2
14840KMKG MKG20020921012510909/21/02 01:25:31  5-MIN KMKG 210625Z 24010G17KT 10SM FEW021 BKN090 19/17 A2971 830 87 1500 250/10G17 RMK AO2
14840KMKG MKG20020921013010909/21/02 01:30:31  5-MIN KMKG 210630Z 23012G17KT 10SM FEW021 BKN085 19/17 A2971 830 87 1500 240/12G17 RMK AO2
14840KMKG MKG20020921013512509/21/02 01:35:31  5-MIN KMKG 210635Z 24010KT 10SM FEW021 SCT029 BKN090 19/17 A2971 820 84 1600 240/10 RMK AO2 CIG 029 RWY 14
14840KMKG MKG20020921014013109/21/02 01:40:31  5-MIN KMKG 210640Z 24013G17KT 10SM SCT023 SCT029 BKN090 19/17 A2971 820 84 1600 240/13G17 RMK AO2 CIG 029 RWY 14
14840KMKG MKG20020921014513109/21/02 01:45:31  5-MIN KMKG 210645Z 24013G17KT 10SM SCT023 SCT029 BKN085 19/16 A2972 820 81 1600 250/13G17 RMK AO2 CIG 029 RWY 14
14840KMKG MKG20020921015014209/21/02 01:50:31  5-MIN KMKG 210650Z 24009KT 10SM FEW023 SCT029 OVC085 19/16 A2972 820 81 1600 240/09 RMK AO2 CIG 031 RWY 14 SLP060 T01940161
14840KMKG MKG20020921015514809/21/02 01:55:31  5-MIN KMKG 210655Z 24011G18KT 10SM FEW023 SCT029 OVC080 19/16 A2972 820 81 1600 240/11G18 RMK AO2 CIG 031 RWY 14 SLP061 T01940161
14840KMKG MKG20020921020011609/21/02 02:00:31  5-MIN KMKG 210700Z 24012G20KT 10SM FEW023 SCT029 OVC080 19/16 A2972 820 81 1600 240/12G20 RMK AO2
14840KMKG MKG20020921020511609/21/02 02:05:31  5-MIN KMKG 210705Z 24012G20KT 10SM FEW023 SCT070 OVC085 19/16 A2972 820 81 1600 240/12G20 RMK AO2
14840KMKG MKG20020921021010309/21/02 02:10:31  5-MIN KMKG 210710Z 24012KT 10SM FEW030 OVC085 19/17 A2972 820 84 1600 240/12 RMK AO2
14840KMKG MKG20020921021510309/21/02 02:15:31  5-MIN KMKG 210715Z 24012KT 10SM FEW030 OVC085 19/17 A2972 820 84 1600 240/12 RMK AO2
14840KMKG MKG20020921022010309/21/02 02:20:31  5-MIN KMKG 210720Z 24010KT 10SM FEW070 OVC085 19/17 A2972 810 84 1600 240/10 RMK AO2
14840KMKG MKG20020921022510209/21/02 02:25:31  5-MIN KMKG 210725Z 24012G19KT 10SM OVC085 19/17 A2972 810 87 1500 240/12G19 RMK AO2
14840KMKG MKG20020921023010209/21/02 02:30:31  5-MIN KMKG 210730Z 24012G19KT 10SM OVC090 19/17 A2972 810 84 1600 240/12G19 RMK AO2
14840KMKG MKG20020921023509609/21/02 02:35:31  5-MIN KMKG 210735Z 23011KT 10SM BKN090 19/17 A2972 810 84 1600 240/11 RMK AO2
14840KMKG MKG20020921024009609/21/02 02:40:31  5-MIN KMKG 210740Z 23012KT 10SM BKN090 19/17 A2973 810 84 1600 230/12 RMK AO2
14840KMKG MKG20020921024509609/21/02 02:45:31  5-MIN KMKG 210745Z 23010KT 10SM SCT090 19/17 A2973 810 87 1500 240/10 RMK AO2
14840KMKG MKG20020921025011309/21/02 02:50:31  5-MIN KMKG 210750Z 24011KT 10SM FEW090 19/17 A2973 810 87 1500 240/11 RMK AO2 SLP064 T01890167
14840KMKG MKG20020921025511309/21/02 02:55:31  5-MIN KMKG 210755Z 24012KT 10SM FEW090 19/17 A2973 810 87 1500 240/12 RMK AO2 SLP064 T01890167
14840KMKG MKG20020921030009309/21/02 03:00:31  5-MIN KMKG 210800Z 23011KT 10SM CLR 19/17 A2973 810 87 1500 240/11 RMK AO2
14840KMKG MKG20020921030509309/21/02 03:05:31  5-MIN KMKG 210805Z 23011KT 10SM CLR 19/17 A2973 800 87 1500 240/11 RMK AO2
14840KMKG MKG20020921031009309/21/02 03:10:31  5-MIN KMKG 210810Z 23011KT 10SM CLR 19/17 A2974 800 87 1500 240/11 RMK AO2
14840KMKG MKG20020921031509309/21/02 03:15:31  5-MIN KMKG 210815Z 23012KT 10SM CLR 19/17 A2974 800 87 1500 230/12 RMK AO2
14840KMKG MKG20020921032009309/21/02 03:20:31  5-MIN KMKG 210820Z 23010KT 10SM CLR 19/17 A2974 800 84 1500 240/10 RMK AO2
14840KMKG MKG20020921032509309/21/02 03:25:31  5-MIN KMKG 210825Z 23011KT 10SM CLR 19/17 A2974 800 87 1500 240/11 RMK AO2
14840KMKG MKG20020921033009909/21/02 03:30:31  5-MIN KMKG 210830Z 24010G16KT 10SM CLR 19/17 A2974 790 87 1500 240/10G16 RMK AO2
14840KMKG MKG20020921033509909/21/02 03:35:31  5-MIN KMKG 210835Z 24009G16KT 10SM CLR 19/17 A2974 790 87 1500 240/09G16 RMK AO2
14840KMKG MKG20020921034009309/21/02 03:40:31  5-MIN KMKG 210840Z 23011KT 10SM CLR 19/17 A2975 790 87 1500 240/11 RMK AO2
14840KMKG MKG20020921034509309/21/02 03:45:31  5-MIN KMKG 210845Z 24009KT 10SM CLR 19/17 A2975 790 87 1500 240/09 RMK AO2
14840KMKG MKG20020921035011609/21/02 03:50:31  5-MIN KMKG 210850Z 24010KT 10SM CLR 19/17 A2975 790 87 1500 240/10 RMK AO2 SLP071 T01890167 51018
14840KMKG MKG20020921035511609/21/02 03:55:31  5-MIN KMKG 210855Z 24010KT 10SM CLR 19/17 A2975 790 87 1500 240/10 RMK AO2 SLP071 T01890167 51019
14840KMKG MKG20020921040009309/21/02 04:00:31  5-MIN KMKG 210900Z 24010KT 10SM CLR 19/17 A2975 790 87 1500 240/10 RMK AO2
14840KMKG MKG20020921040509309/21/02 04:05:31  5-MIN KMKG 210905Z 24010KT 10SM CLR 19/17 A2975 790 87 1500 240/10 RMK AO2
14840KMKG MKG20020921041009909/21/02 04:10:31  5-MIN KMKG 210910Z 24008G15KT 10SM CLR 19/17 A2975 790 87 1500 240/08G15 RMK AO2
14840KMKG MKG20020921041509909/21/02 04:15:31  5-MIN KMKG 210915Z 24008G15KT 10SM CLR 19/17 A2975 780 87 1500 240/08G15 RMK AO2
14840KMKG MKG20020921042009309/21/02 04:20:31  5-MIN KMKG 210920Z 24007KT 10SM CLR 19/17 A2976 780 87 1500 240/07 RMK AO2
14840KMKG MKG20020921042509309/21/02 04:25:31  5-MIN KMKG 210925Z 23007KT 10SM CLR 19/17 A2976 780 87 1500 240/07 RMK AO2
14840KMKG MKG20020921043009309/21/02 04:30:31  5-MIN KMKG 210930Z 23009KT 10SM CLR 19/17 A2976 780 87 1500 240/09 RMK AO2
14840KMKG MKG20020921043509309/21/02 04:35:31  5-MIN KMKG 210935Z 23008KT 10SM CLR 19/17 A2976 780 87 1500 240/08 RMK AO2
14840KMKG MKG20020921044009309/21/02 04:40:31  5-MIN KMKG 210940Z 24010KT 10SM CLR 19/17 A2976 770 87 1400 240/10 RMK AO2
14840KMKG MKG20020921044509309/21/02 04:45:31  5-MIN KMKG 210945Z 23009KT 10SM CLR 19/17 A2977 770 87 1400 240/09 RMK AO2
14840KMKG MKG20020921045011009/21/02 04:50:31  5-MIN KMKG 210950Z 24009KT 10SM CLR 19/17 A2977 770 87 1400 240/09 RMK AO2 SLP078 T01890167
14840KMKG MKG20020921045511009/21/02 04:55:31  5-MIN KMKG 210955Z 23010KT 10SM CLR 19/17 A2977 770 87 1400 230/10 RMK AO2 SLP079 T01890167
14840KMKG MKG20020921050009309/21/02 05:00:31  5-MIN KMKG 211000Z 23009KT 10SM CLR 19/16 A2977 770 84 1400 230/09 RMK AO2
14840KMKG MKG20020921050509309/21/02 05:05:31  5-MIN KMKG 211005Z 23008KT 10SM CLR 19/16 A2977 770 84 1400 240/08 RMK AO2
14840KMKG MKG20020921051009309/21/02 05:10:31  5-MIN KMKG 211010Z 23006KT 10SM CLR 19/16 A2977 770 84 1400 230/06 RMK AO2
14840KMKG MKG20020921051509309/21/02 05:15:31  5-MIN KMKG 211015Z 23008KT 10SM CLR 18/17 A2978 760 90 1400 230/08 RMK AO2
14840KMKG MKG20020921052009309/21/02 05:20:31  5-MIN KMKG 211020Z 23007KT 10SM CLR 18/17 A2978 760 90 1400 240/07 RMK AO2
14840KMKG MKG20020921052509309/21/02 05:25:31  5-MIN KMKG 211025Z 23007KT 10SM CLR 18/17 A2978 760 90 1400 230/07 RMK AO2
14840KMKG MKG20020921053009309/21/02 05:30:31  5-MIN KMKG 211030Z 22009KT 10SM CLR 18/16 A2978 760 87 1400 230/09 RMK AO2
14840KMKG MKG20020921053509309/21/02 05:35:31  5-MIN KMKG 211035Z 23008KT 10SM CLR 18/16 A2978 760 87 1400 230/08 RMK AO2
14840KMKG MKG20020921054009309/21/02 05:40:31  5-MIN KMKG 211040Z 21008KT 10SM CLR 18/16 A2978 760 87 1400 220/08 RMK AO2
14840KMKG MKG20020921054509309/21/02 05:45:31  5-MIN KMKG 211045Z 21007KT 10SM CLR 18/17 A2979 760 90 1400 220/07 RMK AO2
14840KMKG MKG20020921055011009/21/02 05:50:31  5-MIN KMKG 211050Z 22007KT 10SM CLR 18/16 A2979 750 90 1300 220/07 RMK AO2 SLP086 T01780161
14840KMKG MKG20020921055511009/21/02 05:55:31  5-MIN KMKG 211055Z 21008KT 10SM CLR 18/16 A2979 750 90 1300 220/08 RMK AO2 SLP087 T01780161
14840KMKG MKG20020921060009309/21/02 06:00:31  5-MIN KMKG 211100Z 21007KT 10SM CLR 18/17 A2979 750 90 1400 210/07 RMK AO2
14840KMKG MKG20020921060509309/21/02 06:05:31  5-MIN KMKG 211105Z 22006KT 10SM CLR 18/17 A2979 750 90 1400 220/06 RMK AO2
14840KMKG MKG20020921061009309/21/02 06:10:31  5-MIN KMKG 211110Z 20006KT 10SM CLR 18/16 A2979 750 90 1300 210/06 RMK AO2
14840KMKG MKG20020921061509309/21/02 06:15:31  5-MIN KMKG 211115Z 21007KT 10SM CLR 18/17 A2980 750 93 1300 210/07 RMK AO2
14840KMKG MKG20020921062009309/21/02 06:20:31  5-MIN KMKG 211120Z 22007KT 10SM CLR 18/17 A2980 740 93 1300 220/07 RMK AO2
14840KMKG MKG20020921062509309/21/02 06:25:31  5-MIN KMKG 211125Z 21007KT 10SM CLR 18/17 A2980 740 93 1300 210/07 RMK AO2
14840KMKG MKG20020921063009309/21/02 06:30:31  5-MIN KMKG 211130Z 21008KT 10SM CLR 18/17 A2980 740 90 1300 220/08 RMK AO2
14840KMKG MKG20020921063509309/21/02 06:35:31  5-MIN KMKG 211135Z 21006KT 10SM CLR 18/17 A2980 740 93 1300 220/06 RMK AO2
14840KMKG MKG20020921064009309/21/02 06:40:31  5-MIN KMKG 211140Z 22008KT 10SM CLR 18/17 A2981 740 93 1300 220/08 RMK AO2
14840KMKG MKG20020921064509309/21/02 06:45:31  5-MIN KMKG 211145Z 22008KT 10SM CLR 18/17 A2981 730 90 1300 230/08 RMK AO2
14840KMKG MKG20020921065013409/21/02 06:50:31  5-MIN KMKG 211150Z 22009KT 10SM CLR 18/17 A2981 730 90 1300 220/09 RMK AO2 SLP093 70019 T01830167 10194 20178 51019
14840KMKG MKG20020921065513409/21/02 06:55:31  5-MIN KMKG 211155Z 22007KT 10SM CLR 18/17 A2982 730 90 1300 220/07 RMK AO2 SLP094 70019 T01830167 10194 20178 53022
14840KMKG MKG20020921070009309/21/02 07:00:31  5-MIN KMKG 211200Z 21009KT 10SM CLR 18/17 A2982 730 90 1300 220/09 RMK AO2
14840KMKG MKG20020921070509309/21/02 07:05:31  5-MIN KMKG 211205Z 21009KT 10SM CLR 19/17 A2982 730 87 1400 220/09 RMK AO2
14840KMKG MKG20020921071009309/21/02 07:10:31  5-MIN KMKG 211210Z 22009KT 10SM CLR 19/17 A2982 720 87 1400 220/09 RMK AO2
14840KMKG MKG20020921071509309/21/02 07:15:31  5-MIN KMKG 211215Z 21007KT 10SM CLR 19/17 A2983 720 87 1400 220/07 RMK AO2
14840KMKG MKG20020921072009309/21/02 07:20:31  5-MIN KMKG 211220Z 22008KT 10SM CLR 19/17 A2983 710 87 1400 220/08 RMK AO2
14840KMKG MKG20020921072510009/21/02 07:25:31  5-MIN KMKG 211225Z 23009KT 10SM CLR 19/17 A2984 710 87 1400 230/09 RMK AO2 PRESRR
14840KMKG MKG20020921073009309/21/02 07:30:31  5-MIN KMKG 211230Z 23010KT 10SM CLR 19/17 A2984 700 84 1400 230/10 RMK AO2
14840KMKG MKG20020921073509309/21/02 07:35:31  5-MIN KMKG 211235Z 23011KT 10SM CLR 19/17 A2984 700 84 1400 240/11 RMK AO2
14840KMKG MKG20020921074009309/21/02 07:40:31  5-MIN KMKG 211240Z 22009KT 10SM CLR 19/17 A2984 700 84 1400 230/09 RMK AO2
14840KMKG MKG20020921074509309/21/02 07:45:31  5-MIN KMKG 211245Z 23012KT 10SM CLR 20/17 A2985 700 81 1500 240/12 RMK AO2
14840KMKG MKG20020921075011009/21/02 07:50:31  5-MIN KMKG 211250Z 23010KT 10SM CLR 20/16 A2984 700 78 1500 240/10 RMK AO2 SLP104 T02000161
14840KMKG MKG20020921075511009/21/02 07:55:31  5-MIN KMKG 211255Z 25010KT 10SM CLR 20/16 A2985 690 75 1500 260/10 RMK AO2 SLP106 T02000156
14840KMKG MKG20020921080009609/21/02 08:00:31  5-MIN KMKG 211300Z 25009KT 10SM FEW040 20/16 A2985 700 75 1500 250/09 RMK AO2
14840KMKG MKG20020921080509609/21/02 08:05:31  5-MIN KMKG 211305Z 23009KT 10SM FEW040 20/16 A2985 690 75 1500 240/09 RMK AO2
14840KMKG MKG20020921081009609/21/02 08:10:31  5-MIN KMKG 211310Z 25009KT 10SM FEW040 20/16 A2986 690 75 1500 250/09 RMK AO2
14840KMKG MKG20020921081509609/21/02 08:15:31  5-MIN KMKG 211315Z 25010KT 10SM FEW040 20/16 A2986 690 75 1500 250/10 RMK AO2
14840KMKG MKG20020921082009609/21/02 08:20:31  5-MIN KMKG 211320Z 23011KT 10SM FEW040 20/16 A2986 690 75 1500 240/11 RMK AO2
14840KMKG MKG20020921082509609/21/02 08:25:31  5-MIN KMKG 211325Z 24010KT 10SM FEW040 20/16 A2986 690 75 1500 240/10 RMK AO2
14840KMKG MKG20020921083010209/21/02 08:30:31  5-MIN KMKG 211330Z 24009G16KT 10SM FEW040 20/15 A2986 680 72 1500 250/09G16 RMK AO2
14840KMKG MKG20020921083511209/21/02 08:35:31  5-MIN KMKG 211335Z 24008KT 210V270 10SM FEW040 20/16 A2987 680 75 1500 240/08 210V270 RMK AO2
14840KMKG MKG20020921084009609/21/02 08:40:31  5-MIN KMKG 211340Z 26008KT 10SM FEW040 20/16 A2987 680 75 1500 260/08 RMK AO2
14840KMKG MKG20020921084509609/21/02 08:45:31  5-MIN KMKG 211345Z 26010KT 10SM FEW040 20/16 A2987 680 75 1500 260/10 RMK AO2
14840KMKG MKG20020921085011309/21/02 08:50:31  5-MIN KMKG 211350Z 26009KT 10SM FEW040 20/16 A2987 680 75 1500 260/09 RMK AO2 SLP113 T02000156
14840KMKG MKG20020921085511309/21/02 08:55:31  5-MIN KMKG 211355Z 25008KT 10SM FEW040 20/16 A2987 680 75 1500 260/08 RMK AO2 SLP113 T02000156
14840KMKG MKG20020921090009309/21/02 09:00:31  5-MIN KMKG 211400Z 26012KT 10SM CLR 20/16 A2988 670 75 1500 270/12 RMK AO2
14840KMKG MKG20020921090509309/21/02 09:05:31  5-MIN KMKG 211405Z 26008KT 10SM CLR 20/16 A2988 670 75 1400 260/08 RMK AO2
14840KMKG MKG20020921091009309/21/02 09:10:31  5-MIN KMKG 211410Z 26009KT 10SM CLR 20/16 A2988 670 75 1400 260/09 RMK AO2
14840KMKG MKG20020921091509309/21/02 09:15:31  5-MIN KMKG 211415Z 26011KT 10SM CLR 20/16 A2988 670 75 1400 260/11 RMK AO2
14840KMKG MKG20020921092009309/21/02 09:20:31  5-MIN KMKG 211420Z 27010KT 10SM CLR 20/16 A2988 670 75 1400 270/10 RMK AO2
14840KMKG MKG20020921092509609/21/02 09:25:31  5-MIN KMKG 211425Z 28011KT 10SM FEW020 20/16 A2988 670 75 1400 290/11 RMK AO2
14840KMKG MKG20020921093009609/21/02 09:30:31  5-MIN KMKG 211430Z 28011KT 10SM SCT020 20/16 A2988 670 75 1400 290/11 RMK AO2
14840KMKG MKG20020921093509609/21/02 09:35:31  5-MIN KMKG 211435Z 25010KT 10SM FEW020 20/16 A2988 670 75 1400 250/10 RMK AO2
14840KMKG MKG20020921094009609/21/02 09:40:31  5-MIN KMKG 211440Z 26010KT 10SM FEW020 20/16 A2988 670 75 1400 260/10 RMK AO2
14840KMKG MKG20020921094509609/21/02 09:45:31  5-MIN KMKG 211445Z 26009KT 10SM FEW020 20/16 A2988 660 75 1400 270/09 RMK AO2
14840KMKG MKG20020921095011909/21/02 09:50:31  5-MIN KMKG 211450Z 27007KT 10SM FEW020 20/16 A2989 660 75 1400 270/07 RMK AO2 SLP118 T02000156 53022
14840KMKG MKG20020921095511909/21/02 09:55:31  5-MIN KMKG 211455Z 25009KT 10SM FEW020 20/16 A2989 660 78 1400 250/09 RMK AO2 SLP120 T02000161 51025
14840KMKG MKG20020921100009609/21/02 10:00:31  5-MIN KMKG 211500Z 27008KT 10SM SCT020 20/16 A2989 650 75 1400 270/08 RMK AO2
14840KMKG MKG20020921100509609/21/02 10:05:31  5-MIN KMKG 211505Z 25010KT 10SM SCT020 20/16 A2990 650 75 1400 250/10 RMK AO2
14840KMKG MKG20020921101009609/21/02 10:10:31  5-MIN KMKG 211510Z 25009KT 10SM SCT020 20/16 A2990 650 75 1400 250/09 RMK AO2
14840KMKG MKG20020921101509609/21/02 10:15:31  5-MIN KMKG 211515Z 27011KT 10SM SCT020 20/16 A2990 650 75 1400 280/11 RMK AO2
14840KMKG MKG20020921102009609/21/02 10:20:31  5-MIN KMKG 211520Z 23009KT 10SM SCT020 20/16 A2990 650 75 1400 230/09 RMK AO2
14840KMKG MKG20020921102509609/21/02 10:25:31  5-MIN KMKG 211525Z 26009KT 10SM SCT020 19/16 A2990 650 78 1400 260/09 RMK AO2
14840KMKG MKG20020921103009609/21/02 10:30:31  5-MIN KMKG 211530Z 26009KT 10SM SCT020 20/16 A2990 650 75 1400 270/09 RMK AO2
14840KMKG MKG20020921103509609/21/02 10:35:31  5-MIN KMKG 211535Z 26012KT 10SM SCT020 20/16 A2990 650 75 1400 260/12 RMK AO2
14840KMKG MKG20020921104009609/21/02 10:40:31  5-MIN KMKG 211540Z 26009KT 10SM SCT020 20/16 A2990 650 78 1400 260/09 RMK AO2
14840KMKG MKG20020921104509609/21/02 10:45:31  5-MIN KMKG 211545Z 23008KT 10SM SCT020 20/16 A2990 650 75 1400 240/08 RMK AO2
14840KMKG MKG20020921105011309/21/02 10:50:31  5-MIN KMKG 211550Z 27009KT 10SM FEW020 20/16 A2990 650 78 1400 270/09 RMK AO2 SLP124 T02000161
14840KMKG MKG20020921105511309/21/02 10:55:31  5-MIN KMKG 211555Z 27011KT 10SM FEW020 20/16 A2991 640 75 1400 270/11 RMK AO2 SLP124 T02000156
14840KMKG MKG20020921110009609/21/02 11:00:31  5-MIN KMKG 211600Z 25011KT 10SM FEW020 20/16 A2991 640 75 1400 260/11 RMK AO2
14840KMKG MKG20020921110509309/21/02 11:05:31  5-MIN KMKG 211605Z 26009KT 10SM CLR 20/16 A2991 640 75 1400 270/09 RMK AO2
14840KMKG MKG20020921111009309/21/02 11:10:31  5-MIN KMKG 211610Z 26011KT 10SM CLR 19/16 A2991 640 78 1400 260/11 RMK AO2
14840KMKG MKG20020921111511209/21/02 11:15:31  5-MIN KMKG 211615Z 26009KT 240V300 10SM FEW020 19/16 A2990 650 78 1400 270/09 240V300 RMK AO2
14840KMKG MKG20020921112009609/21/02 11:20:31  5-MIN KMKG 211620Z 26009KT 10SM FEW020 20/16 A2990 650 75 1400 260/09 RMK AO2
14840KMKG MKG20020921112509609/21/02 11:25:31  5-MIN KMKG 211625Z 25009KT 10SM FEW020 20/16 A2990 650 75 1400 260/09 RMK AO2
14840KMKG MKG20020921113009609/21/02 11:30:31  5-MIN KMKG 211630Z 28008KT 10SM FEW020 21/16 A2990 650 75 1500 280/08 RMK AO2
14840KMKG MKG20020921113511209/21/02 11:35:31  5-MIN KMKG 211635Z 26009KT 220V290 10SM FEW020 20/16 A2990 650 75 1400 260/09 220V290 RMK AO2
14840KMKG MKG20020921114009609/21/02 11:40:31  5-MIN KMKG 211640Z 26008KT 10SM FEW020 20/16 A2990 650 75 1400 270/08 RMK AO2
14840KMKG MKG20020921114509609/21/02 11:45:31  5-MIN KMKG 211645Z 27011KT 10SM FEW020 20/16 A2990 650 75 1400 270/11 RMK AO2
14840KMKG MKG20020921115011309/21/02 11:50:31  5-MIN KMKG 211650Z 27009KT 10SM FEW020 21/16 A2990 650 75 1500 280/09 RMK AO2 SLP123 T02060161
14840KMKG MKG20020921115511309/21/02 11:55:31  5-MIN KMKG 211655Z 24008KT 10SM FEW020 20/16 A2990 650 75 1400 240/08 RMK AO2 SLP123 T02000156
14840KMKG MKG20020921120009609/21/02 12:00:31  5-MIN KMKG 211700Z 27009KT 10SM FEW020 21/16 A2990 650 73 1500 280/09 RMK AO2
14840KMKG MKG20020921120511209/21/02 12:05:31  5-MIN KMKG 211705Z 27007KT 230V290 10SM FEW020 20/16 A2990 650 75 1400 280/07 230V290 RMK AO2
14840KMKG MKG20020921121009609/21/02 12:10:31  5-MIN KMKG 211710Z 23008KT 10SM FEW020 20/16 A2990 650 75 1400 230/08 RMK AO2
14840KMKG MKG20020921121509609/21/02 12:15:31  5-MIN KMKG 211715Z 26007KT 10SM FEW020 20/16 A2990 650 75 1400 260/07 RMK AO2
14840KMKG MKG20020921122009609/21/02 12:20:31  5-MIN KMKG 211720Z VRB05KT 10SM FEW020 21/16 A2990 650 73 1500 VRB/05 RMK AO2
14840KMKG MKG20020921122509609/21/02 12:25:31  5-MIN KMKG 211725Z 26006KT 10SM FEW020 20/16 A2990 650 75 1400 260/06 RMK AO2
14840KMKG MKG20020921123009609/21/02 12:30:31  5-MIN KMKG 211730Z 23009KT 10SM FEW020 21/16 A2990 650 73 1500 240/09 RMK AO2
14840KMKG MKG20020921123509609/21/02 12:35:31  5-MIN KMKG 211735Z 24007KT 10SM FEW020 21/16 A2990 650 73 1500 240/07 RMK AO2
14840KMKG MKG20020921124009609/21/02 12:40:31  5-MIN KMKG 211740Z 26009KT 10SM FEW020 20/16 A2990 650 75 1400 270/09 RMK AO2
14840KMKG MKG20020921124509609/21/02 12:45:31  5-MIN KMKG 211745Z 24009KT 10SM FEW020 21/16 A2990 640 73 1500 250/09 RMK AO2
14840KMKG MKG20020921125013109/21/02 12:50:31  5-MIN KMKG 211750Z 22006KT 10SM FEW020 20/16 A2991 640 75 1400 220/06 RMK AO2 SLP125 T02000156 10206 20183 51025
14840KMKG MKG20020921125513109/21/02 12:55:31  5-MIN KMKG 211755Z 25008KT 10SM FEW020 21/16 A2991 640 73 1500 250/08 RMK AO2 SLP124 T02060156 10206 20183 51004
14840KMKG MKG20020921130009609/21/02 13:00:31  5-MIN KMKG 211800Z 24008KT 10SM FEW020 21/16 A2991 640 73 1500 250/08 RMK AO2
14840KMKG MKG20020921130509609/21/02 13:05:31  5-MIN KMKG 211805Z 24007KT 10SM FEW020 21/16 A2991 640 75 1500 250/07 RMK AO2
14840KMKG MKG20020921131009609/21/02 13:10:31  5-MIN KMKG 211810Z 26007KT 10SM FEW020 21/16 A2991 640 75 1500 260/07 RMK AO2
14840KMKG MKG20020921131509609/21/02 13:15:31  5-MIN KMKG 211815Z 23008KT 10SM FEW020 21/16 A2991 640 75 1500 240/08 RMK AO2
14840KMKG MKG20020921132009609/21/02 13:20:31  5-MIN KMKG 211820Z 25008KT 10SM FEW020 21/16 A2991 640 75 1500 250/08 RMK AO2
14840KMKG MKG20020921132509609/21/02 13:25:31  5-MIN KMKG 211825Z 22008KT 10SM FEW020 21/16 A2991 640 75 1500 230/08 RMK AO2
14840KMKG MKG20020921133009609/21/02 13:30:31  5-MIN KMKG 211830Z 22009KT 10SM FEW020 21/16 A2991 640 75 1500 220/09 RMK AO2
14840KMKG MKG20020921133511209/21/02 13:35:31  5-MIN KMKG 211835Z 22008KT 190V260 10SM FEW020 20/16 A2991 640 78 1400 230/08 190V260 RMK AO2
14840KMKG MKG20020921134009609/21/02 13:40:31  5-MIN KMKG 211840Z 25008KT 10SM FEW020 21/16 A2992 630 75 1500 250/08 RMK AO2
14840KMKG MKG20020921134509609/21/02 13:45:31  5-MIN KMKG 211845Z 27009KT 10SM FEW020 21/16 A2992 630 73 1500 270/09 RMK AO2
14840KMKG MKG20020921135011309/21/02 13:50:31  5-MIN KMKG 211850Z 26010KT 10SM SCT018 21/16 A2992 630 75 1500 260/10 RMK AO2 SLP130 T02060161
14840KMKG MKG20020921135511309/21/02 13:55:31  5-MIN KMKG 211855Z 26009KT 10SM SCT018 19/16 A2992 630 78 1300 270/09 RMK AO2 SLP131 T01940156
14840KMKG MKG20020921140009609/21/02 14:00:31  5-MIN KMKG 211900Z 25010KT 10SM SCT018 19/16 A2993 620 78 1300 260/10 RMK AO2
14840KMKG MKG20020921140509609/21/02 14:05:31  5-MIN KMKG 211905Z 26007KT 10SM SCT018 20/16 A2993 620 75 1400 260/07 RMK AO2
14840KMKG MKG20020921141010309/21/02 14:10:31  5-MIN KMKG 211910Z 27009KT 10SM BKN018 OVC023 19/16 A2993 620 78 1300 270/09 RMK AO2
14840KMKG MKG20020921141510309/21/02 14:15:31  5-MIN KMKG 211915Z 26007KT 10SM BKN018 BKN023 19/16 A2993 630 78 1300 270/07 RMK AO2
14840KMKG MKG20020921142010309/21/02 14:20:31  5-MIN KMKG 211920Z 29009KT 10SM BKN018 BKN023 20/16 A2993 620 75 1400 300/09 RMK AO2
14840KMKG MKG20020921142510309/21/02 14:25:31  5-MIN KMKG 211925Z 29008KT 10SM BKN018 BKN023 19/16 A2993 620 78 1300 290/08 RMK AO2
14840KMKG MKG20020921143010309/21/02 14:30:31  5-MIN KMKG 211930Z 29007KT 10SM BKN018 BKN023 20/16 A2993 620 75 1400 290/07 RMK AO2
14840KMKG MKG20020921143510909/21/02 14:35:31  5-MIN KMKG 211935Z 27008G14KT 10SM BKN018 BKN023 20/16 A2993 630 75 1400 270/08G14 RMK AO2
14840KMKG MKG20020921144010909/21/02 14:40:31  5-MIN KMKG 211940Z 28006G14KT 10SM BKN018 BKN023 20/16 A2992 630 75 1400 280/06G14 RMK AO2
14840KMKG MKG20020921144510309/21/02 14:45:31  5-MIN KMKG 211945Z 26009KT 10SM BKN018 BKN023 21/16 A2992 630 73 1500 270/09 RMK AO2
14840KMKG MKG20020921145012009/21/02 14:50:31  5-MIN KMKG 211950Z 24008KT 10SM BKN018 BKN023 20/16 A2993 620 75 1400 240/08 RMK AO2 SLP132 T02000156
14840KMKG MKG20020921145512009/21/02 14:55:31  5-MIN KMKG 211955Z 24010KT 10SM BKN018 BKN023 20/16 A2993 620 78 1400 250/10 RMK AO2 SLP132 T02000161
14840KMKG MKG20020921150009609/21/02 15:00:31  5-MIN KMKG 212000Z 27009KT 10SM FEW018 20/16 A2993 620 75 1400 270/09 RMK AO2
14840KMKG MKG20020921150509609/21/02 15:05:31  5-MIN KMKG 212005Z 28008KT 10SM FEW018 20/16 A2993 620 75 1400 280/08 RMK AO2
14840KMKG MKG20020921151009609/21/02 15:10:31  5-MIN KMKG 212010Z 24008KT 10SM FEW018 20/16 A2993 620 75 1400 240/08 RMK AO2
14840KMKG MKG20020921151509609/21/02 15:15:31  5-MIN KMKG 212015Z 28009KT 10SM FEW018 19/16 A2993 620 78 1300 290/09 RMK AO2
14840KMKG MKG20020921152009609/21/02 15:20:31  5-MIN KMKG 212020Z 29007KT 10SM FEW018 19/15 A2993 620 75 1300 290/07 RMK AO2
14840KMKG MKG20020921152509609/21/02 15:25:31  5-MIN KMKG 212025Z 28011KT 10SM FEW018 20/16 A2993 620 75 1400 290/11 RMK AO2
14840KMKG MKG20020921153009609/21/02 15:30:31  5-MIN KMKG 212030Z 27008KT 10SM FEW018 20/16 A2993 620 75 1400 280/08 RMK AO2
14840KMKG MKG20020921153509309/21/02 15:35:31  5-MIN KMKG 212035Z 27008KT 10SM CLR 20/16 A2993 620 75 1400 270/08 RMK AO2
14840KMKG MKG20020921154009309/21/02 15:40:31  5-MIN KMKG 212040Z 27009KT 10SM CLR 19/16 A2993 620 78 1300 280/09 RMK AO2
14840KMKG MKG20020921154509309/21/02 15:45:31  5-MIN KMKG 212045Z 28008KT 10SM CLR 20/16 A2993 620 75 1400 280/08 RMK AO2
14840KMKG MKG20020921155011609/21/02 15:50:31  5-MIN KMKG 212050Z 27007KT 10SM CLR 20/16 A2993 620 75 1400 270/07 RMK AO2 SLP133 T02000156 51004
14840KMKG MKG20020921155511609/21/02 15:55:31  5-MIN KMKG 212055Z 26009KT 10SM CLR 20/16 A2993 620 75 1400 270/09 RMK AO2 SLP133 T02000156 51008
14840KMKG MKG20020921160009309/21/02 16:00:31  5-MIN KMKG 212100Z 27007KT 10SM CLR 19/16 A2993 620 81 1300 280/07 RMK AO2
14840KMKG MKG20020921160509309/21/02 16:05:31  5-MIN KMKG 212105Z 27007KT 10SM CLR 20/16 A2993 620 75 1400 280/07 RMK AO2
14840KMKG MKG20020921161009309/21/02 16:10:31  5-MIN KMKG 212110Z 25008KT 10SM CLR 19/15 A2994 610 75 1300 250/08 RMK AO2
14840KMKG MKG20020921161509609/21/02 16:15:31  5-MIN KMKG 212115Z 26007KT 10SM FEW020 19/16 A2994 610 78 1300 260/07 RMK AO2
14840KMKG MKG20020921162009609/21/02 16:20:31  5-MIN KMKG 212120Z 27007KT 10SM FEW020 19/16 A2994 610 78 1300 270/07 RMK AO2
14840KMKG MKG20020921162509609/21/02 16:25:31  5-MIN KMKG 212125Z 28008KT 10SM FEW020 19/15 A2994 610 78 1200 280/08 RMK AO2
14840KMKG MKG20020921163009609/21/02 16:30:31  5-MIN KMKG 212130Z 27007KT 10SM FEW020 19/15 A2994 610 75 1300 270/07 RMK AO2
14840KMKG MKG20020921163509609/21/02 16:35:31  5-MIN KMKG 212135Z 28007KT 10SM FEW020 19/15 A2995 610 75 1300 290/07 RMK AO2
14840KMKG MKG20020921164009609/21/02 16:40:31  5-MIN KMKG 212140Z 28009KT 10SM SCT020 19/15 A2995 610 78 1200 280/09 RMK AO2
14840KMKG MKG20020921164509609/21/02 16:45:31  5-MIN KMKG 212145Z 28008KT 10SM SCT020 19/15 A2995 600 78 1200 280/08 RMK AO2
14840KMKG MKG20020921165011309/21/02 16:50:31  5-MIN KMKG 212150Z 30006KT 10SM FEW020 19/15 A2995 600 75 1300 310/06 RMK AO2 SLP139 T01940150
14840KMKG MKG20020921165511309/21/02 16:55:31  5-MIN KMKG 212155Z VRB06KT 10SM FEW020 19/15 A2995 600 75 1300 VRB/06 RMK AO2 SLP140 T01940150
14840KMKG MKG20020921170009609/21/02 17:00:31  5-MIN KMKG 212200Z 27008KT 10SM FEW020 19/15 A2995 600 75 1300 280/08 RMK AO2
14840KMKG MKG20020921170509609/21/02 17:05:31  5-MIN KMKG 212205Z 27009KT 10SM FEW020 19/15 A2995 600 78 1200 270/09 RMK AO2
14840KMKG MKG20020921171009309/21/02 17:10:31  5-MIN KMKG 212210Z 28008KT 10SM CLR 19/15 A2996 600 75 1300 280/08 RMK AO2
14840KMKG MKG20020921171509309/21/02 17:15:31  5-MIN KMKG 212215Z 28008KT 10SM CLR 19/15 A2996 600 78 1200 280/08 RMK AO2
14840KMKG MKG20020921172009309/21/02 17:20:31  5-MIN KMKG 212220Z 27008KT 10SM CLR 19/15 A2996 590 78 1200 270/08 RMK AO2
14840KMKG MKG20020921172509309/21/02 17:25:31  5-MIN KMKG 212225Z 29008KT 10SM CLR 19/15 A2996 590 78 1200 300/08 RMK AO2
14840KMKG MKG20020921173009309/21/02 17:30:31  5-MIN KMKG 212230Z 28008KT 10SM CLR 19/15 A2996 590 78 1200 290/08 RMK AO2
14840KMKG MKG20020921173509309/21/02 17:35:31  5-MIN KMKG 212235Z 29008KT 10SM CLR 19/15 A2996 590 78 1200 300/08 RMK AO2
14840KMKG MKG20020921174009309/21/02 17:40:31  5-MIN KMKG 212240Z 30007KT 10SM CLR 19/14 A2996 590 75 1200 310/07 RMK AO2
14840KMKG MKG20020921174509309/21/02 17:45:31  5-MIN KMKG 212245Z 32009KT 10SM CLR 19/14 A2996 590 75 1200 320/09 RMK AO2
14840KMKG MKG20020921175011009/21/02 17:50:31  5-MIN KMKG 212250Z 32009KT 10SM CLR 19/14 A2996 590 75 1200 330/09 RMK AO2 SLP146 T01890144
14840KMKG MKG20020921175511009/21/02 17:55:31  5-MIN KMKG 212255Z 31007KT 10SM CLR 18/14 A2996 590 78 1200 310/07 RMK AO2 SLP145 T01830144
14840KMKG MKG20020921180009309/21/02 18:00:31  5-MIN KMKG 212300Z 30007KT 10SM CLR 18/14 A2996 590 78 1200 310/07 RMK AO2
14840KMKG MKG20020921180509309/21/02 18:05:31  5-MIN KMKG 212305Z 31007KT 10SM CLR 18/14 A2996 590 75 1200 310/07 RMK AO2
14840KMKG MKG20020921181009309/21/02 18:10:31  5-MIN KMKG 212310Z 30007KT 10SM CLR 18/14 A2997 590 75 1200 310/07 RMK AO2
14840KMKG MKG20020921181509309/21/02 18:15:31  5-MIN KMKG 212315Z 31006KT 10SM CLR 18/14 A2997 590 75 1200 310/06 RMK AO2
14840KMKG MKG20020921182009309/21/02 18:20:31  5-MIN KMKG 212320Z 31005KT 10SM CLR 18/14 A2997 590 75 1200 320/05 RMK AO2
14840KMKG MKG20020921182509309/21/02 18:25:31  5-MIN KMKG 212325Z 31008KT 10SM CLR 18/13 A2997 590 75 1100 310/08 RMK AO2
14840KMKG MKG20020921183009309/21/02 18:30:31  5-MIN KMKG 212330Z 32006KT 10SM CLR 18/13 A2997 590 75 1100 320/06 RMK AO2
14840KMKG MKG20020921183509309/21/02 18:35:31  5-MIN KMKG 212335Z 31005KT 10SM CLR 17/13 A2996 590 78 1000 320/05 RMK AO2
14840KMKG MKG20020921184009309/21/02 18:40:31  5-MIN KMKG 212340Z 32005KT 10SM CLR 17/13 A2996 590 78 1000 320/05 RMK AO2
14840KMKG MKG20020921184509309/21/02 18:45:31  5-MIN KMKG 212345Z 33005KT 10SM CLR 17/13 A2996 590 80 1000 330/05 RMK AO2
14840KMKG MKG20020921185012809/21/02 18:50:31  5-MIN KMKG 212350Z 33006KT 10SM CLR 17/13 A2996 590 80 1000 340/06 RMK AO2 SLP144 T01670133 10211 20167 51008
14840KMKG MKG20020921185512809/21/02 18:55:31  5-MIN KMKG 212355Z 35005KT 10SM CLR 17/14 A2996 590 83 1000 350/05 RMK AO2 SLP144 T01670139 10211 20167 50010
14840KMKG MKG20020921190009309/21/02 19:00:31  5-MIN KMKG 220000Z 35004KT 10SM CLR 17/13 A2996 590 80 1000 350/04 RMK AO2
14840KMKG MKG20020921190509309/21/02 19:05:31  5-MIN KMKG 220005Z 36004KT 10SM CLR 17/13 A2996 590 80 1000 360/04 RMK AO2
14840KMKG MKG20020921191009209/21/02 19:10:31  5-MIN KMKG 220010Z 34003KT 10SM CLR 16/14 A2997 590 86 900 350/03 RMK AO2
14840KMKG MKG20020921191509309/21/02 19:15:31  5-MIN KMKG 220015Z 33004KT 10SM CLR 17/14 A2997 580 83 1000 340/04 RMK AO2
14840KMKG MKG20020921192009209/21/02 19:20:31  5-MIN KMKG 220020Z 32005KT 10SM CLR 16/14 A2998 580 86 900 320/05 RMK AO2
14840KMKG MKG20020921192509209/21/02 19:25:31  5-MIN KMKG 220025Z 32005KT 10SM CLR 17/14 A2998 580 83 900 320/05 RMK AO2
14840KMKG MKG20020921193009209/21/02 19:30:31  5-MIN KMKG 220030Z 31006KT 10SM CLR 16/14 A2998 570 86 900 310/06 RMK AO2
14840KMKG MKG20020921193509209/21/02 19:35:31  5-MIN KMKG 220035Z 32006KT 10SM CLR 17/14 A2999 570 83 900 320/06 RMK AO2
14840KMKG MKG20020921194009209/21/02 19:40:31  5-MIN KMKG 220040Z 32005KT 10SM CLR 17/14 A2999 570 83 900 330/05 RMK AO2
14840KMKG MKG20020921194509209/21/02 19:45:31  5-MIN KMKG 220045Z 32005KT 10SM CLR 16/14 A2999 570 86 900 330/05 RMK AO2
14840KMKG MKG20020921195010909/21/02 19:50:31  5-MIN KMKG 220050Z 33005KT 10SM CLR 16/14 A2999 560 86 900 330/05 RMK AO2 SLP155 T01610139
14840KMKG MKG20020921195510909/21/02 19:55:31  5-MIN KMKG 220055Z 33005KT 10SM CLR 16/13 A3000 560 83 900 330/05 RMK AO2 SLP156 T01610133
14840KMKG MKG20020921200009209/21/02 20:00:31  5-MIN KMKG 220100Z 33005KT 10SM CLR 16/13 A3000 560 83 900 330/05 RMK AO2
14840KMKG MKG20020921200509209/21/02 20:05:31  5-MIN KMKG 220105Z 34005KT 10SM CLR 16/13 A2999 560 83 900 340/05 RMK AO2
14840KMKG MKG20020921201009209/21/02 20:10:31  5-MIN KMKG 220110Z 34004KT 10SM CLR 16/13 A2999 560 83 900 340/04 RMK AO2
14840KMKG MKG20020921201509209/21/02 20:15:31  5-MIN KMKG 220115Z 35004KT 10SM CLR 16/13 A2999 560 83 900 350/04 RMK AO2
14840KMKG MKG20020921202009209/21/02 20:20:31  5-MIN KMKG 220120Z 35004KT 10SM CLR 16/13 A2999 560 80 900 350/04 RMK AO2
14840KMKG MKG20020921202509209/21/02 20:25:31  5-MIN KMKG 220125Z 33004KT 10SM CLR 16/13 A3000 560 83 800 340/04 RMK AO2
14840KMKG MKG20020921203009209/21/02 20:30:31  5-MIN KMKG 220130Z 34004KT 10SM CLR 16/13 A2999 560 83 800 340/04 RMK AO2
14840KMKG MKG20020921203509209/21/02 20:35:31  5-MIN KMKG 220135Z 34005KT 10SM CLR 16/13 A2999 560 83 800 350/05 RMK AO2
14840KMKG MKG20020921204009209/21/02 20:40:31  5-MIN KMKG 220140Z 33005KT 10SM CLR 16/13 A3000 560 83 800 340/05 RMK AO2
14840KMKG MKG20020921204509209/21/02 20:45:31  5-MIN KMKG 220145Z 35004KT 10SM CLR 16/13 A3000 560 86 800 360/04 RMK AO2
14840KMKG MKG20020921205010909/21/02 20:50:31  5-MIN KMKG 220150Z 35005KT 10SM CLR 16/12 A3000 560 77 900 360/05 RMK AO2 SLP156 T01610122
14840KMKG MKG20020921205510909/21/02 20:55:31  5-MIN KMKG 220155Z 36006KT 10SM CLR 16/12 A3000 560 77 900 360/06 RMK AO2 SLP157 T01610122
14840KMKG MKG20020921210009209/21/02 21:00:31  5-MIN KMKG 220200Z 35006KT 10SM CLR 16/12 A3000 560 77 900 360/06 RMK AO2
14840KMKG MKG20020921210509209/21/02 21:05:31  5-MIN KMKG 220205Z 36005KT 10SM CLR 16/12 A3000 560 75 900 360/05 RMK AO2
14840KMKG MKG20020921211009209/21/02 21:10:31  5-MIN KMKG 220210Z 36005KT 10SM CLR 16/12 A3000 560 77 800 360/05 RMK AO2
14840KMKG MKG20020921211509209/21/02 21:15:31  5-MIN KMKG 220215Z 36004KT 10SM CLR 16/12 A3000 560 77 800 010/04 RMK AO2
14840KMKG MKG20020921212009209/21/02 21:20:31  5-MIN KMKG 220220Z 01003KT 10SM CLR 16/12 A3000 560 77 800 010/03 RMK AO2
14840KMKG MKG20020921212509209/21/02 21:25:31  5-MIN KMKG 220225Z 04003KT 10SM CLR 16/11 A3000 560 74 800 040/03 RMK AO2
14840KMKG MKG20020921213009209/21/02 21:30:31  5-MIN KMKG 220230Z 03003KT 10SM CLR 16/11 A3000 560 74 800 040/03 RMK AO2
14840KMKG MKG20020921213509209/21/02 21:35:31  5-MIN KMKG 220235Z 02003KT 10SM CLR 16/11 A3000 560 74 800 020/03 RMK AO2
14840KMKG MKG20020921214009209/21/02 21:40:31  5-MIN KMKG 220240Z 36003KT 10SM CLR 16/11 A3000 550 74 800 010/03 RMK AO2
14840KMKG MKG20020921214509209/21/02 21:45:31  5-MIN KMKG 220245Z 01004KT 10SM CLR 14/11 A3000 560 80 700 010/04 RMK AO2
14840KMKG MKG20020921215011509/21/02 21:50:31  5-MIN KMKG 220250Z 01004KT 10SM CLR 14/11 A3000 550 80 700 010/04 RMK AO2 SLP158 T01440111 50010
14840KMKG MKG20020921215511509/21/02 21:55:31  5-MIN KMKG 220255Z 02004KT 10SM CLR 14/11 A3000 550 77 700 020/04 RMK AO2 SLP158 T01440106 51014
14840KMKG MKG20020921220009209/21/02 22:00:31  5-MIN KMKG 220300Z 01004KT 10SM CLR 14/11 A3000 550 77 700 010/04 RMK AO2
14840KMKG MKG20020921220509209/21/02 22:05:31  5-MIN KMKG 220305Z 01005KT 10SM CLR 15/11 A3001 550 74 700 010/05 RMK AO2
14840KMKG MKG20020921221009209/21/02 22:10:31  5-MIN KMKG 220310Z 02003KT 10SM CLR 15/10 A3001 550 72 700 030/03 RMK AO2
14840KMKG MKG20020921221509209/21/02 22:15:31  5-MIN KMKG 220315Z 02004KT 10SM CLR 15/11 A3001 550 74 700 020/04 RMK AO2
14840KMKG MKG20020921222009209/21/02 22:20:31  5-MIN KMKG 220320Z 36004KT 10SM CLR 15/11 A3001 550 74 700 010/04 RMK AO2
14840KMKG MKG20020921222509209/21/02 22:25:31  5-MIN KMKG 220325Z 36004KT 10SM CLR 14/11 A3001 550 77 700 360/04 RMK AO2
14840KMKG MKG20020921223009209/21/02 22:30:31  5-MIN KMKG 220330Z 02004KT 10SM CLR 14/11 A3001 550 80 600 030/04 RMK AO2
14840KMKG MKG20020921223509209/21/02 22:35:31  5-MIN KMKG 220335Z 04003KT 10SM CLR 14/11 A3001 550 80 600 040/03 RMK AO2
14840KMKG MKG20020921224009209/21/02 22:40:31  5-MIN KMKG 220340Z 00000KT 10SM CLR 14/11 A3001 540 80 600 000/00 RMK AO2
14840KMKG MKG20020921224509209/21/02 22:45:31  5-MIN KMKG 220345Z 00000KT 10SM CLR 14/11 A3001 550 80 600 000/00 RMK AO2
14840KMKG MKG20020921225010909/21/02 22:50:31  5-MIN KMKG 220350Z 00000KT 10SM CLR 14/11 A3001 550 80 600 000/00 RMK AO2 SLP161 T01390106
14840KMKG MKG20020921225511209/21/02 22:55:31  5-MIN KMKG 220355Z 00000KT 10SM FEW100 14/11 A3001 540 83 600 000/00 RMK AO2 SLP162 T01390111
14840KMKG MKG20020921230009509/21/02 23:00:31  5-MIN KMKG 220400Z 00000KT 10SM FEW100 13/11 A3001 550 86 500 000/00 RMK AO2
14840KMKG MKG20020921230509509/21/02 23:05:31  5-MIN KMKG 220405Z 01003KT 10SM SCT100 14/11 A3001 550 80 600 020/03 RMK AO2
14840KMKG MKG20020921231009509/21/02 23:10:31  5-MIN KMKG 220410Z 36005KT 10SM BKN100 14/11 A3001 540 80 600 360/05 RMK AO2
14840KMKG MKG20020921231509509/21/02 23:15:31  5-MIN KMKG 220415Z 03004KT 10SM BKN100 14/11 A3001 550 77 600 030/04 RMK AO2
14840KMKG MKG20020921232009509/21/02 23:20:31  5-MIN KMKG 220420Z 01004KT 10SM BKN100 14/11 A3001 550 77 600 010/04 RMK AO2
14840KMKG MKG20020921232509509/21/02 23:25:31  5-MIN KMKG 220425Z 02003KT 10SM BKN100 15/10 A3001 550 72 700 030/03 RMK AO2
14840KMKG MKG20020921233009509/21/02 23:30:31  5-MIN KMKG 220430Z 36003KT 10SM BKN100 15/11 A3001 540 74 700 010/03 RMK AO2
14840KMKG MKG20020921233509509/21/02 23:35:31  5-MIN KMKG 220435Z 02003KT 10SM BKN100 15/10 A3001 540 72 700 030/03 RMK AO2
14840KMKG MKG20020921234009509/21/02 23:40:31  5-MIN KMKG 220440Z 00000KT 10SM BKN100 14/11 A3001 550 77 600 000/00 RMK AO2
14840KMKG MKG20020921234509509/21/02 23:45:31  5-MIN KMKG 220445Z 00000KT 10SM BKN100 14/11 A3002 540 80 600 000/00 RMK AO2
14840KMKG MKG20020921235012209/21/02 23:50:31  5-MIN KMKG 220450Z 00000KT 10SM OVC100 14/11 A3002 540 80 600 000/00 RMK AO2 SLP163 T01440111 402110133
14840KMKG MKG20020921235512209/21/02 23:55:31  5-MIN KMKG 220455Z 00000KT 10SM OVC100 14/11 A3002 540 80 600 000/00 RMK AO2 SLP163 T01440111 402110133
14840KMKG MKG20020922000009509/22/02 00:00:31  5-MIN KMKG 220500Z 00000KT 10SM OVC095 14/12 A3002 540 86 600 000/00 RMK AO2
14840KMKG MKG20020922000509509/22/02 00:05:31  5-MIN KMKG 220505Z 33006KT 10SM OVC095 14/12 A3003 530 90 600 330/06 RMK AO2
14840KMKG MKG20020922001009509/22/02 00:10:31  5-MIN KMKG 220510Z 33004KT 10SM OVC090 15/12 A3003 530 80 700 340/04 RMK AO2
14840KMKG MKG20020922001509509/22/02 00:15:31  5-MIN KMKG 220515Z 33005KT 10SM OVC090 15/11 A3003 530 77 700 330/05 RMK AO2
14840KMKG MKG20020922002009509/22/02 00:20:31  5-MIN KMKG 220520Z 33006KT 10SM OVC085 16/11 A3003 530 74 800 330/06 RMK AO2
14840KMKG MKG20020922002509509/22/02 00:25:31  5-MIN KMKG 220525Z 33005KT 10SM OVC080 16/11 A3003 530 72 800 340/05 RMK AO2
14840KMKG MKG20020922003009509/22/02 00:30:31  5-MIN KMKG 220530Z 33006KT 10SM OVC080 16/11 A3003 530 72 800 330/06 RMK AO2
14840KMKG MKG20020922003509509/22/02 00:35:31  5-MIN KMKG 220535Z 34006KT 10SM OVC080 16/11 A3003 530 72 800 340/06 RMK AO2
14840KMKG MKG20020922004009509/22/02 00:40:31  5-MIN KMKG 220540Z 33007KT 10SM OVC080 16/11 A3003 530 72 800 340/07 RMK AO2
14840KMKG MKG20020922004509509/22/02 00:45:31  5-MIN KMKG 220545Z 33009KT 10SM OVC080 16/11 A3003 530 72 800 340/09 RMK AO2
14840KMKG MKG20020922005013009/22/02 00:50:31  5-MIN KMKG 220550Z 33008KT 10SM OVC080 16/11 A3003 530 72 800 340/08 RMK AO2 SLP167 T01560106 10167 20133 51014
14840KMKG MKG20020922005513009/22/02 00:55:31  5-MIN KMKG 220555Z 33009KT 10SM OVC085 16/11 A3003 530 72 800 330/09 RMK AO2 SLP168 T01560106 10167 20133 53010
14840KMKG MKG20020922010009509/22/02 01:00:31  5-MIN KMKG 220600Z 33009KT 10SM OVC080 16/11 A3003 530 72 800 340/09 RMK AO2
14840KMKG MKG20020922010509509/22/02 01:05:31  5-MIN KMKG 220605Z 33007KT 10SM OVC085 16/11 A3004 520 72 700 330/07 RMK AO2
14840KMKG MKG20020922011009509/22/02 01:10:31  5-MIN KMKG 220610Z 33008KT 10SM OVC085 16/11 A3004 520 72 700 330/08 RMK AO2
14840KMKG MKG20020922011509509/22/02 01:15:31  5-MIN KMKG 220615Z 33008KT 10SM OVC085 16/11 A3004 520 72 700 330/08 RMK AO2
14840KMKG MKG20020922012009509/22/02 01:20:31  5-MIN KMKG 220620Z 33008KT 10SM OVC085 16/11 A3003 520 72 800 330/08 RMK AO2
14840KMKG MKG20020922012509509/22/02 01:25:31  5-MIN KMKG 220625Z 33007KT 10SM OVC080 16/11 A3003 530 72 800 330/07 RMK AO2
14840KMKG MKG20020922013009509/22/02 01:30:31  5-MIN KMKG 220630Z 33008KT 10SM OVC080 16/11 A3003 530 72 800 330/08 RMK AO2
14840KMKG MKG20020922013509509/22/02 01:35:31  5-MIN KMKG 220635Z 34006KT 10SM OVC080 16/11 A3003 530 72 800 340/06 RMK AO2
14840KMKG MKG20020922014009509/22/02 01:40:31  5-MIN KMKG 220640Z 34008KT 10SM OVC080 16/11 A3003 530 72 800 340/08 RMK AO2
14840KMKG MKG20020922014509509/22/02 01:45:31  5-MIN KMKG 220645Z 33006KT 10SM OVC080 16/11 A3003 530 72 800 340/06 RMK AO2
14840KMKG MKG20020922015011909/22/02 01:50:31  5-MIN KMKG 220650Z 33007KT 10SM FEW060 OVC080 16/11 A3003 530 72 800 330/07 RMK AO2 SLP169 T01560106
14840KMKG MKG20020922015511909/22/02 01:55:31  5-MIN KMKG 220655Z 33006KT 10SM SCT060 OVC080 16/11 A3003 530 72 800 340/06 RMK AO2 SLP168 T01560106
14840KMKG MKG20020922020010209/22/02 02:00:31  5-MIN KMKG 220700Z 33007KT 10SM SCT060 OVC080 16/11 A3003 530 72 800 340/07 RMK AO2
14840KMKG MKG20020922020510209/22/02 02:05:31  5-MIN KMKG 220705Z 34008KT 10SM SCT060 OVC080 16/11 A3003 530 72 800 350/08 RMK AO2
14840KMKG MKG20020922021010809/22/02 02:10:31  5-MIN KMKG 220710Z 32012G15KT 10SM FEW060 OVC080 16/10 A3003 530 69 800 330/12G15 RMK AO2
14840KMKG MKG20020922021510209/22/02 02:15:31  5-MIN KMKG 220715Z 33012KT 10SM FEW060 OVC080 16/10 A3002 540 69 800 330/12 RMK AO2
14840KMKG MKG20020922022010209/22/02 02:20:31  5-MIN KMKG 220720Z 33011KT 10SM FEW060 OVC080 15/10 A3002 540 72 700 340/11 RMK AO2
14840KMKG MKG20020922022509509/22/02 02:25:31  5-MIN KMKG 220725Z 33009KT 10SM OVC080 15/10 A3002 530 72 700 330/09 RMK AO2
14840KMKG MKG20020922023009509/22/02 02:30:31  5-MIN KMKG 220730Z 33010KT 10SM OVC080 15/10 A3002 540 72 700 340/10 RMK AO2
14840KMKG MKG20020922023509509/22/02 02:35:31  5-MIN KMKG 220735Z 35009KT 10SM OVC080 15/10 A3002 540 72 700 360/09 RMK AO2
14840KMKG MKG20020922024009509/22/02 02:40:31  5-MIN KMKG 220740Z 34007KT 10SM OVC080 15/10 A3002 540 72 700 350/07 RMK AO2
14840KMKG MKG20020922024509509/22/02 02:45:31  5-MIN KMKG 220745Z 34007KT 10SM OVC075 14/10 A3002 540 74 600 340/07 RMK AO2
14840KMKG MKG20020922025011209/22/02 02:50:31  5-MIN KMKG 220750Z 33008KT 10SM OVC075 15/09 A3002 540 69 700 330/08 RMK AO2 SLP165 T01500094
14840KMKG MKG20020922025511909/22/02 02:55:31  5-MIN KMKG 220755Z 33005KT 10SM SCT060 OVC075 14/10 A3003 530 74 600 340/05 RMK AO2 SLP166 T01440100
14840KMKG MKG20020922030010209/22/02 03:00:31  5-MIN KMKG 220800Z 33007KT 10SM BKN060 OVC075 14/10 A3003 530 74 600 330/07 RMK AO2
14840KMKG MKG20020922030510209/22/02 03:05:31  5-MIN KMKG 220805Z 32007KT 10SM BKN055 OVC075 14/09 A3003 530 72 600 320/07 RMK AO2
14840KMKG MKG20020922031012509/22/02 03:10:31  5-MIN KMKG 220810Z 31007KT 10SM -RA SCT050 BKN060 OVC075 14/10 A3003 530 74 600 310/07 RMK AO2 RAB08 P0000
14840KMKG MKG20020922031511009/22/02 03:15:31  5-MIN KMKG 220815Z 31008KT 9SM -RA OVC055 14/10 A3004 520 77 500 310/08 RMK AO2 RAB08 P0000
14840KMKG MKG20020922032012309/22/02 03:20:31  5-MIN KMKG 220820Z 29006KT 7SM RA BKN050 OVC060 14/11 A3005 510 80 500 290/06 RMK AO2 RAB08 PRESRR P0001
14840KMKG MKG20020922032513109/22/02 03:25:31  5-MIN KMKG 220825Z 28007KT 4SM +RA FEW021 BKN050 OVC060 13/11 A3006 500 83 500 280/07 RMK AO2 RAB08 PRESRR P0003
14840KMKG MKG20020922033011909/22/02 03:30:31  5-MIN KMKG 220830Z 29005KT 3SM RA BR FEW023 OVC050 13/11 A3005 510 89 400 290/05 RMK AO2 RAB08 P0005
14840KMKG MKG20020922033512609/22/02 03:35:31  5-MIN KMKG 220835Z 33005KT 4SM RA BR FEW025 SCT045 OVC050 13/11 A3005 510 89 400 330/05 RMK AO2 RAB08 P0006
14840KMKG MKG20020922034011909/22/02 03:40:31  5-MIN KMKG 220840Z 30005KT 5SM RA BR SCT025 OVC055 13/11 A3005 510 86 400 300/05 RMK AO2 RAB08 P0007
14840KMKG MKG20020922034514109/22/02 03:45:31  5-MIN KMKG 220845Z 27005KT 4SM RA BR SCT025 BKN050 OVC065 12/11 A3007 490 89 300 280/05 RMK AO2 RAB08 CIG 030 RWY 14 P0009
14840KMKG MKG20020922035015509/22/02 03:50:31  5-MIN KMKG 220850Z 22004KT 3SM RA BR BKN025 BKN044 OVC060 12/12 A3007 490 96 300 220/04 RMK AO2 RAB08 SLP182 P0011 60011 T01220117 53010
14840KMKG MKG20020922035516009/22/02 03:55:31  5-MIN KMKG 220855Z 24003KT 2 1/2SM +RA BR BKN023 BKN043 OVC060 12/12 A3007 490 96 300 250/03 RMK AO2 RAB08 SLP182 P0015 60015 T01220117 53013
14840KMKG MKG20020922040012109/22/02 04:00:31  5-MIN KMKG 220900Z 20003KT 2SM +RA BR BKN021 BKN043 OVC065 12/11 A3007 490 96 200 200/03 RMK AO2 P0002
14840KMKG MKG20020922040511809/22/02 04:05:31  5-MIN KMKG 220905Z 18005KT 2 1/2SM +RA BR BKN021 OVC060 12/11 A3008 490 96 200 180/05 RMK AO2 P0006
14840KMKG MKG20020922041011209/22/02 04:10:31  5-MIN KMKG 220910Z 17003KT 2 1/2SM +RA BR OVC021 12/12 A3007 490 100 300 170/03 RMK AO2 P0009
14840KMKG MKG20020922041510709/22/02 04:15:31  5-MIN KMKG 220915Z 17003KT 3SM RA BR OVC021 12/12 A3007 490 100 300 170/03 RMK AO2 P0010
14840KMKG MKG20020922042010609/22/02 04:20:31  5-MIN KMKG 220920Z 00000KT 4SM RA BR OVC023 12/11 A3006 500 96 300 000/00 RMK AO2 P0012
14840KMKG MKG20020922042510709/22/02 04:25:31  5-MIN KMKG 220925Z 00000KT 5SM RA BR OVC027 12/12 A3006 500 100 300 000/00 RMK AO2 P0013
14840KMKG MKG20020922043011509/22/02 04:30:31  5-MIN KMKG 220930Z 14003KT 6SM -RA BR BKN029 OVC070 12/12 A3007 500 100 300 140/03 RMK AO2 P0013
14840KMKG MKG20020922043511209/22/02 04:35:31  5-MIN KMKG 220935Z 14004KT 8SM -RA BKN029 OVC075 12/12 A3007 500 100 300 150/04 RMK AO2 P0014
14840KMKG MKG20020922044011309/22/02 04:40:31  5-MIN KMKG 220940Z 14003KT 10SM -RA SCT031 OVC075 12/12 A3006 500 100 300 140/03 RMK AO2 P0014
14840KMKG MKG20020922044511209/22/02 04:45:31  5-MIN KMKG 220945Z 11003KT 9SM -RA SCT039 OVC075 12/12 A3006 510 100 300 110/03 RMK AO2 P0015
14840KMKG MKG20020922045012909/22/02 04:50:31  5-MIN KMKG 220950Z 13003KT 8SM -RA FEW047 OVC075 11/11 A3006 500 100 200 140/03 RMK AO2 SLP178 P0015 T01110111
14840KMKG MKG20020922045512809/22/02 04:55:31  5-MIN KMKG 220955Z 16003KT 7SM RA FEW044 OVC075 12/12 A3006 500 100 300 160/03 RMK AO2 SLP180 P0016 T01170117
14840KMKG MKG20020922050012909/22/02 05:00:31  5-MIN KMKG 221000Z 00000KT 6SM RA BR SCT027 OVC075 12/12 A3006 500 100 300 000/00 RMK AO2 CIG 024 RWY 14 P0001
14840KMKG MKG20020922050511209/22/02 05:05:31  5-MIN KMKG 221005Z 00000KT 8SM -RA FEW024 OVC080 12/12 A3006 500 100 300 000/00 RMK AO2 P0001
14840KMKG MKG20020922051011309/22/02 05:10:31  5-MIN KMKG 221010Z 00000KT 10SM -RA FEW037 OVC080 12/12 A3006 500 100 300 000/00 RMK AO2 P0001
14840KMKG MKG20020922051512809/22/02 05:15:31  5-MIN KMKG 221015Z 13003KT 10SM -RA SCT044 OVC080 12/12 A3006 500 100 300 130/03 RMK AO2 CIG 039 RWY 14 P0002
14840KMKG MKG20020922052011309/22/02 05:20:31  5-MIN KMKG 221020Z 13004KT 10SM -RA BKN048 OVC080 12/12 A3005 510 100 300 140/04 RMK AO2 P0002
14840KMKG MKG20020922052511209/22/02 05:25:31  5-MIN KMKG 221025Z 15003KT 9SM -RA BKN050 OVC085 12/12 A3005 510 100 300 150/03 RMK AO2 P0002
14840KMKG MKG20020922053011209/22/02 05:30:31  5-MIN KMKG 221030Z 16003KT 8SM -RA BKN055 OVC085 12/12 A3005 510 100 300 160/03 RMK AO2 P0003
14840KMKG MKG20020922053512709/22/02 05:35:31  5-MIN KMKG 221035Z 00000KT 9SM -RA BKN060 OVC080 12/12 A3006 500 100 300 000/00 RMK AO2 CIG 049 RWY 14 P0003
14840KMKG MKG20020922054011309/22/02 05:40:31  5-MIN KMKG 221040Z 00000KT 10SM -RA BKN060 OVC080 12/12 A3006 500 100 300 000/00 RMK AO2 P0003
14840KMKG MKG20020922054511309/22/02 05:45:31  5-MIN KMKG 221045Z 14004KT 10SM -RA BKN060 OVC080 12/12 A3007 500 100 300 150/04 RMK AO2 P0004
14840KMKG MKG20020922055014509/22/02 05:50:31  5-MIN KMKG 221050Z 14004KT 10SM -RA BKN060 OVC080 12/12 A3007 500 100 300 140/04 RMK AO2 CIG 050 RWY 14 SLP181 P0004 T01170117
14840KMKG MKG20020922055513009/22/02 05:55:31  5-MIN KMKG 221055Z 14004KT 10SM -RA BKN065 OVC080 12/12 A3007 500 100 300 150/04 RMK AO2 SLP181 P0004 T01170117
14840KMKG MKG20020922060010609/22/02 06:00:31  5-MIN KMKG 221100Z 15005KT 10SM -RA OVC070 12/12 A3007 490 100 300 150/05 RMK AO2 P0000
14840KMKG MKG20020922060511309/22/02 06:05:31  5-MIN KMKG 221105Z 14005KT 10SM -RA BKN070 OVC080 12/12 A3006 500 100 300 140/05 RMK AO2 P0000
14840KMKG MKG20020922061011309/22/02 06:10:31  5-MIN KMKG 221110Z 14005KT 10SM -RA BKN070 OVC080 12/12 A3006 500 100 300 140/05 RMK AO2 P0000
14840KMKG MKG20020922061511309/22/02 06:15:31  5-MIN KMKG 221115Z 14006KT 10SM -RA BKN065 OVC080 12/12 A3005 510 100 300 140/06 RMK AO2 P0000
14840KMKG MKG20020922062010609/22/02 06:20:31  5-MIN KMKG 221120Z 14005KT 10SM -RA OVC065 12/12 A3005 510 100 300 140/05 RMK AO2 P0001
14840KMKG MKG20020922062510609/22/02 06:25:31  5-MIN KMKG 221125Z 13006KT 10SM -RA OVC065 12/12 A3005 510 100 300 140/06 RMK AO2 P0001
14840KMKG MKG20020922063010609/22/02 06:30:31  5-MIN KMKG 221130Z 13005KT 10SM -RA OVC065 12/12 A3004 520 100 300 130/05 RMK AO2 P0001
14840KMKG MKG20020922063511309/22/02 06:35:31  5-MIN KMKG 221135Z 13006KT 10SM -RA FEW050 OVC065 12/12 A3005 510 100 300 140/06 RMK AO2 P0001
14840KMKG MKG20020922064010609/22/02 06:40:31  5-MIN KMKG 221140Z 14006KT 10SM -RA OVC060 12/12 A3005 510 100 300 150/06 RMK AO2 P0001
14840KMKG MKG20020922064512009/22/02 06:45:31  5-MIN KMKG 221145Z 14005KT 10SM -RA FEW042 BKN060 OVC080 12/12 A3006 500 100 300 150/05 RMK AO2 P0002
14840KMKG MKG20020922065016709/22/02 06:50:31  5-MIN KMKG 221150Z VRB03KT 10SM -RA FEW042 BKN050 OVC065 12/12 A3006 500 100 300 VRB/03 RMK AO2 SLP180 P0002 60037 70037 T01170117 10156 20111 53013
14840KMKG MKG20020922065515909/22/02 06:55:31  5-MIN KMKG 221155Z 17003KT 8SM -RA BKN050 OVC065 12/12 A3006 500 100 300 170/03 RMK AO2 SLP181 P0002 60037 70037 T01170117 10156 20111 56002
14840KMKG MKG20020922070012109/22/02 07:00:31  5-MIN KMKG 221200Z 19003KT 5SM RA BR FEW032 BKN050 OVC060 12/12 A3007 490 100 300 190/03 RMK AO2 P0002
14840KMKG MKG20020922070512109/22/02 07:05:31  5-MIN KMKG 221205Z 00000KT 4SM RA BR FEW032 SCT042 OVC050 12/12 A3007 490 100 300 000/00 RMK AO2 P0003
14840KMKG MKG20020922071012109/22/02 07:10:31  5-MIN KMKG 221210Z 00000KT 3SM RA BR FEW021 BKN044 OVC050 12/12 A3007 490 100 300 000/00 RMK AO2 P0005
14840KMKG MKG20020922071512109/22/02 07:15:31  5-MIN KMKG 221215Z 17005KT 3SM RA BR FEW012 BKN044 OVC055 12/12 A3008 490 100 200 180/05 RMK AO2 P0007
14840KMKG MKG20020922072013609/22/02 07:20:31  5-MIN KMKG 221220Z 18004KT 4SM RA BR FEW012 BKN050 OVC060 12/12 A3007 490 100 200 190/04 RMK AO2 CIG 041 RWY 14 P0008
14840KMKG MKG20020922072513609/22/02 07:25:31  5-MIN KMKG 221225Z 16003KT 5SM RA BR FEW023 BKN044 OVC060 12/12 A3007 490 100 200 160/03 RMK AO2 CIG 022 RWY 14 P0009
14840KMKG MKG20020922073012109/22/02 07:30:31  5-MIN KMKG 221230Z 15003KT 5SM RA BR SCT026 BKN044 OVC060 12/12 A3008 490 100 200 160/03 RMK AO2 P0011
14840KMKG MKG20020922073512109/22/02 07:35:31  5-MIN KMKG 221235Z 00000KT 4SM RA BR FEW026 BKN049 OVC060 12/12 A3008 480 100 200 000/00 RMK AO2 P0012
14840KMKG MKG20020922074013609/22/02 07:40:31  5-MIN KMKG 221240Z 17004KT 3SM RA BR SCT028 BKN042 OVC060 12/12 A3008 490 100 200 180/04 RMK AO2 CIG 022 RWY 14 P0014
14840KMKG MKG20020922074514609/22/02 07:45:31  5-MIN KMKG 221245Z 31006KT 3SM RA BR FEW011 BKN049 OVC060 12/12 A3008 480 100 300 310/06 RMK AO2 TWR VIS 4 CIG 022 RWY 14 P0015
14840KMKG MKG20020922075015309/22/02 07:50:31  5-MIN KMKG 221250Z 00000KT 4SM RA BR FEW011 BKN045 OVC055 12/12 A3008 480 100 300 000/00 RMK AO2 CIG 038 RWY 14 SLP187 P0016 T01220122
14840KMKG MKG20020922075513909/22/02 07:55:31  5-MIN KMKG 221255Z VRB04KT 5SM -RA BR FEW009 BKN045 OVC050 12/12 A3008 480 100 300 VRB/04 RMK AO2 SLP187 P0016 T01220122
14840KMKG MKG20020922080011809/22/02 08:00:31  5-MIN KMKG 221300Z 28004KT 7SM -RA FEW009 BKN045 OVC055 12/11 A3008 480 93 300 290/04 RMK AO2 P0001
14840KMKG MKG20020922080511809/22/02 08:05:31  5-MIN KMKG 221305Z 27004KT 7SM -RA FEW009 BKN045 OVC055 12/11 A3008 480 89 300 280/04 RMK AO2 P0001
14840KMKG MKG20020922081011109/22/02 08:10:31  5-MIN KMKG 221310Z 29005KT 8SM -RA BKN048 OVC055 12/11 A3008 480 89 300 290/05 RMK AO2 P0001
14840KMKG MKG20020922081511109/22/02 08:15:31  5-MIN KMKG 221315Z 27004KT 9SM -RA BKN048 OVC055 12/10 A3008 480 86 300 270/04 RMK AO2 P0002
14840KMKG MKG20020922082011109/22/02 08:20:31  5-MIN KMKG 221320Z 00000KT 9SM -RA BKN048 OVC060 12/11 A3008 480 89 300 000/00 RMK AO2 P0002
14840KMKG MKG20020922082511109/22/02 08:25:31  5-MIN KMKG 221325Z 28003KT 9SM -RA BKN048 OVC060 12/11 A3009 480 89 300 290/03 RMK AO2 P0002
14840KMKG MKG20020922083011809/22/02 08:30:31  5-MIN KMKG 221330Z 00000KT 9SM -RA FEW043 BKN050 OVC060 12/11 A3008 480 89 300 000/00 RMK AO2 P0003
14840KMKG MKG20020922083513309/22/02 08:35:31  5-MIN KMKG 221335Z 00000KT 9SM -RA SCT041 BKN050 OVC060 12/11 A3008 490 96 200 000/00 RMK AO2 CIG 043 RWY 14 P0003
14840KMKG MKG20020922084011109/22/02 08:40:31  5-MIN KMKG 221340Z 15004KT 9SM -RA BKN045 OVC060 12/11 A3007 490 93 300 150/04 RMK AO2 P0004
14840KMKG MKG20020922084511209/22/02 08:45:31  5-MIN KMKG 221345Z 12003KT 10SM -RA BKN045 OVC060 12/12 A3007 490 96 300 120/03 RMK AO2 P0004
14840KMKG MKG20020922085013609/22/02 08:50:31  5-MIN KMKG 221350Z 12008KT 10SM -RA SCT040 BKN050 OVC060 12/12 A3006 500 96 300 120/08 RMK AO2 SLP181 P0004 T01220117
14840KMKG MKG20020922085512909/22/02 08:55:31  5-MIN KMKG 221355Z 13007KT 10SM -RA BKN045 OVC055 12/12 A3006 500 96 300 140/07 RMK AO2 SLP180 P0004 T01220117
14840KMKG MKG20020922090011209/22/02 09:00:31  5-MIN KMKG 221400Z 13006KT 10SM -RA OVC049 12/11 A3005 510 93 300 130/06 RMK AO2 PRESFR P0000
14840KMKG MKG20020922090510509/22/02 09:05:31  5-MIN KMKG 221405Z 13005KT 10SM -RA OVC049 12/11 A3005 510 93 300 130/05 RMK AO2 P0000
14840KMKG MKG20020922091011209/22/02 09:10:31  5-MIN KMKG 221410Z 12009KT 10SM -RA OVC049 12/11 A3004 520 89 400 120/09 RMK AO2 PRESFR P0001
14840KMKG MKG20020922091510509/22/02 09:15:31  5-MIN KMKG 221415Z 14011KT 10SM -RA OVC055 12/11 A3004 520 93 300 150/11 RMK AO2 P0001
14840KMKG MKG20020922092010509/22/02 09:20:31  5-MIN KMKG 221420Z 15005KT 10SM -RA OVC060 12/11 A3006 500 89 300 160/05 RMK AO2 P0001
14840KMKG MKG20020922092511409/22/02 09:25:31  5-MIN KMKG 221425Z 14005KT 10SM FEW050 OVC065 12/11 A3006 500 89 300 150/05 RMK AO2 RAE23 P0001
14840KMKG MKG20020922093011409/22/02 09:30:31  5-MIN KMKG 221430Z 14007KT 10SM FEW050 BKN065 12/11 A3006 510 93 300 140/07 RMK AO2 RAE23 P0001
14840KMKG MKG20020922093511409/22/02 09:35:31  5-MIN KMKG 221435Z 13006KT 10SM BKN065 BKN080 12/11 A3005 510 93 300 130/06 RMK AO2 RAE23 P0001
14840KMKG MKG20020922094010709/22/02 09:40:31  5-MIN KMKG 221440Z 13006KT 10SM BKN070 12/12 A3005 510 96 300 130/06 RMK AO2 RAE23 P0001
14840KMKG MKG20020922094511409/22/02 09:45:31  5-MIN KMKG 221445Z 15006KT 10SM BKN070 BKN085 12/12 A3005 510 96 300 160/06 RMK AO2 RAE23 P0001
14840KMKG MKG20020922095013609/22/02 09:50:31  5-MIN KMKG 221450Z 15007KT 10SM BKN070 12/12 A3005 510 96 300 160/07 RMK AO2 RAE23 SLP176 P0001 60021 T01220117 56002
14840KMKG MKG20020922095513609/22/02 09:55:31  5-MIN KMKG 221455Z 16008KT 10SM BKN065 12/12 A3005 510 96 300 160/08 RMK AO2 RAE23 SLP176 P0001 60021 T01220117 58005
14840KMKG MKG20020922100009509/22/02 10:00:31  5-MIN KMKG 221500Z 17008KT 10SM BKN065 12/12 A3005 510 96 300 170/08 RMK AO2
14840KMKG MKG20020922100509609/22/02 10:05:31  5-MIN KMKG 221505Z 17007KT 10SM BKN065 12/12 A3006 500 100 300 180/07 RMK AO2
14840KMKG MKG20020922101009509/22/02 10:10:31  5-MIN KMKG 221510Z 18007KT 10SM BKN065 12/12 A3006 500 96 300 180/07 RMK AO2
14840KMKG MKG20020922101509509/22/02 10:15:31  5-MIN KMKG 221515Z 17006KT 10SM SCT065 12/12 A3006 500 96 300 180/06 RMK AO2
14840KMKG MKG20020922102009509/22/02 10:20:31  5-MIN KMKG 221520Z 16007KT 10SM SCT065 12/12 A3006 500 96 300 170/07 RMK AO2
14840KMKG MKG20020922102509509/22/02 10:25:31  5-MIN KMKG 221525Z 16005KT 10SM SCT065 12/12 A3006 500 96 300 170/05 RMK AO2
14840KMKG MKG20020922103009509/22/02 10:30:31  5-MIN KMKG 221530Z 14006KT 10SM SCT065 12/12 A3005 510 96 300 150/06 RMK AO2
14840KMKG MKG20020922103509509/22/02 10:35:31  5-MIN KMKG 221535Z 14007KT 10SM SCT065 12/12 A3006 500 96 300 150/07 RMK AO2
14840KMKG MKG20020922104009509/22/02 10:40:31  5-MIN KMKG 221540Z 17007KT 10SM SCT065 12/12 A3007 490 96 300 170/07 RMK AO2
14840KMKG MKG20020922104509509/22/02 10:45:31  5-MIN KMKG 221545Z 16007KT 10SM SCT090 12/12 A3007 490 96 300 160/07 RMK AO2
14840KMKG MKG20020922105011209/22/02 10:50:31  5-MIN KMKG 221550Z 17006KT 10SM SCT090 12/12 A3006 500 96 300 170/06 RMK AO2 SLP182 T01220117
14840KMKG MKG20020922105511209/22/02 10:55:31  5-MIN KMKG 221555Z 16006KT 10SM BKN080 12/12 A3005 510 96 300 160/06 RMK AO2 SLP177 T01220117
14840KMKG MKG20020922110009609/22/02 11:00:31  5-MIN KMKG 221600Z 16007KT 10SM BKN085 12/12 A3005 510 100 300 160/07 RMK AO2
14840KMKG MKG20020922110509509/22/02 11:05:31  5-MIN KMKG 221605Z 16008KT 10SM OVC085 12/12 A3005 510 96 300 160/08 RMK AO2
14840KMKG MKG20020922111009509/22/02 11:10:31  5-MIN KMKG 221610Z 16009KT 10SM BKN080 13/12 A3005 510 93 400 170/09 RMK AO2
14840KMKG MKG20020922111510209/22/02 11:15:31  5-MIN KMKG 221615Z 17009KT 10SM BKN080 BKN090 13/11 A3006 500 89 400 170/09 RMK AO2
14840KMKG MKG20020922112010209/22/02 11:20:31  5-MIN KMKG 221620Z 17009KT 10SM BKN075 OVC090 12/12 A3007 500 96 300 180/09 RMK AO2
14840KMKG MKG20020922112510209/22/02 11:25:31  5-MIN KMKG 221625Z 17010KT 10SM BKN070 BKN090 12/12 A3006 500 96 300 170/10 RMK AO2
14840KMKG MKG20020922113010909/22/02 11:30:31  5-MIN KMKG 221630Z 17010KT 10SM SCT065 BKN080 BKN095 12/12 A3006 500 96 300 170/10 RMK AO2
14840KMKG MKG20020922113512409/22/02 11:35:31  5-MIN KMKG 221635Z 16007KT 10SM FEW048 BKN080 OVC095 12/11 A3005 510 93 300 160/07 RMK AO2 CIG 060 RWY 14
14840KMKG MKG20020922114010909/22/02 11:40:31  5-MIN KMKG 221640Z 14008KT 10SM SCT042 BKN060 OVC075 12/11 A3005 510 93 300 150/08 RMK AO2
14840KMKG MKG20020922114510909/22/02 11:45:31  5-MIN KMKG 221645Z 15008KT 10SM FEW030 BKN040 OVC070 12/11 A3005 510 93 300 150/08 RMK AO2
14840KMKG MKG20020922115014109/22/02 11:50:31  5-MIN KMKG 221650Z 24007KT 10SM SCT032 BKN043 OVC075 12/11 A3006 500 93 300 240/07 RMK AO2 CIG 034 RWY 14 SLP179 T01220111
14840KMKG MKG20020922115512609/22/02 11:55:31  5-MIN KMKG 221655Z 00000KT 10SM SCT032 BKN040 OVC060 13/12 A3005 510 93 400 000/00 RMK AO2 SLP178 T01280117
14840KMKG MKG20020922120010909/22/02 12:00:31  5-MIN KMKG 221700Z 15004KT 10SM BKN032 BKN042 OVC055 13/12 A3005 510 93 400 150/04 RMK AO2
14840KMKG MKG20020922120510909/22/02 12:05:31  5-MIN KMKG 221705Z 14005KT 10SM BKN032 BKN042 OVC055 13/12 A3005 510 89 500 150/05 RMK AO2
14840KMKG MKG20020922121010909/22/02 12:10:31  5-MIN KMKG 221710Z 13003KT 10SM BKN032 BKN042 BKN055 13/12 A3005 510 89 500 140/03 RMK AO2
14840KMKG MKG20020922121510209/22/02 12:15:31  5-MIN KMKG 221715Z 00000KT 10SM BKN032 BKN042 13/12 A3005 510 89 500 000/00 RMK AO2
14840KMKG MKG20020922122012709/22/02 12:20:31  5-MIN KMKG 221720Z 26014KT 2SM +RA BR FEW006 BKN028 BKN038 13/12 A3005 510 89 500 270/14 RMK AO2 RAB18 P0011
14840KMKG MKG20020922122513409/22/02 12:25:31  5-MIN KMKG 221725Z 24008G16KT 1 1/4SM +RA SCT013 BKN028 OVC038 12/08 A3005 510 77 300 250/08G16 RMK AO2 RAB18 P0017
14840KMKG MKG20020922123016109/22/02 12:30:31  5-MIN KMKG 221730Z 26005KT 2 1/2SM +TSRA SCT015 BKN028 OVC065 12/09 A3005 510 80 300 260/05 RMK AO2 TSB27RAB18 OCNLTG TSB25 TSOHD MOV SE P0017
14840KMKG MKG20020922123515609/22/02 12:35:31  5-MIN KMKG 221735Z 26007KT 8SM TSRA FEW015 BKN028 OVC065 12/09 A3005 510 80 300 270/07 RMK AO2 TSB27RAB18 OCNLTG TSB25 TSOHD MOV SE P0018
14840KMKG MKG20020922124017109/22/02 12:40:31  5-MIN KMKG 221740Z 27007KT 8SM TSRA FEW015 BKN047 OVC060 13/09 A3004 520 80 400 270/07 RMK AO2 TSB27RAB18 CIG 033 RWY 14 OCNLTG TSB25 TSOHD MOV SE P0018
14840KMKG MKG20020922124516109/22/02 12:45:31  5-MIN KMKG 221745Z 27008KT 10SM TSRA SCT024 SCT042 BKN050 13/11 A3004 520 83 500 270/08 RMK AO2 CIG 036 RWY 14 OCNLTG TSB25 TSOHD MOV SE P0018
14840KMKG MKG20020922125018209/22/02 12:50:31  5-MIN KMKG 221750Z 26011KT 10SM FEW026 SCT042 BKN065 14/12 A3004 520 86 500 270/11 RMK AO2 SLP174 OCNLTG TSB25 TSOHD MOV SE P0018 60039 T01390117 10139 20117 58005
14840KMKG MKG20020922125517309/22/02 12:55:31  5-MIN KMKG 221755Z 27009KT 10SM FEW030 SCT060 BKN080 15/12 A3004 520 80 700 270/09 RMK AO2 TSB27E50RAB18E50 SLP172 P0018 60039 T01500117 10150 20117 58002
14840KMKG MKG20020922130010209/22/02 13:00:31  5-MIN KMKG 221800Z 27010KT 10SM FEW047 SCT080 15/12 A3005 510 80 700 280/10 RMK AO2
14840KMKG MKG20020922130509509/22/02 13:05:31  5-MIN KMKG 221805Z 28011KT 10SM FEW080 15/11 A3005 510 74 700 280/11 RMK AO2
14840KMKG MKG20020922131009509/22/02 13:10:31  5-MIN KMKG 221810Z 28011KT 10SM FEW080 16/11 A3004 520 72 700 280/11 RMK AO2
14840KMKG MKG20020922131509509/22/02 13:15:31  5-MIN KMKG 221815Z 27008KT 10SM FEW080 16/11 A3004 520 72 800 280/08 RMK AO2
14840KMKG MKG20020922132009809/22/02 13:20:31  5-MIN KMKG 221820Z 28012G16KT 10SM CLR 16/11 A3004 520 69 800 280/12G16 RMK AO2
14840KMKG MKG20020922132509809/22/02 13:25:31  5-MIN KMKG 221825Z 27013G16KT 10SM CLR 16/09 A3004 520 64 800 280/13G16 RMK AO2
14840KMKG MKG20020922133009509/22/02 13:30:31  5-MIN KMKG 221830Z 27014KT 10SM FEW085 16/09 A3004 520 64 800 270/14 RMK AO2
14840KMKG MKG20020922133509509/22/02 13:35:31  5-MIN KMKG 221835Z 27011KT 10SM FEW085 17/09 A3004 520 62 900 280/11 RMK AO2
14840KMKG MKG20020922134009509/22/02 13:40:31  5-MIN KMKG 221840Z 27012KT 10SM FEW085 17/09 A3004 520 60 900 280/12 RMK AO2
14840KMKG MKG20020922134509509/22/02 13:45:31  5-MIN KMKG 221845Z 28012KT 10SM FEW085 17/08 A3004 520 57 900 280/12 RMK AO2
14840KMKG MKG20020922135011209/22/02 13:50:31  5-MIN KMKG 221850Z 28011KT 10SM FEW085 17/09 A3004 520 57 900 280/11 RMK AO2 SLP173 T01720089
14840KMKG MKG20020922135511809/22/02 13:55:31  5-MIN KMKG 221855Z 29015G19KT 10SM FEW085 17/08 A3004 520 55 900 290/15G19 RMK AO2 SLP172 T01670078
14840KMKG MKG20020922140010109/22/02 14:00:31  5-MIN KMKG 221900Z 27014G20KT 10SM FEW085 17/08 A3004 520 55 900 280/14G20 RMK AO2
14840KMKG MKG20020922140510109/22/02 14:05:31  5-MIN KMKG 221905Z 27012G20KT 10SM FEW085 17/08 A3004 520 57 900 270/12G20 RMK AO2
14840KMKG MKG20020922141009509/22/02 14:10:31  5-MIN KMKG 221910Z 28012KT 10SM FEW085 17/08 A3004 520 53 900 280/12 RMK AO2
14840KMKG MKG20020922141509509/22/02 14:15:31  5-MIN KMKG 221915Z 29011KT 10SM FEW085 17/07 A3004 520 49 900 290/11 RMK AO2
14840KMKG MKG20020922142009509/22/02 14:20:31  5-MIN KMKG 221920Z 27012KT 10SM FEW085 17/07 A3004 520 49 900 270/12 RMK AO2
14840KMKG MKG20020922142509509/22/02 14:25:31  5-MIN KMKG 221925Z 27012KT 10SM FEW085 17/07 A3004 520 51 900 270/12 RMK AO2
14840KMKG MKG20020922143009509/22/02 14:30:31  5-MIN KMKG 221930Z 27013KT 10SM FEW085 17/07 A3004 520 49 900 270/13 RMK AO2
14840KMKG MKG20020922143509509/22/02 14:35:31  5-MIN KMKG 221935Z 29012KT 10SM FEW085 17/07 A3004 520 49 900 290/12 RMK AO2
14840KMKG MKG20020922144009509/22/02 14:40:31  5-MIN KMKG 221940Z 29012KT 10SM FEW085 17/06 A3004 520 49 900 290/12 RMK AO2
14840KMKG MKG20020922144510109/22/02 14:45:31  5-MIN KMKG 221945Z 29011G18KT 10SM FEW085 17/06 A3005 510 47 900 290/11G18 RMK AO2
14840KMKG MKG20020922145011809/22/02 14:50:31  5-MIN KMKG 221950Z 27010G18KT 10SM FEW085 17/06 A3004 520 47 900 270/10G18 RMK AO2 SLP174 T01720061
14840KMKG MKG20020922145511209/22/02 14:55:31  5-MIN KMKG 221955Z 25010KT 10SM FEW085 17/07 A3004 520 51 900 250/10 RMK AO2 SLP174 T01720072
14840KMKG MKG20020922150010109/22/02 15:00:31  5-MIN KMKG 222000Z 27011G17KT 10SM FEW049 17/07 A3004 520 51 900 270/11G17 RMK AO2
14840KMKG MKG20020922150510109/22/02 15:05:31  5-MIN KMKG 222005Z 27012G17KT 10SM FEW049 17/07 A3004 520 51 900 270/12G17 RMK AO2
14840KMKG MKG20020922151010109/22/02 15:10:31  5-MIN KMKG 222010Z 28012G17KT 10SM FEW049 17/07 A3004 520 51 900 280/12G17 RMK AO2
14840KMKG MKG20020922151509509/22/02 15:15:31  5-MIN KMKG 222015Z 28010KT 10SM FEW049 17/07 A3004 520 53 900 280/10 RMK AO2
14840KMKG MKG20020922152009509/22/02 15:20:31  5-MIN KMKG 222020Z 27012KT 10SM FEW049 17/07 A3004 520 51 900 270/12 RMK AO2
14840KMKG MKG20020922152509509/22/02 15:25:31  5-MIN KMKG 222025Z 28011KT 10SM FEW049 17/07 A3004 520 51 900 290/11 RMK AO2
14840KMKG MKG20020922153009509/22/02 15:30:31  5-MIN KMKG 222030Z 27012KT 10SM FEW049 17/07 A3004 520 51 900 270/12 RMK AO2
14840KMKG MKG20020922153509509/22/02 15:35:31  5-MIN KMKG 222035Z 27013KT 10SM FEW049 17/07 A3004 520 51 900 270/13 RMK AO2
14840KMKG MKG20020922154009509/22/02 15:40:31  5-MIN KMKG 222040Z 27012KT 10SM FEW050 17/07 A3004 520 51 900 280/12 RMK AO2
14840KMKG MKG20020922154509209/22/02 15:45:31  5-MIN KMKG 222045Z 26012KT 10SM CLR 17/07 A3004 520 53 900 270/12 RMK AO2
14840KMKG MKG20020922155011509/22/02 15:50:31  5-MIN KMKG 222050Z 29010KT 10SM CLR 17/07 A3005 510 51 900 300/10 RMK AO2 SLP176 T01670067 58002
14840KMKG MKG20020922155512709/22/02 15:55:31  5-MIN KMKG 222055Z 28011KT 10SM CLR 17/07 A3005 520 53 900 280/11 RMK AO2 SLP175 P0001 60001 T01670072 53002
14840KMKG MKG20020922160009209/22/02 16:00:31  5-MIN KMKG 222100Z 26010KT 10SM CLR 17/07 A3004 520 51 900 270/10 RMK AO2
14840KMKG MKG20020922160510109/22/02 16:05:31  5-MIN KMKG 222105Z 28012G17KT 10SM FEW050 17/07 A3004 520 51 900 290/12G17 RMK AO2
14840KMKG MKG20020922161009809/22/02 16:10:31  5-MIN KMKG 222110Z 26013G18KT 10SM CLR 17/07 A3004 520 51 900 260/13G18 RMK AO2
14840KMKG MKG20020922161509809/22/02 16:15:31  5-MIN KMKG 222115Z 27012G18KT 10SM CLR 17/07 A3005 510 49 900 270/12G18 RMK AO2
14840KMKG MKG20020922162009209/22/02 16:20:31  5-MIN KMKG 222120Z 27008KT 10SM CLR 17/07 A3005 510 51 900 270/08 RMK AO2
14840KMKG MKG20020922162509509/22/02 16:25:31  5-MIN KMKG 222125Z 27008KT 10SM FEW075 17/07 A3005 510 51 900 270/08 RMK AO2
14840KMKG MKG20020922163009509/22/02 16:30:31  5-MIN KMKG 222130Z 27010KT 10SM FEW080 17/07 A3005 510 51 900 280/10 RMK AO2
14840KMKG MKG20020922163510209/22/02 16:35:31  5-MIN KMKG 222135Z 27013KT 10SM FEW065 SCT080 17/06 A3004 520 47 900 270/13 RMK AO2
14840KMKG MKG20020922164010209/22/02 16:40:31  5-MIN KMKG 222140Z 26011KT 10SM SCT060 BKN075 17/06 A3004 520 47 900 270/11 RMK AO2
14840KMKG MKG20020922164511509/22/02 16:45:31  5-MIN KMKG 222145Z 28012G20KT 10SM FEW055 SCT070 SCT080 17/05 A3005 510 44 900 280/12G20 RMK AO2
14840KMKG MKG20020922165012509/22/02 16:50:31  5-MIN KMKG 222150Z 27010G20KT 10SM SCT060 SCT080 17/05 A3004 520 44 900 270/10G20 RMK AO2 SLP175 T01720050
14840KMKG MKG20020922165512509/22/02 16:55:31  5-MIN KMKG 222155Z 29012G15KT 10SM SCT060 SCT080 17/06 A3005 510 46 900 290/12G15 RMK AO2 SLP176 T01720056
14840KMKG MKG20020922170010109/22/02 17:00:31  5-MIN KMKG 222200Z 28012G17KT 10SM FEW060 17/05 A3005 510 44 900 280/12G17 RMK AO2
14840KMKG MKG20020922170510109/22/02 17:05:31  5-MIN KMKG 222205Z 27010G17KT 10SM FEW060 17/04 A3005 510 42 900 270/10G17 RMK AO2
14840KMKG MKG20020922171011709/22/02 17:10:31  5-MIN KMKG 222210Z 27009G17KT 220V300 10SM FEW060 17/04 A3005 510 42 900 270/09G17 220V300 RMK AO2
14840KMKG MKG20020922171509509/22/02 17:15:31  5-MIN KMKG 222215Z 27008KT 10SM FEW065 17/04 A3005 510 44 900 280/08 RMK AO2
14840KMKG MKG20020922172009509/22/02 17:20:31  5-MIN KMKG 222220Z 27009KT 10SM FEW070 17/05 A3005 510 45 900 280/09 RMK AO2
14840KMKG MKG20020922172511709/22/02 17:25:31  5-MIN KMKG 222225Z 26009G16KT 230V290 10SM FEW065 16/05 A3005 510 47 800 260/09G16 230V290 RMK AO2
14840KMKG MKG20020922173010109/22/02 17:30:31  5-MIN KMKG 222230Z 27009G16KT 10SM SCT065 16/05 A3005 510 47 800 270/09G16 RMK AO2
14840KMKG MKG20020922173510209/22/02 17:35:31  5-MIN KMKG 222235Z 27009KT 10SM SCT065 SCT085 16/05 A3006 510 47 800 270/09 RMK AO2
14840KMKG MKG20020922174010209/22/02 17:40:31  5-MIN KMKG 222240Z 26009KT 10SM SCT065 BKN085 17/04 A3005 510 44 900 270/09 RMK AO2
14840KMKG MKG20020922174510209/22/02 17:45:31  5-MIN KMKG 222245Z 26010KT 10SM BKN065 BKN085 16/04 A3005 510 45 800 260/10 RMK AO2
14840KMKG MKG20020922175011909/22/02 17:50:31  5-MIN KMKG 222250Z 26009KT 10SM BKN065 BKN085 16/04 A3005 510 45 800 270/09 RMK AO2 SLP178 T01610044
14840KMKG MKG20020922175512509/22/02 17:55:31  5-MIN KMKG 222255Z 26012G16KT 10SM FEW065 BKN080 17/04 A3005 510 42 900 270/12G16 RMK AO2 SLP178 T01670039
14840KMKG MKG20020922180010809/22/02 18:00:31  5-MIN KMKG 222300Z 28008G16KT 10SM FEW065 BKN080 17/04 A3005 510 44 900 280/08G16 RMK AO2
14840KMKG MKG20020922180510209/22/02 18:05:31  5-MIN KMKG 222305Z 27008KT 10SM FEW065 BKN080 16/04 A3005 510 47 700 270/08 RMK AO2
14840KMKG MKG20020922181010209/22/02 18:10:31  5-MIN KMKG 222310Z 27009KT 10SM FEW070 SCT080 16/04 A3005 510 47 700 270/09 RMK AO2
14840KMKG MKG20020922181509509/22/02 18:15:31  5-MIN KMKG 222315Z 27010KT 10SM FEW065 16/04 A3005 510 47 700 270/10 RMK AO2
14840KMKG MKG20020922182009509/22/02 18:20:31  5-MIN KMKG 222320Z 26008KT 10SM FEW065 16/04 A3005 510 47 700 270/08 RMK AO2
14840KMKG MKG20020922182509509/22/02 18:25:31  5-MIN KMKG 222325Z 25008KT 10SM FEW070 15/04 A3005 510 49 700 260/08 RMK AO2
14840KMKG MKG20020922183009509/22/02 18:30:31  5-MIN KMKG 222330Z 26008KT 10SM FEW070 15/04 A3005 510 49 700 260/08 RMK AO2
14840KMKG MKG20020922183509509/22/02 18:35:31  5-MIN KMKG 222335Z 27010KT 10SM FEW070 16/04 A3005 510 47 700 270/10 RMK AO2
14840KMKG MKG20020922184009509/22/02 18:40:31  5-MIN KMKG 222340Z 27008KT 10SM FEW070 16/04 A3005 510 47 700 280/08 RMK AO2
14840KMKG MKG20020922184509509/22/02 18:45:31  5-MIN KMKG 222345Z 26009KT 10SM FEW070 16/04 A3005 510 47 700 270/09 RMK AO2
14840KMKG MKG20020922185014309/22/02 18:50:31  5-MIN KMKG 222350Z 26007KT 10SM FEW070 SCT100 16/04 A3005 510 47 700 260/07 RMK AO2 SLP177 60001 T01560044 10172 20150 53002
14840KMKG MKG20020922185514309/22/02 18:55:31  5-MIN KMKG 222355Z 26009KT 10SM FEW065 SCT100 16/04 A3005 510 47 700 260/09 RMK AO2 SLP177 60001 T01560044 10172 20150 50002
14840KMKG MKG20020922190010109/22/02 19:00:31  5-MIN KMKG 230000Z 28013G17KT 10SM SCT100 16/04 A3005 510 47 700 280/13G17 RMK AO2
14840KMKG MKG20020922190510109/22/02 19:05:31  5-MIN KMKG 230005Z 27008G17KT 10SM BKN100 16/04 A3005 510 47 700 270/08G17 RMK AO2
14840KMKG MKG20020922191010209/22/02 19:10:31  5-MIN KMKG 230010Z 27010KT 10SM FEW065 BKN100 16/04 A3005 510 47 700 270/10 RMK AO2
14840KMKG MKG20020922191510809/22/02 19:15:31  5-MIN KMKG 230015Z 27011G17KT 10SM FEW060 BKN100 16/04 A3006 510 44 800 270/11G17 RMK AO2
14840KMKG MKG20020922192010809/22/02 19:20:31  5-MIN KMKG 230020Z 27007G17KT 10SM SCT060 BKN100 16/04 A3006 500 47 700 280/07G17 RMK AO2
14840KMKG MKG20020922192510809/22/02 19:25:31  5-MIN KMKG 230025Z 28009G15KT 10SM SCT060 BKN100 16/04 A3006 500 47 700 290/09G15 RMK AO2
14840KMKG MKG20020922193010809/22/02 19:30:31  5-MIN KMKG 230030Z 28011G15KT 10SM SCT060 BKN095 16/04 A3006 500 45 700 290/11G15 RMK AO2
14840KMKG MKG20020922193510209/22/02 19:35:31  5-MIN KMKG 230035Z 28009KT 10SM SCT060 SCT095 16/04 A3006 500 47 700 280/09 RMK AO2
14840KMKG MKG20020922194010209/22/02 19:40:31  5-MIN KMKG 230040Z 27011KT 10SM SCT060 SCT095 16/04 A3006 500 47 700 280/11 RMK AO2
14840KMKG MKG20020922194510209/22/02 19:45:31  5-MIN KMKG 230045Z 28010KT 10SM SCT060 SCT095 16/04 A3006 500 47 700 290/10 RMK AO2
14840KMKG MKG20020922195012509/22/02 19:50:31  5-MIN KMKG 230050Z 29013G19KT 10SM FEW060 SCT095 16/05 A3006 500 49 700 290/13G19 RMK AO2 SLP182 T01560050
14840KMKG MKG20020922195511809/22/02 19:55:31  5-MIN KMKG 230055Z 30013G19KT 10SM FEW060 16/05 A3007 490 49 700 300/13G19 RMK AO2 SLP182 T01560050
14840KMKG MKG20020922200011109/22/02 20:00:31  5-MIN KMKG 230100Z 28011KT 250V320 10SM FEW060 16/05 A3007 500 49 700 290/11 250V320 RMK AO2
14840KMKG MKG20020922200510109/22/02 20:05:31  5-MIN KMKG 230105Z 28011G18KT 10SM FEW060 16/05 A3007 490 49 700 290/11G18 RMK AO2
14840KMKG MKG20020922201010109/22/02 20:10:31  5-MIN KMKG 230110Z 28009G18KT 10SM FEW060 16/05 A3007 490 49 700 290/09G18 RMK AO2
14840KMKG MKG20020922201509509/22/02 20:15:31  5-MIN KMKG 230115Z 28012KT 10SM FEW060 16/05 A3007 490 49 700 280/12 RMK AO2
14840KMKG MKG20020922202009509/22/02 20:20:31  5-MIN KMKG 230120Z 28012KT 10SM FEW060 16/04 A3007 490 47 700 280/12 RMK AO2
14840KMKG MKG20020922202510109/22/02 20:25:31  5-MIN KMKG 230125Z 29012G19KT 10SM FEW060 16/06 A3007 490 51 700 300/12G19 RMK AO2
14840KMKG MKG20020922203010109/22/02 20:30:31  5-MIN KMKG 230130Z 28010G19KT 10SM FEW060 16/06 A3008 490 51 700 280/10G19 RMK AO2
14840KMKG MKG20020922203509509/22/02 20:35:31  5-MIN KMKG 230135Z 28010KT 10SM SCT060 15/04 A3008 480 49 600 290/10 RMK AO2
14840KMKG MKG20020922204010109/22/02 20:40:31  5-MIN KMKG 230140Z 29010G17KT 10SM SCT060 16/05 A3008 480 49 700 290/10G17 RMK AO2
14840KMKG MKG20020922204510109/22/02 20:45:31  5-MIN KMKG 230145Z 28009G17KT 10SM SCT060 15/05 A3008 480 51 600 290/09G17 RMK AO2
14840KMKG MKG20020922205011809/22/02 20:50:31  5-MIN KMKG 230150Z 28012G18KT 10SM SCT060 15/05 A3008 480 51 600 280/12G18 RMK AO2 SLP188 T01500050
14840KMKG MKG20020922205511809/22/02 20:55:31  5-MIN KMKG 230155Z 30010G18KT 10SM SCT065 15/04 A3008 480 49 600 300/10G18 RMK AO2 SLP187 T01500044
14840KMKG MKG20020922210010209/22/02 21:00:31  5-MIN KMKG 230200Z 29010KT 10SM SCT060 SCT075 15/04 A3008 480 49 600 290/10 RMK AO2
14840KMKG MKG20020922210509509/22/02 21:05:31  5-MIN KMKG 230205Z 29010KT 10SM SCT065 15/04 A3008 480 49 600 290/10 RMK AO2
14840KMKG MKG20020922211009509/22/02 21:10:31  5-MIN KMKG 230210Z 29012KT 10SM SCT065 15/04 A3008 480 49 600 290/12 RMK AO2
14840KMKG MKG20020922211509509/22/02 21:15:31  5-MIN KMKG 230215Z 30012KT 10SM SCT065 15/04 A3008 480 47 600 300/12 RMK AO2
14840KMKG MKG20020922212009509/22/02 21:20:31  5-MIN KMKG 230220Z 29011KT 10SM SCT065 15/04 A3009 480 47 600 290/11 RMK AO2
14840KMKG MKG20020922212509509/22/02 21:25:31  5-MIN KMKG 230225Z 28009KT 10SM SCT065 15/03 A3008 480 45 600 280/09 RMK AO2
14840KMKG MKG20020922213009509/22/02 21:30:31  5-MIN KMKG 230230Z 29010KT 10SM SCT065 14/04 A3008 480 49 600 290/10 RMK AO2
14840KMKG MKG20020922213509509/22/02 21:35:31  5-MIN KMKG 230235Z 29014KT 10SM SCT065 15/04 A3008 480 47 600 290/14 RMK AO2
14840KMKG MKG20020922214009509/22/02 21:40:31  5-MIN KMKG 230240Z 29010KT 10SM SCT065 15/04 A3009 480 47 600 300/10 RMK AO2
14840KMKG MKG20020922214510109/22/02 21:45:31  5-MIN KMKG 230245Z 29011G17KT 10SM SCT065 15/04 A3009 470 49 600 300/11G17 RMK AO2
14840KMKG MKG20020922215012409/22/02 21:50:31  5-MIN KMKG 230250Z 29009G17KT 10SM SCT060 15/04 A3009 470 49 600 300/09G17 RMK AO2 SLP190 T01500044 50002
14840KMKG MKG20020922215511809/22/02 21:55:31  5-MIN KMKG 230255Z 29011KT 10SM SCT060 14/04 A3009 470 51 600 290/11 RMK AO2 SLP190 T01440044 51013
14840KMKG MKG20020922220009509/22/02 22:00:31  5-MIN KMKG 230300Z 29010KT 10SM BKN060 14/04 A3009 470 51 600 290/10 RMK AO2
14840KMKG MKG20020922220509509/22/02 22:05:31  5-MIN KMKG 230305Z 29011KT 10SM SCT060 14/04 A3009 470 51 600 290/11 RMK AO2
14840KMKG MKG20020922221010209/22/02 22:10:31  5-MIN KMKG 230310Z 29007KT 10SM SCT060 SCT070 14/04 A3009 470 51 600 300/07 RMK AO2
14840KMKG MKG20020922221509509/22/02 22:15:31  5-MIN KMKG 230315Z 30008KT 10SM SCT065 14/04 A3010 470 51 600 300/08 RMK AO2
14840KMKG MKG20020922222009509/22/02 22:20:31  5-MIN KMKG 230320Z 29011KT 10SM SCT060 14/04 A3010 470 51 500 300/11 RMK AO2
14840KMKG MKG20020922222509509/22/02 22:25:31  5-MIN KMKG 230325Z 30009KT 10SM SCT060 14/04 A3010 470 51 600 300/09 RMK AO2
14840KMKG MKG20020922223010809/22/02 22:30:31  5-MIN KMKG 230330Z 30012G20KT 10SM SCT060 SCT075 14/04 A3010 470 51 500 300/12G20 RMK AO2
14840KMKG MKG20020922223510809/22/02 22:35:31  5-MIN KMKG 230335Z 29010G20KT 10SM SCT060 SCT075 14/04 A3010 470 51 500 290/10G20 RMK AO2
14840KMKG MKG20020922224009509/22/02 22:40:31  5-MIN KMKG 230340Z 28011KT 10SM SCT060 14/04 A3010 460 51 500 290/11 RMK AO2
14840KMKG MKG20020922224509509/22/02 22:45:31  5-MIN KMKG 230345Z 28009KT 10SM SCT060 14/04 A3010 460 51 500 290/09 RMK AO2
14840KMKG MKG20020922225011909/22/02 22:50:31  5-MIN KMKG 230350Z 29009KT 10SM SCT060 SCT075 14/04 A3010 460 51 500 290/09 RMK AO2 SLP195 T01440044
14840KMKG MKG20020922225511209/22/02 22:55:31  5-MIN KMKG 230355Z 29009KT 10SM SCT065 14/04 A3010 460 51 500 290/09 RMK AO2 SLP195 T01440044
14840KMKG MKG20020922230009509/22/02 23:00:31  5-MIN KMKG 230400Z 28011KT 10SM SCT060 14/04 A3011 460 51 500 290/11 RMK AO2
14840KMKG MKG20020922230509509/22/02 23:05:31  5-MIN KMKG 230405Z 30009KT 10SM SCT065 14/04 A3011 460 51 500 300/09 RMK AO2
14840KMKG MKG20020922231009509/22/02 23:10:31  5-MIN KMKG 230410Z 29009KT 10SM BKN060 14/04 A3011 460 51 500 290/09 RMK AO2
14840KMKG MKG20020922231510209/22/02 23:15:31  5-MIN KMKG 230415Z 29008KT 10SM SCT050 BKN065 14/04 A3011 460 51 500 290/08 RMK AO2
14840KMKG MKG20020922232010209/22/02 23:20:31  5-MIN KMKG 230420Z 29012KT 10SM SCT050 BKN070 14/04 A3011 460 52 500 290/12 RMK AO2
14840KMKG MKG20020922232510209/22/02 23:25:31  5-MIN KMKG 230425Z 28012KT 10SM SCT060 BKN070 14/04 A3011 450 51 500 290/12 RMK AO2
14840KMKG MKG20020922233010209/22/02 23:30:31  5-MIN KMKG 230430Z 28011KT 10SM SCT060 OVC070 14/04 A3011 450 51 500 290/11 RMK AO2
14840KMKG MKG20020922233510209/22/02 23:35:31  5-MIN KMKG 230435Z 29010KT 10SM SCT060 BKN070 14/04 A3011 450 52 500 290/10 RMK AO2
14840KMKG MKG20020922234010209/22/02 23:40:31  5-MIN KMKG 230440Z 29009KT 10SM FEW050 BKN070 14/04 A3012 450 51 500 290/09 RMK AO2
14840KMKG MKG20020922234509509/22/02 23:45:31  5-MIN KMKG 230445Z 29010KT 10SM BKN070 14/04 A3012 450 51 500 290/10 RMK AO2
14840KMKG MKG20020922235012209/22/02 23:50:31  5-MIN KMKG 230450Z 30008KT 10SM BKN065 14/05 A3012 450 53 500 300/08 RMK AO2 SLP199 T01440050 401720111
14840KMKG MKG20020922235512209/22/02 23:55:31  5-MIN KMKG 230455Z 28009KT 10SM BKN065 14/05 A3012 450 53 500 290/09 RMK AO2 SLP199 T01440050 401720111
14840KMKG MKG20020923000010209/23/02 00:00:31  5-MIN KMKG 230500Z 29009KT 10SM FEW050 BKN070 14/05 A3012 450 55 500 300/09 RMK AO2
14840KMKG MKG20020923000510209/23/02 00:05:31  5-MIN KMKG 230505Z 29010KT 10SM FEW050 OVC070 14/05 A3012 450 55 500 290/10 RMK AO2
14840KMKG MKG20020923001010209/23/02 00:10:31  5-MIN KMKG 230510Z 30009KT 10SM FEW050 OVC070 14/05 A3012 450 53 500 310/09 RMK AO2
14840KMKG MKG20020923001510209/23/02 00:15:31  5-MIN KMKG 230515Z 30010KT 10SM FEW050 OVC070 14/05 A3012 450 55 500 300/10 RMK AO2
14840KMKG MKG20020923002010209/23/02 00:20:31  5-MIN KMKG 230520Z 30009KT 10SM FEW048 OVC070 14/05 A3012 450 53 500 300/09 RMK AO2
14840KMKG MKG20020923002510809/23/02 00:25:31  5-MIN KMKG 230525Z 29008G16KT 10SM SCT048 OVC070 14/05 A3013 440 55 500 300/08G16 RMK AO2
14840KMKG MKG20020923003010809/23/02 00:30:31  5-MIN KMKG 230530Z 31009G16KT 10SM SCT048 OVC070 14/05 A3012 440 55 500 310/09G16 RMK AO2
14840KMKG MKG20020923003511709/23/02 00:35:31  5-MIN KMKG 230535Z 30008KT 10SM FEW048 OVC065 14/05 A3013 440 55 500 300/08 RMK AO2 CIG 050 RWY 14
14840KMKG MKG20020923004010909/23/02 00:40:31  5-MIN KMKG 230540Z 29009KT 10SM SCT050 BKN060 OVC070 14/04 A3013 440 51 500 290/09 RMK AO2
14840KMKG MKG20020923004510209/23/02 00:45:31  5-MIN KMKG 230545Z 30010KT 10SM BKN050 OVC065 14/05 A3013 440 55 400 300/10 RMK AO2
14840KMKG MKG20020923005013709/23/02 00:50:31  5-MIN KMKG 230550Z 29010KT 10SM BKN050 OVC060 14/04 A3013 440 52 400 300/10 RMK AO2 SLP204 T01390044 10161 20139 51013
14840KMKG MKG20020923005513709/23/02 00:55:31  5-MIN KMKG 230555Z 28010KT 10SM BKN050 OVC070 14/05 A3013 430 55 400 290/10 RMK AO2 SLP204 T01390050 10161 20139 53014
14840KMKG MKG20020923010010209/23/02 01:00:31  5-MIN KMKG 230600Z 29010KT 10SM BKN055 OVC070 14/05 A3014 430 55 400 290/10 RMK AO2
14840KMKG MKG20020923010510209/23/02 01:05:31  5-MIN KMKG 230605Z 28009KT 10SM BKN055 BKN070 14/05 A3014 430 55 400 280/09 RMK AO2
14840KMKG MKG20020923011010209/23/02 01:10:31  5-MIN KMKG 230610Z 27008KT 10SM BKN055 BKN070 14/05 A3014 430 55 400 280/08 RMK AO2
14840KMKG MKG20020923011510209/23/02 01:15:31  5-MIN KMKG 230615Z 29006KT 10SM BKN055 BKN070 14/05 A3014 430 55 400 290/06 RMK AO2
14840KMKG MKG20020923012010209/23/02 01:20:31  5-MIN KMKG 230620Z 28007KT 10SM SCT050 OVC065 14/05 A3014 430 55 400 290/07 RMK AO2
14840KMKG MKG20020923012510209/23/02 01:25:31  5-MIN KMKG 230625Z 29008KT 10SM FEW049 BKN065 14/05 A3014 430 55 400 290/08 RMK AO2
14840KMKG MKG20020923013010209/23/02 01:30:31  5-MIN KMKG 230630Z 29009KT 10SM FEW049 BKN065 14/04 A3014 420 52 400 300/09 RMK AO2
14840KMKG MKG20020923013511709/23/02 01:35:31  5-MIN KMKG 230635Z 28007KT 10SM SCT055 BKN070 14/04 A3014 430 50 400 280/07 RMK AO2 CIG 055 RWY 14
14840KMKG MKG20020923014010209/23/02 01:40:31  5-MIN KMKG 230640Z 28007KT 10SM FEW049 BKN060 13/04 A3014 420 54 400 280/07 RMK AO2
14840KMKG MKG20020923014509509/23/02 01:45:31  5-MIN KMKG 230645Z 29007KT 10SM BKN060 13/04 A3014 420 52 400 290/07 RMK AO2
14840KMKG MKG20020923015011909/23/02 01:50:31  5-MIN KMKG 230650Z 28008KT 10SM BKN060 BKN070 13/04 A3015 420 52 400 290/08 RMK AO2 SLP208 T01330039
14840KMKG MKG20020923015511909/23/02 01:55:31  5-MIN KMKG 230655Z 28006KT 10SM BKN055 BKN070 13/04 A3015 420 54 400 280/06 RMK AO2 SLP209 T01330044
14840KMKG MKG20020923020010209/23/02 02:00:31  5-MIN KMKG 230700Z 28006KT 10SM BKN055 BKN070 13/04 A3015 420 54 400 290/06 RMK AO2
14840KMKG MKG20020923020511709/23/02 02:05:31  5-MIN KMKG 230705Z 29009KT 10SM SCT050 BKN070 14/04 A3015 420 50 400 290/09 RMK AO2 CIG 055 RWY 14
14840KMKG MKG20020923021011709/23/02 02:10:31  5-MIN KMKG 230710Z 29007KT 10SM SCT050 BKN070 13/04 A3015 420 54 400 300/07 RMK AO2 CIG 055 RWY 14
14840KMKG MKG20020923021510209/23/02 02:15:31  5-MIN KMKG 230715Z 29008KT 10SM BKN055 OVC070 13/04 A3015 420 54 400 290/08 RMK AO2
14840KMKG MKG20020923022010209/23/02 02:20:31  5-MIN KMKG 230720Z 30009KT 10SM SCT050 BKN070 13/04 A3015 420 54 400 310/09 RMK AO2
14840KMKG MKG20020923022510209/23/02 02:25:31  5-MIN KMKG 230725Z 29010KT 10SM FEW050 BKN070 13/04 A3015 420 54 400 290/10 RMK AO2
14840KMKG MKG20020923023010209/23/02 02:30:31  5-MIN KMKG 230730Z VRB05KT 10SM FEW049 BKN065 13/05 A3015 420 57 400 VRB/05 RMK AO2
14840KMKG MKG20020923023510209/23/02 02:35:31  5-MIN KMKG 230735Z 29009KT 10SM FEW049 BKN065 13/05 A3015 420 57 400 290/09 RMK AO2
14840KMKG MKG20020923024010209/23/02 02:40:31  5-MIN KMKG 230740Z 28007KT 10SM FEW049 BKN065 13/05 A3015 420 57 400 290/07 RMK AO2
14840KMKG MKG20020923024510209/23/02 02:45:31  5-MIN KMKG 230745Z 28009KT 10SM FEW049 SCT065 13/04 A3015 420 54 400 290/09 RMK AO2
14840KMKG MKG20020923025011909/23/02 02:50:31  5-MIN KMKG 230750Z 28009KT 10SM SCT049 SCT065 13/04 A3015 420 54 400 290/09 RMK AO2 SLP209 T01330044
14840KMKG MKG20020923025511909/23/02 02:55:31  5-MIN KMKG 230755Z 29008KT 10SM SCT049 BKN065 13/04 A3015 420 52 400 300/08 RMK AO2 SLP209 T01330039
14840KMKG MKG20020923030010209/23/02 03:00:31  5-MIN KMKG 230800Z 30007KT 10SM FEW049 SCT065 13/04 A3015 420 52 400 300/07 RMK AO2
14840KMKG MKG20020923030510209/23/02 03:05:31  5-MIN KMKG 230805Z 29009KT 10SM SCT055 BKN065 13/04 A3015 420 52 400 290/09 RMK AO2
14840KMKG MKG20020923031009509/23/02 03:10:31  5-MIN KMKG 230810Z VRB06KT 10SM SCT050 13/04 A3015 420 54 300 VRB/06 RMK AO2
14840KMKG MKG20020923031509509/23/02 03:15:31  5-MIN KMKG 230815Z 29006KT 10SM SCT055 13/03 A3015 420 50 400 290/06 RMK AO2
14840KMKG MKG20020923032009509/23/02 03:20:31  5-MIN KMKG 230820Z 29006KT 10SM BKN060 13/03 A3015 420 52 300 290/06 RMK AO2
14840KMKG MKG20020923032509509/23/02 03:25:31  5-MIN KMKG 230825Z 29008KT 10SM BKN060 13/03 A3015 420 52 300 290/08 RMK AO2
14840KMKG MKG20020923033009509/23/02 03:30:31  5-MIN KMKG 230830Z 30007KT 10SM BKN060 13/03 A3015 420 50 400 310/07 RMK AO2
14840KMKG MKG20020923033509509/23/02 03:35:31  5-MIN KMKG 230835Z 30006KT 10SM BKN060 13/03 A3015 420 50 400 310/06 RMK AO2
14840KMKG MKG20020923034009509/23/02 03:40:31  5-MIN KMKG 230840Z 30007KT 10SM BKN060 13/03 A3015 410 52 300 300/07 RMK AO2
14840KMKG MKG20020923034509509/23/02 03:45:31  5-MIN KMKG 230845Z 30006KT 10SM BKN060 13/03 A3015 410 50 400 300/06 RMK AO2
14840KMKG MKG20020923035011809/23/02 03:50:31  5-MIN KMKG 230850Z 30006KT 10SM SCT060 13/04 A3015 410 54 300 300/06 RMK AO2 SLP211 T01280039 53014
14840KMKG MKG20020923035511809/23/02 03:55:31  5-MIN KMKG 230855Z 29007KT 10SM SCT060 13/04 A3016 410 54 300 290/07 RMK AO2 SLP212 T01280039 51008
14840KMKG MKG20020923040009509/23/02 04:00:31  5-MIN KMKG 230900Z 29005KT 10SM SCT060 12/04 A3016 410 56 200 290/05 RMK AO2
14840KMKG MKG20020923040509509/23/02 04:05:31  5-MIN KMKG 230905Z 27004KT 10SM SCT060 12/04 A3016 410 56 200 270/04 RMK AO2
14840KMKG MKG20020923041009509/23/02 04:10:31  5-MIN KMKG 230910Z 28006KT 10SM FEW060 12/04 A3016 410 56 200 280/06 RMK AO2
14840KMKG MKG20020923041509509/23/02 04:15:31  5-MIN KMKG 230915Z 28006KT 10SM SCT055 12/04 A3016 410 56 200 280/06 RMK AO2
14840KMKG MKG20020923042010209/23/02 04:20:31  5-MIN KMKG 230920Z 28005KT 10SM FEW050 SCT060 12/04 A3016 410 56 200 280/05 RMK AO2
14840KMKG MKG20020923042509509/23/02 04:25:31  5-MIN KMKG 230925Z 29006KT 10SM SCT060 12/04 A3016 410 56 200 290/06 RMK AO2
14840KMKG MKG20020923043009509/23/02 04:30:31  5-MIN KMKG 230930Z 29007KT 10SM SCT060 12/04 A3016 410 56 200 290/07 RMK AO2
14840KMKG MKG20020923043509509/23/02 04:35:31  5-MIN KMKG 230935Z 29007KT 10SM SCT055 13/04 A3016 410 54 300 300/07 RMK AO2
14840KMKG MKG20020923044010209/23/02 04:40:31  5-MIN KMKG 230940Z 29007KT 10SM SCT050 BKN060 13/04 A3016 410 56 300 300/07 RMK AO2
14840KMKG MKG20020923044510209/23/02 04:45:31  5-MIN KMKG 230945Z 29007KT 10SM FEW050 SCT060 13/04 A3016 410 54 300 290/07 RMK AO2
14840KMKG MKG20020923045011209/23/02 04:50:31  5-MIN KMKG 230950Z 28005KT 10SM SCT055 13/04 A3016 410 54 300 290/05 RMK AO2 SLP211 T01280039
14840KMKG MKG20020923045511209/23/02 04:55:31  5-MIN KMKG 230955Z 27005KT 10SM BKN055 12/04 A3016 410 56 200 270/05 RMK AO2 SLP211 T01220039
14840KMKG MKG20020923050010209/23/02 05:00:31  5-MIN KMKG 231000Z 28006KT 10SM SCT050 BKN060 12/04 A3016 410 56 200 280/06 RMK AO2
14840KMKG MKG20020923050510209/23/02 05:05:31  5-MIN KMKG 231005Z 28004KT 10SM SCT050 SCT060 12/04 A3016 410 56 200 290/04 RMK AO2
14840KMKG MKG20020923051009509/23/02 05:10:31  5-MIN KMKG 231010Z 29007KT 10SM SCT055 12/03 A3016 410 54 200 290/07 RMK AO2
14840KMKG MKG20020923051509509/23/02 05:15:31  5-MIN KMKG 231015Z 28006KT 10SM BKN055 12/04 A3016 410 56 200 290/06 RMK AO2
14840KMKG MKG20020923052009509/23/02 05:20:31  5-MIN KMKG 231020Z 28006KT 10SM BKN055 12/04 A3016 410 56 200 280/06 RMK AO2
14840KMKG MKG20020923052509509/23/02 05:25:31  5-MIN KMKG 231025Z 27005KT 10SM BKN055 12/03 A3016 410 54 200 280/05 RMK AO2
14840KMKG MKG20020923053009509/23/02 05:30:31  5-MIN KMKG 231030Z VRB04KT 10SM SCT055 12/03 A3016 410 56 100 VRB/04 RMK AO2
14840KMKG MKG20020923053509509/23/02 05:35:31  5-MIN KMKG 231035Z 28005KT 10SM SCT055 12/03 A3016 410 56 200 290/05 RMK AO2
14840KMKG MKG20020923054009509/23/02 05:40:31  5-MIN KMKG 231040Z 28004KT 10SM FEW055 12/03 A3016 410 56 200 290/04 RMK AO2
14840KMKG MKG20020923054509509/23/02 05:45:31  5-MIN KMKG 231045Z 28005KT 10SM FEW055 12/03 A3016 410 54 200 280/05 RMK AO2
14840KMKG MKG20020923055011209/23/02 05:50:31  5-MIN KMKG 231050Z 27004KT 10SM FEW050 12/03 A3016 410 56 200 280/04 RMK AO2 SLP213 T01170033
14840KMKG MKG20020923055511209/23/02 05:55:31  5-MIN KMKG 231055Z 28005KT 10SM FEW050 12/03 A3016 410 56 200 280/05 RMK AO2 SLP213 T01170033
14840KMKG MKG20020923060009509/23/02 06:00:31  5-MIN KMKG 231100Z 27004KT 10SM SCT050 12/04 A3016 410 58 200 270/04 RMK AO2
14840KMKG MKG20020923060509509/23/02 06:05:31  5-MIN KMKG 231105Z 28005KT 10SM SCT050 12/04 A3016 410 58 200 280/05 RMK AO2
14840KMKG MKG20020923061009509/23/02 06:10:31  5-MIN KMKG 231110Z 28003KT 10SM FEW050 12/03 A3016 410 56 100 290/03 RMK AO2
14840KMKG MKG20020923061509509/23/02 06:15:31  5-MIN KMKG 231115Z 29003KT 10SM SCT050 12/03 A3016 410 56 100 290/03 RMK AO2
14840KMKG MKG20020923062009509/23/02 06:20:31  5-MIN KMKG 231120Z 29003KT 10SM SCT050 12/04 A3016 410 58 100 290/03 RMK AO2
14840KMKG MKG20020923062509509/23/02 06:25:31  5-MIN KMKG 231125Z 00000KT 10SM FEW050 11/04 A3016 410 61 100 000/00 RMK AO2
14840KMKG MKG20020923063009609/23/02 06:30:31  5-MIN KMKG 231130Z 00000KT 10SM FEW050 08/05 A3016 410 82 -300 000/00 RMK AO2
14840KMKG MKG20020923063509609/23/02 06:35:31  5-MIN KMKG 231135Z 00000KT 10SM FEW050 07/06 A3017 400 89 -300 000/00 RMK AO2
14840KMKG MKG20020923064009609/23/02 06:40:31  5-MIN KMKG 231140Z 00000KT 10SM FEW050 08/06 A3017 400 86 -300 000/00 RMK AO2
14840KMKG MKG20020923064509309/23/02 06:45:31  5-MIN KMKG 231145Z 00000KT 10SM CLR 08/06 A3017 400 86 -300 000/00 RMK AO2
14840KMKG MKG20020923065013409/23/02 06:50:31  5-MIN KMKG 231150Z 00000KT 10SM CLR 08/06 A3017 400 86 -300 000/00 RMK AO2 SLP218 70040 T00780056 10139 20072 51008
14840KMKG MKG20020923065513409/23/02 06:55:31  5-MIN KMKG 231155Z 00000KT 10SM CLR 07/06 A3017 400 89 -300 000/00 RMK AO2 SLP218 70040 T00720056 10139 20072 53004
14840KMKG MKG20020923070009309/23/02 07:00:31  5-MIN KMKG 231200Z 10003KT 10SM CLR 08/06 A3017 400 86 -300 100/03 RMK AO2
14840KMKG MKG20020923070509309/23/02 07:05:31  5-MIN KMKG 231205Z 11003KT 10SM CLR 08/06 A3017 400 89 -300 120/03 RMK AO2
14840KMKG MKG20020923071009309/23/02 07:10:31  5-MIN KMKG 231210Z 14003KT 10SM CLR 08/06 A3017 400 89 -300 140/03 RMK AO2
14840KMKG MKG20020923071509309/23/02 07:15:31  5-MIN KMKG 231215Z 00000KT 10SM CLR 08/07 A3018 400 89 -200 000/00 RMK AO2
14840KMKG MKG20020923072009309/23/02 07:20:31  5-MIN KMKG 231220Z VRB03KT 10SM CLR 08/07 A3018 390 89 -200 VRB/03 RMK AO2
14840KMKG MKG20020923072509309/23/02 07:25:31  5-MIN KMKG 231225Z 09004KT 10SM CLR 09/07 A3018 390 86 -200 100/04 RMK AO2
14840KMKG MKG20020923073009309/23/02 07:30:31  5-MIN KMKG 231230Z 11003KT 10SM CLR 09/07 A3018 390 86 -200 110/03 RMK AO2
14840KMKG MKG20020923073509309/23/02 07:35:31  5-MIN KMKG 231235Z 11004KT 10SM CLR 09/07 A3018 390 83 -100 110/04 RMK AO2
14840KMKG MKG20020923074009009/23/02 07:40:31  5-MIN KMKG 231240Z 12004KT 10SM CLR 10/07 A3018 390 80 0 130/04 RMK AO2
14840KMKG MKG20020923074509309/23/02 07:45:31  5-MIN KMKG 231245Z 12003KT 10SM FEW050 10/07 A3018 390 83 0 120/03 RMK AO2
14840KMKG MKG20020923075011009/23/02 07:50:31  5-MIN KMKG 231250Z 11003KT 10SM FEW050 11/07 A3018 390 80 0 110/03 RMK AO2 SLP220 T01060072
14840KMKG MKG20020923075511209/23/02 07:55:31  5-MIN KMKG 231255Z 10003KT 10SM FEW050 11/07 A3018 390 77 100 100/03 RMK AO2 SLP220 T01110072
14840KMKG MKG20020923080009209/23/02 08:00:31  5-MIN KMKG 231300Z 11003KT 10SM CLR 12/07 A3018 390 71 100 110/03 RMK AO2
14840KMKG MKG20020923080509209/23/02 08:05:31  5-MIN KMKG 231305Z 00000KT 10SM CLR 12/07 A3018 390 71 100 000/00 RMK AO2
14840KMKG MKG20020923081009209/23/02 08:10:31  5-MIN KMKG 231310Z 00000KT 10SM CLR 12/07 A3018 390 68 200 000/00 RMK AO2
14840KMKG MKG20020923081509209/23/02 08:15:31  5-MIN KMKG 231315Z 00000KT 10SM CLR 13/07 A3018 390 66 300 000/00 RMK AO2
14840KMKG MKG20020923082009209/23/02 08:20:31  5-MIN KMKG 231320Z 00000KT 10SM CLR 13/07 A3018 390 64 300 000/00 RMK AO2
14840KMKG MKG20020923082509209/23/02 08:25:31  5-MIN KMKG 231325Z 00000KT 10SM CLR 14/06 A3018 390 59 400 000/00 RMK AO2
14840KMKG MKG20020923083009209/23/02 08:30:31  5-MIN KMKG 231330Z 00000KT 10SM CLR 14/06 A3018 390 57 400 000/00 RMK AO2
14840KMKG MKG20020923083509209/23/02 08:35:31  5-MIN KMKG 231335Z 29003KT 10SM CLR 14/06 A3018 390 55 500 290/03 RMK AO2
14840KMKG MKG20020923084009209/23/02 08:40:31  5-MIN KMKG 231340Z VRB04KT 10SM CLR 15/04 A3018 390 49 500 VRB/04 RMK AO2
14840KMKG MKG20020923084509209/23/02 08:45:31  5-MIN KMKG 231345Z 29006KT 10SM CLR 15/04 A3019 390 49 500 290/06 RMK AO2
14840KMKG MKG20020923085010909/23/02 08:50:31  5-MIN KMKG 231350Z 27008KT 10SM CLR 15/04 A3019 380 47 500 270/08 RMK AO2 SLP222 T01500039
14840KMKG MKG20020923085510909/23/02 08:55:31  5-MIN KMKG 231355Z 27009KT 10SM CLR 15/04 A3019 380 47 500 280/09 RMK AO2 SLP223 T01500039
14840KMKG MKG20020923090009209/23/02 09:00:31  5-MIN KMKG 231400Z 29007KT 10SM CLR 15/04 A3019 380 47 500 290/07 RMK AO2
14840KMKG MKG20020923090509209/23/02 09:05:31  5-MIN KMKG 231405Z 25006KT 10SM CLR 15/04 A3019 380 47 500 250/06 RMK AO2
14840KMKG MKG20020923091009209/23/02 09:10:31  5-MIN KMKG 231410Z 26007KT 10SM CLR 15/04 A3019 380 47 500 260/07 RMK AO2
14840KMKG MKG20020923091509509/23/02 09:15:31  5-MIN KMKG 231415Z 28005KT 10SM FEW055 16/04 A3019 380 45 600 290/05 RMK AO2
14840KMKG MKG20020923092009509/23/02 09:20:31  5-MIN KMKG 231420Z 29007KT 10SM FEW055 16/04 A3019 380 45 600 290/07 RMK AO2
14840KMKG MKG20020923092509209/23/02 09:25:31  5-MIN KMKG 231425Z 29007KT 10SM CLR 16/03 A3020 380 43 600 290/07 RMK AO2
14840KMKG MKG20020923093009209/23/02 09:30:31  5-MIN KMKG 231430Z 28007KT 10SM CLR 16/04 A3020 370 45 600 280/07 RMK AO2
14840KMKG MKG20020923093509209/23/02 09:35:31  5-MIN KMKG 231435Z 30008KT 10SM CLR 16/04 A3020 370 45 600 300/08 RMK AO2
14840KMKG MKG20020923094009509/23/02 09:40:31  5-MIN KMKG 231440Z 24007KT 10SM FEW055 16/04 A3020 370 45 600 240/07 RMK AO2
14840KMKG MKG20020923094509509/23/02 09:45:31  5-MIN KMKG 231445Z VRB04KT 10SM FEW055 16/04 A3020 370 47 600 VRB/04 RMK AO2
14840KMKG MKG20020923095011809/23/02 09:50:31  5-MIN KMKG 231450Z VRB04KT 10SM FEW055 16/04 A3020 370 47 600 VRB/04 RMK AO2 SLP226 T01560044 53004
14840KMKG MKG20020923095511809/23/02 09:55:31  5-MIN KMKG 231455Z 23009KT 10SM FEW055 16/04 A3020 370 45 600 240/09 RMK AO2 SLP226 T01610044 52010
14840KMKG MKG20020923100009509/23/02 10:00:31  5-MIN KMKG 231500Z 25009KT 10SM FEW050 16/04 A3020 370 45 600 250/09 RMK AO2
14840KMKG MKG20020923100509509/23/02 10:05:31  5-MIN KMKG 231505Z VRB04KT 10SM FEW050 16/04 A3020 370 47 600 VRB/04 RMK AO2
14840KMKG MKG20020923101009509/23/02 10:10:31  5-MIN KMKG 231510Z 26009KT 10SM FEW050 16/04 A3020 370 44 600 260/09 RMK AO2
14840KMKG MKG20020923101509509/23/02 10:15:31  5-MIN KMKG 231515Z VRB05KT 10SM FEW050 16/04 A3020 370 45 600 VRB/05 RMK AO2
14840KMKG MKG20020923102009509/23/02 10:20:31  5-MIN KMKG 231520Z 26009KT 10SM FEW050 16/04 A3020 370 45 600 260/09 RMK AO2
14840KMKG MKG20020923102509509/23/02 10:25:31  5-MIN KMKG 231525Z 24006KT 10SM FEW050 16/04 A3020 370 45 600 240/06 RMK AO2
14840KMKG MKG20020923103009509/23/02 10:30:31  5-MIN KMKG 231530Z 29007KT 10SM FEW050 16/04 A3020 370 44 600 290/07 RMK AO2
14840KMKG MKG20020923103509209/23/02 10:35:31  5-MIN KMKG 231535Z 28007KT 10SM CLR 16/04 A3020 370 47 600 290/07 RMK AO2
14840KMKG MKG20020923104009509/23/02 10:40:31  5-MIN KMKG 231540Z VRB04KT 10SM SCT050 16/04 A3020 370 45 600 VRB/04 RMK AO2
14840KMKG MKG20020923104509509/23/02 10:45:31  5-MIN KMKG 231545Z 23009KT 10SM SCT050 16/04 A3020 370 45 600 230/09 RMK AO2
14840KMKG MKG20020923105011209/23/02 10:50:31  5-MIN KMKG 231550Z 22008KT 10SM SCT050 17/05 A3020 370 45 700 220/08 RMK AO2 SLP228 T01670050
14840KMKG MKG20020923105511209/23/02 10:55:31  5-MIN KMKG 231555Z VRB03KT 10SM SCT050 16/04 A3020 370 45 600 VRB/03 RMK AO2 SLP227 T01610044
14840KMKG MKG20020923110009509/23/02 11:00:31  5-MIN KMKG 231600Z 25006KT 10SM SCT050 16/04 A3020 370 44 600 250/06 RMK AO2
14840KMKG MKG20020923110509509/23/02 11:05:31  5-MIN KMKG 231605Z VRB05KT 10SM FEW050 16/04 A3020 370 45 600 VRB/05 RMK AO2
14840KMKG MKG20020923111009509/23/02 11:10:31  5-MIN KMKG 231610Z 24008KT 10SM SCT050 16/05 A3020 370 47 600 250/08 RMK AO2
14840KMKG MKG20020923111511109/23/02 11:15:31  5-MIN KMKG 231615Z 23008KT 190V260 10SM SCT050 17/05 A3020 370 45 700 230/08 190V260 RMK AO2
14840KMKG MKG20020923112009509/23/02 11:20:31  5-MIN KMKG 231620Z 23005KT 10SM FEW050 16/04 A3020 370 45 600 240/05 RMK AO2
14840KMKG MKG20020923112509509/23/02 11:25:31  5-MIN KMKG 231625Z VRB06KT 10SM FEW050 17/04 A3020 370 44 700 VRB/06 RMK AO2
14840KMKG MKG20020923113009509/23/02 11:30:31  5-MIN KMKG 231630Z VRB05KT 10SM FEW055 16/04 A3020 370 45 600 VRB/05 RMK AO2
14840KMKG MKG20020923113509509/23/02 11:35:31  5-MIN KMKG 231635Z 22011KT 10SM SCT055 17/05 A3020 370 45 700 230/11 RMK AO2
14840KMKG MKG20020923114009509/23/02 11:40:31  5-MIN KMKG 231640Z 23005KT 10SM FEW055 16/04 A3020 370 45 600 230/05 RMK AO2
14840KMKG MKG20020923114511109/23/02 11:45:31  5-MIN KMKG 231645Z 25007KT 220V290 10SM FEW055 17/06 A3020 370 47 700 250/07 220V290 RMK AO2
14840KMKG MKG20020923115011209/23/02 11:50:31  5-MIN KMKG 231650Z 25007KT 10SM SCT055 16/05 A3020 370 47 600 260/07 RMK AO2 SLP226 T01610050
14840KMKG MKG20020923115513409/23/02 11:55:31  5-MIN KMKG 231655Z 23009G14KT 200V280 10SM SCT055 17/05 A3019 380 45 700 240/09G14 200V280 RMK AO2 SLP225 T01670050
14840KMKG MKG20020923120010109/23/02 12:00:31  5-MIN KMKG 231700Z 26009G14KT 10SM SCT060 17/05 A3019 380 45 700 260/09G14 RMK AO2
14840KMKG MKG20020923120509509/23/02 12:05:31  5-MIN KMKG 231705Z VRB03KT 10SM SCT060 17/04 A3019 380 44 700 VRB/03 RMK AO2
14840KMKG MKG20020923121009509/23/02 12:10:31  5-MIN KMKG 231710Z 22010KT 10SM SCT055 17/06 A3019 380 47 700 220/10 RMK AO2
14840KMKG MKG20020923121510109/23/02 12:15:31  5-MIN KMKG 231715Z 22012G15KT 10SM BKN055 17/05 A3019 380 45 700 220/12G15 RMK AO2
14840KMKG MKG20020923122010109/23/02 12:20:31  5-MIN KMKG 231720Z 24006G15KT 10SM SCT055 17/05 A3020 380 45 700 240/06G15 RMK AO2
14840KMKG MKG20020923122509509/23/02 12:25:31  5-MIN KMKG 231725Z VRB06KT 10SM SCT055 17/05 A3019 380 45 700 VRB/06 RMK AO2
14840KMKG MKG20020923123009509/23/02 12:30:31  5-MIN KMKG 231730Z 23010KT 10SM SCT055 17/05 A3019 380 45 700 230/10 RMK AO2
14840KMKG MKG20020923123509509/23/02 12:35:31  5-MIN KMKG 231735Z 19009KT 10SM SCT055 17/04 A3019 380 44 700 190/09 RMK AO2
14840KMKG MKG20020923124009509/23/02 12:40:31  5-MIN KMKG 231740Z 22007KT 10SM FEW055 17/06 A3019 380 46 800 230/07 RMK AO2
14840KMKG MKG20020923124509509/23/02 12:45:31  5-MIN KMKG 231745Z 18010KT 10SM FEW055 18/06 A3019 380 44 800 180/10 RMK AO2
14840KMKG MKG20020923125013009/23/02 12:50:31  5-MIN KMKG 231750Z 21010KT 10SM SCT055 16/05 A3019 380 47 600 210/10 RMK AO2 SLP223 T01610050 10178 20078 52010
14840KMKG MKG20020923125513609/23/02 12:55:31  5-MIN KMKG 231755Z 25006G15KT 10SM SCT055 16/05 A3019 380 47 600 250/06G15 RMK AO2 SLP222 T01610050 10178 20078 58004
14840KMKG MKG20020923130009509/23/02 13:00:31  5-MIN KMKG 231800Z 24008KT 10SM SCT055 17/05 A3019 390 45 700 250/08 RMK AO2
14840KMKG MKG20020923130511109/23/02 13:05:31  5-MIN KMKG 231805Z 23009KT 120V270 10SM SCT055 17/05 A3018 390 44 800 240/09 120V270 RMK AO2
14840KMKG MKG20020923131009509/23/02 13:10:31  5-MIN KMKG 231810Z 22008KT 10SM SCT055 17/05 A3018 390 44 800 220/08 RMK AO2
14840KMKG MKG20020923131510109/23/02 13:15:31  5-MIN KMKG 231815Z 20011G15KT 10SM FEW055 17/05 A3018 390 44 800 200/11G15 RMK AO2
14840KMKG MKG20020923132010109/23/02 13:20:31  5-MIN KMKG 231820Z 21009G15KT 10SM FEW050 17/05 A3018 390 44 800 210/09G15 RMK AO2
14840KMKG MKG20020923132510109/23/02 13:25:31  5-MIN KMKG 231825Z 20009G15KT 10SM FEW055 17/05 A3018 390 44 800 200/09G15 RMK AO2
14840KMKG MKG20020923133009509/23/02 13:30:31  5-MIN KMKG 231830Z 22011KT 10SM SCT055 18/06 A3017 400 44 900 220/11 RMK AO2
14840KMKG MKG20020923133509509/23/02 13:35:31  5-MIN KMKG 231835Z 21007KT 10SM SCT055 17/04 A3017 400 42 800 210/07 RMK AO2
14840KMKG MKG20020923134009509/23/02 13:40:31  5-MIN KMKG 231840Z 21008KT 10SM FEW055 17/04 A3017 400 42 800 220/08 RMK AO2
14840KMKG MKG20020923134510109/23/02 13:45:31  5-MIN KMKG 231845Z 19014G17KT 10SM FEW055 18/05 A3017 400 42 900 190/14G17 RMK AO2
14840KMKG MKG20020923135011809/23/02 13:50:31  5-MIN KMKG 231850Z 21009G17KT 10SM SCT055 17/05 A3017 400 44 800 220/09G17 RMK AO2 SLP215 T01720050
14840KMKG MKG20020923135513409/23/02 13:55:31  5-MIN KMKG 231855Z 20009G17KT 160V230 10SM SCT055 18/05 A3017 400 42 900 200/09G17 160V230 RMK AO2 SLP215 T01780050
14840KMKG MKG20020923140009809/23/02 14:00:31  5-MIN KMKG 231900Z 23013G17KT 10SM CLR 17/04 A3016 400 41 800 230/13G17 RMK AO2
14840KMKG MKG20020923140509509/23/02 14:05:31  5-MIN KMKG 231905Z 19011KT 10SM FEW055 17/04 A3016 400 42 800 190/11 RMK AO2
14840KMKG MKG20020923141009509/23/02 14:10:31  5-MIN KMKG 231910Z 19013KT 10SM FEW055 18/04 A3016 410 41 900 190/13 RMK AO2
14840KMKG MKG20020923141509509/23/02 14:15:31  5-MIN KMKG 231915Z 17009KT 10SM FEW055 17/05 A3016 410 44 800 180/09 RMK AO2
14840KMKG MKG20020923142009509/23/02 14:20:31  5-MIN KMKG 231920Z 18009KT 10SM FEW055 18/05 A3016 410 42 900 180/09 RMK AO2
14840KMKG MKG20020923142509509/23/02 14:25:31  5-MIN KMKG 231925Z 20013KT 10SM FEW055 18/04 A3015 420 39 900 200/13 RMK AO2
14840KMKG MKG20020923143009509/23/02 14:30:31  5-MIN KMKG 231930Z 21013KT 10SM FEW055 18/04 A3015 420 39 900 210/13 RMK AO2
14840KMKG MKG20020923143509509/23/02 14:35:31  5-MIN KMKG 231935Z 19010KT 10SM FEW055 18/04 A3015 420 41 900 190/10 RMK AO2
14840KMKG MKG20020923144010109/23/02 14:40:31  5-MIN KMKG 231940Z 17013G17KT 10SM FEW055 17/05 A3014 430 44 800 180/13G17 RMK AO2
14840KMKG MKG20020923144510109/23/02 14:45:31  5-MIN KMKG 231945Z 17012G18KT 10SM FEW055 18/05 A3014 430 42 900 180/12G18 RMK AO2
14840KMKG MKG20020923145011809/23/02 14:50:31  5-MIN KMKG 231950Z 18013G18KT 10SM FEW055 17/05 A3014 430 44 800 190/13G18 RMK AO2 SLP206 T01720050
14840KMKG MKG20020923145511809/23/02 14:55:31  5-MIN KMKG 231955Z 18011G18KT 10SM FEW055 17/05 A3014 430 44 800 190/11G18 RMK AO2 SLP205 T01720050
14840KMKG MKG20020923150010109/23/02 15:00:31  5-MIN KMKG 232000Z 17012G18KT 10SM SCT110 18/05 A3014 430 42 900 170/12G18 RMK AO2
14840KMKG MKG20020923150509509/23/02 15:05:31  5-MIN KMKG 232005Z 19013KT 10SM SCT110 18/06 A3013 440 44 900 190/13 RMK AO2
14840KMKG MKG20020923151010109/23/02 15:10:31  5-MIN KMKG 232010Z 19016G19KT 10SM SCT110 18/06 A3013 430 44 900 190/16G19 RMK AO2
14840KMKG MKG20020923151510109/23/02 15:15:31  5-MIN KMKG 232015Z 20013G19KT 10SM SCT100 17/05 A3013 440 45 800 200/13G19 RMK AO2
14840KMKG MKG20020923152009509/23/02 15:20:31  5-MIN KMKG 232020Z 17012KT 10SM FEW100 18/06 A3013 440 44 900 180/12 RMK AO2
14840KMKG MKG20020923152510109/23/02 15:25:31  5-MIN KMKG 232025Z 19013G19KT 10SM FEW100 17/06 A3013 440 46 800 190/13G19 RMK AO2
14840KMKG MKG20020923153010109/23/02 15:30:31  5-MIN KMKG 232030Z 17015G19KT 10SM FEW100 17/06 A3013 440 47 800 170/15G19 RMK AO2
14840KMKG MKG20020923153509209/23/02 15:35:31  5-MIN KMKG 232035Z 17016KT 10SM CLR 17/05 A3013 440 45 800 170/16 RMK AO2
14840KMKG MKG20020923154009209/23/02 15:40:31  5-MIN KMKG 232040Z 18013KT 10SM CLR 17/06 A3013 440 46 800 180/13 RMK AO2
14840KMKG MKG20020923154509509/23/02 15:45:31  5-MIN KMKG 232045Z 18013KT 10SM FEW100 18/06 A3013 440 44 900 180/13 RMK AO2
14840KMKG MKG20020923155012409/23/02 15:50:31  5-MIN KMKG 232050Z 18015G20KT 10SM SCT100 17/06 A3013 440 46 800 180/15G20 RMK AO2 SLP202 T01720056 58004
14840KMKG MKG20020923155512409/23/02 15:55:31  5-MIN KMKG 232055Z 17011G20KT 10SM BKN100 17/05 A3013 440 45 800 180/11G20 RMK AO2 SLP202 T01670050 56020
14840KMKG MKG20020923160009509/23/02 16:00:31  5-MIN KMKG 232100Z 19015KT 10SM BKN100 17/06 A3013 440 47 800 190/15 RMK AO2
14840KMKG MKG20020923160509509/23/02 16:05:31  5-MIN KMKG 232105Z 18012KT 10SM BKN100 17/06 A3013 440 46 800 180/12 RMK AO2
14840KMKG MKG20020923161009509/23/02 16:10:31  5-MIN KMKG 232110Z 17012KT 10SM OVC100 17/06 A3012 440 47 800 180/12 RMK AO2
14840KMKG MKG20020923161509509/23/02 16:15:31  5-MIN KMKG 232115Z 18012KT 10SM OVC100 17/06 A3012 450 47 900 180/12 RMK AO2
14840KMKG MKG20020923162010109/23/02 16:20:31  5-MIN KMKG 232120Z 18015G19KT 10SM OVC100 17/06 A3012 450 49 800 180/15G19 RMK AO2
14840KMKG MKG20020923162510109/23/02 16:25:31  5-MIN KMKG 232125Z 18015G19KT 10SM OVC100 17/05 A3012 450 45 800 180/15G19 RMK AO2
14840KMKG MKG20020923163009509/23/02 16:30:31  5-MIN KMKG 232130Z 18010KT 10SM OVC100 17/06 A3012 450 49 800 180/10 RMK AO2
14840KMKG MKG20020923163509509/23/02 16:35:31  5-MIN KMKG 232135Z 17011KT 10SM OVC100 17/06 A3012 450 47 800 180/11 RMK AO2
14840KMKG MKG20020923164009509/23/02 16:40:31  5-MIN KMKG 232140Z 18011KT 10SM OVC100 17/06 A3012 450 49 800 190/11 RMK AO2
14840KMKG MKG20020923164510109/23/02 16:45:31  5-MIN KMKG 232145Z 18011G18KT 10SM OVC100 16/06 A3011 450 49 700 180/11G18 RMK AO2
14840KMKG MKG20020923165011809/23/02 16:50:31  5-MIN KMKG 232150Z 18011G18KT 10SM OVC100 16/06 A3011 460 49 700 180/11G18 RMK AO2 SLP196 T01610056
14840KMKG MKG20020923165511209/23/02 16:55:31  5-MIN KMKG 232155Z 18011KT 10SM OVC100 16/05 A3011 460 47 700 180/11 RMK AO2 SLP196 T01610050
14840KMKG MKG20020923170009509/23/02 17:00:31  5-MIN KMKG 232200Z 17009KT 10SM OVC100 16/06 A3011 460 49 700 170/09 RMK AO2
14840KMKG MKG20020923170510109/23/02 17:05:31  5-MIN KMKG 232205Z 17014G19KT 10SM OVC100 16/06 A3011 460 49 700 180/14G19 RMK AO2
14840KMKG MKG20020923171010109/23/02 17:10:31  5-MIN KMKG 232210Z 17014G19KT 10SM OVC100 16/05 A3011 460 47 700 180/14G19 RMK AO2
14840KMKG MKG20020923171510109/23/02 17:15:31  5-MIN KMKG 232215Z 18011G17KT 10SM OVC100 16/05 A3011 460 47 700 190/11G17 RMK AO2
14840KMKG MKG20020923172009509/23/02 17:20:31  5-MIN KMKG 232220Z 19011KT 10SM OVC095 16/05 A3011 460 47 700 190/11 RMK AO2
14840KMKG MKG20020923172509509/23/02 17:25:31  5-MIN KMKG 232225Z 18011KT 10SM OVC095 17/05 A3011 460 45 800 190/11 RMK AO2
14840KMKG MKG20020923173009509/23/02 17:30:31  5-MIN KMKG 232230Z 18012KT 10SM OVC090 17/05 A3011 460 45 800 180/12 RMK AO2
14840KMKG MKG20020923173510109/23/02 17:35:31  5-MIN KMKG 232235Z 18011G17KT 10SM OVC090 17/05 A3011 460 45 800 180/11G17 RMK AO2
14840KMKG MKG20020923174009509/23/02 17:40:31  5-MIN KMKG 232240Z 18009KT 10SM OVC090 17/06 A3011 460 47 800 190/09 RMK AO2
14840KMKG MKG20020923174509509/23/02 17:45:31  5-MIN KMKG 232245Z 18011KT 10SM OVC090 17/05 A3011 460 45 800 180/11 RMK AO2
14840KMKG MKG20020923175011209/23/02 17:50:31  5-MIN KMKG 232250Z 18010KT 10SM OVC090 17/05 A3011 460 45 800 190/10 RMK AO2 SLP196 T01670050
14840KMKG MKG20020923175511209/23/02 17:55:31  5-MIN KMKG 232255Z 18011KT 10SM OVC090 17/05 A3011 460 45 800 190/11 RMK AO2 SLP196 T01670050
14840KMKG MKG20020923180009509/23/02 18:00:31  5-MIN KMKG 232300Z 18011KT 10SM OVC090 17/05 A3011 460 45 800 190/11 RMK AO2
14840KMKG MKG20020923180509509/23/02 18:05:31  5-MIN KMKG 232305Z 18010KT 10SM OVC090 17/05 A3011 460 45 800 190/10 RMK AO2
14840KMKG MKG20020923181009509/23/02 18:10:31  5-MIN KMKG 232310Z 18009KT 10SM OVC085 17/06 A3010 460 47 800 180/09 RMK AO2
14840KMKG MKG20020923181509509/23/02 18:15:31  5-MIN KMKG 232315Z 18010KT 10SM OVC085 17/06 A3010 460 47 800 180/10 RMK AO2
14840KMKG MKG20020923182009509/23/02 18:20:31  5-MIN KMKG 232320Z 17010KT 10SM OVC085 17/06 A3010 470 47 800 180/10 RMK AO2
14840KMKG MKG20020923182509509/23/02 18:25:31  5-MIN KMKG 232325Z 17010KT 10SM OVC085 17/06 A3009 470 47 800 170/10 RMK AO2
14840KMKG MKG20020923183009509/23/02 18:30:31  5-MIN KMKG 232330Z 16009KT 10SM OVC090 17/06 A3009 470 49 800 170/09 RMK AO2
14840KMKG MKG20020923183509509/23/02 18:35:31  5-MIN KMKG 232335Z 17009KT 10SM OVC090 17/06 A3009 480 49 800 170/09 RMK AO2
14840KMKG MKG20020923184009509/23/02 18:40:31  5-MIN KMKG 232340Z 15007KT 10SM OVC095 16/06 A3009 480 51 800 150/07 RMK AO2
14840KMKG MKG20020923184510209/23/02 18:45:31  5-MIN KMKG 232345Z 15007KT 10SM BKN095 OVC110 16/07 A3008 480 55 700 150/07 RMK AO2
14840KMKG MKG20020923185013709/23/02 18:50:31  5-MIN KMKG 232350Z 15007KT 10SM BKN095 OVC120 16/07 A3008 480 55 700 150/07 RMK AO2 SLP189 T01560067 10178 20156 56020
14840KMKG MKG20020923185513709/23/02 18:55:31  5-MIN KMKG 232355Z 15008KT 10SM SCT100 OVC120 16/07 A3008 480 55 700 150/08 RMK AO2 SLP188 T01560067 10178 20156 58016
14840KMKG MKG20020923190009509/23/02 19:00:31  5-MIN KMKG 240000Z 14008KT 10SM BKN110 16/07 A3008 490 55 700 150/08 RMK AO2
14840KMKG MKG20020923190509509/23/02 19:05:31  5-MIN KMKG 240005Z 15009KT 10SM BKN110 16/07 A3007 490 55 700 150/09 RMK AO2
14840KMKG MKG20020923191009509/23/02 19:10:31  5-MIN KMKG 240010Z 14010KT 10SM BKN120 16/07 A3007 490 55 700 140/10 RMK AO2
14840KMKG MKG20020923191509509/23/02 19:15:31  5-MIN KMKG 240015Z 14009KT 10SM BKN120 15/07 A3007 490 57 600 150/09 RMK AO2
14840KMKG MKG20020923192009509/23/02 19:20:31  5-MIN KMKG 240020Z 14010KT 10SM FEW120 15/07 A3007 500 57 700 150/10 RMK AO2
14840KMKG MKG20020923192509509/23/02 19:25:31  5-MIN KMKG 240025Z 14010KT 10SM FEW120 16/07 A3006 500 55 700 150/10 RMK AO2
14840KMKG MKG20020923193009509/23/02 19:30:31  5-MIN KMKG 240030Z 14010KT 10SM SCT110 16/07 A3006 500 57 700 150/10 RMK AO2
14840KMKG MKG20020923193509509/23/02 19:35:31  5-MIN KMKG 240035Z 15011KT 10SM BKN110 16/07 A3006 500 57 700 150/11 RMK AO2
14840KMKG MKG20020923194009509/23/02 19:40:31  5-MIN KMKG 240040Z 14010KT 10SM SCT110 16/07 A3006 500 57 700 150/10 RMK AO2
14840KMKG MKG20020923194510209/23/02 19:45:31  5-MIN KMKG 240045Z 14009KT 10SM FEW080 SCT110 16/07 A3006 500 57 700 150/09 RMK AO2
14840KMKG MKG20020923195011909/23/02 19:50:31  5-MIN KMKG 240050Z 14009KT 10SM FEW080 SCT110 15/07 A3006 500 59 700 140/09 RMK AO2 SLP180 T01500072
14840KMKG MKG20020923195511909/23/02 19:55:31  5-MIN KMKG 240055Z 14008KT 10SM FEW080 SCT110 15/07 A3005 510 59 700 140/08 RMK AO2 SLP178 T01500072
14840KMKG MKG20020923200009509/23/02 20:00:31  5-MIN KMKG 240100Z 13009KT 10SM SCT120 15/07 A3005 510 59 700 140/09 RMK AO2
14840KMKG MKG20020923200509509/23/02 20:05:31  5-MIN KMKG 240105Z 14008KT 10SM SCT120 14/07 A3005 510 61 600 140/08 RMK AO2
14840KMKG MKG20020923201009509/23/02 20:10:31  5-MIN KMKG 240110Z 14009KT 10SM SCT120 14/07 A3005 510 61 600 150/09 RMK AO2
14840KMKG MKG20020923201510209/23/02 20:15:31  5-MIN KMKG 240115Z 14009KT 10SM FEW090 SCT120 15/07 A3005 510 59 700 150/09 RMK AO2
14840KMKG MKG20020923202010209/23/02 20:20:31  5-MIN KMKG 240120Z 14010KT 10SM FEW090 BKN110 15/07 A3004 520 59 700 150/10 RMK AO2
14840KMKG MKG20020923202510209/23/02 20:25:31  5-MIN KMKG 240125Z 15010KT 10SM FEW085 BKN110 15/07 A3004 520 59 700 160/10 RMK AO2
14840KMKG MKG20020923203010209/23/02 20:30:31  5-MIN KMKG 240130Z 16011KT 10SM FEW085 SCT110 15/07 A3004 520 59 700 170/11 RMK AO2
14840KMKG MKG20020923203510209/23/02 20:35:31  5-MIN KMKG 240135Z 16010KT 10SM SCT080 SCT110 15/08 A3005 520 62 700 170/10 RMK AO2
14840KMKG MKG20020923204011809/23/02 20:40:31  5-MIN KMKG 240140Z 16011KT 10SM -RA SCT085 BKN100 15/08 A3004 520 62 700 160/11 RMK AO2 RAB37 P0000
14840KMKG MKG20020923204511809/23/02 20:45:31  5-MIN KMKG 240145Z 16012KT 10SM -RA BKN080 BKN100 15/08 A3004 520 62 700 160/12 RMK AO2 RAB37 P0000
14840KMKG MKG20020923205013509/23/02 20:50:31  5-MIN KMKG 240150Z 16013KT 10SM -RA SCT075 BKN090 16/08 A3004 520 59 700 160/13 RMK AO2 RAB37 SLP173 P0000 T01560078
14840KMKG MKG20020923205513509/23/02 20:55:31  5-MIN KMKG 240155Z 16013KT 10SM -RA BKN080 BKN095 16/08 A3004 520 59 700 160/13 RMK AO2 RAB37 SLP173 P0000 T01560078
14840KMKG MKG20020923210011909/23/02 21:00:31  5-MIN KMKG 240200Z 14012KT 10SM -RA FEW022 SCT070 OVC085 14/09 A3004 520 69 600 150/12 RMK AO2 P0000
14840KMKG MKG20020923210511909/23/02 21:05:31  5-MIN KMKG 240205Z 15012KT 10SM -RA SCT070 BKN085 OVC110 14/09 A3003 530 69 600 160/12 RMK AO2 P0000
14840KMKG MKG20020923211011909/23/02 21:10:31  5-MIN KMKG 240210Z 15012KT 10SM -RA FEW065 BKN075 OVC090 14/09 A3003 530 69 600 160/12 RMK AO2 P0000
14840KMKG MKG20020923211512109/23/02 21:15:31  5-MIN KMKG 240215Z 15013KT 10SM BKN075 BKN095 OVC120 14/09 A3002 540 69 600 160/13 RMK AO2 RAE11 P0000
14840KMKG MKG20020923212010709/23/02 21:20:31  5-MIN KMKG 240220Z 15014KT 10SM OVC080 15/08 A3002 540 64 700 160/14 RMK AO2 RAE11 P0000
14840KMKG MKG20020923212512609/23/02 21:25:31  5-MIN KMKG 240225Z 15012KT 10SM -RA FEW065 BKN080 OVC100 15/09 A3001 550 66 700 150/12 RMK AO2 PRESFR P0001
14840KMKG MKG20020923213013409/23/02 21:30:31  5-MIN KMKG 240230Z 18011G18KT 160V220 10SM -RA FEW065 OVC080 15/09 A3001 550 69 700 180/11G18 160V220 RMK AO2 P0001
14840KMKG MKG20020923213515909/23/02 21:35:31  5-MIN KMKG 240235Z 31018G28KT 290V350 10SM -RA FEW045 BKN075 OVC085 15/10 A3004 520 72 700 310/18G28 290V350 RMK AO2 PK WND 30028/0234 P0001
14840KMKG MKG20020923214018209/23/02 21:40:31  5-MIN KMKG 240240Z 30018G28KT 10SM TS FEW045 BKN080 OVC090 16/11 A3005 510 72 700 310/18G28 RMK AO2 PK WND 30028/0234 PRESRR OCNL LTGICCA TSB37 TS NW MOV E P0001 $
14840KMKG MKG20020923214518609/23/02 21:45:31  5-MIN KMKG 240245Z 29014G24KT 10SM -TSRA FEW043 BKN070 OVC090 16/10 A3005 510 69 700 290/14G24 RMK AO2 PK WND 30028/0234 OCNL LTGICCA TSB37 TS SW MOV NE PRESRR P0001 $
14840KMKG MKG20020923215021909/23/02 21:50:31  5-MIN KMKG 240250Z 30014G23KT 10SM -TSRA FEW043 BKN070 BKN090 16/10 A3005 510 69 700 310/14G23 RMK AO2 PK WND 30028/0234 WSHFT 0232 SLP177 OCNL LTGICCA TSB37 TS SW MOV NE P0001 60001 T01560100 58016 $
14840KMKG MKG20020923215521609/23/02 21:55:31  5-MIN KMKG 240255Z 30013G23KT 10SM TS FEW043 SCT070 BKN090 16/10 A3005 510 69 700 310/13G23 RMK AO2 PK WND 30028/0234 WSHFT 0232 SLP177 OCNL LTGICCA TSB37 TS SW MOV NE P0001 60001 T01560100 55008 $
14840KMKG MKG20020923220013909/23/02 22:00:31  5-MIN KMKG 240300Z 30015G22KT 10SM TS FEW043 SCT085 15/09 A3006 500 69 700 300/15G22 RMK AO2 OCNL LTGICCA TS SW MOV NE $
14840KMKG MKG20020923220513909/23/02 22:05:31  5-MIN KMKG 240305Z 29014G22KT 10SM TS FEW070 SCT090 15/09 A3007 500 66 700 300/14G22 RMK AO2 OCNL LTGICCA TS SW MOV NE $
14840KMKG MKG20020923221013209/23/02 22:10:31  5-MIN KMKG 240310Z 28016G25KT 10SM TS FEW070 15/09 A3007 500 66 700 290/16G25 RMK AO2 OCNL LTGICCA TS SW MOV NE $
14840KMKG MKG20020923221513209/23/02 22:15:31  5-MIN KMKG 240315Z 30015G25KT 10SM TS FEW085 15/09 A3007 490 66 600 300/15G25 RMK AO2 OCNL LTGICCA TS SW MOV NE $
14840KMKG MKG20020923222012909/23/02 22:20:31  5-MIN KMKG 240320Z 28013G23KT 10SM TS CLR 15/09 A3007 490 66 600 280/13G23 RMK AO2 OCNL LTGICCA TS SW MOV NE $
14840KMKG MKG20020923222510609/23/02 22:25:31  5-MIN KMKG 240325Z 29017G23KT 10SM CLR 15/08 A3008 490 64 600 290/17G23 RMK AO2 TSE21 $
14840KMKG MKG20020923223010609/23/02 22:30:31  5-MIN KMKG 240330Z 29018G23KT 10SM CLR 15/08 A3007 490 62 600 290/18G23 RMK AO2 TSE21 $
14840KMKG MKG20020923223512209/23/02 22:35:31  5-MIN KMKG 240335Z 29015G26KT 10SM CLR 14/08 A3008 480 64 600 290/15G26 RMK AO2 PK WND 29026/0331 TSE21
14840KMKG MKG20020923224012209/23/02 22:40:31  5-MIN KMKG 240340Z 29019G26KT 10SM CLR 14/08 A3008 480 64 600 290/19G26 RMK AO2 PK WND 29026/0331 TSE21
14840KMKG MKG20020923224512209/23/02 22:45:31  5-MIN KMKG 240345Z 28017G22KT 10SM CLR 14/08 A3008 480 64 600 290/17G22 RMK AO2 PK WND 29026/0331 TSE21
14840KMKG MKG20020923225013909/23/02 22:50:31  5-MIN KMKG 240350Z 30017G23KT 10SM CLR 14/08 A3009 480 64 600 300/17G23 RMK AO2 PK WND 29026/0331 TSE21 SLP188 T01440078
14840KMKG MKG20020923225513909/23/02 22:55:31  5-MIN KMKG 240355Z 28019G24KT 10SM CLR 14/08 A3009 470 64 600 290/19G24 RMK AO2 PK WND 29026/0331 TSE21 SLP190 T01440078
14840KMKG MKG20020923230009809/23/02 23:00:31  5-MIN KMKG 240400Z 29016G24KT 10SM CLR 14/08 A3010 470 66 500 290/16G24 RMK AO2
14840KMKG MKG20020923230509809/23/02 23:05:31  5-MIN KMKG 240405Z 30014G24KT 10SM CLR 14/08 A3010 470 66 500 300/14G24 RMK AO2
14840KMKG MKG20020923231009809/23/02 23:10:31  5-MIN KMKG 240410Z 28016G24KT 10SM CLR 14/07 A3010 470 64 500 280/16G24 RMK AO2
14840KMKG MKG20020923231510809/23/02 23:15:31  5-MIN KMKG 240415Z AUTO 29016G22KT 10SM CLR 13/07 A3010 460 66 400 290/16G22 RMK AO2 TSNO
14840KMKG MKG20020923232009809/23/02 23:20:31  5-MIN KMKG 240420Z 29018G23KT 10SM CLR 13/07 A3010 470 64 400 290/18G23 RMK AO2
14840KMKG MKG20020923232509809/23/02 23:25:31  5-MIN KMKG 240425Z 28014G23KT 10SM CLR 13/07 A3010 460 64 400 290/14G23 RMK AO2
14840KMKG MKG20020923233011609/23/02 23:30:31  5-MIN KMKG 240430Z 28016G26KT 10SM CLR 13/06 A3011 460 61 400 290/16G26 RMK AO2 PK WND 29026/0427
14840KMKG MKG20020923233511609/23/02 23:35:31  5-MIN KMKG 240435Z 28016G26KT 10SM CLR 13/06 A3011 460 61 400 290/16G26 RMK AO2 PK WND 29026/0427
14840KMKG MKG20020923234011909/23/02 23:40:31  5-MIN KMKG 240440Z 28017G21KT 10SM FEW070 13/06 A3011 450 61 400 280/17G21 RMK AO2 PK WND 29026/0427
14840KMKG MKG20020923234512609/23/02 23:45:31  5-MIN KMKG 240445Z 28015G21KT 10SM FEW034 SCT070 13/06 A3011 450 61 400 280/15G21 RMK AO2 PK WND 29026/0427
14840KMKG MKG20020923235015309/23/02 23:50:31  5-MIN KMKG 240450Z 29013G21KT 10SM FEW034 BKN070 13/07 A3011 450 66 300 290/13G21 RMK AO2 PK WND 29026/0427 SLP198 T01280067 401780072
14840KMKG MKG20020923235515309/23/02 23:55:31  5-MIN KMKG 240455Z 29016G19KT 10SM SCT032 BKN070 13/07 A3012 450 69 300 290/16G19 RMK AO2 PK WND 29026/0427 SLP199 T01280072 401780072
14840KMKG MKG20020924000010809/24/02 00:00:31  5-MIN KMKG 240500Z 26015G22KT 10SM SCT032 BKN070 13/07 A3012 450 69 300 270/15G22 RMK AO2
14840KMKG MKG20020924000512309/24/02 00:05:31  5-MIN KMKG 240505Z 27011G22KT 10SM SCT032 BKN070 13/07 A3012 450 69 300 280/11G22 RMK AO2 CIG 031 RWY 14
14840KMKG MKG20020924001010209/24/02 00:10:31  5-MIN KMKG 240510Z 27013KT 10SM BKN032 BKN070 13/07 A3012 440 69 300 270/13 RMK AO2
14840KMKG MKG20020924001510109/24/02 00:15:31  5-MIN KMKG 240515Z 28013G22KT 10SM BKN032 12/07 A3012 440 71 300 290/13G22 RMK AO2
14840KMKG MKG20020924002010109/24/02 00:20:31  5-MIN KMKG 240520Z 26015G22KT 10SM BKN032 12/07 A3013 440 71 300 260/15G22 RMK AO2
14840KMKG MKG20020924002510109/24/02 00:25:31  5-MIN KMKG 240525Z 27012G22KT 10SM BKN032 12/07 A3013 440 68 300 270/12G22 RMK AO2
14840KMKG MKG20020924003009509/24/02 00:30:31  5-MIN KMKG 240530Z 28012KT 10SM BKN032 12/07 A3013 440 71 200 280/12 RMK AO2
14840KMKG MKG20020924003510109/24/02 00:35:31  5-MIN KMKG 240535Z 29013G17KT 10SM BKN034 12/07 A3013 440 71 200 290/13G17 RMK AO2
14840KMKG MKG20020924004009509/24/02 00:40:31  5-MIN KMKG 240540Z 28016KT 10SM BKN034 12/07 A3013 430 71 200 280/16 RMK AO2
14840KMKG MKG20020924004509509/24/02 00:45:31  5-MIN KMKG 240545Z 28015KT 10SM BKN034 12/07 A3013 430 71 200 290/15 RMK AO2
14840KMKG MKG20020924005014209/24/02 00:50:31  5-MIN KMKG 240550Z 28015G19KT 10SM BKN034 12/07 A3014 430 71 200 280/15G19 RMK AO2 SLP206 60001 T01220072 10156 20122 55008
14840KMKG MKG20020924005514209/24/02 00:55:31  5-MIN KMKG 240555Z 27015G21KT 10SM BKN034 12/07 A3014 430 68 200 280/15G21 RMK AO2 SLP206 60001 T01220067 10156 20122 51027
14840KMKG MKG20020924010010109/24/02 01:00:31  5-MIN KMKG 240600Z 28017G24KT 10SM BKN034 12/07 A3014 430 68 200 290/17G24 RMK AO2
14840KMKG MKG20020924010510109/24/02 01:05:31  5-MIN KMKG 240605Z 28014G24KT 10SM BKN034 12/07 A3014 430 71 200 290/14G24 RMK AO2
14840KMKG MKG20020924011010109/24/02 01:10:31  5-MIN KMKG 240610Z 28019G24KT 10SM BKN034 12/07 A3014 430 71 200 280/19G24 RMK AO2
14840KMKG MKG20020924011510809/24/02 01:15:31  5-MIN KMKG 240615Z 28016G24KT 10SM SCT029 BKN036 12/07 A3014 420 71 200 290/16G24 RMK AO2
14840KMKG MKG20020924012010809/24/02 01:20:31  5-MIN KMKG 240620Z 28014G21KT 10SM SCT029 OVC038 12/07 A3014 420 74 200 280/14G21 RMK AO2
14840KMKG MKG20020924012510809/24/02 01:25:31  5-MIN KMKG 240625Z 28014G20KT 10SM FEW029 OVC038 12/07 A3015 420 71 200 280/14G20 RMK AO2
14840KMKG MKG20020924013010809/24/02 01:30:31  5-MIN KMKG 240630Z 27013G20KT 10SM FEW029 BKN038 12/06 A3015 420 68 200 280/13G20 RMK AO2
14840KMKG MKG20020924013510109/24/02 01:35:31  5-MIN KMKG 240635Z 28016G21KT 10SM BKN036 12/06 A3015 420 68 200 290/16G21 RMK AO2
14840KMKG MKG20020924014010109/24/02 01:40:31  5-MIN KMKG 240640Z 27014G21KT 10SM OVC036 12/06 A3015 420 68 200 280/14G21 RMK AO2
14840KMKG MKG20020924014510209/24/02 01:45:31  5-MIN KMKG 240645Z 27015KT 10SM FEW030 OVC036 12/06 A3015 420 68 200 270/15 RMK AO2
14840KMKG MKG20020924015012509/24/02 01:50:31  5-MIN KMKG 240650Z 27014G19KT 10SM FEW030 OVC036 12/06 A3015 410 68 200 280/14G19 RMK AO2 SLP212 T01170061
14840KMKG MKG20020924015511809/24/02 01:55:31  5-MIN KMKG 240655Z 28014G19KT 10SM OVC034 12/07 A3015 410 71 200 290/14G19 RMK AO2 SLP211 T01170067
14840KMKG MKG20020924020010809/24/02 02:00:31  5-MIN KMKG 240700Z 29014G19KT 10SM BKN030 OVC036 12/07 A3016 410 71 200 290/14G19 RMK AO2
14840KMKG MKG20020924020510809/24/02 02:05:31  5-MIN KMKG 240705Z 28013G19KT 10SM BKN030 OVC036 12/07 A3016 410 71 200 280/13G19 RMK AO2
14840KMKG MKG20020924021010809/24/02 02:10:31  5-MIN KMKG 240710Z 28015G20KT 10SM BKN030 OVC036 12/07 A3016 410 71 200 290/15G20 RMK AO2
14840KMKG MKG20020924021510809/24/02 02:15:31  5-MIN KMKG 240715Z 28013G20KT 10SM BKN030 OVC036 12/07 A3016 410 71 200 290/13G20 RMK AO2
14840KMKG MKG20020924022010809/24/02 02:20:31  5-MIN KMKG 240720Z 29011G18KT 10SM BKN030 OVC036 12/07 A3016 410 71 100 290/11G18 RMK AO2
14840KMKG MKG20020924022510209/24/02 02:25:31  5-MIN KMKG 240725Z 28014KT 10SM BKN030 OVC036 12/07 A3016 410 71 100 280/14 RMK AO2
14840KMKG MKG20020924023010809/24/02 02:30:31  5-MIN KMKG 240730Z 29014G23KT 10SM BKN030 OVC038 12/07 A3016 410 71 100 290/14G23 RMK AO2
14840KMKG MKG20020924023510109/24/02 02:35:31  5-MIN KMKG 240735Z 28015G23KT 10SM OVC035 11/06 A3016 410 71 100 280/15G23 RMK AO2
14840KMKG MKG20020924024010809/24/02 02:40:31  5-MIN KMKG 240740Z 28011G19KT 10SM FEW028 OVC035 11/06 A3017 400 71 100 290/11G19 RMK AO2
14840KMKG MKG20020924024509509/24/02 02:45:31  5-MIN KMKG 240745Z 28013KT 10SM OVC033 11/06 A3016 410 71 100 280/13 RMK AO2
14840KMKG MKG20020924025011209/24/02 02:50:31  5-MIN KMKG 240750Z 28013KT 10SM OVC033 11/06 A3017 400 71 100 290/13 RMK AO2 SLP217 T01110061
14840KMKG MKG20020924025511809/24/02 02:55:31  5-MIN KMKG 240755Z 28012G22KT 10SM OVC033 11/06 A3017 400 71 100 280/12G22 RMK AO2 SLP217 T01110061
14840KMKG MKG20020924030010109/24/02 03:00:31  5-MIN KMKG 240800Z 28016G22KT 10SM OVC032 11/06 A3017 400 71 100 290/16G22 RMK AO2
14840KMKG MKG20020924030510809/24/02 03:05:31  5-MIN KMKG 240805Z 29012G21KT 10SM BKN030 OVC035 11/06 A3017 400 71 100 290/12G21 RMK AO2
14840KMKG MKG20020924031010809/24/02 03:10:31  5-MIN KMKG 240810Z 29014G18KT 10SM BKN030 OVC034 11/06 A3017 400 71 100 290/14G18 RMK AO2
14840KMKG MKG20020924031510809/24/02 03:15:31  5-MIN KMKG 240815Z 29014G19KT 10SM BKN030 OVC034 11/06 A3017 400 71 100 300/14G19 RMK AO2
14840KMKG MKG20020924032010109/24/02 03:20:31  5-MIN KMKG 240820Z 29010G19KT 10SM OVC032 11/06 A3018 390 71 100 300/10G19 RMK AO2
14840KMKG MKG20020924032509909/24/02 03:25:31  5-MIN KMKG 240825Z 30013G20KT 10SM OVC032 11/06 A3018 390 71 0 310/13G20 RMK AO2
14840KMKG MKG20020924033009909/24/02 03:30:31  5-MIN KMKG 240830Z 30011G20KT 10SM OVC032 11/06 A3018 390 71 0 300/11G20 RMK AO2
14840KMKG MKG20020924033510609/24/02 03:35:31  5-MIN KMKG 240835Z 30011G17KT 10SM BKN030 OVC035 11/06 A3019 390 71 0 300/11G17 RMK AO2
14840KMKG MKG20020924034009909/24/02 03:40:31  5-MIN KMKG 240840Z 31012G19KT 10SM OVC030 11/06 A3018 390 71 0 310/12G19 RMK AO2
14840KMKG MKG20020924034509909/24/02 03:45:31  5-MIN KMKG 240845Z 29014G19KT 10SM OVC030 11/06 A3018 390 71 0 300/14G19 RMK AO2
14840KMKG MKG20020924035012209/24/02 03:50:31  5-MIN KMKG 240850Z 30016G19KT 10SM OVC030 11/06 A3018 390 71 0 300/16G19 RMK AO2 SLP222 T01060056 51027
14840KMKG MKG20020924035512209/24/02 03:55:31  5-MIN KMKG 240855Z 29013G21KT 10SM OVC030 11/06 A3018 390 71 0 290/13G21 RMK AO2 SLP222 T01060056 51016
14840KMKG MKG20020924040009909/24/02 04:00:31  5-MIN KMKG 240900Z 29013G21KT 10SM OVC030 11/06 A3018 390 71 0 290/13G21 RMK AO2
14840KMKG MKG20020924040509309/24/02 04:05:31  5-MIN KMKG 240905Z 29012KT 10SM OVC030 11/06 A3019 380 71 0 290/12 RMK AO2
14840KMKG MKG20020924041009909/24/02 04:10:31  5-MIN KMKG 240910Z 29013G18KT 10SM OVC030 11/06 A3019 380 71 0 290/13G18 RMK AO2
14840KMKG MKG20020924041509909/24/02 04:15:31  5-MIN KMKG 240915Z 29011G18KT 10SM OVC030 11/06 A3019 380 71 0 300/11G18 RMK AO2
14840KMKG MKG20020924042009909/24/02 04:20:31  5-MIN KMKG 240920Z 29011G18KT 10SM OVC028 11/06 A3020 380 71 0 290/11G18 RMK AO2
14840KMKG MKG20020924042511509/24/02 04:25:31  5-MIN KMKG 240925Z 30015G20KT 260V330 10SM OVC028 11/06 A3020 370 71 0 300/15G20 260V330 RMK AO2
14840KMKG MKG20020924043009909/24/02 04:30:31  5-MIN KMKG 240930Z 29014G20KT 10SM OVC028 11/06 A3020 370 71 0 300/14G20 RMK AO2
14840KMKG MKG20020924043509909/24/02 04:35:31  5-MIN KMKG 240935Z 29015G18KT 10SM OVC028 11/06 A3020 370 71 0 290/15G18 RMK AO2
14840KMKG MKG20020924044009309/24/02 04:40:31  5-MIN KMKG 240940Z 29010KT 10SM OVC028 11/06 A3020 370 71 0 300/10 RMK AO2
14840KMKG MKG20020924044509909/24/02 04:45:31  5-MIN KMKG 240945Z 29009G16KT 10SM OVC028 11/06 A3020 370 71 0 290/09G16 RMK AO2
14840KMKG MKG20020924045011609/24/02 04:50:31  5-MIN KMKG 240950Z 29013G19KT 10SM OVC028 11/06 A3020 370 71 0 290/13G19 RMK AO2 SLP229 T01060056
14840KMKG MKG20020924045511609/24/02 04:55:31  5-MIN KMKG 240955Z 30011G19KT 10SM OVC028 11/06 A3021 360 71 0 310/11G19 RMK AO2 SLP231 T01060056
14840KMKG MKG20020924050009309/24/02 05:00:31  5-MIN KMKG 241000Z 29011KT 10SM OVC028 11/06 A3021 360 74 0 300/11 RMK AO2
14840KMKG MKG20020924050509909/24/02 05:05:31  5-MIN KMKG 241005Z 31014G18KT 10SM OVC030 11/06 A3021 360 71 0 310/14G18 RMK AO2
14840KMKG MKG20020924051009909/24/02 05:10:31  5-MIN KMKG 241010Z 30012G18KT 10SM OVC030 11/06 A3021 360 71 0 300/12G18 RMK AO2
14840KMKG MKG20020924051509909/24/02 05:15:31  5-MIN KMKG 241015Z 30012G17KT 10SM OVC030 11/06 A3021 360 74 0 310/12G17 RMK AO2
14840KMKG MKG20020924052009909/24/02 05:20:31  5-MIN KMKG 241020Z 31013G17KT 10SM OVC032 11/06 A3021 360 74 0 310/13G17 RMK AO2
14840KMKG MKG20020924052509309/24/02 05:25:31  5-MIN KMKG 241025Z 31011KT 10SM OVC032 11/06 A3021 360 71 0 310/11 RMK AO2
14840KMKG MKG20020924053009309/24/02 05:30:31  5-MIN KMKG 241030Z 30009KT 10SM OVC032 11/06 A3022 360 71 0 310/09 RMK AO2
14840KMKG MKG20020924053510009/24/02 05:35:31  5-MIN KMKG 241035Z 32013KT 10SM SCT029 OVC035 11/06 A3022 350 71 0 320/13 RMK AO2
14840KMKG MKG20020924054010609/24/02 05:40:31  5-MIN KMKG 241040Z 31015G20KT 10SM SCT029 OVC035 11/06 A3022 350 71 0 310/15G20 RMK AO2
14840KMKG MKG20020924054510609/24/02 05:45:31  5-MIN KMKG 241045Z 31015G20KT 10SM FEW029 OVC035 11/06 A3022 350 71 0 320/15G20 RMK AO2
14840KMKG MKG20020924055013909/24/02 05:50:31  5-MIN KMKG 241050Z 31010G20KT 270V340 10SM FEW029 OVC035 11/06 A3022 350 71 0 310/10G20 270V340 RMK AO2 SLP236 T01110061
14840KMKG MKG20020924055511709/24/02 05:55:31  5-MIN KMKG 241055Z 32013KT 10SM FEW029 OVC035 11/06 A3022 350 71 0 330/13 RMK AO2 SLP236 T01110061
14840KMKG MKG20020924060010009/24/02 06:00:31  5-MIN KMKG 241100Z 32014KT 10SM SCT029 OVC035 11/06 A3023 350 71 0 330/14 RMK AO2
14840KMKG MKG20020924060510009/24/02 06:05:31  5-MIN KMKG 241105Z 31013KT 10SM SCT029 OVC035 11/07 A3023 350 74 0 320/13 RMK AO2
14840KMKG MKG20020924061010009/24/02 06:10:31  5-MIN KMKG 241110Z 32014KT 10SM SCT029 OVC035 11/06 A3023 340 71 0 330/14 RMK AO2
14840KMKG MKG20020924061510009/24/02 06:15:31  5-MIN KMKG 241115Z 33014KT 10SM SCT028 OVC037 11/06 A3023 340 71 0 330/14 RMK AO2
14840KMKG MKG20020924062010009/24/02 06:20:31  5-MIN KMKG 241120Z 32014KT 10SM SCT028 OVC035 11/06 A3023 340 71 0 320/14 RMK AO2
14840KMKG MKG20020924062510609/24/02 06:25:31  5-MIN KMKG 241125Z 31014G20KT 10SM SCT028 OVC035 11/06 A3023 340 71 0 320/14G20 RMK AO2
14840KMKG MKG20020924063010609/24/02 06:30:31  5-MIN KMKG 241130Z 32011G20KT 10SM SCT028 OVC035 11/06 A3023 340 71 0 320/11G20 RMK AO2
14840KMKG MKG20020924063509309/24/02 06:35:31  5-MIN KMKG 241135Z 33012KT 10SM OVC035 11/06 A3024 340 71 0 340/12 RMK AO2
14840KMKG MKG20020924064009909/24/02 06:40:31  5-MIN KMKG 241140Z 33013G18KT 10SM OVC033 11/06 A3024 330 71 0 330/13G18 RMK AO2
14840KMKG MKG20020924064509909/24/02 06:45:31  5-MIN KMKG 241145Z 32009G18KT 10SM OVC033 11/06 A3025 330 74 0 330/09G18 RMK AO2
14840KMKG MKG20020924065013409/24/02 06:50:31  5-MIN KMKG 241150Z 33011KT 10SM OVC035 11/06 A3025 330 74 0 330/11 RMK AO2 SLP244 70001 T01060061 10122 20106 51016
14840KMKG MKG20020924065513409/24/02 06:55:31  5-MIN KMKG 241155Z 32012KT 10SM OVC035 11/06 A3025 330 74 0 330/12 RMK AO2 SLP245 70001 T01060061 10122 20106 53023
14840KMKG MKG20020924070009309/24/02 07:00:31  5-MIN KMKG 241200Z 33013KT 10SM OVC035 11/06 A3025 330 74 0 340/13 RMK AO2
14840KMKG MKG20020924070509309/24/02 07:05:31  5-MIN KMKG 241205Z 32011KT 10SM OVC035 11/06 A3025 320 74 0 320/11 RMK AO2
14840KMKG MKG20020924071009309/24/02 07:10:31  5-MIN KMKG 241210Z 33015KT 10SM OVC035 11/06 A3025 320 74 0 330/15 RMK AO2
14840KMKG MKG20020924071509309/24/02 07:15:31  5-MIN KMKG 241215Z 32012KT 10SM OVC035 11/06 A3026 320 74 0 330/12 RMK AO2
14840KMKG MKG20020924072009609/24/02 07:20:31  5-MIN KMKG 241220Z 33010KT 10SM OVC035 11/06 A3026 310 74 -100 330/10 RMK AO2
14840KMKG MKG20020924072509609/24/02 07:25:31  5-MIN KMKG 241225Z 32010KT 10SM OVC035 11/06 A3027 310 74 -100 330/10 RMK AO2
14840KMKG MKG20020924073009309/24/02 07:30:31  5-MIN KMKG 241230Z 34008KT 10SM OVC035 11/07 A3027 310 74 0 340/08 RMK AO2
14840KMKG MKG20020924073509309/24/02 07:35:31  5-MIN KMKG 241235Z 34010KT 10SM OVC033 11/07 A3027 310 74 0 340/10 RMK AO2
14840KMKG MKG20020924074009309/24/02 07:40:31  5-MIN KMKG 241240Z 36008KT 10SM OVC034 11/07 A3027 310 74 0 010/08 RMK AO2
14840KMKG MKG20020924074510309/24/02 07:45:31  5-MIN KMKG 241245Z 35008KT 10SM FEW029 OVC034 11/07 A3028 300 77 -100 360/08 RMK AO2
14840KMKG MKG20020924075011309/24/02 07:50:31  5-MIN KMKG 241250Z 35007KT 10SM OVC034 11/06 A3028 300 74 -100 350/07 RMK AO2 SLP255 T01060061
14840KMKG MKG20020924075511309/24/02 07:55:31  5-MIN KMKG 241255Z 34008KT 10SM OVC034 11/07 A3028 300 77 -100 340/08 RMK AO2 SLP256 T01060067
14840KMKG MKG20020924080009309/24/02 08:00:31  5-MIN KMKG 241300Z 34006KT 10SM OVC034 11/06 A3028 300 71 0 340/06 RMK AO2
14840KMKG MKG20020924080509309/24/02 08:05:31  5-MIN KMKG 241305Z 33009KT 10SM OVC034 11/06 A3028 300 71 0 330/09 RMK AO2
14840KMKG MKG20020924081009309/24/02 08:10:31  5-MIN KMKG 241310Z 33008KT 10SM OVC034 11/06 A3028 300 71 0 330/08 RMK AO2
14840KMKG MKG20020924081509309/24/02 08:15:31  5-MIN KMKG 241315Z 34006KT 10SM OVC034 11/06 A3029 290 71 0 340/06 RMK AO2
14840KMKG MKG20020924082009309/24/02 08:20:31  5-MIN KMKG 241320Z 33010KT 10SM OVC034 11/06 A3029 290 71 0 330/10 RMK AO2
14840KMKG MKG20020924082509309/24/02 08:25:31  5-MIN KMKG 241325Z 32008KT 10SM OVC036 11/06 A3029 290 71 0 320/08 RMK AO2
14840KMKG MKG20020924083009309/24/02 08:30:31  5-MIN KMKG 241330Z 33007KT 10SM OVC036 11/07 A3029 290 74 0 340/07 RMK AO2
14840KMKG MKG20020924083509309/24/02 08:35:31  5-MIN KMKG 241335Z 32008KT 10SM OVC036 11/07 A3029 290 74 0 330/08 RMK AO2
14840KMKG MKG20020924084009309/24/02 08:40:31  5-MIN KMKG 241340Z 33008KT 10SM OVC036 11/07 A3029 290 74 0 330/08 RMK AO2
14840KMKG MKG20020924084509309/24/02 08:45:31  5-MIN KMKG 241345Z 33008KT 10SM OVC036 12/07 A3030 290 71 0 340/08 RMK AO2
14840KMKG MKG20020924085011009/24/02 08:50:31  5-MIN KMKG 241350Z 33008KT 10SM OVC038 12/07 A3030 280 71 0 340/08 RMK AO2 SLP262 T01170067
14840KMKG MKG20020924085511009/24/02 08:55:31  5-MIN KMKG 241355Z 33008KT 10SM OVC038 12/07 A3030 280 71 0 340/08 RMK AO2 SLP262 T01170067
14840KMKG MKG20020924090009309/24/02 09:00:31  5-MIN KMKG 241400Z 33007KT 10SM OVC038 12/07 A3030 280 74 0 330/07 RMK AO2
14840KMKG MKG20020924090509309/24/02 09:05:31  5-MIN KMKG 241405Z 35007KT 10SM OVC038 12/07 A3030 280 74 0 350/07 RMK AO2
14840KMKG MKG20020924091009309/24/02 09:10:31  5-MIN KMKG 241410Z 32009KT 10SM OVC038 12/07 A3030 280 74 0 320/09 RMK AO2
14840KMKG MKG20020924091509309/24/02 09:15:31  5-MIN KMKG 241415Z 32008KT 10SM OVC038 12/07 A3031 280 74 0 320/08 RMK AO2
14840KMKG MKG20020924092009309/24/02 09:20:31  5-MIN KMKG 241420Z 34007KT 10SM OVC038 12/07 A3031 270 74 0 340/07 RMK AO2
14840KMKG MKG20020924092509309/24/02 09:25:31  5-MIN KMKG 241425Z 33009KT 10SM OVC038 12/07 A3031 270 71 0 330/09 RMK AO2
14840KMKG MKG20020924093009309/24/02 09:30:31  5-MIN KMKG 241430Z 32008KT 10SM OVC038 12/07 A3031 270 71 0 320/08 RMK AO2
14840KMKG MKG20020924093509309/24/02 09:35:31  5-MIN KMKG 241435Z 33008KT 10SM OVC038 12/07 A3031 270 71 0 340/08 RMK AO2
14840KMKG MKG20020924094009309/24/02 09:40:31  5-MIN KMKG 241440Z 33009KT 10SM OVC038 12/07 A3031 270 68 0 340/09 RMK AO2
14840KMKG MKG20020924094509309/24/02 09:45:31  5-MIN KMKG 241445Z 35007KT 10SM OVC038 12/06 A3032 270 66 0 350/07 RMK AO2
14840KMKG MKG20020924095012509/24/02 09:50:31  5-MIN KMKG 241450Z 34007KT 10SM FEW029 OVC038 13/07 A3032 260 66 100 340/07 RMK AO2 SLP268 T01280067 53023
14840KMKG MKG20020924095512509/24/02 09:55:31  5-MIN KMKG 241455Z 34007KT 10SM FEW029 OVC038 13/06 A3032 270 63 100 340/07 RMK AO2 SLP267 T01280061 51022
14840KMKG MKG20020924100009509/24/02 10:00:31  5-MIN KMKG 241500Z 31006KT 10SM OVC038 13/06 A3032 260 61 200 320/06 RMK AO2
14840KMKG MKG20020924100510209/24/02 10:05:31  5-MIN KMKG 241505Z 34007KT 10SM FEW029 BKN038 14/06 A3032 260 59 200 340/07 RMK AO2
14840KMKG MKG20020924101011109/24/02 10:10:31  5-MIN KMKG 241510Z 30007KT 280V340 10SM BKN038 14/06 A3032 260 59 200 300/07 280V340 RMK AO2
14840KMKG MKG20020924101511109/24/02 10:15:31  5-MIN KMKG 241515Z 33008KT 290V350 10SM OVC036 13/06 A3032 260 63 100 340/08 290V350 RMK AO2
14840KMKG MKG20020924102009509/24/02 10:20:31  5-MIN KMKG 241520Z 31008KT 10SM BKN036 13/06 A3032 260 61 100 310/08 RMK AO2
14840KMKG MKG20020924102509509/24/02 10:25:31  5-MIN KMKG 241525Z 30006KT 10SM BKN036 13/07 A3032 260 64 200 310/06 RMK AO2
14840KMKG MKG20020924103010209/24/02 10:30:31  5-MIN KMKG 241530Z 28006KT 10SM BKN036 BKN042 13/06 A3033 260 59 200 290/06 RMK AO2
14840KMKG MKG20020924103511109/24/02 10:35:31  5-MIN KMKG 241535Z 32007KT 290V360 10SM BKN038 13/06 A3033 260 61 100 320/07 290V360 RMK AO2
14840KMKG MKG20020924104009509/24/02 10:40:31  5-MIN KMKG 241540Z 32006KT 10SM BKN038 14/06 A3033 260 59 200 320/06 RMK AO2
14840KMKG MKG20020924104509509/24/02 10:45:31  5-MIN KMKG 241545Z 32009KT 10SM BKN038 13/06 A3033 250 61 200 320/09 RMK AO2
14840KMKG MKG20020924105011209/24/02 10:50:31  5-MIN KMKG 241550Z 31006KT 10SM BKN038 13/06 A3033 250 63 100 310/06 RMK AO2 SLP271 T01280061
14840KMKG MKG20020924105511209/24/02 10:55:31  5-MIN KMKG 241555Z 31006KT 10SM BKN038 13/06 A3033 260 61 200 310/06 RMK AO2 SLP271 T01330061
14840KMKG MKG20020924110009509/24/02 11:00:31  5-MIN KMKG 241600Z VRB05KT 10SM BKN038 13/06 A3033 250 61 200 VRB/05 RMK AO2
14840KMKG MKG20020924110509509/24/02 11:05:31  5-MIN KMKG 241605Z 27008KT 10SM SCT038 14/06 A3033 250 57 300 270/08 RMK AO2
14840KMKG MKG20020924111009509/24/02 11:10:31  5-MIN KMKG 241610Z 27008KT 10SM SCT036 13/06 A3033 250 61 200 270/08 RMK AO2
14840KMKG MKG20020924111509509/24/02 11:15:31  5-MIN KMKG 241615Z 27008KT 10SM SCT036 14/06 A3034 250 59 200 270/08 RMK AO2
14840KMKG MKG20020924112009509/24/02 11:20:31  5-MIN KMKG 241620Z 29007KT 10SM SCT036 14/06 A3034 250 57 200 300/07 RMK AO2
14840KMKG MKG20020924112510209/24/02 11:25:31  5-MIN KMKG 241625Z 29007KT 10SM SCT036 BKN043 14/06 A3034 250 57 300 290/07 RMK AO2
14840KMKG MKG20020924113009509/24/02 11:30:31  5-MIN KMKG 241630Z 33007KT 10SM BKN038 15/06 A3034 250 55 300 330/07 RMK AO2
14840KMKG MKG20020924113510209/24/02 11:35:31  5-MIN KMKG 241635Z 32008KT 10SM BKN038 BKN046 14/06 A3034 250 57 200 330/08 RMK AO2
14840KMKG MKG20020924114009509/24/02 11:40:31  5-MIN KMKG 241640Z 28007KT 10SM BKN041 14/07 A3033 250 61 200 280/07 RMK AO2
14840KMKG MKG20020924114509509/24/02 11:45:31  5-MIN KMKG 241645Z 28006KT 10SM BKN041 14/07 A3034 250 61 200 280/06 RMK AO2
14840KMKG MKG20020924115011909/24/02 11:50:31  5-MIN KMKG 241650Z VRB04KT 10SM BKN037 BKN044 13/06 A3034 250 61 100 VRB/04 RMK AO2 SLP274 T01330061
14840KMKG MKG20020924115511209/24/02 11:55:31  5-MIN KMKG 241655Z VRB03KT 10SM BKN040 14/06 A3034 250 59 200 VRB/03 RMK AO2 SLP274 T01390061
14840KMKG MKG20020924120009509/24/02 12:00:31  5-MIN KMKG 241700Z 27005KT 10SM BKN040 14/07 A3034 250 59 300 270/05 RMK AO2
14840KMKG MKG20020924120509509/24/02 12:05:31  5-MIN KMKG 241705Z 28007KT 10SM OVC038 14/07 A3034 250 61 200 280/07 RMK AO2
14840KMKG MKG20020924121009509/24/02 12:10:31  5-MIN KMKG 241710Z 30005KT 10SM OVC036 13/07 A3034 250 64 100 300/05 RMK AO2
14840KMKG MKG20020924121509509/24/02 12:15:31  5-MIN KMKG 241715Z 27009KT 10SM BKN036 13/07 A3033 250 66 100 280/09 RMK AO2
14840KMKG MKG20020924122009509/24/02 12:20:31  5-MIN KMKG 241720Z VRB05KT 10SM BKN038 14/08 A3033 250 64 300 VRB/05 RMK AO2
14840KMKG MKG20020924122511109/24/02 12:25:31  5-MIN KMKG 241725Z 26008KT 210V300 10SM BKN036 14/08 A3033 250 64 300 270/08 210V300 RMK AO2
14840KMKG MKG20020924123009509/24/02 12:30:31  5-MIN KMKG 241730Z 30007KT 10SM BKN036 14/07 A3032 260 61 300 310/07 RMK AO2
14840KMKG MKG20020924123509509/24/02 12:35:31  5-MIN KMKG 241735Z 28007KT 10SM SCT036 14/08 A3032 260 64 300 280/07 RMK AO2
14840KMKG MKG20020924124009509/24/02 12:40:31  5-MIN KMKG 241740Z VRB04KT 10SM SCT036 15/08 A3033 260 62 400 VRB/04 RMK AO2
14840KMKG MKG20020924124509509/24/02 12:45:31  5-MIN KMKG 241745Z 25006KT 10SM BKN036 14/08 A3032 260 64 300 260/06 RMK AO2
14840KMKG MKG20020924125013009/24/02 12:50:31  5-MIN KMKG 241750Z 29006KT 10SM SCT038 15/08 A3032 260 62 400 290/06 RMK AO2 SLP270 T01500078 10150 20106 51022
14840KMKG MKG20020924125513009/24/02 12:55:31  5-MIN KMKG 241755Z 27011KT 10SM SCT038 15/08 A3032 260 62 400 280/11 RMK AO2 SLP269 T01500078 10150 20106 50002
14840KMKG MKG20020924130009509/24/02 13:00:31  5-MIN KMKG 241800Z 25009KT 10SM SCT036 14/08 A3032 260 66 200 250/09 RMK AO2
14840KMKG MKG20020924130509509/24/02 13:05:31  5-MIN KMKG 241805Z 26006KT 10SM SCT036 14/08 A3032 260 64 300 260/06 RMK AO2
14840KMKG MKG20020924131010209/24/02 13:10:31  5-MIN KMKG 241810Z 28007KT 10SM FEW031 SCT038 16/08 A3033 260 62 400 290/07 RMK AO2
14840KMKG MKG20020924131509509/24/02 13:15:31  5-MIN KMKG 241815Z 26010KT 10SM SCT036 16/08 A3032 260 62 400 260/10 RMK AO2
14840KMKG MKG20020924132009509/24/02 13:20:31  5-MIN KMKG 241820Z 28008KT 10SM SCT036 14/08 A3033 260 64 300 290/08 RMK AO2
14840KMKG MKG20020924132510209/24/02 13:25:31  5-MIN KMKG 241825Z 27011KT 10SM SCT032 SCT040 15/08 A3032 260 64 400 280/11 RMK AO2
14840KMKG MKG20020924133010209/24/02 13:30:31  5-MIN KMKG 241830Z 26010KT 10SM BKN035 BKN042 14/08 A3033 260 66 300 260/10 RMK AO2
14840KMKG MKG20020924133510209/24/02 13:35:31  5-MIN KMKG 241835Z 25008KT 10SM BKN035 BKN042 15/08 A3033 260 64 400 260/08 RMK AO2
14840KMKG MKG20020924134010209/24/02 13:40:31  5-MIN KMKG 241840Z 26008KT 10SM SCT030 BKN038 15/08 A3033 250 64 400 270/08 RMK AO2
14840KMKG MKG20020924134510209/24/02 13:45:31  5-MIN KMKG 241845Z 24008KT 10SM SCT032 BKN041 15/08 A3033 260 62 400 250/08 RMK AO2
14840KMKG MKG20020924135011909/24/02 13:50:31  5-MIN KMKG 241850Z 28010KT 10SM SCT032 BKN041 15/08 A3033 260 64 400 280/10 RMK AO2 SLP270 T01500083
14840KMKG MKG20020924135511909/24/02 13:55:31  5-MIN KMKG 241855Z 26009KT 10SM FEW030 SCT038 15/08 A3033 260 62 400 270/09 RMK AO2 SLP270 T01500078
14840KMKG MKG20020924140011809/24/02 14:00:31  5-MIN KMKG 241900Z 27009KT 240V310 10SM FEW030 SCT038 14/08 A3032 260 64 300 270/09 240V310 RMK AO2
14840KMKG MKG20020924140511109/24/02 14:05:31  5-MIN KMKG 241905Z 28008KT 260V320 10SM FEW036 15/08 A3032 260 62 400 280/08 260V320 RMK AO2
14840KMKG MKG20020924141009509/24/02 14:10:31  5-MIN KMKG 241910Z 29008KT 10SM FEW036 15/08 A3032 260 62 400 290/08 RMK AO2
14840KMKG MKG20020924141509509/24/02 14:15:31  5-MIN KMKG 241915Z 29009KT 10SM FEW036 14/08 A3032 260 64 300 300/09 RMK AO2
14840KMKG MKG20020924142009509/24/02 14:20:31  5-MIN KMKG 241920Z 26009KT 10SM FEW036 14/08 A3032 260 64 300 260/09 RMK AO2
14840KMKG MKG20020924142509509/24/02 14:25:31  5-MIN KMKG 241925Z 27010KT 10SM SCT036 15/08 A3032 260 62 400 270/10 RMK AO2
14840KMKG MKG20020924143009509/24/02 14:30:31  5-MIN KMKG 241930Z 28010KT 10SM SCT036 14/08 A3032 260 64 300 280/10 RMK AO2
14840KMKG MKG20020924143509509/24/02 14:35:31  5-MIN KMKG 241935Z 27008KT 10SM SCT036 15/08 A3032 260 62 400 270/08 RMK AO2
14840KMKG MKG20020924144009509/24/02 14:40:31  5-MIN KMKG 241940Z 28007KT 10SM SCT036 14/08 A3032 260 64 300 280/07 RMK AO2
14840KMKG MKG20020924144509509/24/02 14:45:31  5-MIN KMKG 241945Z 26009KT 10SM SCT036 15/08 A3033 260 62 400 260/09 RMK AO2
14840KMKG MKG20020924145011209/24/02 14:50:31  5-MIN KMKG 241950Z 28008KT 10SM SCT032 14/08 A3033 260 64 300 290/08 RMK AO2 SLP272 T01440078
14840KMKG MKG20020924145511209/24/02 14:55:31  5-MIN KMKG 241955Z 28008KT 10SM SCT032 14/08 A3033 260 64 300 280/08 RMK AO2 SLP272 T01440078
14840KMKG MKG20020924150010709/24/02 15:00:31  5-MIN KMKG 242000Z 29008KT 10SM CLR 14/08 A3033 260 64 300 290/08 RMK AO2 CIG 031 RWY 14
14840KMKG MKG20020924150509209/24/02 15:05:31  5-MIN KMKG 242005Z 29009KT 10SM CLR 14/08 A3033 260 64 300 290/09 RMK AO2
14840KMKG MKG20020924151009509/24/02 15:10:31  5-MIN KMKG 242010Z 28009KT 10SM FEW032 14/07 A3033 260 61 300 290/09 RMK AO2
14840KMKG MKG20020924151509509/24/02 15:15:31  5-MIN KMKG 242015Z 27010KT 10SM FEW032 14/08 A3033 260 64 300 280/10 RMK AO2
14840KMKG MKG20020924152009509/24/02 15:20:31  5-MIN KMKG 242020Z 25008KT 10SM FEW032 14/08 A3033 260 64 300 250/08 RMK AO2
14840KMKG MKG20020924152509509/24/02 15:25:31  5-MIN KMKG 242025Z 30008KT 10SM FEW032 14/07 A3032 260 61 300 310/08 RMK AO2
14840KMKG MKG20020924153009509/24/02 15:30:31  5-MIN KMKG 242030Z 28008KT 10SM FEW032 14/08 A3032 260 64 300 280/08 RMK AO2
14840KMKG MKG20020924153509509/24/02 15:35:31  5-MIN KMKG 242035Z 30007KT 10SM FEW032 14/07 A3032 260 61 300 300/07 RMK AO2
14840KMKG MKG20020924154009509/24/02 15:40:31  5-MIN KMKG 242040Z 27008KT 10SM FEW032 14/07 A3032 260 61 300 270/08 RMK AO2
14840KMKG MKG20020924154509509/24/02 15:45:31  5-MIN KMKG 242045Z 26008KT 10SM FEW032 14/07 A3032 260 61 300 260/08 RMK AO2
14840KMKG MKG20020924155011809/24/02 15:50:31  5-MIN KMKG 242050Z 29006KT 10SM FEW032 14/07 A3032 260 61 300 300/06 RMK AO2 SLP270 T01440072 50002
14840KMKG MKG20020924155511809/24/02 15:55:31  5-MIN KMKG 242055Z 29008KT 10SM FEW032 14/07 A3032 260 61 300 290/08 RMK AO2 SLP271 T01440072 50001
14840KMKG MKG20020924160009209/24/02 16:00:31  5-MIN KMKG 242100Z 26008KT 10SM CLR 14/07 A3033 260 61 300 270/08 RMK AO2
14840KMKG MKG20020924160509209/24/02 16:05:31  5-MIN KMKG 242105Z 27007KT 10SM CLR 14/07 A3033 260 61 300 270/07 RMK AO2
14840KMKG MKG20020924161009509/24/02 16:10:31  5-MIN KMKG 242110Z 27008KT 10SM FEW032 14/07 A3033 260 61 300 280/08 RMK AO2
14840KMKG MKG20020924161509509/24/02 16:15:31  5-MIN KMKG 242115Z 27008KT 10SM FEW032 14/07 A3033 260 61 300 270/08 RMK AO2
14840KMKG MKG20020924162009509/24/02 16:20:31  5-MIN KMKG 242120Z 26009KT 10SM FEW032 14/07 A3033 260 61 300 260/09 RMK AO2
14840KMKG MKG20020924162509509/24/02 16:25:31  5-MIN KMKG 242125Z 27008KT 10SM FEW032 14/07 A3033 250 64 200 270/08 RMK AO2
14840KMKG MKG20020924163009509/24/02 16:30:31  5-MIN KMKG 242130Z 28006KT 10SM FEW032 14/07 A3033 250 61 300 290/06 RMK AO2
14840KMKG MKG20020924163509509/24/02 16:35:31  5-MIN KMKG 242135Z 28007KT 10SM FEW032 14/07 A3033 250 64 200 290/07 RMK AO2
14840KMKG MKG20020924164009509/24/02 16:40:31  5-MIN KMKG 242140Z 28007KT 10SM FEW032 14/07 A3033 250 61 200 290/07 RMK AO2
14840KMKG MKG20020924164509509/24/02 16:45:31  5-MIN KMKG 242145Z 29006KT 10SM FEW032 14/07 A3033 250 61 200 290/06 RMK AO2
14840KMKG MKG20020924165011209/24/02 16:50:31  5-MIN KMKG 242150Z 29006KT 10SM FEW032 14/07 A3033 260 61 200 290/06 RMK AO2 SLP271 T01390067
14840KMKG MKG20020924165511209/24/02 16:55:31  5-MIN KMKG 242155Z 27005KT 10SM FEW032 14/07 A3033 260 61 200 280/05 RMK AO2 SLP272 T01390067
14840KMKG MKG20020924170009209/24/02 17:00:31  5-MIN KMKG 242200Z 25007KT 10SM CLR 14/07 A3033 260 61 200 260/07 RMK AO2
14840KMKG MKG20020924170509209/24/02 17:05:31  5-MIN KMKG 242205Z 28005KT 10SM CLR 14/07 A3032 260 61 200 280/05 RMK AO2
14840KMKG MKG20020924171009209/24/02 17:10:31  5-MIN KMKG 242210Z VRB05KT 10SM CLR 13/07 A3032 260 64 200 VRB/05 RMK AO2
14840KMKG MKG20020924171509209/24/02 17:15:31  5-MIN KMKG 242215Z 27005KT 10SM CLR 14/07 A3032 260 64 200 280/05 RMK AO2
14840KMKG MKG20020924172009209/24/02 17:20:31  5-MIN KMKG 242220Z 30004KT 10SM CLR 14/07 A3032 260 61 200 310/04 RMK AO2
14840KMKG MKG20020924172509209/24/02 17:25:31  5-MIN KMKG 242225Z 31006KT 10SM CLR 13/07 A3032 260 64 200 310/06 RMK AO2
14840KMKG MKG20020924173009209/24/02 17:30:31  5-MIN KMKG 242230Z 27005KT 10SM CLR 13/07 A3032 260 64 200 280/05 RMK AO2
14840KMKG MKG20020924173509209/24/02 17:35:31  5-MIN KMKG 242235Z 29006KT 10SM CLR 13/07 A3032 270 66 200 300/06 RMK AO2
14840KMKG MKG20020924174009209/24/02 17:40:31  5-MIN KMKG 242240Z 29005KT 10SM CLR 13/07 A3032 270 66 200 290/05 RMK AO2
14840KMKG MKG20020924174509209/24/02 17:45:31  5-MIN KMKG 242245Z 27005KT 10SM CLR 13/07 A3032 270 64 200 280/05 RMK AO2
14840KMKG MKG20020924175010909/24/02 17:50:31  5-MIN KMKG 242250Z 26005KT 10SM CLR 13/07 A3032 270 64 200 270/05 RMK AO2 SLP268 T01330067
14840KMKG MKG20020924175510909/24/02 17:55:31  5-MIN KMKG 242255Z 26006KT 10SM CLR 13/07 A3032 270 64 200 260/06 RMK AO2 SLP268 T01330067
14840KMKG MKG20020924180009209/24/02 18:00:31  5-MIN KMKG 242300Z 27006KT 10SM CLR 13/07 A3032 270 66 100 270/06 RMK AO2
14840KMKG MKG20020924180509209/24/02 18:05:31  5-MIN KMKG 242305Z 27005KT 10SM CLR 13/07 A3032 260 66 100 270/05 RMK AO2
14840KMKG MKG20020924181009009/24/02 18:10:31  5-MIN KMKG 242310Z 27004KT 10SM CLR 12/07 A3032 260 71 0 270/04 RMK AO2
14840KMKG MKG20020924181509009/24/02 18:15:31  5-MIN KMKG 242315Z 26004KT 10SM CLR 12/07 A3032 260 71 0 270/04 RMK AO2
14840KMKG MKG20020924182009009/24/02 18:20:31  5-MIN KMKG 242320Z 26003KT 10SM CLR 12/07 A3032 260 71 0 260/03 RMK AO2
14840KMKG MKG20020924182509009/24/02 18:25:31  5-MIN KMKG 242325Z 25003KT 10SM CLR 12/07 A3032 260 74 0 250/03 RMK AO2
14840KMKG MKG20020924183009009/24/02 18:30:31  5-MIN KMKG 242330Z 26003KT 10SM CLR 12/07 A3032 260 71 0 260/03 RMK AO2
14840KMKG MKG20020924183509009/24/02 18:35:31  5-MIN KMKG 242335Z 26003KT 10SM CLR 12/07 A3032 260 68 0 270/03 RMK AO2
14840KMKG MKG20020924184009009/24/02 18:40:31  5-MIN KMKG 242340Z 27003KT 10SM CLR 12/07 A3032 260 71 0 270/03 RMK AO2
14840KMKG MKG20020924184509009/24/02 18:45:31  5-MIN KMKG 242345Z 28003KT 10SM CLR 11/07 A3032 260 77 0 280/03 RMK AO2
14840KMKG MKG20020924185012509/24/02 18:50:31  5-MIN KMKG 242350Z 27003KT 10SM CLR 11/07 A3032 260 77 0 280/03 RMK AO2 SLP269 T01110072 10156 20111 50001
14840KMKG MKG20020924185512809/24/02 18:55:31  5-MIN KMKG 242355Z 26003KT 10SM CLR 11/07 A3032 260 77 -100 270/03 RMK AO2 SLP269 T01110072 10156 20111 55001
14840KMKG MKG20020924190009309/24/02 19:00:31  5-MIN KMKG 250000Z 27003KT 10SM CLR 11/07 A3032 260 77 -100 280/03 RMK AO2
14840KMKG MKG20020924190509309/24/02 19:05:31  5-MIN KMKG 250005Z 28003KT 10SM CLR 11/07 A3032 260 80 -100 280/03 RMK AO2
14840KMKG MKG20020924191009309/24/02 19:10:31  5-MIN KMKG 250010Z 28003KT 10SM CLR 10/07 A3032 260 83 -200 290/03 RMK AO2
14840KMKG MKG20020924191509309/24/02 19:15:31  5-MIN KMKG 250015Z 00000KT 10SM CLR 10/08 A3032 260 86 -200 000/00 RMK AO2
14840KMKG MKG20020924192009309/24/02 19:20:31  5-MIN KMKG 250020Z 00000KT 10SM CLR 09/07 A3033 260 86 -300 000/00 RMK AO2
14840KMKG MKG20020924192509309/24/02 19:25:31  5-MIN KMKG 250025Z 00000KT 10SM CLR 09/07 A3033 260 89 -300 000/00 RMK AO2
14840KMKG MKG20020924193009309/24/02 19:30:31  5-MIN KMKG 250030Z 00000KT 10SM CLR 09/07 A3033 250 86 -300 000/00 RMK AO2
14840KMKG MKG20020924193509309/24/02 19:35:31  5-MIN KMKG 250035Z 00000KT 10SM CLR 09/07 A3033 250 86 -300 000/00 RMK AO2
14840KMKG MKG20020924194009309/24/02 19:40:31  5-MIN KMKG 250040Z 00000KT 10SM CLR 09/08 A3033 250 89 -300 000/00 RMK AO2
14840KMKG MKG20020924194509309/24/02 19:45:31  5-MIN KMKG 250045Z 00000KT 10SM CLR 09/08 A3033 250 89 -300 000/00 RMK AO2
14840KMKG MKG20020924195011009/24/02 19:50:31  5-MIN KMKG 250050Z 00000KT 10SM CLR 09/08 A3034 250 93 -300 000/00 RMK AO2 SLP276 T00890078
14840KMKG MKG20020924195511009/24/02 19:55:31  5-MIN KMKG 250055Z 00000KT 10SM CLR 09/08 A3034 250 93 -300 000/00 RMK AO2 SLP276 T00890078
14840KMKG MKG20020924200009309/24/02 20:00:31  5-MIN KMKG 250100Z 00000KT 10SM CLR 09/08 A3034 250 93 -300 000/00 RMK AO2
14840KMKG MKG20020924200509309/24/02 20:05:31  5-MIN KMKG 250105Z 00000KT 10SM CLR 09/08 A3034 240 93 -300 000/00 RMK AO2
14840KMKG MKG20020924201009309/24/02 20:10:31  5-MIN KMKG 250110Z 00000KT 10SM CLR 08/08 A3034 240 96 -400 000/00 RMK AO2
14840KMKG MKG20020924201509309/24/02 20:15:31  5-MIN KMKG 250115Z 00000KT 10SM CLR 09/08 A3034 240 93 -300 000/00 RMK AO2
14840KMKG MKG20020924202009309/24/02 20:20:31  5-MIN KMKG 250120Z 00000KT 10SM CLR 09/08 A3034 240 93 -300 000/00 RMK AO2
14840KMKG MKG20020924202509309/24/02 20:25:31  5-MIN KMKG 250125Z 00000KT 10SM CLR 08/08 A3034 240 96 -400 000/00 RMK AO2
14840KMKG MKG20020924203009309/24/02 20:30:31  5-MIN KMKG 250130Z 00000KT 10SM CLR 08/08 A3034 240 96 -400 000/00 RMK AO2
14840KMKG MKG20020924203509309/24/02 20:35:31  5-MIN KMKG 250135Z 12003KT 10SM CLR 08/07 A3034 240 93 -500 120/03 RMK AO2
14840KMKG MKG20020924204009309/24/02 20:40:31  5-MIN KMKG 250140Z 13003KT 10SM CLR 08/07 A3034 240 96 -500 140/03 RMK AO2
14840KMKG MKG20020924204509309/24/02 20:45:31  5-MIN KMKG 250145Z 00000KT 10SM CLR 07/07 A3034 240 96 -500 000/00 RMK AO2
14840KMKG MKG20020924205011009/24/02 20:50:31  5-MIN KMKG 250150Z 00000KT 10SM CLR 07/07 A3034 240 96 -500 000/00 RMK AO2 SLP277 T00720067
14840KMKG MKG20020924205511009/24/02 20:55:31  5-MIN KMKG 250155Z 13003KT 10SM CLR 07/07 A3034 240 96 -500 130/03 RMK AO2 SLP277 T00720067
14840KMKG MKG20020924210009309/24/02 21:00:31  5-MIN KMKG 250200Z 00000KT 10SM CLR 07/07 A3034 240 96 -500 000/00 RMK AO2
14840KMKG MKG20020924210509309/24/02 21:05:31  5-MIN KMKG 250205Z 00000KT 10SM CLR 07/07 A3034 240 96 -500 000/00 RMK AO2
14840KMKG MKG20020924211009309/24/02 21:10:31  5-MIN KMKG 250210Z 00000KT 10SM CLR 08/07 A3034 250 96 -500 000/00 RMK AO2
14840KMKG MKG20020924211509409/24/02 21:15:31  5-MIN KMKG 250215Z 00000KT 10SM CLR 07/07 A3034 250 100 -500 000/00 RMK AO2
14840KMKG MKG20020924212009309/24/02 21:20:31  5-MIN KMKG 250220Z 00000KT 10SM CLR 07/07 A3033 250 96 -500 000/00 RMK AO2
14840KMKG MKG20020924212509309/24/02 21:25:31  5-MIN KMKG 250225Z 00000KT 10SM CLR 07/07 A3033 250 96 -500 000/00 RMK AO2
14840KMKG MKG20020924213009409/24/02 21:30:31  5-MIN KMKG 250230Z 00000KT 10SM CLR 07/07 A3033 250 100 -600 000/00 RMK AO2
14840KMKG MKG20020924213509309/24/02 21:35:31  5-MIN KMKG 250235Z 12003KT 10SM CLR 07/07 A3033 250 96 -500 130/03 RMK AO2
14840KMKG MKG20020924214009309/24/02 21:40:31  5-MIN KMKG 250240Z 00000KT 10SM CLR 07/07 A3033 250 96 -500 000/00 RMK AO2
14840KMKG MKG20020924214509309/24/02 21:45:31  5-MIN KMKG 250245Z 12003KT 10SM CLR 08/07 A3033 260 96 -500 120/03 RMK AO2
14840KMKG MKG20020924215011609/24/02 21:50:31  5-MIN KMKG 250250Z 13003KT 10SM CLR 07/07 A3032 260 96 -500 130/03 RMK AO2 SLP272 T00720067 55001
14840KMKG MKG20020924215511609/24/02 21:55:31  5-MIN KMKG 250255Z 00000KT 10SM CLR 07/06 A3032 260 96 -600 000/00 RMK AO2 SLP271 T00670061 50001
14840KMKG MKG20020924220009409/24/02 22:00:31  5-MIN KMKG 250300Z 12003KT 10SM CLR 07/07 A3032 260 100 -600 130/03 RMK AO2
14840KMKG MKG20020924220509409/24/02 22:05:31  5-MIN KMKG 250305Z 10003KT 10SM CLR 07/07 A3032 260 100 -600 110/03 RMK AO2
14840KMKG MKG20020924221009309/24/02 22:10:31  5-MIN KMKG 250310Z 00000KT 10SM CLR 07/06 A3032 260 96 -600 000/00 RMK AO2
14840KMKG MKG20020924221509309/24/02 22:15:31  5-MIN KMKG 250315Z 00000KT 10SM CLR 07/06 A3032 270 96 -600 000/00 RMK AO2
14840KMKG MKG20020924222009309/24/02 22:20:31  5-MIN KMKG 250320Z 00000KT 10SM CLR 07/06 A3032 260 96 -600 000/00 RMK AO2
14840KMKG MKG20020924222509309/24/02 22:25:31  5-MIN KMKG 250325Z 00000KT 10SM CLR 07/07 A3032 260 96 -500 000/00 RMK AO2
14840KMKG MKG20020924223009309/24/02 22:30:31  5-MIN KMKG 250330Z 00000KT 10SM CLR 07/07 A3032 260 96 -500 000/00 RMK AO2
14840KMKG MKG20020924223509309/24/02 22:35:31  5-MIN KMKG 250335Z 00000KT 10SM CLR 07/07 A3032 260 96 -500 000/00 RMK AO2
14840KMKG MKG20020924224009309/24/02 22:40:31  5-MIN KMKG 250340Z 00000KT 10SM CLR 07/06 A3032 260 93 -500 000/00 RMK AO2
14840KMKG MKG20020924224509309/24/02 22:45:31  5-MIN KMKG 250345Z 00000KT 10SM CLR 07/06 A3032 260 93 -500 000/00 RMK AO2
14840KMKG MKG20020924225011009/24/02 22:50:31  5-MIN KMKG 250350Z 00000KT 10SM CLR 07/06 A3032 260 93 -500 000/00 RMK AO2 SLP270 T00720061
14840KMKG MKG20020924225511009/24/02 22:55:31  5-MIN KMKG 250355Z 00000KT 10SM CLR 07/06 A3032 260 96 -600 000/00 RMK AO2 SLP270 T00670061
14840KMKG MKG20020924230009309/24/02 23:00:31  5-MIN KMKG 250400Z 00000KT 10SM CLR 07/06 A3032 260 93 -500 000/00 RMK AO2
14840KMKG MKG20020924230509309/24/02 23:05:31  5-MIN KMKG 250405Z 00000KT 10SM CLR 06/06 A3032 260 96 -700 000/00 RMK AO2
14840KMKG MKG20020924231009309/24/02 23:10:31  5-MIN KMKG 250410Z 00000KT 10SM CLR 06/06 A3032 260 96 -700 000/00 RMK AO2
14840KMKG MKG20020924231509309/24/02 23:15:31  5-MIN KMKG 250415Z 00000KT 10SM CLR 06/06 A3033 260 96 -700 000/00 RMK AO2
14840KMKG MKG20020924232009309/24/02 23:20:31  5-MIN KMKG 250420Z 00000KT 10SM CLR 06/06 A3033 250 96 -700 000/00 RMK AO2
14840KMKG MKG20020924232509309/24/02 23:25:31  5-MIN KMKG 250425Z 00000KT 10SM CLR 06/06 A3033 250 96 -700 000/00 RMK AO2
14840KMKG MKG20020924233009309/24/02 23:30:31  5-MIN KMKG 250430Z 00000KT 10SM CLR 06/06 A3033 250 96 -700 000/00 RMK AO2
14840KMKG MKG20020924233509309/24/02 23:35:31  5-MIN KMKG 250435Z 00000KT 10SM CLR 06/06 A3033 250 96 -700 000/00 RMK AO2
14840KMKG MKG20020924234009309/24/02 23:40:31  5-MIN KMKG 250440Z 00000KT 10SM CLR 06/06 A3033 250 96 -700 000/00 RMK AO2
14840KMKG MKG20020924234509309/24/02 23:45:31  5-MIN KMKG 250445Z 11003KT 10SM CLR 06/05 A3033 250 96 -700 110/03 RMK AO2
14840KMKG MKG20020924235012009/24/02 23:50:31  5-MIN KMKG 250450Z 00000KT 10SM CLR 06/05 A3033 250 96 -700 000/00 RMK AO2 SLP274 T00560050 401560056
14840KMKG MKG20020924235512109/24/02 23:55:31  5-MIN KMKG 250455Z 00000KT 10SM CLR 06/06 A3033 250 100 -700 000/00 RMK AO2 SLP274 T00560056 401560056
14840KMKG MKG20020925000009309/25/02 00:00:31  5-MIN KMKG 250500Z 00000KT 10SM CLR 06/06 A3033 250 96 -700 000/00 RMK AO2
14840KMKG MKG20020925000509309/25/02 00:05:31  5-MIN KMKG 250505Z 00000KT 10SM CLR 06/06 A3033 250 96 -700 000/00 RMK AO2
14840KMKG MKG20020925001009309/25/02 00:10:31  5-MIN KMKG 250510Z 00000KT 10SM CLR 06/06 A3033 250 96 -700 000/00 RMK AO2
14840KMKG MKG20020925001509309/25/02 00:15:31  5-MIN KMKG 250515Z 00000KT 10SM CLR 06/06 A3033 250 96 -700 000/00 RMK AO2
14840KMKG MKG20020925002009309/25/02 00:20:31  5-MIN KMKG 250520Z 00000KT 10SM CLR 06/06 A3034 250 96 -700 000/00 RMK AO2
14840KMKG MKG20020925002509309/25/02 00:25:31  5-MIN KMKG 250525Z 00000KT 10SM CLR 06/06 A3034 250 96 -700 000/00 RMK AO2
14840KMKG MKG20020925003009309/25/02 00:30:31  5-MIN KMKG 250530Z 00000KT 10SM CLR 06/06 A3034 250 96 -700 000/00 RMK AO2
14840KMKG MKG20020925003509309/25/02 00:35:31  5-MIN KMKG 250535Z 00000KT 10SM CLR 06/06 A3034 250 96 -700 000/00 RMK AO2
14840KMKG MKG20020925004009309/25/02 00:40:31  5-MIN KMKG 250540Z 00000KT 10SM CLR 06/06 A3034 250 96 -700 000/00 RMK AO2
14840KMKG MKG20020925004509409/25/02 00:45:31  5-MIN KMKG 250545Z 11003KT 10SM CLR 06/06 A3033 250 100 -700 110/03 RMK AO2
14840KMKG MKG20020925005012909/25/02 00:50:31  5-MIN KMKG 250550Z 11004KT 10SM CLR 06/06 A3033 250 100 -700 110/04 RMK AO2 SLP274 T00560056 10111 20056 50001
14840KMKG MKG20020925005512909/25/02 00:55:31  5-MIN KMKG 250555Z 11004KT 10SM CLR 06/06 A3033 250 100 -700 120/04 RMK AO2 SLP274 T00560056 10111 20056 53003
14840KMKG MKG20020925010009409/25/02 01:00:31  5-MIN KMKG 250600Z 12004KT 10SM CLR 05/05 A3033 250 100 -800 120/04 RMK AO2
14840KMKG MKG20020925010509409/25/02 01:05:31  5-MIN KMKG 250605Z 12003KT 10SM CLR 05/05 A3033 250 100 -800 120/03 RMK AO2
14840KMKG MKG20020925011009409/25/02 01:10:31  5-MIN KMKG 250610Z 00000KT 10SM CLR 06/06 A3034 250 100 -700 000/00 RMK AO2
14840KMKG MKG20020925011509309/25/02 01:15:31  5-MIN KMKG 250615Z 11003KT 10SM CLR 06/06 A3034 250 96 -700 120/03 RMK AO2
14840KMKG MKG20020925012009309/25/02 01:20:31  5-MIN KMKG 250620Z 00000KT 10SM CLR 06/06 A3034 240 96 -700 000/00 RMK AO2
14840KMKG MKG20020925012509309/25/02 01:25:31  5-MIN KMKG 250625Z 11003KT 10SM CLR 06/06 A3034 240 96 -700 110/03 RMK AO2
14840KMKG MKG20020925013009309/25/02 01:30:31  5-MIN KMKG 250630Z 00000KT 10SM CLR 06/06 A3035 240 96 -700 000/00 RMK AO2
14840KMKG MKG20020925013509309/25/02 01:35:31  5-MIN KMKG 250635Z 00000KT 10SM CLR 06/05 A3035 240 93 -700 000/00 RMK AO2
14840KMKG MKG20020925014009309/25/02 01:40:31  5-MIN KMKG 250640Z 00000KT 10SM CLR 06/05 A3034 240 93 -700 000/00 RMK AO2
14840KMKG MKG20020925014509309/25/02 01:45:31  5-MIN KMKG 250645Z 00000KT 10SM CLR 06/05 A3034 240 96 -800 000/00 RMK AO2
14840KMKG MKG20020925015011009/25/02 01:50:31  5-MIN KMKG 250650Z 00000KT 10SM CLR 06/05 A3035 240 96 -800 000/00 RMK AO2 SLP280 T00560050
14840KMKG MKG20020925015511009/25/02 01:55:31  5-MIN KMKG 250655Z 00000KT 10SM CLR 06/05 A3035 240 96 -800 000/00 RMK AO2 SLP280 T00560050
14840KMKG MKG20020925020009309/25/02 02:00:31  5-MIN KMKG 250700Z 00000KT 10SM CLR 06/05 A3035 240 93 -700 000/00 RMK AO2
14840KMKG MKG20020925020509309/25/02 02:05:31  5-MIN KMKG 250705Z 00000KT 10SM CLR 06/05 A3035 240 93 -700 000/00 RMK AO2
14840KMKG MKG20020925021009309/25/02 02:10:31  5-MIN KMKG 250710Z 00000KT 10SM CLR 06/05 A3035 230 96 -800 000/00 RMK AO2
14840KMKG MKG20020925021509309/25/02 02:15:31  5-MIN KMKG 250715Z 34003KT 10SM CLR 06/05 A3036 230 96 -800 350/03 RMK AO2
14840KMKG MKG20020925022009309/25/02 02:20:31  5-MIN KMKG 250720Z 00000KT 10SM CLR 06/05 A3036 220 93 -700 000/00 RMK AO2
14840KMKG MKG20020925022509309/25/02 02:25:31  5-MIN KMKG 250725Z 00000KT 10SM CLR 06/05 A3036 220 93 -700 000/00 RMK AO2
14840KMKG MKG20020925023009309/25/02 02:30:31  5-MIN KMKG 250730Z 00000KT 10SM CLR 06/06 A3036 220 96 -700 000/00 RMK AO2
14840KMKG MKG20020925023509309/25/02 02:35:31  5-MIN KMKG 250735Z 00000KT 10SM CLR 06/05 A3036 220 93 -700 000/00 RMK AO2
14840KMKG MKG20020925024009309/25/02 02:40:31  5-MIN KMKG 250740Z 10003KT 10SM CLR 06/06 A3036 220 96 -700 100/03 RMK AO2
14840KMKG MKG20020925024509309/25/02 02:45:31  5-MIN KMKG 250745Z 10004KT 10SM CLR 05/04 A3036 230 96 -800 110/04 RMK AO2
14840KMKG MKG20020925025011109/25/02 02:50:31  5-MIN KMKG 250750Z 09003KT 10SM CLR 04/04 A3036 230 100 -900 100/03 RMK AO2 SLP283 T00440044
14840KMKG MKG20020925025511109/25/02 02:55:31  5-MIN KMKG 250755Z 11003KT 10SM CLR 04/04 A3036 230 100 -900 110/03 RMK AO2 SLP284 T00440044
14840KMKG MKG20020925030009409/25/02 03:00:31  5-MIN KMKG 250800Z 00000KT 10SM CLR 04/04 A3036 230 100 -900 000/00 RMK AO2
14840KMKG MKG20020925030509409/25/02 03:05:31  5-MIN KMKG 250805Z 00000KT 10SM CLR 04/04 A3036 230 100 -900 000/00 RMK AO2
14840KMKG MKG20020925031009309/25/02 03:10:31  5-MIN KMKG 250810Z 00000KT 10SM CLR 05/04 A3036 230 96 -800 000/00 RMK AO2
14840KMKG MKG20020925031509409/25/02 03:15:31  5-MIN KMKG 250815Z 35003KT 10SM CLR 05/05 A3036 220 100 -800 350/03 RMK AO2
14840KMKG MKG20020925032009309/25/02 03:20:31  5-MIN KMKG 250820Z 03003KT 10SM CLR 06/05 A3036 230 96 -800 040/03 RMK AO2
14840KMKG MKG20020925032509309/25/02 03:25:31  5-MIN KMKG 250825Z 00000KT 10SM CLR 06/06 A3036 230 96 -700 000/00 RMK AO2
14840KMKG MKG20020925033009409/25/02 03:30:31  5-MIN KMKG 250830Z 09003KT 10SM CLR 06/06 A3036 230 100 -800 090/03 RMK AO2
14840KMKG MKG20020925033509309/25/02 03:35:31  5-MIN KMKG 250835Z 07003KT 10SM CLR 06/05 A3036 230 96 -800 070/03 RMK AO2
14840KMKG MKG20020925034009409/25/02 03:40:31  5-MIN KMKG 250840Z 07003KT 10SM CLR 06/06 A3036 230 100 -800 080/03 RMK AO2
14840KMKG MKG20020925034509409/25/02 03:45:31  5-MIN KMKG 250845Z 00000KT 10SM CLR 06/06 A3036 230 100 -800 000/00 RMK AO2
14840KMKG MKG20020925035011709/25/02 03:50:31  5-MIN KMKG 250850Z 00000KT 10SM CLR 06/06 A3036 230 100 -800 000/00 RMK AO2 SLP284 T00560056 53003
14840KMKG MKG20020925035511709/25/02 03:55:31  5-MIN KMKG 250855Z 00000KT 10SM CLR 06/06 A3036 230 100 -800 000/00 RMK AO2 SLP284 T00560056 50009
14840KMKG MKG20020925040009309/25/02 04:00:31  5-MIN KMKG 250900Z 00000KT 10SM CLR 06/06 A3036 230 96 -700 000/00 RMK AO2
14840KMKG MKG20020925040509409/25/02 04:05:31  5-MIN KMKG 250905Z 10003KT 10SM CLR 06/06 A3036 220 100 -800 110/03 RMK AO2
14840KMKG MKG20020925041009309/25/02 04:10:31  5-MIN KMKG 250910Z 11003KT 10SM CLR 06/05 A3036 220 96 -800 120/03 RMK AO2
14840KMKG MKG20020925041509309/25/02 04:15:31  5-MIN KMKG 250915Z 12003KT 10SM CLR 05/04 A3036 230 96 -800 120/03 RMK AO2
14840KMKG MKG20020925042009409/25/02 04:20:31  5-MIN KMKG 250920Z 11003KT 10SM CLR 04/04 A3036 220 100 -900 110/03 RMK AO2
14840KMKG MKG20020925042509309/25/02 04:25:31  5-MIN KMKG 250925Z 11003KT 10SM CLR 05/04 A3036 220 96 -800 120/03 RMK AO2
14840KMKG MKG20020925043009409/25/02 04:30:31  5-MIN KMKG 250930Z 12004KT 10SM CLR 05/05 A3036 220 100 -800 130/04 RMK AO2
14840KMKG MKG20020925043509409/25/02 04:35:31  5-MIN KMKG 250935Z 12004KT 10SM CLR 05/05 A3036 220 100 -800 130/04 RMK AO2
14840KMKG MKG20020925044009409/25/02 04:40:31  5-MIN KMKG 250940Z 12004KT 10SM CLR 05/05 A3036 230 100 -800 120/04 RMK AO2
14840KMKG MKG20020925044509409/25/02 04:45:31  5-MIN KMKG 250945Z 10003KT 10SM CLR 05/05 A3036 230 100 -800 100/03 RMK AO2
14840KMKG MKG20020925045011109/25/02 04:50:31  5-MIN KMKG 250950Z 11003KT 10SM CLR 05/05 A3036 230 100 -800 110/03 RMK AO2 SLP283 T00500050
14840KMKG MKG20020925045511109/25/02 04:55:31  5-MIN KMKG 250955Z 12004KT 10SM CLR 05/05 A3036 230 100 -800 120/04 RMK AO2 SLP283 T00500050
14840KMKG MKG20020925050009309/25/02 05:00:31  5-MIN KMKG 251000Z 12006KT 10SM CLR 05/04 A3035 240 96 -800 120/06 RMK AO2
14840KMKG MKG20020925050509409/25/02 05:05:31  5-MIN KMKG 251005Z 11007KT 10SM CLR 05/05 A3035 240 100 -800 120/07 RMK AO2
14840KMKG MKG20020925051009409/25/02 05:10:31  5-MIN KMKG 251010Z 12009KT 10SM CLR 05/05 A3034 240 100 -800 120/09 RMK AO2
14840KMKG MKG20020925051509409/25/02 05:15:31  5-MIN KMKG 251015Z 11007KT 10SM CLR 05/05 A3034 240 100 -800 120/07 RMK AO2
14840KMKG MKG20020925052009409/25/02 05:20:31  5-MIN KMKG 251020Z 12006KT 10SM CLR 05/05 A3034 240 100 -800 120/06 RMK AO2
14840KMKG MKG20020925052509409/25/02 05:25:31  5-MIN KMKG 251025Z 12006KT 10SM CLR 05/05 A3034 240 100 -800 120/06 RMK AO2
14840KMKG MKG20020925053009409/25/02 05:30:31  5-MIN KMKG 251030Z 11007KT 10SM CLR 05/05 A3034 250 100 -800 120/07 RMK AO2
14840KMKG MKG20020925053509409/25/02 05:35:31  5-MIN KMKG 251035Z 12006KT 10SM CLR 05/05 A3034 250 100 -800 120/06 RMK AO2
14840KMKG MKG20020925054009409/25/02 05:40:31  5-MIN KMKG 251040Z 11006KT 10SM CLR 05/05 A3034 250 100 -800 120/06 RMK AO2
14840KMKG MKG20020925054509409/25/02 05:45:31  5-MIN KMKG 251045Z 12005KT 10SM CLR 05/05 A3034 240 100 -800 120/05 RMK AO2
14840KMKG MKG20020925055011109/25/02 05:50:31  5-MIN KMKG 251050Z 11005KT 10SM CLR 05/05 A3034 240 100 -800 110/05 RMK AO2 SLP277 T00500050
14840KMKG MKG20020925055511109/25/02 05:55:31  5-MIN KMKG 251055Z 11006KT 10SM CLR 05/05 A3034 250 100 -800 110/06 RMK AO2 SLP276 T00500050
14840KMKG MKG20020925060009409/25/02 06:00:31  5-MIN KMKG 251100Z 11006KT 10SM CLR 05/05 A3034 250 100 -800 120/06 RMK AO2
14840KMKG MKG20020925060509409/25/02 06:05:31  5-MIN KMKG 251105Z 11006KT 10SM CLR 05/05 A3034 240 100 -800 120/06 RMK AO2
14840KMKG MKG20020925061009309/25/02 06:10:31  5-MIN KMKG 251110Z 11006KT 10SM CLR 05/04 A3034 250 96 -800 120/06 RMK AO2
14840KMKG MKG20020925061509409/25/02 06:15:31  5-MIN KMKG 251115Z 11008KT 10SM CLR 05/05 A3033 250 100 -800 120/08 RMK AO2
14840KMKG MKG20020925062009409/25/02 06:20:31  5-MIN KMKG 251120Z 12008KT 10SM CLR 05/05 A3033 250 100 -800 120/08 RMK AO2
14840KMKG MKG20020925062509409/25/02 06:25:31  5-MIN KMKG 251125Z 12007KT 10SM CLR 05/05 A3033 250 100 -800 120/07 RMK AO2
14840KMKG MKG20020925063009409/25/02 06:30:31  5-MIN KMKG 251130Z 12007KT 10SM CLR 05/05 A3033 250 100 -800 130/07 RMK AO2
14840KMKG MKG20020925063509309/25/02 06:35:31  5-MIN KMKG 251135Z 12006KT 10SM CLR 06/05 A3034 250 96 -700 120/06 RMK AO2
14840KMKG MKG20020925064009309/25/02 06:40:31  5-MIN KMKG 251140Z 12005KT 10SM CLR 06/05 A3034 250 96 -700 120/05 RMK AO2
14840KMKG MKG20020925064509309/25/02 06:45:31  5-MIN KMKG 251145Z 11007KT 10SM CLR 06/05 A3033 250 96 -700 120/07 RMK AO2
14840KMKG MKG20020925065012809/25/02 06:50:31  5-MIN KMKG 251150Z 11007KT 10SM CLR 06/05 A3033 260 96 -700 120/07 RMK AO2 SLP274 T00560050 10061 20044 50009
14840KMKG MKG20020925065512809/25/02 06:55:31  5-MIN KMKG 251155Z 12007KT 10SM CLR 06/05 A3033 260 96 -700 120/07 RMK AO2 SLP274 T00560050 10061 20044 58011
14840KMKG MKG20020925070009409/25/02 07:00:31  5-MIN KMKG 251200Z 12005KT 10SM CLR 06/06 A3033 250 100 -700 120/05 RMK AO2
14840KMKG MKG20020925070509409/25/02 07:05:31  5-MIN KMKG 251205Z 11004KT 10SM CLR 06/06 A3034 250 100 -700 120/04 RMK AO2
14840KMKG MKG20020925071009309/25/02 07:10:31  5-MIN KMKG 251210Z 11004KT 10SM CLR 06/06 A3033 250 96 -700 110/04 RMK AO2
14840KMKG MKG20020925071509409/25/02 07:15:31  5-MIN KMKG 251215Z 11004KT 10SM CLR 06/06 A3033 250 100 -700 110/04 RMK AO2
14840KMKG MKG20020925072009309/25/02 07:20:31  5-MIN KMKG 251220Z 10004KT 10SM CLR 07/06 A3034 250 96 -600 100/04 RMK AO2
14840KMKG MKG20020925072509309/25/02 07:25:31  5-MIN KMKG 251225Z 09003KT 10SM CLR 07/06 A3034 240 93 -500 090/03 RMK AO2
14840KMKG MKG20020925073009309/25/02 07:30:31  5-MIN KMKG 251230Z 10004KT 10SM CLR 07/06 A3034 250 93 -500 100/04 RMK AO2
14840KMKG MKG20020925073509309/25/02 07:35:31  5-MIN KMKG 251235Z 11008KT 10SM CLR 07/06 A3033 260 93 -500 120/08 RMK AO2
14840KMKG MKG20020925074009309/25/02 07:40:31  5-MIN KMKG 251240Z 12008KT 10SM CLR 08/07 A3032 260 93 -500 120/08 RMK AO2
14840KMKG MKG20020925074509309/25/02 07:45:31  5-MIN KMKG 251245Z 11005KT 10SM CLR 08/07 A3033 250 93 -500 110/05 RMK AO2
14840KMKG MKG20020925075011009/25/02 07:50:31  5-MIN KMKG 251250Z 12006KT 10SM CLR 08/07 A3033 250 93 -400 120/06 RMK AO2 SLP275 T00830072
14840KMKG MKG20020925075511009/25/02 07:55:31  5-MIN KMKG 251255Z 11005KT 10SM CLR 08/07 A3033 250 93 -400 110/05 RMK AO2 SLP275 T00830072
14840KMKG MKG20020925080009309/25/02 08:00:31  5-MIN KMKG 251300Z 11005KT 10SM CLR 08/07 A3033 250 93 -400 120/05 RMK AO2
14840KMKG MKG20020925080509309/25/02 08:05:31  5-MIN KMKG 251305Z 11005KT 10SM CLR 09/07 A3034 250 89 -300 120/05 RMK AO2
14840KMKG MKG20020925081009309/25/02 08:10:31  5-MIN KMKG 251310Z 10005KT 10SM CLR 09/07 A3034 250 89 -300 110/05 RMK AO2
14840KMKG MKG20020925081509309/25/02 08:15:31  5-MIN KMKG 251315Z 11006KT 10SM CLR 09/07 A3034 250 86 -300 110/06 RMK AO2
14840KMKG MKG20020925082009309/25/02 08:20:31  5-MIN KMKG 251320Z 11005KT 10SM CLR 09/07 A3034 250 86 -300 110/05 RMK AO2
14840KMKG MKG20020925082509309/25/02 08:25:31  5-MIN KMKG 251325Z 11006KT 10SM CLR 10/08 A3033 250 86 -200 110/06 RMK AO2
14840KMKG MKG20020925083009309/25/02 08:30:31  5-MIN KMKG 251330Z 11006KT 10SM CLR 10/08 A3033 250 86 -200 110/06 RMK AO2
14840KMKG MKG20020925083509309/25/02 08:35:31  5-MIN KMKG 251335Z 11006KT 10SM CLR 11/08 A3033 250 83 -100 110/06 RMK AO2
14840KMKG MKG20020925084009309/25/02 08:40:31  5-MIN KMKG 251340Z 11007KT 10SM CLR 11/08 A3033 250 83 -100 120/07 RMK AO2
14840KMKG MKG20020925084509309/25/02 08:45:31  5-MIN KMKG 251345Z 12008KT 10SM CLR 11/08 A3033 250 83 -100 130/08 RMK AO2
14840KMKG MKG20020925085011009/25/02 08:50:31  5-MIN KMKG 251350Z 12008KT 10SM CLR 11/08 A3033 260 83 -100 130/08 RMK AO2 SLP272 T01110083
14840KMKG MKG20020925085510709/25/02 08:55:31  5-MIN KMKG 251355Z 12007KT 10SM CLR 12/08 A3033 260 80 0 120/07 RMK AO2 SLP272 T01170083
14840KMKG MKG20020925090009009/25/02 09:00:31  5-MIN KMKG 251400Z 12007KT 10SM CLR 12/08 A3033 260 80 0 120/07 RMK AO2
14840KMKG MKG20020925090509009/25/02 09:05:31  5-MIN KMKG 251405Z 12007KT 10SM CLR 12/08 A3033 250 77 0 120/07 RMK AO2
14840KMKG MKG20020925091009009/25/02 09:10:31  5-MIN KMKG 251410Z 12006KT 10SM CLR 12/08 A3033 250 77 0 120/06 RMK AO2
14840KMKG MKG20020925091509209/25/02 09:15:31  5-MIN KMKG 251415Z 12006KT 10SM CLR 13/08 A3033 260 74 100 120/06 RMK AO2
14840KMKG MKG20020925092009209/25/02 09:20:31  5-MIN KMKG 251420Z 12008KT 10SM CLR 13/08 A3032 260 71 200 130/08 RMK AO2
14840KMKG MKG20020925092509209/25/02 09:25:31  5-MIN KMKG 251425Z 12008KT 10SM CLR 13/08 A3032 260 71 200 130/08 RMK AO2
14840KMKG MKG20020925093009209/25/02 09:30:31  5-MIN KMKG 251430Z 12009KT 10SM CLR 13/08 A3032 260 71 200 120/09 RMK AO2
14840KMKG MKG20020925093509209/25/02 09:35:31  5-MIN KMKG 251435Z 13008KT 10SM CLR 14/08 A3032 260 69 200 130/08 RMK AO2
14840KMKG MKG20020925094009209/25/02 09:40:31  5-MIN KMKG 251440Z 13007KT 10SM CLR 14/08 A3032 260 69 200 140/07 RMK AO2
14840KMKG MKG20020925094509209/25/02 09:45:31  5-MIN KMKG 251445Z 13007KT 10SM CLR 14/08 A3032 260 66 300 130/07 RMK AO2
14840KMKG MKG20020925095011509/25/02 09:50:31  5-MIN KMKG 251450Z 12009KT 10SM CLR 14/08 A3032 260 66 300 120/09 RMK AO2 SLP268 T01440083 58011
14840KMKG MKG20020925095511509/25/02 09:55:31  5-MIN KMKG 251455Z 12010KT 10SM CLR 15/08 A3031 270 64 400 120/10 RMK AO2 SLP267 T01500083 58004
14840KMKG MKG20020925100009209/25/02 10:00:31  5-MIN KMKG 251500Z 12012KT 10SM CLR 16/08 A3031 270 62 400 130/12 RMK AO2
14840KMKG MKG20020925100509209/25/02 10:05:31  5-MIN KMKG 251505Z 12010KT 10SM CLR 16/08 A3031 280 62 400 130/10 RMK AO2
14840KMKG MKG20020925101009209/25/02 10:10:31  5-MIN KMKG 251510Z 14009KT 10SM CLR 16/08 A3031 270 62 400 150/09 RMK AO2
14840KMKG MKG20020925101509209/25/02 10:15:31  5-MIN KMKG 251515Z 15010KT 10SM CLR 16/08 A3031 270 59 500 160/10 RMK AO2
14840KMKG MKG20020925102009209/25/02 10:20:31  5-MIN KMKG 251520Z 14009KT 10SM CLR 16/08 A3031 280 59 500 140/09 RMK AO2
14840KMKG MKG20020925102509209/25/02 10:25:31  5-MIN KMKG 251525Z 13011KT 10SM CLR 16/08 A3031 280 59 500 140/11 RMK AO2
14840KMKG MKG20020925103009209/25/02 10:30:31  5-MIN KMKG 251530Z 14008KT 10SM CLR 17/08 A3031 270 57 600 140/08 RMK AO2
14840KMKG MKG20020925103509209/25/02 10:35:31  5-MIN KMKG 251535Z 15008KT 10SM CLR 17/08 A3031 270 57 600 160/08 RMK AO2
14840KMKG MKG20020925104009209/25/02 10:40:31  5-MIN KMKG 251540Z 14009KT 10SM CLR 17/08 A3031 270 57 600 150/09 RMK AO2
14840KMKG MKG20020925104509209/25/02 10:45:31  5-MIN KMKG 251545Z 15008KT 10SM CLR 17/08 A3031 270 57 600 150/08 RMK AO2
14840KMKG MKG20020925105010909/25/02 10:50:31  5-MIN KMKG 251550Z 15009KT 10SM CLR 17/08 A3031 280 57 600 150/09 RMK AO2 SLP264 T01670083
14840KMKG MKG20020925105510909/25/02 10:55:31  5-MIN KMKG 251555Z 14008KT 10SM CLR 17/08 A3030 280 55 600 140/08 RMK AO2 SLP264 T01720083
14840KMKG MKG20020925110009209/25/02 11:00:31  5-MIN KMKG 251600Z 16011KT 10SM CLR 17/08 A3030 280 53 600 160/11 RMK AO2
14840KMKG MKG20020925110509209/25/02 11:05:31  5-MIN KMKG 251605Z 14010KT 10SM CLR 18/08 A3030 280 53 700 140/10 RMK AO2
14840KMKG MKG20020925111009209/25/02 11:10:31  5-MIN KMKG 251610Z 14010KT 10SM CLR 17/08 A3030 280 55 600 150/10 RMK AO2
14840KMKG MKG20020925111509209/25/02 11:15:31  5-MIN KMKG 251615Z 16010KT 10SM CLR 17/08 A3030 280 55 700 170/10 RMK AO2
14840KMKG MKG20020925112009209/25/02 11:20:31  5-MIN KMKG 251620Z 15011KT 10SM CLR 18/08 A3030 290 51 700 160/11 RMK AO2
14840KMKG MKG20020925112509209/25/02 11:25:31  5-MIN KMKG 251625Z 16009KT 10SM CLR 18/08 A3029 290 51 700 160/09 RMK AO2
14840KMKG MKG20020925113009209/25/02 11:30:31  5-MIN KMKG 251630Z 16007KT 10SM CLR 18/08 A3029 290 51 700 160/07 RMK AO2
14840KMKG MKG20020925113509209/25/02 11:35:31  5-MIN KMKG 251635Z 14005KT 10SM CLR 18/09 A3029 290 54 800 140/05 RMK AO2
14840KMKG MKG20020925114009209/25/02 11:40:31  5-MIN KMKG 251640Z 18008KT 10SM CLR 18/08 A3029 290 52 800 190/08 RMK AO2
14840KMKG MKG20020925114509209/25/02 11:45:31  5-MIN KMKG 251645Z 18008KT 10SM CLR 18/08 A3029 290 50 800 180/08 RMK AO2
14840KMKG MKG20020925115010909/25/02 11:50:31  5-MIN KMKG 251650Z 13011KT 10SM CLR 18/08 A3028 300 50 800 130/11 RMK AO2 SLP257 T01830078
14840KMKG MKG20020925115510909/25/02 11:55:31  5-MIN KMKG 251655Z 13010KT 10SM CLR 18/08 A3028 300 50 800 130/10 RMK AO2 SLP256 T01830078
14840KMKG MKG20020925120009209/25/02 12:00:31  5-MIN KMKG 251700Z 17006KT 10SM CLR 18/07 A3028 300 48 800 170/06 RMK AO2
14840KMKG MKG20020925120510809/25/02 12:05:31  5-MIN KMKG 251705Z 12009KT 090V160 10SM CLR 18/08 A3027 310 50 800 120/09 090V160 RMK AO2
14840KMKG MKG20020925121009209/25/02 12:10:31  5-MIN KMKG 251710Z 15008KT 10SM CLR 18/07 A3027 310 46 800 160/08 RMK AO2
14840KMKG MKG20020925121509209/25/02 12:15:31  5-MIN KMKG 251715Z 19009KT 10SM CLR 19/08 A3027 310 48 900 190/09 RMK AO2
14840KMKG MKG20020925122009209/25/02 12:20:31  5-MIN KMKG 251720Z VRB06KT 10SM CLR 19/08 A3026 320 48 900 VRB/06 RMK AO2
14840KMKG MKG20020925122510809/25/02 12:25:31  5-MIN KMKG 251725Z 16007KT 120V210 10SM CLR 19/08 A3026 320 48 900 170/07 120V210 RMK AO2
14840KMKG MKG20020925123009209/25/02 12:30:31  5-MIN KMKG 251730Z 12006KT 10SM CLR 19/07 A3025 320 46 900 120/06 RMK AO2
14840KMKG MKG20020925123509209/25/02 12:35:31  5-MIN KMKG 251735Z 13007KT 10SM CLR 19/08 A3025 320 48 900 130/07 RMK AO2
14840KMKG MKG20020925124009309/25/02 12:40:31  5-MIN KMKG 251740Z 16008KT 10SM CLR 19/07 A3025 320 44 1000 160/08 RMK AO2
14840KMKG MKG20020925124510909/25/02 12:45:31  5-MIN KMKG 251745Z 15007KT 110V180 10SM CLR 19/08 A3025 330 46 1000 150/07 110V180 RMK AO2
14840KMKG MKG20020925125014409/25/02 12:50:31  5-MIN KMKG 251750Z 15007KT 110V190 10SM CLR 20/08 A3025 320 45 1000 150/07 110V190 RMK AO2 SLP246 T02000078 10200 20056 58004
14840KMKG MKG20020925125512809/25/02 12:55:31  5-MIN KMKG 251755Z 12007KT 10SM CLR 19/08 A3025 330 46 1000 120/07 RMK AO2 SLP245 T01940078 10200 20056 58022
14840KMKG MKG20020925130010909/25/02 13:00:31  5-MIN KMKG 251800Z 14011KT 110V170 10SM CLR 20/08 A3024 330 45 1000 150/11 110V170 RMK AO2
14840KMKG MKG20020925130509309/25/02 13:05:31  5-MIN KMKG 251805Z 11005KT 10SM CLR 20/08 A3024 340 45 1000 110/05 RMK AO2
14840KMKG MKG20020925131009309/25/02 13:10:31  5-MIN KMKG 251810Z VRB04KT 10SM CLR 19/07 A3024 340 44 1000 VRB/04 RMK AO2
14840KMKG MKG20020925131509309/25/02 13:15:31  5-MIN KMKG 251815Z 19005KT 10SM CLR 19/09 A3024 340 50 1000 190/05 RMK AO2
14840KMKG MKG20020925132009309/25/02 13:20:31  5-MIN KMKG 251820Z 20006KT 10SM CLR 19/09 A3024 340 50 1000 200/06 RMK AO2
14840KMKG MKG20020925132509309/25/02 13:25:31  5-MIN KMKG 251825Z 22008KT 10SM CLR 19/09 A3023 340 52 1000 230/08 RMK AO2
14840KMKG MKG20020925133009309/25/02 13:30:31  5-MIN KMKG 251830Z 24008KT 10SM CLR 19/09 A3023 340 52 1000 240/08 RMK AO2
14840KMKG MKG20020925133509309/25/02 13:35:31  5-MIN KMKG 251835Z 24007KT 10SM CLR 20/10 A3023 350 52 1000 240/07 RMK AO2
14840KMKG MKG20020925134009309/25/02 13:40:31  5-MIN KMKG 251840Z 23009KT 10SM CLR 20/10 A3023 350 52 1100 230/09 RMK AO2
14840KMKG MKG20020925134509209/25/02 13:45:31  5-MIN KMKG 251845Z 23008KT 10SM CLR 19/09 A3023 350 54 900 230/08 RMK AO2
14840KMKG MKG20020925135011009/25/02 13:50:31  5-MIN KMKG 251850Z 23007KT 10SM CLR 19/10 A3023 350 54 1000 240/07 RMK AO2 SLP238 T01940100
14840KMKG MKG20020925135511009/25/02 13:55:31  5-MIN KMKG 251855Z 25007KT 10SM CLR 19/10 A3023 350 54 1000 260/07 RMK AO2 SLP238 T01940100
14840KMKG MKG20020925140009309/25/02 14:00:31  5-MIN KMKG 251900Z 23008KT 10SM CLR 19/10 A3023 350 54 1000 230/08 RMK AO2
14840KMKG MKG20020925140509309/25/02 14:05:31  5-MIN KMKG 251905Z 23006KT 10SM CLR 19/10 A3022 350 54 1000 240/06 RMK AO2
14840KMKG MKG20020925141009209/25/02 14:10:31  5-MIN KMKG 251910Z 23006KT 10SM CLR 19/09 A3022 350 54 900 240/06 RMK AO2
14840KMKG MKG20020925141509309/25/02 14:15:31  5-MIN KMKG 251915Z 21009KT 10SM CLR 19/09 A3022 360 52 1000 210/09 RMK AO2
14840KMKG MKG20020925142009309/25/02 14:20:31  5-MIN KMKG 251920Z 20006KT 10SM CLR 19/09 A3022 360 52 1000 210/06 RMK AO2
14840KMKG MKG20020925142509309/25/02 14:25:31  5-MIN KMKG 251925Z 23009KT 10SM CLR 20/10 A3022 360 52 1100 230/09 RMK AO2
14840KMKG MKG20020925143009309/25/02 14:30:31  5-MIN KMKG 251930Z 24007KT 10SM CLR 19/10 A3022 360 54 1000 240/07 RMK AO2
14840KMKG MKG20020925143509309/25/02 14:35:31  5-MIN KMKG 251935Z 22007KT 10SM CLR 19/10 A3022 360 54 1000 220/07 RMK AO2
14840KMKG MKG20020925144009309/25/02 14:40:31  5-MIN KMKG 251940Z 23008KT 10SM CLR 19/09 A3021 360 52 1000 230/08 RMK AO2
14840KMKG MKG20020925144509309/25/02 14:45:31  5-MIN KMKG 251945Z 22006KT 10SM CLR 19/09 A3021 360 52 1000 230/06 RMK AO2
14840KMKG MKG20020925145011009/25/02 14:50:31  5-MIN KMKG 251950Z 23007KT 10SM CLR 19/10 A3021 360 54 1000 240/07 RMK AO2 SLP232 T01940100
14840KMKG MKG20020925145511009/25/02 14:55:31  5-MIN KMKG 251955Z 24009KT 10SM CLR 19/10 A3021 360 54 1000 240/09 RMK AO2 SLP232 T01940100
14840KMKG MKG20020925150009309/25/02 15:00:31  5-MIN KMKG 252000Z 25007KT 10SM CLR 19/10 A3021 370 54 1000 250/07 RMK AO2
14840KMKG MKG20020925150509309/25/02 15:05:31  5-MIN KMKG 252005Z 22008KT 10SM CLR 19/10 A3021 370 54 1000 230/08 RMK AO2
14840KMKG MKG20020925151009309/25/02 15:10:31  5-MIN KMKG 252010Z 24006KT 10SM CLR 19/10 A3020 370 54 1000 240/06 RMK AO2
14840KMKG MKG20020925151509309/25/02 15:15:31  5-MIN KMKG 252015Z VRB06KT 10SM CLR 19/10 A3020 370 54 1000 VRB/06 RMK AO2
14840KMKG MKG20020925152009309/25/02 15:20:31  5-MIN KMKG 252020Z 23006KT 10SM CLR 19/10 A3020 370 54 1000 240/06 RMK AO2
14840KMKG MKG20020925152509309/25/02 15:25:31  5-MIN KMKG 252025Z 24007KT 10SM CLR 19/09 A3020 370 52 1000 240/07 RMK AO2
14840KMKG MKG20020925153009309/25/02 15:30:31  5-MIN KMKG 252030Z 25006KT 10SM CLR 19/09 A3020 370 52 1000 250/06 RMK AO2
14840KMKG MKG20020925153509309/25/02 15:35:31  5-MIN KMKG 252035Z VRB06KT 10SM CLR 19/09 A3020 380 52 1000 VRB/06 RMK AO2
14840KMKG MKG20020925154009309/25/02 15:40:31  5-MIN KMKG 252040Z 24005KT 10SM CLR 19/09 A3020 380 52 1000 240/05 RMK AO2
14840KMKG MKG20020925154509309/25/02 15:45:31  5-MIN KMKG 252045Z 26006KT 10SM CLR 19/10 A3019 380 54 1000 260/06 RMK AO2
14840KMKG MKG20020925155011609/25/02 15:50:31  5-MIN KMKG 252050Z 27007KT 10SM CLR 19/10 A3019 380 54 1000 280/07 RMK AO2 SLP226 T01940100 58022
14840KMKG MKG20020925155511609/25/02 15:55:31  5-MIN KMKG 252055Z 26006KT 10SM CLR 19/10 A3019 380 54 1000 260/06 RMK AO2 SLP225 T01940100 58019
14840KMKG MKG20020925160009309/25/02 16:00:31  5-MIN KMKG 252100Z 23007KT 10SM CLR 19/10 A3019 380 54 1000 230/07 RMK AO2
14840KMKG MKG20020925160509309/25/02 16:05:31  5-MIN KMKG 252105Z 26006KT 10SM CLR 19/10 A3019 380 56 1000 260/06 RMK AO2
14840KMKG MKG20020925161009309/25/02 16:10:31  5-MIN KMKG 252110Z 25006KT 10SM CLR 19/10 A3019 380 54 1000 250/06 RMK AO2
14840KMKG MKG20020925161509309/25/02 16:15:31  5-MIN KMKG 252115Z VRB05KT 10SM CLR 19/09 A3019 380 54 1000 VRB/05 RMK AO2
14840KMKG MKG20020925162009309/25/02 16:20:31  5-MIN KMKG 252120Z 24004KT 10SM CLR 19/10 A3019 390 54 1000 240/04 RMK AO2
14840KMKG MKG20020925162509309/25/02 16:25:31  5-MIN KMKG 252125Z 27004KT 10SM CLR 19/10 A3018 390 56 1000 270/04 RMK AO2
14840KMKG MKG20020925163009309/25/02 16:30:31  5-MIN KMKG 252130Z VRB04KT 10SM CLR 19/10 A3018 390 54 1000 VRB/04 RMK AO2
14840KMKG MKG20020925163509309/25/02 16:35:31  5-MIN KMKG 252135Z VRB03KT 10SM CLR 19/10 A3018 390 56 1000 VRB/03 RMK AO2
14840KMKG MKG20020925164009309/25/02 16:40:31  5-MIN KMKG 252140Z 27003KT 10SM CLR 19/10 A3018 390 54 1000 280/03 RMK AO2
14840KMKG MKG20020925164509309/25/02 16:45:31  5-MIN KMKG 252145Z 26003KT 10SM CLR 19/10 A3018 390 54 1000 270/03 RMK AO2
14840KMKG MKG20020925165011009/25/02 16:50:31  5-MIN KMKG 252150Z 22003KT 10SM CLR 19/10 A3018 400 56 1000 230/03 RMK AO2 SLP220 T01890100
14840KMKG MKG20020925165511009/25/02 16:55:31  5-MIN KMKG 252155Z 26003KT 10SM CLR 19/10 A3017 400 56 1000 260/03 RMK AO2 SLP220 T01890100
14840KMKG MKG20020925170009309/25/02 17:00:31  5-MIN KMKG 252200Z 22004KT 10SM CLR 19/10 A3018 390 56 1000 230/04 RMK AO2
14840KMKG MKG20020925170509309/25/02 17:05:31  5-MIN KMKG 252205Z 21003KT 10SM CLR 19/10 A3017 400 56 1000 210/03 RMK AO2
14840KMKG MKG20020925171009309/25/02 17:10:31  5-MIN KMKG 252210Z 00000KT 10SM CLR 19/10 A3017 400 56 1000 000/00 RMK AO2
14840KMKG MKG20020925171509309/25/02 17:15:31  5-MIN KMKG 252215Z 00000KT 10SM CLR 19/10 A3017 400 56 1000 000/00 RMK AO2
14840KMKG MKG20020925172009309/25/02 17:20:31  5-MIN KMKG 252220Z 00000KT 10SM CLR 19/10 A3017 400 56 1000 000/00 RMK AO2
14840KMKG MKG20020925172509309/25/02 17:25:31  5-MIN KMKG 252225Z 00000KT 10SM CLR 19/11 A3017 400 58 1000 000/00 RMK AO2
14840KMKG MKG20020925173009309/25/02 17:30:31  5-MIN KMKG 252230Z 27003KT 10SM CLR 19/10 A3017 400 56 1000 270/03 RMK AO2
14840KMKG MKG20020925173509309/25/02 17:35:31  5-MIN KMKG 252235Z 28003KT 10SM CLR 19/10 A3017 400 56 1000 280/03 RMK AO2
14840KMKG MKG20020925174009209/25/02 17:40:31  5-MIN KMKG 252240Z 29003KT 10SM CLR 18/11 A3017 400 62 900 290/03 RMK AO2
14840KMKG MKG20020925174509209/25/02 17:45:31  5-MIN KMKG 252245Z 00000KT 10SM CLR 18/11 A3016 410 60 900 000/00 RMK AO2
14840KMKG MKG20020925175010909/25/02 17:50:31  5-MIN KMKG 252250Z 00000KT 10SM CLR 18/11 A3016 410 60 900 000/00 RMK AO2 SLP216 T01830106
14840KMKG MKG20020925175510909/25/02 17:55:31  5-MIN KMKG 252255Z 29003KT 10SM CLR 18/11 A3016 410 64 900 300/03 RMK AO2 SLP215 T01780111
14840KMKG MKG20020925180009209/25/02 18:00:31  5-MIN KMKG 252300Z 27004KT 10SM CLR 18/11 A3016 410 64 900 280/04 RMK AO2
14840KMKG MKG20020925180509209/25/02 18:05:31  5-MIN KMKG 252305Z 26003KT 10SM CLR 17/11 A3016 410 67 800 270/03 RMK AO2
14840KMKG MKG20020925181009209/25/02 18:10:31  5-MIN KMKG 252310Z 28003KT 10SM CLR 17/11 A3016 410 67 800 280/03 RMK AO2
14840KMKG MKG20020925181509209/25/02 18:15:31  5-MIN KMKG 252315Z 00000KT 10SM CLR 17/11 A3016 410 67 800 000/00 RMK AO2
14840KMKG MKG20020925182009209/25/02 18:20:31  5-MIN KMKG 252320Z 27003KT 10SM CLR 17/11 A3016 410 67 800 270/03 RMK AO2
14840KMKG MKG20020925182509209/25/02 18:25:31  5-MIN KMKG 252325Z 29003KT 10SM CLR 17/12 A3016 410 72 700 300/03 RMK AO2
14840KMKG MKG20020925183009209/25/02 18:30:31  5-MIN KMKG 252330Z 29004KT 10SM CLR 16/11 A3017 400 72 700 290/04 RMK AO2
14840KMKG MKG20020925183509209/25/02 18:35:31  5-MIN KMKG 252335Z 29004KT 10SM CLR 16/11 A3017 400 72 700 300/04 RMK AO2
14840KMKG MKG20020925184009209/25/02 18:40:31  5-MIN KMKG 252340Z 29004KT 10SM CLR 16/11 A3017 400 72 700 290/04 RMK AO2
14840KMKG MKG20020925184509209/25/02 18:45:31  5-MIN KMKG 252345Z 28003KT 10SM CLR 16/11 A3017 400 72 700 290/03 RMK AO2
14840KMKG MKG20020925185012709/25/02 18:50:31  5-MIN KMKG 252350Z 29003KT 10SM CLR 16/11 A3017 400 74 600 300/03 RMK AO2 SLP218 T01560111 10200 20156 58019
14840KMKG MKG20020925185512709/25/02 18:55:31  5-MIN KMKG 252355Z 00000KT 10SM CLR 15/11 A3017 400 77 500 000/00 RMK AO2 SLP218 T01500111 10200 20150 55008
14840KMKG MKG20020925190009209/25/02 19:00:31  5-MIN KMKG 260000Z 00000KT 10SM CLR 16/12 A3017 400 77 600 000/00 RMK AO2
14840KMKG MKG20020925190509209/25/02 19:05:31  5-MIN KMKG 260005Z 00000KT 10SM CLR 16/12 A3016 410 77 600 000/00 RMK AO2
14840KMKG MKG20020925191009209/25/02 19:10:31  5-MIN KMKG 260010Z 00000KT 10SM CLR 15/12 A3017 400 80 500 000/00 RMK AO2
14840KMKG MKG20020925191509209/25/02 19:15:31  5-MIN KMKG 260015Z 00000KT 10SM CLR 15/12 A3017 400 80 500 000/00 RMK AO2
14840KMKG MKG20020925192009209/25/02 19:20:31  5-MIN KMKG 260020Z 00000KT 10SM CLR 14/12 A3017 400 83 500 000/00 RMK AO2
14840KMKG MKG20020925192509209/25/02 19:25:31  5-MIN KMKG 260025Z 00000KT 10SM CLR 14/12 A3017 400 83 500 000/00 RMK AO2
14840KMKG MKG20020925193009209/25/02 19:30:31  5-MIN KMKG 260030Z 00000KT 10SM CLR 14/11 A3017 400 83 400 000/00 RMK AO2
14840KMKG MKG20020925193509209/25/02 19:35:31  5-MIN KMKG 260035Z 00000KT 10SM CLR 14/11 A3017 400 83 400 000/00 RMK AO2
14840KMKG MKG20020925194009209/25/02 19:40:31  5-MIN KMKG 260040Z 00000KT 10SM CLR 14/12 A3017 400 86 400 000/00 RMK AO2
14840KMKG MKG20020925194509209/25/02 19:45:31  5-MIN KMKG 260045Z 00000KT 10SM CLR 14/12 A3017 400 86 400 000/00 RMK AO2
14840KMKG MKG20020925195010909/25/02 19:50:31  5-MIN KMKG 260050Z 00000KT 10SM CLR 14/12 A3017 400 86 400 000/00 RMK AO2 SLP220 T01390117
14840KMKG MKG20020925195510909/25/02 19:55:31  5-MIN KMKG 260055Z 00000KT 10SM CLR 14/12 A3018 390 86 400 000/00 RMK AO2 SLP220 T01390117
14840KMKG MKG20020925200009209/25/02 20:00:31  5-MIN KMKG 260100Z 00000KT 10SM CLR 14/12 A3018 390 86 400 000/00 RMK AO2
14840KMKG MKG20020925200509209/25/02 20:05:31  5-MIN KMKG 260105Z 00000KT 10SM CLR 13/11 A3018 390 86 300 000/00 RMK AO2
14840KMKG MKG20020925201009209/25/02 20:10:31  5-MIN KMKG 260110Z 00000KT 10SM CLR 12/11 A3017 400 89 200 000/00 RMK AO2
14840KMKG MKG20020925201509209/25/02 20:15:31  5-MIN KMKG 260115Z 00000KT 10SM CLR 13/11 A3017 400 89 300 000/00 RMK AO2
14840KMKG MKG20020925202009209/25/02 20:20:31  5-MIN KMKG 260120Z 00000KT 10SM CLR 12/11 A3017 400 93 200 000/00 RMK AO2
14840KMKG MKG20020925202509209/25/02 20:25:31  5-MIN KMKG 260125Z 00000KT 10SM CLR 12/11 A3017 400 93 200 000/00 RMK AO2
14840KMKG MKG20020925203009209/25/02 20:30:31  5-MIN KMKG 260130Z 00000KT 10SM CLR 12/11 A3018 390 93 200 000/00 RMK AO2
14840KMKG MKG20020925203509209/25/02 20:35:31  5-MIN KMKG 260135Z 00000KT 10SM CLR 12/11 A3017 400 93 200 000/00 RMK AO2
14840KMKG MKG20020925204009209/25/02 20:40:31  5-MIN KMKG 260140Z 00000KT 10SM CLR 13/11 A3017 400 89 300 000/00 RMK AO2
14840KMKG MKG20020925204509209/25/02 20:45:31  5-MIN KMKG 260145Z 00000KT 10SM CLR 13/11 A3017 400 89 300 000/00 RMK AO2
14840KMKG MKG20020925205010909/25/02 20:50:31  5-MIN KMKG 260150Z 00000KT 10SM CLR 12/11 A3017 400 93 200 000/00 RMK AO2 SLP218 T01220111
14840KMKG MKG20020925205510909/25/02 20:55:31  5-MIN KMKG 260155Z 00000KT 10SM CLR 13/11 A3017 400 89 300 000/00 RMK AO2 SLP218 T01280111
14840KMKG MKG20020925210009209/25/02 21:00:31  5-MIN KMKG 260200Z 00000KT 10SM CLR 12/11 A3017 400 93 200 000/00 RMK AO2
14840KMKG MKG20020925210509209/25/02 21:05:31  5-MIN KMKG 260205Z 00000KT 10SM CLR 12/11 A3017 400 93 200 000/00 RMK AO2
14840KMKG MKG20020925211009209/25/02 21:10:31  5-MIN KMKG 260210Z 00000KT 10SM CLR 12/11 A3017 400 93 200 000/00 RMK AO2
14840KMKG MKG20020925211509209/25/02 21:15:31  5-MIN KMKG 260215Z 09004KT 10SM CLR 12/11 A3016 410 93 200 100/04 RMK AO2
14840KMKG MKG20020925212008009/25/02 21:20:31  5-MIN KMKG 260220Z 10SM 12/11 A3015 420 93 200 M /M RMK AO2 $
14840KMKG MKG20020925212509409/25/02 21:25:31  5-MIN KMKG 260225Z 12006KT 10SM CLR 12/11 A3015 420 96 200 130/06 RMK AO2 $
14840KMKG MKG20020925213009409/25/02 21:30:31  5-MIN KMKG 260230Z 11006KT 10SM CLR 12/11 A3015 420 96 200 120/06 RMK AO2 $
14840KMKG MKG20020925213509409/25/02 21:35:31  5-MIN KMKG 260235Z 10005KT 10SM CLR 12/11 A3015 420 96 200 110/05 RMK AO2 $
14840KMKG MKG20020925214009409/25/02 21:40:31  5-MIN KMKG 260240Z 11004KT 10SM CLR 11/11 A3014 420 96 100 110/04 RMK AO2 $
14840KMKG MKG20020925214509409/25/02 21:45:31  5-MIN KMKG 260245Z 12004KT 10SM CLR 12/11 A3014 430 93 200 120/04 RMK AO2 $
14840KMKG MKG20020925215012309/25/02 21:50:31  5-MIN KMKG 260250Z 12003KT 10SM CLR 12/11 A3014 430 93 200 120/03 RMK AO2 SLP208 6//// T01170106 55008 $
14840KMKG MKG20020925215511709/25/02 21:55:31  5-MIN KMKG 260255Z 00000KT 10SM CLR 11/11 A3014 420 96 100 000/00 RMK AO2 SLP208 T01110106 58008 $
14840KMKG MKG20020925220009409/25/02 22:00:31  5-MIN KMKG 260300Z 00000KT 10SM CLR 11/11 A3015 420 96 100 000/00 RMK AO2 $
14840KMKG MKG20020925220509409/25/02 22:05:31  5-MIN KMKG 260305Z 00000KT 10SM CLR 11/11 A3015 420 96 100 000/00 RMK AO2 $
14840KMKG MKG20020925221009409/25/02 22:10:31  5-MIN KMKG 260310Z 12003KT 10SM CLR 12/11 A3014 420 93 200 130/03 RMK AO2 $
14840KMKG MKG20020925221509409/25/02 22:15:31  5-MIN KMKG 260315Z 13004KT 10SM CLR 12/11 A3014 430 93 200 130/04 RMK AO2 $
14840KMKG MKG20020925222009409/25/02 22:20:31  5-MIN KMKG 260320Z 13004KT 10SM CLR 12/11 A3014 430 93 200 130/04 RMK AO2 $
14840KMKG MKG20020925222509209/25/02 22:25:31  5-MIN KMKG 260325Z 12005KT 10SM CLR 11/10 A3013 430 96 0 120/05 RMK AO2 $
14840KMKG MKG20020925223009209/25/02 22:30:31  5-MIN KMKG 260330Z 12004KT 10SM CLR 11/10 A3013 430 96 0 120/04 RMK AO2 $
14840KMKG MKG20020925223509209/25/02 22:35:31  5-MIN KMKG 260335Z 11003KT 10SM CLR 11/10 A3014 430 96 0 110/03 RMK AO2 $
14840KMKG MKG20020925224009209/25/02 22:40:31  5-MIN KMKG 260340Z 00000KT 10SM CLR 10/09 A3014 430 96 0 000/00 RMK AO2 $
14840KMKG MKG20020925224509209/25/02 22:45:31  5-MIN KMKG 260345Z 00000KT 10SM CLR 11/10 A3014 430 96 0 000/00 RMK AO2 $
14840KMKG MKG20020925225010909/25/02 22:50:31  5-MIN KMKG 260350Z 00000KT 10SM CLR 11/10 A3014 430 96 0 000/00 RMK AO2 SLP206 T01060100 $
14840KMKG MKG20020925225511109/25/02 22:55:31  5-MIN KMKG 260355Z 00000KT 10SM CLR 11/10 A3014 430 93 100 000/00 RMK AO2 SLP206 T01110100 $
14840KMKG MKG20020925230009409/25/02 23:00:31  5-MIN KMKG 260400Z 00000KT 10SM CLR 11/10 A3014 430 93 100 000/00 RMK AO2 $
14840KMKG MKG20020925230509409/25/02 23:05:31  5-MIN KMKG 260405Z 00000KT 10SM CLR 11/10 A3014 430 93 100 000/00 RMK AO2 $
14840KMKG MKG20020925231009409/25/02 23:10:31  5-MIN KMKG 260410Z 00000KT 10SM CLR 11/10 A3014 430 93 100 000/00 RMK AO2 $
14840KMKG MKG20020925231509409/25/02 23:15:31  5-MIN KMKG 260415Z 00000KT 10SM CLR 11/10 A3014 430 93 100 000/00 RMK AO2 $
14840KMKG MKG20020925232009209/25/02 23:20:31  5-MIN KMKG 260420Z 34003KT 10SM CLR 11/10 A3014 430 96 0 340/03 RMK AO2 $
14840KMKG MKG20020925232509209/25/02 23:25:31  5-MIN KMKG 260425Z 00000KT 10SM CLR 11/10 A3014 430 96 0 000/00 RMK AO2 $
14840KMKG MKG20020925233009409/25/02 23:30:31  5-MIN KMKG 260430Z 00000KT 10SM CLR 11/10 A3013 430 93 100 000/00 RMK AO2 $
14840KMKG MKG20020925233509409/25/02 23:35:31  5-MIN KMKG 260435Z 00000KT 10SM CLR 12/10 A3013 440 89 200 000/00 RMK AO2 $
14840KMKG MKG20020925234009409/25/02 23:40:31  5-MIN KMKG 260440Z 11003KT 10SM CLR 12/10 A3013 440 89 200 110/03 RMK AO2 $
14840KMKG MKG20020925234509409/25/02 23:45:31  5-MIN KMKG 260445Z 12003KT 10SM CLR 11/09 A3013 440 93 100 120/03 RMK AO2 $
14840KMKG MKG20020925235011909/25/02 23:50:31  5-MIN KMKG 260450Z 13004KT 10SM CLR 10/09 A3013 440 96 0 130/04 RMK AO2 SLP203 T01000094 402000044 $
14840KMKG MKG20020925235512009/25/02 23:55:31  5-MIN KMKG 260455Z 12007KT 10SM CLR 09/09 A3012 440 100 0 130/07 RMK AO2 SLP202 T00940094 402000044 $
14840KMKG MKG20020926000009409/26/02 00:00:31  5-MIN KMKG 260500Z 12007KT 10SM CLR 11/10 A3012 450 96 100 130/07 RMK AO2 $
14840KMKG MKG20020926000509409/26/02 00:05:31  5-MIN KMKG 260505Z 12008KT 10SM CLR 11/10 A3012 450 96 100 120/08 RMK AO2 $
14840KMKG MKG20020926001009409/26/02 00:10:31  5-MIN KMKG 260510Z 12006KT 10SM CLR 11/10 A3012 450 96 100 130/06 RMK AO2 $
14840KMKG MKG20020926001509309/26/02 00:15:31  5-MIN KMKG 260515Z 12006KT 10SM CLR 10/10 A3012 450 100 0 130/06 RMK AO2 $
14840KMKG MKG20020926002009209/26/02 00:20:31  5-MIN KMKG 260520Z 12008KT 10SM CLR 10/09 A3011 450 96 0 130/08 RMK AO2 $
14840KMKG MKG20020926002509409/26/02 00:25:31  5-MIN KMKG 260525Z 12007KT 10SM CLR 11/10 A3011 450 96 100 130/07 RMK AO2 $
14840KMKG MKG20020926003009409/26/02 00:30:31  5-MIN KMKG 260530Z 12006KT 10SM CLR 11/10 A3011 450 96 100 130/06 RMK AO2 $
14840KMKG MKG20020926003509409/26/02 00:35:31  5-MIN KMKG 260535Z 12006KT 10SM CLR 11/09 A3011 450 93 100 130/06 RMK AO2 $
14840KMKG MKG20020926004009409/26/02 00:40:31  5-MIN KMKG 260540Z 13006KT 10SM CLR 11/09 A3011 450 93 100 130/06 RMK AO2 $
14840KMKG MKG20020926004509409/26/02 00:45:31  5-MIN KMKG 260545Z 13006KT 10SM CLR 11/09 A3011 460 93 100 130/06 RMK AO2 $
14840KMKG MKG20020926005012909/26/02 00:50:31  5-MIN KMKG 260550Z 13007KT 10SM CLR 11/09 A3011 460 93 100 130/07 RMK AO2 SLP195 T01060094 10156 20094 58008 $
14840KMKG MKG20020926005512909/26/02 00:55:31  5-MIN KMKG 260555Z 13007KT 10SM CLR 11/09 A3011 460 93 100 130/07 RMK AO2 SLP195 T01060094 10156 20094 58012 $
14840KMKG MKG20020926010009409/26/02 01:00:31  5-MIN KMKG 260600Z 12006KT 10SM CLR 11/09 A3011 460 89 100 130/06 RMK AO2 $
14840KMKG MKG20020926010509409/26/02 01:05:31  5-MIN KMKG 260605Z 12007KT 10SM CLR 11/09 A3011 460 89 100 120/07 RMK AO2 $
14840KMKG MKG20020926011009209/26/02 01:10:31  5-MIN KMKG 260610Z 12007KT 10SM CLR 10/09 A3010 460 93 0 120/07 RMK AO2 $
14840KMKG MKG20020926011508409/26/02 01:15:31  5-MIN KMKG 260615Z 10SM CLR 11/09 A3010 460 89 100 M /M RMK AO2 $
14840KMKG MKG20020926012009209/26/02 01:20:31  5-MIN KMKG 260620Z 12005KT 10SM CLR 10/09 A3010 460 93 0 120/05 RMK AO2 $
14840KMKG MKG20020926012509209/26/02 01:25:31  5-MIN KMKG 260625Z 12006KT 10SM CLR 10/09 A3010 460 93 0 120/06 RMK AO2 $
14840KMKG MKG20020926013009209/26/02 01:30:31  5-MIN KMKG 260630Z 12006KT 10SM CLR 10/09 A3010 460 93 0 130/06 RMK AO2 $
14840KMKG MKG20020926013509409/26/02 01:35:31  5-MIN KMKG 260635Z 12006KT 10SM CLR 11/09 A3010 460 89 100 130/06 RMK AO2 $
14840KMKG MKG20020926020509409/26/02 02:05:31  5-MIN KMKG 260705Z 12009KT 10SM CLR 11/09 A3008 480 89 100 120/09 RMK AO2 $
14840KMKG MKG20020926021009409/26/02 02:10:31  5-MIN KMKG 260710Z 12007KT 10SM CLR 11/09 A3008 480 93 100 120/07 RMK AO2 $
14840KMKG MKG20020926021509409/26/02 02:15:31  5-MIN KMKG 260715Z 12007KT 10SM CLR 11/09 A3008 480 93 100 120/07 RMK AO2 $
14840KMKG MKG20020926022009409/26/02 02:20:31  5-MIN KMKG 260720Z 12006KT 10SM CLR 11/09 A3008 480 93 100 120/06 RMK AO2 $
14840KMKG MKG20020926022509409/26/02 02:25:31  5-MIN KMKG 260725Z 12006KT 10SM CLR 11/09 A3008 480 93 100 120/06 RMK AO2 $
14840KMKG MKG20020926023009409/26/02 02:30:31  5-MIN KMKG 260730Z 12006KT 10SM CLR 11/09 A3008 480 93 100 120/06 RMK AO2 $
14840KMKG MKG20020926023509709/26/02 02:35:31  5-MIN KMKG 260735Z 12007KT 10SM FEW120 11/09 A3008 480 93 100 120/07 RMK AO2 $
14840KMKG MKG20020926024009709/26/02 02:40:31  5-MIN KMKG 260740Z 12007KT 10SM SCT120 11/09 A3008 490 93 100 130/07 RMK AO2 $
14840KMKG MKG20020926024509709/26/02 02:45:31  5-MIN KMKG 260745Z 12008KT 10SM SCT120 11/10 A3007 490 93 200 130/08 RMK AO2 $
14840KMKG MKG20020926025011409/26/02 02:50:31  5-MIN KMKG 260750Z 12008KT 10SM SCT120 11/10 A3007 490 93 200 130/08 RMK AO2 SLP182 T01110100 $
14840KMKG MKG20020926025511409/26/02 02:55:31  5-MIN KMKG 260755Z 12007KT 10SM SCT120 11/10 A3007 490 93 200 130/07 RMK AO2 SLP182 T01110100 $
14840KMKG MKG20020926030009709/26/02 03:00:31  5-MIN KMKG 260800Z 13006KT 10SM SCT120 12/10 A3007 490 89 200 130/06 RMK AO2 $
14840KMKG MKG20020926030509709/26/02 03:05:31  5-MIN KMKG 260805Z 13006KT 10SM FEW120 12/10 A3007 490 89 300 130/06 RMK AO2 $
14840KMKG MKG20020926031009609/26/02 03:10:31  5-MIN KMKG 260810Z 12005KT 9SM FEW120 11/10 A3007 490 93 200 120/05 RMK AO2 $
14840KMKG MKG20020926031509609/26/02 03:15:31  5-MIN KMKG 260815Z 12004KT 9SM FEW120 11/10 A3007 490 93 200 120/04 RMK AO2 $
14840KMKG MKG20020926032009309/26/02 03:20:31  5-MIN KMKG 260820Z 12004KT 8SM CLR 11/10 A3007 490 93 200 120/04 RMK AO2 $
14840KMKG MKG20020926032509309/26/02 03:25:31  5-MIN KMKG 260825Z 11004KT 8SM CLR 11/10 A3007 490 93 200 110/04 RMK AO2 $
14840KMKG MKG20020926033009309/26/02 03:30:31  5-MIN KMKG 260830Z 10003KT 8SM CLR 11/10 A3008 490 93 200 100/03 RMK AO2 $
14840KMKG MKG20020926033509309/26/02 03:35:31  5-MIN KMKG 260835Z 00000KT 8SM CLR 11/10 A3008 490 93 200 000/00 RMK AO2 $
14840KMKG MKG20020926034009309/26/02 03:40:31  5-MIN KMKG 260840Z 00000KT 8SM CLR 11/10 A3007 490 93 200 000/00 RMK AO2 $
14840KMKG MKG20020926034509309/26/02 03:45:31  5-MIN KMKG 260845Z 00000KT 8SM CLR 11/10 A3007 490 93 200 000/00 RMK AO2 $
14840KMKG MKG20020926035011609/26/02 03:50:31  5-MIN KMKG 260850Z 10003KT 8SM CLR 11/09 A3007 490 93 100 100/03 RMK AO2 SLP182 T01060094 58012 $
14840KMKG MKG20020926035511409/26/02 03:55:31  5-MIN KMKG 260855Z 00000KT 7SM CLR 10/09 A3007 490 96 0 000/00 RMK AO2 SLP183 T01000094 55011 $
14840KMKG MKG20020926040009109/26/02 04:00:31  5-MIN KMKG 260900Z 00000KT 7SM CLR 10/09 A3008 480 96 0 000/00 RMK AO2 $
14840KMKG MKG20020926040509109/26/02 04:05:31  5-MIN KMKG 260905Z 00000KT 7SM CLR 10/09 A3008 480 96 0 000/00 RMK AO2 $
14840KMKG MKG20020926041009109/26/02 04:10:31  5-MIN KMKG 260910Z 00000KT 7SM CLR 10/09 A3008 490 96 0 000/00 RMK AO2 $
14840KMKG MKG20020926041509409/26/02 04:15:31  5-MIN KMKG 260915Z 00000KT 6SM BR CLR 10/09 A3007 490 96 0 000/00 RMK AO2 $
14840KMKG MKG20020926042009409/26/02 04:20:31  5-MIN KMKG 260920Z 00000KT 6SM BR CLR 09/09 A3007 490 96 0 000/00 RMK AO2 $
14840KMKG MKG20020926042511209/26/02 04:25:31  5-MIN KMKG 260925Z 00000KT 5SM BR CLR 09/09 A3007 490 100 0 000/00 RMK AO2 VIS 2 1/2 RWY 14 $
14840KMKG MKG20020926043011209/26/02 04:30:31  5-MIN KMKG 260930Z 00000KT 5SM BR CLR 09/09 A3007 490 100 0 000/00 RMK AO2 VIS 2 1/2 RWY 14 $
14840KMKG MKG20020926043510809/26/02 04:35:31  5-MIN KMKG 260935Z 00000KT 5SM BR CLR 09/09 A3007 490 100 0 000/00 RMK AO2 VIS 2 RWY 14 $
14840KMKG MKG20020926044011209/26/02 04:40:31  5-MIN KMKG 260940Z 00000KT 4SM BR CLR 10/10 A3007 490 100 0 000/00 RMK AO2 VIS 1 3/4 RWY 14 $
14840KMKG MKG20020926044511209/26/02 04:45:31  5-MIN KMKG 260945Z 00000KT 4SM BR CLR 09/09 A3008 490 100 0 000/00 RMK AO2 VIS 1 3/4 RWY 14 $
14840KMKG MKG20020926045012909/26/02 04:50:31  5-MIN KMKG 260950Z 00000KT 4SM BR CLR 09/09 A3007 490 100 0 000/00 RMK AO2 VIS 1 3/4 RWY 14 SLP184 T00940094 $
14840KMKG MKG20020926045512509/26/02 04:55:31  5-MIN KMKG 260955Z 00000KT 4SM BR CLR 09/09 A3007 490 100 0 000/00 RMK AO2 VIS 2 RWY 14 SLP184 T00940094 $
14840KMKG MKG20020926050010809/26/02 05:00:31  5-MIN KMKG 261000Z 00000KT 4SM BR CLR 09/09 A3007 490 100 0 000/00 RMK AO2 VIS 2 RWY 14 $
14840KMKG MKG20020926050511209/26/02 05:05:31  5-MIN KMKG 261005Z 07003KT 4SM BR CLR 09/09 A3007 490 100 0 070/03 RMK AO2 VIS 1 3/4 RWY 14 $
14840KMKG MKG20020926051010809/26/02 05:10:31  5-MIN KMKG 261010Z 07003KT 4SM BR CLR 09/09 A3007 490 100 0 070/03 RMK AO2 VIS 2 RWY 14 $
14840KMKG MKG20020926051510809/26/02 05:15:31  5-MIN KMKG 261015Z 08004KT 3SM BR CLR 09/09 A3007 490 100 0 080/04 RMK AO2 VIS 2 RWY 14 $
14840KMKG MKG20020926052009809/26/02 05:20:31  5-MIN KMKG 261020Z 07004KT 3SM BR CLR 08/08 A3007 490 100 -100 080/04 RMK AO2 $
14840KMKG MKG20020926052509809/26/02 05:25:31  5-MIN KMKG 261025Z 07003KT 3SM BR CLR 08/08 A3007 490 100 -100 080/03 RMK AO2 $
14840KMKG MKG20020926053011509/26/02 05:30:31  5-MIN KMKG 261030Z 05004KT 4SM BR CLR 08/08 A3007 490 100 -100 060/04 RMK AO2 VIS 2 1/2 RWY 14 $
14840KMKG MKG20020926053511109/26/02 05:35:31  5-MIN KMKG 261035Z 06003KT 4SM BR CLR 08/08 A3007 490 100 -100 060/03 RMK AO2 VIS 2 RWY 14 $
14840KMKG MKG20020926054011509/26/02 05:40:31  5-MIN KMKG 261040Z 07004KT 4SM BR CLR 08/08 A3007 490 100 -100 080/04 RMK AO2 VIS 1 3/4 RWY 14 $
14840KMKG MKG20020926054511209/26/02 05:45:31  5-MIN KMKG 261045Z 08003KT 4SM BR CLR 09/09 A3007 490 100 0 080/03 RMK AO2 VIS 1 1/2 RWY 14 $
14840KMKG MKG20020926055012909/26/02 05:50:31  5-MIN KMKG 261050Z 08003KT 4SM BR CLR 09/09 A3007 490 100 0 080/03 RMK AO2 VIS 1 1/2 RWY 14 SLP184 T00890089 $
14840KMKG MKG20020926055513209/26/02 05:55:31  5-MIN KMKG 261055Z 07003KT 4SM BR CLR 08/08 A3007 490 100 -100 080/03 RMK AO2 VIS 1 1/4 RWY 14 SLP183 T00830083 $
14840KMKG MKG20020926060011209/26/02 06:00:31  5-MIN KMKG 261100Z 07003KT 4SM BR CLR 09/09 A3007 490 100 0 070/03 RMK AO2 VIS 1 1/4 RWY 14 $
14840KMKG MKG20020926060511209/26/02 06:05:31  5-MIN KMKG 261105Z 06003KT 4SM BR CLR 09/09 A3007 490 100 0 070/03 RMK AO2 VIS 1 1/2 RWY 14 $
14840KMKG MKG20020926061011509/26/02 06:10:31  5-MIN KMKG 261110Z 07004KT 3SM BR CLR 08/08 A3007 490 100 -100 080/04 RMK AO2 VIS 1 1/4 RWY 14 $
14840KMKG MKG20020926061510809/26/02 06:15:31  5-MIN KMKG 261115Z 08003KT 3SM BR CLR 09/09 A3007 490 100 0 080/03 RMK AO2 VIS 1 RWY 14 $
14840KMKG MKG20020926062010809/26/02 06:20:31  5-MIN KMKG 261120Z 07004KT 3SM BR CLR 09/09 A3007 490 100 0 070/04 RMK AO2 VIS 1 RWY 14 $
14840KMKG MKG20020926062511109/26/02 06:25:31  5-MIN KMKG 261125Z 07004KT 4SM BR CLR 08/08 A3007 490 100 -100 070/04 RMK AO2 VIS 1 RWY 14 $
14840KMKG MKG20020926063011509/26/02 06:30:31  5-MIN KMKG 261130Z 07004KT 4SM BR CLR 08/08 A3007 490 100 -100 070/04 RMK AO2 VIS 1 1/4 RWY 14 $
14840KMKG MKG20020926063511309/26/02 06:35:31  5-MIN KMKG 261135Z 07004KT 3SM BR CLR 08/08 A3007 500 100 -100 080/04 RMK AO2 VIS 3/4 RWY 14 $
14840KMKG MKG20020926064011709/26/02 06:40:31  5-MIN KMKG 261140Z 08004KT 2 1/2SM BR CLR 08/08 A3006 500 100 -100 080/04 RMK AO2 VIS 3/4 RWY 14 $
14840KMKG MKG20020926064511709/26/02 06:45:31  5-MIN KMKG 261145Z 08003KT 2 1/2SM BR CLR 08/08 A3006 500 100 -200 080/03 RMK AO2 VIS 3/4 RWY 14 $
14840KMKG MKG20020926065015609/26/02 06:50:31  5-MIN KMKG 261150Z 00000KT 2 1/2SM BR CLR 08/08 A3006 500 100 -200 000/00 RMK AO2 VIS 1 RWY 14 SLP181 7//// T00780078 10117 20078 55011 $
14840KMKG MKG20020926065514909/26/02 06:55:31  5-MIN KMKG 261155Z 00000KT 2 1/2SM BR CLR 08/08 A3006 500 96 -100 000/00 RMK AO2 VIS 1 RWY 14 SLP181 T00830078 10117 20078 58004 $
14840KMKG MKG20020926070011809/26/02 07:00:31  5-MIN KMKG 261200Z 00000KT 2 1/2SM BR CLR 08/08 A3006 500 96 -100 000/00 RMK AO2 VIS 1 1/4 RWY 14 $
14840KMKG MKG20020926070511809/26/02 07:05:31  5-MIN KMKG 261205Z 00000KT 2 1/2SM BR CLR 08/08 A3006 500 96 -100 000/00 RMK AO2 VIS 1 1/4 RWY 14 $
14840KMKG MKG20020926071011609/26/02 07:10:31  5-MIN KMKG 261210Z VRB03KT 2 1/2SM BR CLR 08/08 A3006 500 96 -100 VRB/03 RMK AO2 VIS 1 1/4 RWY 14
14840KMKG MKG20020926071511209/26/02 07:15:31  5-MIN KMKG 261215Z 09003KT 2 1/2SM BR CLR 08/08 A3006 510 96 -100 100/03 RMK AO2 VIS 1 RWY 14
14840KMKG MKG20020926072011609/26/02 07:20:31  5-MIN KMKG 261220Z 00000KT 2 1/2SM BR CLR 08/08 A3006 510 96 -100 000/00 RMK AO2 VIS 1 1/4 RWY 14
14840KMKG MKG20020926072511009/26/02 07:25:31  5-MIN KMKG 261225Z 00000KT 2SM BR CLR 08/08 A3005 510 100 -100 000/00 RMK AO2 TWR VIS 2 1/2
14840KMKG MKG20020926073011109/26/02 07:30:31  5-MIN KMKG 261230Z 00000KT 1 3/4SM BR CLR 09/09 A3005 510 100 0 000/00 RMK AO2 TWR VIS 2 1/2
14840KMKG MKG20020926073510709/26/02 07:35:31  5-MIN KMKG 261235Z 00000KT 1 3/4SM BR CLR 09/09 A3005 510 100 0 000/00 RMK AO2 TWR VIS 2
14840KMKG MKG20020926074010909/26/02 07:40:31  5-MIN KMKG 261240Z 00000KT 1 3/4SM BR CLR 11/11 A3005 510 100 100 000/00 RMK AO2 TWR VIS 2
14840KMKG MKG20020926074509409/26/02 07:45:31  5-MIN KMKG 261245Z 00000KT 2SM BR CLR 11/11 A3005 510 96 200 000/00 RMK AO2
14840KMKG MKG20020926075011109/26/02 07:50:31  5-MIN KMKG 261250Z 00000KT 2SM BR CLR 12/11 A3005 510 96 300 000/00 RMK AO2 SLP177 T01170111
14840KMKG MKG20020926075511109/26/02 07:55:31  5-MIN KMKG 261255Z 00000KT 2SM BR CLR 12/11 A3005 510 96 300 000/00 RMK AO2 SLP176 T01170111
14840KMKG MKG20020926080012509/26/02 08:00:31  5-MIN KMKG 261300Z 08003KT 2SM BR CLR 12/12 A3005 520 96 300 090/03 RMK AO2 SFC VIS 2 1/2 VIS 1 3/4 RWY 14
14840KMKG MKG20020926080510809/26/02 08:05:31  5-MIN KMKG 261305Z 09003KT 2SM BR CLR 12/12 A3005 510 96 300 100/03 RMK AO2 SFC VIS 2 1/2
14840KMKG MKG20020926081010809/26/02 08:10:31  5-MIN KMKG 261310Z 11003KT 2SM BR CLR 12/12 A3005 510 96 300 110/03 RMK AO2 SFC VIS 2 1/2
14840KMKG MKG20020926081510809/26/02 08:15:31  5-MIN KMKG 261315Z 12004KT 2SM BR CLR 12/12 A3005 510 96 300 120/04 RMK AO2 SFC VIS 2 1/2
14840KMKG MKG20020926082010809/26/02 08:20:31  5-MIN KMKG 261320Z 12005KT 2SM BR CLR 12/12 A3004 520 96 300 120/05 RMK AO2 SFC VIS 2 1/2
14840KMKG MKG20020926082510809/26/02 08:25:31  5-MIN KMKG 261325Z 12004KT 2SM BR CLR 12/12 A3004 520 96 300 120/04 RMK AO2 SFC VIS 2 1/2
14840KMKG MKG20020926083010809/26/02 08:30:31  5-MIN KMKG 261330Z 12004KT 2SM BR CLR 12/12 A3004 520 96 300 130/04 RMK AO2 SFC VIS 2 1/2
14840KMKG MKG20020926083510809/26/02 08:35:31  5-MIN KMKG 261335Z 11005KT 2SM BR CLR 12/12 A3004 520 96 300 120/05 RMK AO2 SFC VIS 2 1/2
14840KMKG MKG20020926084010809/26/02 08:40:31  5-MIN KMKG 261340Z 12004KT 2SM BR CLR 12/12 A3004 520 96 300 120/04 RMK AO2 SFC VIS 2 1/2
14840KMKG MKG20020926084510809/26/02 08:45:31  5-MIN KMKG 261345Z 11004KT 2SM BR CLR 12/12 A3004 520 96 300 120/04 RMK AO2 SFC VIS 2 1/2
14840KMKG MKG20020926085012109/26/02 08:50:31  5-MIN KMKG 261350Z 12004KT 3SM BR CLR 14/13 A3004 520 93 600 130/04 RMK AO2 TWR VIS 5 SLP172 T01390128
14840KMKG MKG20020926085511109/26/02 08:55:31  5-MIN KMKG 261355Z 12005KT 5SM BR CLR 15/13 A3003 520 90 700 120/05 RMK AO2 SLP171 T01500133
14840KMKG MKG20020926090009409/26/02 09:00:31  5-MIN KMKG 261400Z 12007KT 5SM BR CLR 16/13 A3003 530 86 800 130/07 RMK AO2
14840KMKG MKG20020926090509409/26/02 09:05:31  5-MIN KMKG 261405Z 13007KT 5SM BR CLR 16/13 A3003 530 86 800 130/07 RMK AO2
14840KMKG MKG20020926091009409/26/02 09:10:31  5-MIN KMKG 261410Z 12006KT 6SM BR CLR 16/13 A3003 530 86 800 120/06 RMK AO2
14840KMKG MKG20020926091509409/26/02 09:15:31  5-MIN KMKG 261415Z 13005KT 6SM BR CLR 16/14 A3003 530 86 800 130/05 RMK AO2
14840KMKG MKG20020926092009409/26/02 09:20:31  5-MIN KMKG 261420Z 13005KT 6SM HZ CLR 17/14 A3003 530 83 900 130/05 RMK AO2
14840KMKG MKG20020926092509109/26/02 09:25:31  5-MIN KMKG 261425Z 12005KT 7SM CLR 17/14 A3003 530 83 900 130/05 RMK AO2
14840KMKG MKG20020926093009209/26/02 09:30:31  5-MIN KMKG 261430Z 11005KT 7SM CLR 17/14 A3003 530 80 1000 120/05 RMK AO2
14840KMKG MKG20020926093509209/26/02 09:35:31  5-MIN KMKG 261435Z 14004KT 7SM CLR 17/14 A3003 530 80 1000 140/04 RMK AO2
14840KMKG MKG20020926094009209/26/02 09:40:31  5-MIN KMKG 261440Z 13005KT 8SM CLR 17/14 A3003 530 80 1000 130/05 RMK AO2
14840KMKG MKG20020926094509209/26/02 09:45:31  5-MIN KMKG 261445Z 14005KT 8SM CLR 18/14 A3003 530 78 1000 140/05 RMK AO2
14840KMKG MKG20020926095011509/26/02 09:50:31  5-MIN KMKG 261450Z 13004KT 9SM CLR 18/14 A3003 530 75 1100 130/04 RMK AO2 SLP168 T01830139 58004
14840KMKG MKG20020926095511509/26/02 09:55:31  5-MIN KMKG 261455Z 16004KT 9SM CLR 18/14 A3003 530 78 1000 170/04 RMK AO2 SLP169 T01780139 56011
14840KMKG MKG20020926100009209/26/02 10:00:31  5-MIN KMKG 261500Z VRB03KT 9SM CLR 18/14 A3003 530 75 1100 VRB/03 RMK AO2
14840KMKG MKG20020926100509309/26/02 10:05:31  5-MIN KMKG 261505Z 13003KT 10SM CLR 18/14 A3003 530 75 1100 130/03 RMK AO2
14840KMKG MKG20020926101009309/26/02 10:10:31  5-MIN KMKG 261510Z 00000KT 10SM CLR 19/14 A3003 530 72 1200 000/00 RMK AO2
14840KMKG MKG20020926101509309/26/02 10:15:31  5-MIN KMKG 261515Z VRB03KT 10SM CLR 19/14 A3002 530 72 1200 VRB/03 RMK AO2
14840KMKG MKG20020926102009309/26/02 10:20:31  5-MIN KMKG 261520Z 17004KT 10SM CLR 19/14 A3002 540 70 1200 180/04 RMK AO2
14840KMKG MKG20020926102509309/26/02 10:25:31  5-MIN KMKG 261525Z VRB03KT 10SM CLR 19/14 A3002 530 70 1200 VRB/03 RMK AO2
14840KMKG MKG20020926103009309/26/02 10:30:31  5-MIN KMKG 261530Z VRB03KT 10SM CLR 19/14 A3003 530 70 1200 VRB/03 RMK AO2
14840KMKG MKG20020926103509309/26/02 10:35:31  5-MIN KMKG 261535Z VRB03KT 10SM CLR 20/14 A3002 540 67 1300 VRB/03 RMK AO2
14840KMKG MKG20020926104009309/26/02 10:40:31  5-MIN KMKG 261540Z VRB03KT 10SM CLR 21/14 A3002 530 67 1300 VRB/03 RMK AO2
14840KMKG MKG20020926104509309/26/02 10:45:31  5-MIN KMKG 261545Z VRB03KT 10SM CLR 21/14 A3002 530 67 1300 VRB/03 RMK AO2
14840KMKG MKG20020926105011009/26/02 10:50:31  5-MIN KMKG 261550Z VRB04KT 10SM CLR 21/14 A3002 540 67 1300 VRB/04 RMK AO2 SLP167 T02060144
14840KMKG MKG20020926105511009/26/02 10:55:31  5-MIN KMKG 261555Z 00000KT 10SM CLR 20/13 A3002 540 65 1300 000/00 RMK AO2 SLP166 T02000133
14840KMKG MKG20020926110009309/26/02 11:00:31  5-MIN KMKG 261600Z VRB04KT 10SM CLR 21/13 A3002 540 58 1400 VRB/04 RMK AO2
14840KMKG MKG20020926110509309/26/02 11:05:31  5-MIN KMKG 261605Z 00000KT 10SM CLR 21/13 A3002 540 60 1400 000/00 RMK AO2
14840KMKG MKG20020926111009309/26/02 11:10:31  5-MIN KMKG 261610Z VRB03KT 10SM CLR 21/13 A3002 540 61 1400 VRB/03 RMK AO2
14840KMKG MKG20020926111509309/26/02 11:15:31  5-MIN KMKG 261615Z 18005KT 10SM CLR 22/13 A3001 540 58 1500 180/05 RMK AO2
14840KMKG MKG20020926112009309/26/02 11:20:31  5-MIN KMKG 261620Z 00000KT 10SM CLR 21/13 A3001 550 61 1400 000/00 RMK AO2
14840KMKG MKG20020926112509309/26/02 11:25:31  5-MIN KMKG 261625Z 22005KT 10SM CLR 22/14 A3001 550 61 1500 220/05 RMK AO2
14840KMKG MKG20020926113009309/26/02 11:30:31  5-MIN KMKG 261630Z 21005KT 10SM CLR 21/14 A3000 550 63 1400 210/05 RMK AO2
14840KMKG MKG20020926113509309/26/02 11:35:31  5-MIN KMKG 261635Z 19006KT 10SM CLR 21/14 A3000 560 63 1400 190/06 RMK AO2
14840KMKG MKG20020926114009309/26/02 11:40:31  5-MIN KMKG 261640Z 18006KT 10SM CLR 22/14 A3000 560 61 1500 190/06 RMK AO2
14840KMKG MKG20020926114509309/26/02 11:45:31  5-MIN KMKG 261645Z VRB05KT 10SM CLR 21/13 A2999 560 61 1400 VRB/05 RMK AO2
14840KMKG MKG20020926115011009/26/02 11:50:31  5-MIN KMKG 261650Z 19006KT 10SM CLR 21/13 A2999 570 61 1500 190/06 RMK AO2 SLP154 T02110133
14840KMKG MKG20020926115511009/26/02 11:55:31  5-MIN KMKG 261655Z 18007KT 10SM CLR 22/13 A2998 570 56 1600 190/07 RMK AO2 SLP153 T02220133
14840KMKG MKG20020926120009309/26/02 12:00:31  5-MIN KMKG 261700Z 00000KT 10SM CLR 22/13 A2998 580 54 1600 000/00 RMK AO2
14840KMKG MKG20020926120509309/26/02 12:05:31  5-MIN KMKG 261705Z 20006KT 10SM CLR 22/13 A2998 580 54 1600 200/06 RMK AO2
14840KMKG MKG20020926121009309/26/02 12:10:31  5-MIN KMKG 261710Z VRB05KT 10SM CLR 22/13 A2998 580 54 1600 VRB/05 RMK AO2
14840KMKG MKG20020926121509309/26/02 12:15:31  5-MIN KMKG 261715Z 19007KT 10SM CLR 22/12 A2998 580 52 1600 190/07 RMK AO2
14840KMKG MKG20020926122009309/26/02 12:20:31  5-MIN KMKG 261720Z VRB06KT 10SM CLR 22/12 A2998 580 52 1600 VRB/06 RMK AO2
14840KMKG MKG20020926122509309/26/02 12:25:31  5-MIN KMKG 261725Z VRB04KT 10SM CLR 22/11 A2997 580 49 1600 VRB/04 RMK AO2
14840KMKG MKG20020926123009309/26/02 12:30:31  5-MIN KMKG 261730Z 17005KT 10SM CLR 23/11 A2997 590 47 1700 170/05 RMK AO2
14840KMKG MKG20020926123509309/26/02 12:35:31  5-MIN KMKG 261735Z 20007KT 10SM CLR 23/12 A2997 590 49 1700 200/07 RMK AO2
14840KMKG MKG20020926124009309/26/02 12:40:31  5-MIN KMKG 261740Z 19006KT 10SM CLR 22/10 A2996 590 45 1600 190/06 RMK AO2
14840KMKG MKG20020926124509309/26/02 12:45:31  5-MIN KMKG 261745Z 16004KT 10SM CLR 22/11 A2996 590 47 1600 170/04 RMK AO2
14840KMKG MKG20020926125012809/26/02 12:50:31  5-MIN KMKG 261750Z VRB06KT 10SM CLR 23/12 A2996 590 49 1700 VRB/06 RMK AO2 SLP145 T02280117 10228 20083 56011
14840KMKG MKG20020926125512809/26/02 12:55:31  5-MIN KMKG 261755Z 20006KT 10SM CLR 23/11 A2996 590 45 1700 200/06 RMK AO2 SLP145 T02280106 10228 20083 58022
14840KMKG MKG20020926130009309/26/02 13:00:31  5-MIN KMKG 261800Z VRB03KT 10SM CLR 23/11 A2996 600 47 1700 VRB/03 RMK AO2
14840KMKG MKG20020926130509309/26/02 13:05:31  5-MIN KMKG 261805Z 23008KT 10SM CLR 23/11 A2996 600 45 1700 240/08 RMK AO2
14840KMKG MKG20020926131009309/26/02 13:10:31  5-MIN KMKG 261810Z 21007KT 10SM CLR 23/11 A2996 600 45 1700 210/07 RMK AO2
14840KMKG MKG20020926131509309/26/02 13:15:31  5-MIN KMKG 261815Z 21008KT 10SM CLR 23/11 A2996 590 45 1700 220/08 RMK AO2
14840KMKG MKG20020926132009309/26/02 13:20:31  5-MIN KMKG 261820Z 24006KT 10SM CLR 23/11 A2996 600 47 1700 240/06 RMK AO2
14840KMKG MKG20020926132509309/26/02 13:25:31  5-MIN KMKG 261825Z 24009KT 10SM CLR 23/11 A2996 600 47 1700 250/09 RMK AO2
14840KMKG MKG20020926133009309/26/02 13:30:31  5-MIN KMKG 261830Z 24007KT 10SM CLR 23/11 A2995 600 45 1700 240/07 RMK AO2
14840KMKG MKG20020926133509309/26/02 13:35:31  5-MIN KMKG 261835Z 24008KT 10SM CLR 23/11 A2995 600 45 1700 250/08 RMK AO2
14840KMKG MKG20020926134009309/26/02 13:40:31  5-MIN KMKG 261840Z 25006KT 10SM CLR 23/12 A2995 600 49 1700 250/06 RMK AO2
14840KMKG MKG20020926134509309/26/02 13:45:31  5-MIN KMKG 261845Z 24007KT 10SM CLR 23/11 A2995 610 44 1800 250/07 RMK AO2
14840KMKG MKG20020926135011009/26/02 13:50:31  5-MIN KMKG 261850Z 24004KT 10SM CLR 23/10 A2994 610 44 1700 240/04 RMK AO2 SLP139 T02280100
14840KMKG MKG20020926135511009/26/02 13:55:31  5-MIN KMKG 261855Z 25005KT 10SM CLR 23/11 A2994 610 45 1800 250/05 RMK AO2 SLP138 T02330111
14840KMKG MKG20020926140009309/26/02 14:00:31  5-MIN KMKG 261900Z 23005KT 10SM CLR 23/10 A2994 610 44 1700 230/05 RMK AO2
14840KMKG MKG20020926140509309/26/02 14:05:31  5-MIN KMKG 261905Z 25006KT 10SM CLR 23/11 A2995 610 47 1700 250/06 RMK AO2
14840KMKG MKG20020926141009309/26/02 14:10:31  5-MIN KMKG 261910Z 26007KT 10SM CLR 22/11 A2994 610 47 1600 260/07 RMK AO2
14840KMKG MKG20020926141509309/26/02 14:15:31  5-MIN KMKG 261915Z 25005KT 10SM CLR 22/11 A2994 610 49 1600 250/05 RMK AO2
14840KMKG MKG20020926142009309/26/02 14:20:31  5-MIN KMKG 261920Z 27006KT 10SM CLR 22/10 A2994 610 45 1600 280/06 RMK AO2
14840KMKG MKG20020926142509309/26/02 14:25:31  5-MIN KMKG 261925Z 27005KT 10SM CLR 22/11 A2994 620 50 1600 270/05 RMK AO2
14840KMKG MKG20020926143009309/26/02 14:30:31  5-MIN KMKG 261930Z 27005KT 10SM CLR 22/10 A2993 620 45 1600 270/05 RMK AO2
14840KMKG MKG20020926143509309/26/02 14:35:31  5-MIN KMKG 261935Z 26005KT 10SM CLR 22/11 A2993 620 47 1600 270/05 RMK AO2
14840KMKG MKG20020926144009309/26/02 14:40:31  5-MIN KMKG 261940Z 28005KT 10SM CLR 22/10 A2993 620 45 1600 280/05 RMK AO2
14840KMKG MKG20020926144509309/26/02 14:45:31  5-MIN KMKG 261945Z 27005KT 10SM CLR 22/10 A2992 630 45 1700 270/05 RMK AO2
14840KMKG MKG20020926145011009/26/02 14:50:31  5-MIN KMKG 261950Z 31006KT 10SM CLR 23/11 A2992 630 45 1700 310/06 RMK AO2 SLP130 T02280106
14840KMKG MKG20020926145511009/26/02 14:55:31  5-MIN KMKG 261955Z 28006KT 10SM CLR 23/10 A2992 630 44 1700 290/06 RMK AO2 SLP130 T02280100
14840KMKG MKG20020926150009309/26/02 15:00:31  5-MIN KMKG 262000Z 30005KT 10SM CLR 23/11 A2992 630 45 1700 300/05 RMK AO2
14840KMKG MKG20020926150509309/26/02 15:05:31  5-MIN KMKG 262005Z 28005KT 10SM CLR 23/11 A2991 640 45 1800 290/05 RMK AO2
14840KMKG MKG20020926151009309/26/02 15:10:31  5-MIN KMKG 262010Z 30006KT 10SM CLR 23/10 A2991 640 44 1700 300/06 RMK AO2
14840KMKG MKG20020926151509309/26/02 15:15:31  5-MIN KMKG 262015Z 26004KT 10SM CLR 23/10 A2991 640 44 1700 270/04 RMK AO2
14840KMKG MKG20020926152009309/26/02 15:20:31  5-MIN KMKG 262020Z 30006KT 10SM CLR 23/11 A2991 640 45 1700 310/06 RMK AO2
14840KMKG MKG20020926152509309/26/02 15:25:31  5-MIN KMKG 262025Z 31007KT 10SM CLR 23/10 A2990 650 44 1700 320/07 RMK AO2
14840KMKG MKG20020926153009309/26/02 15:30:31  5-MIN KMKG 262030Z 31006KT 10SM CLR 23/10 A2990 650 42 1800 310/06 RMK AO2
14840KMKG MKG20020926153509309/26/02 15:35:31  5-MIN KMKG 262035Z 29005KT 10SM CLR 23/10 A2990 650 42 1800 290/05 RMK AO2
14840KMKG MKG20020926154009309/26/02 15:40:31  5-MIN KMKG 262040Z 28004KT 10SM CLR 23/09 A2990 650 42 1700 290/04 RMK AO2
14840KMKG MKG20020926154509309/26/02 15:45:31  5-MIN KMKG 262045Z VRB03KT 10SM CLR 22/09 A2990 650 43 1700 VRB/03 RMK AO2
14840KMKG MKG20020926155011609/26/02 15:50:31  5-MIN KMKG 262050Z 27004KT 10SM CLR 22/09 A2990 650 43 1700 280/04 RMK AO2 SLP124 T02220094 58022
14840KMKG MKG20020926155511609/26/02 15:55:31  5-MIN KMKG 262055Z 27003KT 10SM CLR 22/10 A2989 650 45 1700 270/03 RMK AO2 SLP123 T02220100 58021
14840KMKG MKG20020926160009309/26/02 16:00:31  5-MIN KMKG 262100Z 27003KT 10SM CLR 22/10 A2989 660 45 1700 280/03 RMK AO2
14840KMKG MKG20020926160509309/26/02 16:05:31  5-MIN KMKG 262105Z 25003KT 10SM CLR 22/09 A2989 660 43 1700 250/03 RMK AO2
14840KMKG MKG20020926161009309/26/02 16:10:31  5-MIN KMKG 262110Z 23003KT 10SM CLR 22/09 A2989 660 42 1700 240/03 RMK AO2
14840KMKG MKG20020926161509309/26/02 16:15:31  5-MIN KMKG 262115Z 25003KT 10SM CLR 22/09 A2989 660 42 1700 260/03 RMK AO2
14840KMKG MKG20020926162009309/26/02 16:20:31  5-MIN KMKG 262120Z 28003KT 10SM CLR 22/10 A2989 660 47 1600 280/03 RMK AO2
14840KMKG MKG20020926162509309/26/02 16:25:31  5-MIN KMKG 262125Z 00000KT 10SM CLR 22/10 A2989 660 47 1600 000/00 RMK AO2
14840KMKG MKG20020926163009309/26/02 16:30:31  5-MIN KMKG 262130Z 00000KT 10SM CLR 22/11 A2989 660 49 1600 000/00 RMK AO2
14840KMKG MKG20020926163509309/26/02 16:35:31  5-MIN KMKG 262135Z 00000KT 10SM CLR 22/11 A2989 660 50 1600 000/00 RMK AO2
14840KMKG MKG20020926164009309/26/02 16:40:31  5-MIN KMKG 262140Z 00000KT 10SM CLR 22/11 A2989 660 50 1600 000/00 RMK AO2
14840KMKG MKG20020926164509309/26/02 16:45:31  5-MIN KMKG 262145Z 00000KT 10SM CLR 21/12 A2989 660 54 1600 000/00 RMK AO2
14840KMKG MKG20020926165011009/26/02 16:50:31  5-MIN KMKG 262150Z 00000KT 10SM CLR 21/12 A2989 660 54 1600 000/00 RMK AO2 SLP121 T02110117
14840KMKG MKG20020926165511009/26/02 16:55:31  5-MIN KMKG 262155Z 25003KT 10SM CLR 21/12 A2989 660 56 1600 260/03 RMK AO2 SLP121 T02110122
14840KMKG MKG20020926170009309/26/02 17:00:31  5-MIN KMKG 262200Z 25004KT 10SM CLR 21/13 A2989 660 58 1600 260/04 RMK AO2
14840KMKG MKG20020926170509309/26/02 17:05:31  5-MIN KMKG 262205Z 26003KT 10SM CLR 21/14 A2989 650 65 1500 270/03 RMK AO2
14840KMKG MKG20020926171009309/26/02 17:10:31  5-MIN KMKG 262210Z 00000KT 10SM CLR 21/13 A2990 650 63 1500 000/00 RMK AO2
14840KMKG MKG20020926171509309/26/02 17:15:31  5-MIN KMKG 262215Z 25003KT 10SM CLR 21/12 A2990 650 58 1500 260/03 RMK AO2
14840KMKG MKG20020926172009309/26/02 17:20:31  5-MIN KMKG 262220Z 00000KT 10SM CLR 21/12 A2990 650 58 1500 000/00 RMK AO2
14840KMKG MKG20020926172509309/26/02 17:25:31  5-MIN KMKG 262225Z 00000KT 10SM CLR 20/13 A2990 650 63 1400 000/00 RMK AO2
14840KMKG MKG20020926173009309/26/02 17:30:31  5-MIN KMKG 262230Z 00000KT 10SM CLR 20/13 A2990 650 63 1400 000/00 RMK AO2
14840KMKG MKG20020926173509309/26/02 17:35:31  5-MIN KMKG 262235Z 00000KT 10SM CLR 21/13 A2990 650 60 1500 000/00 RMK AO2
14840KMKG MKG20020926174009309/26/02 17:40:31  5-MIN KMKG 262240Z 00000KT 10SM CLR 20/13 A2990 650 65 1400 000/00 RMK AO2
14840KMKG MKG20020926174509309/26/02 17:45:31  5-MIN KMKG 262245Z 00000KT 10SM CLR 20/13 A2990 650 65 1400 000/00 RMK AO2
14840KMKG MKG20020926175011009/26/02 17:50:31  5-MIN KMKG 262250Z 00000KT 10SM CLR 19/14 A2990 650 70 1400 000/00 RMK AO2 SLP126 T01940139
14840KMKG MKG20020926175511009/26/02 17:55:31  5-MIN KMKG 262255Z 00000KT 10SM CLR 19/13 A2990 650 65 1400 000/00 RMK AO2 SLP126 T01940128
14840KMKG MKG20020926180009309/26/02 18:00:31  5-MIN KMKG 262300Z 00000KT 10SM CLR 19/13 A2990 650 65 1400 000/00 RMK AO2
14840KMKG MKG20020926180509309/26/02 18:05:31  5-MIN KMKG 262305Z 00000KT 10SM CLR 19/13 A2990 650 65 1400 000/00 RMK AO2
14840KMKG MKG20020926181009309/26/02 18:10:31  5-MIN KMKG 262310Z 00000KT 10SM CLR 19/13 A2990 650 65 1400 000/00 RMK AO2
14840KMKG MKG20020926181509209/26/02 18:15:31  5-MIN KMKG 262315Z 00000KT 9SM CLR 19/13 A2989 660 70 1300 000/00 RMK AO2
14840KMKG MKG20020926182009209/26/02 18:20:31  5-MIN KMKG 262320Z 00000KT 8SM CLR 19/13 A2989 660 70 1300 000/00 RMK AO2
14840KMKG MKG20020926182509209/26/02 18:25:31  5-MIN KMKG 262325Z 00000KT 8SM CLR 19/14 A2989 660 72 1300 000/00 RMK AO2
14840KMKG MKG20020926183009209/26/02 18:30:31  5-MIN KMKG 262330Z 00000KT 8SM CLR 19/14 A2989 660 72 1300 000/00 RMK AO2
14840KMKG MKG20020926183509209/26/02 18:35:31  5-MIN KMKG 262335Z 00000KT 8SM CLR 18/14 A2988 660 75 1200 000/00 RMK AO2
14840KMKG MKG20020926184009209/26/02 18:40:31  5-MIN KMKG 262340Z 00000KT 8SM CLR 18/14 A2988 660 78 1200 000/00 RMK AO2
14840KMKG MKG20020926184509209/26/02 18:45:31  5-MIN KMKG 262345Z 00000KT 8SM CLR 18/13 A2988 670 75 1200 000/00 RMK AO2
14840KMKG MKG20020926185012709/26/02 18:50:31  5-MIN KMKG 262350Z 00000KT 8SM CLR 18/13 A2988 670 72 1300 000/00 RMK AO2 SLP118 T01830133 10233 20178 58021
14840KMKG MKG20020926185513009/26/02 18:55:31  5-MIN KMKG 262355Z 00000KT 8SM FEW090 17/14 A2987 670 80 1100 000/00 RMK AO2 SLP118 T01720139 10233 20172 58007
14840KMKG MKG20020926190009209/26/02 19:00:31  5-MIN KMKG 270000Z 00000KT 8SM CLR 17/14 A2987 680 80 1100 000/00 RMK AO2
14840KMKG MKG20020926190509209/26/02 19:05:31  5-MIN KMKG 270005Z 32003KT 8SM CLR 18/14 A2987 680 78 1200 330/03 RMK AO2
14840KMKG MKG20020926191009209/26/02 19:10:31  5-MIN KMKG 270010Z 00000KT 7SM CLR 17/14 A2987 680 83 1100 000/00 RMK AO2
14840KMKG MKG20020926191509509/26/02 19:15:31  5-MIN KMKG 270015Z 00000KT 6SM BR CLR 17/15 A2987 680 87 1100 000/00 RMK AO2
14840KMKG MKG20020926192009509/26/02 19:20:31  5-MIN KMKG 270020Z 00000KT 6SM BR CLR 17/15 A2987 680 87 1100 000/00 RMK AO2
14840KMKG MKG20020926192509509/26/02 19:25:31  5-MIN KMKG 270025Z 00000KT 6SM HZ CLR 17/14 A2987 680 83 1100 000/00 RMK AO2
14840KMKG MKG20020926193009209/26/02 19:30:31  5-MIN KMKG 270030Z 00000KT 7SM CLR 17/14 A2987 680 83 1100 000/00 RMK AO2
14840KMKG MKG20020926193509209/26/02 19:35:31  5-MIN KMKG 270035Z 00000KT 7SM CLR 16/14 A2986 680 86 1000 000/00 RMK AO2
14840KMKG MKG20020926194009509/26/02 19:40:31  5-MIN KMKG 270040Z 00000KT 6SM BR CLR 17/14 A2986 680 86 1100 000/00 RMK AO2
14840KMKG MKG20020926194509509/26/02 19:45:31  5-MIN KMKG 270045Z 00000KT 6SM HZ CLR 17/14 A2987 680 83 1100 000/00 RMK AO2
14840KMKG MKG20020926195011209/26/02 19:50:31  5-MIN KMKG 270050Z 00000KT 6SM HZ CLR 17/14 A2987 680 83 1100 000/00 RMK AO2 SLP114 T01720144
14840KMKG MKG20020926195511209/26/02 19:55:31  5-MIN KMKG 270055Z 00000KT 6SM BR CLR 16/14 A2987 680 86 1000 000/00 RMK AO2 SLP114 T01610139
14840KMKG MKG20020926200009509/26/02 20:00:31  5-MIN KMKG 270100Z 00000KT 5SM BR CLR 16/14 A2987 680 90 1000 000/00 RMK AO2
14840KMKG MKG20020926200509509/26/02 20:05:31  5-MIN KMKG 270105Z 00000KT 5SM BR CLR 16/14 A2987 680 90 1000 000/00 RMK AO2
14840KMKG MKG20020926201009509/26/02 20:10:31  5-MIN KMKG 270110Z 00000KT 5SM BR CLR 17/14 A2987 680 86 1100 000/00 RMK AO2
14840KMKG MKG20020926201509509/26/02 20:15:31  5-MIN KMKG 270115Z 33003KT 5SM BR CLR 17/14 A2987 680 86 1100 330/03 RMK AO2
14840KMKG MKG20020926202009509/26/02 20:20:31  5-MIN KMKG 270120Z 34004KT 5SM BR CLR 16/14 A2987 680 90 1000 350/04 RMK AO2
14840KMKG MKG20020926202509409/26/02 20:25:31  5-MIN KMKG 270125Z 35006KT 5SM BR CLR 15/14 A2987 680 96 900 360/06 RMK AO2
14840KMKG MKG20020926203009509/26/02 20:30:31  5-MIN KMKG 270130Z 36008KT 6SM BR CLR 17/14 A2987 680 86 1100 360/08 RMK AO2
14840KMKG MKG20020926203509509/26/02 20:35:31  5-MIN KMKG 270135Z 01008KT 8SM FEW045 17/13 A2987 680 80 1100 010/08 RMK AO2
14840KMKG MKG20020926204009509/26/02 20:40:31  5-MIN KMKG 270140Z 01007KT 9SM SCT045 17/13 A2987 680 78 1100 010/07 RMK AO2
14840KMKG MKG20020926204509509/26/02 20:45:31  5-MIN KMKG 270145Z 01007KT 9SM BKN045 17/13 A2987 680 78 1100 020/07 RMK AO2
14840KMKG MKG20020926205011209/26/02 20:50:31  5-MIN KMKG 270150Z 01007KT 9SM BKN047 17/13 A2987 680 78 1100 020/07 RMK AO2 SLP113 T01720133
14840KMKG MKG20020926205511209/26/02 20:55:31  5-MIN KMKG 270155Z 01006KT 9SM BKN047 17/13 A2987 680 78 1100 020/06 RMK AO2 SLP113 T01720133
14840KMKG MKG20020926210009509/26/02 21:00:31  5-MIN KMKG 270200Z 03007KT 9SM OVC047 17/13 A2987 680 78 1100 040/07 RMK AO2
14840KMKG MKG20020926210509509/26/02 21:05:31  5-MIN KMKG 270205Z 03006KT 9SM OVC047 18/13 A2986 680 75 1200 040/06 RMK AO2
14840KMKG MKG20020926211009509/26/02 21:10:31  5-MIN KMKG 270210Z 02007KT 9SM OVC049 17/13 A2986 680 78 1100 030/07 RMK AO2
14840KMKG MKG20020926211509509/26/02 21:15:31  5-MIN KMKG 270215Z 02007KT 9SM OVC049 17/13 A2986 680 78 1100 030/07 RMK AO2
14840KMKG MKG20020926212009509/26/02 21:20:31  5-MIN KMKG 270220Z 03007KT 9SM OVC049 17/13 A2986 680 78 1100 030/07 RMK AO2
14840KMKG MKG20020926212509509/26/02 21:25:31  5-MIN KMKG 270225Z 03007KT 9SM OVC049 17/13 A2986 680 78 1100 030/07 RMK AO2
14840KMKG MKG20020926213009509/26/02 21:30:31  5-MIN KMKG 270230Z 02007KT 9SM OVC049 17/13 A2986 680 78 1100 030/07 RMK AO2
14840KMKG MKG20020926213509509/26/02 21:35:31  5-MIN KMKG 270235Z 03006KT 9SM OVC049 17/14 A2986 690 80 1100 040/06 RMK AO2
14840KMKG MKG20020926214009509/26/02 21:40:31  5-MIN KMKG 270240Z 03007KT 9SM OVC049 17/14 A2986 690 80 1100 030/07 RMK AO2
14840KMKG MKG20020926214509609/26/02 21:45:31  5-MIN KMKG 270245Z 03005KT 10SM OVC049 17/14 A2986 690 80 1200 030/05 RMK AO2
14840KMKG MKG20020926215011909/26/02 21:50:31  5-MIN KMKG 270250Z 03006KT 10SM OVC049 17/14 A2985 690 80 1200 030/06 RMK AO2 SLP108 T01720139 58007
14840KMKG MKG20020926215511909/26/02 21:55:31  5-MIN KMKG 270255Z 04005KT 10SM OVC049 17/14 A2985 690 83 1100 040/05 RMK AO2 SLP107 T01670139 58007
14840KMKG MKG20020926220009609/26/02 22:00:31  5-MIN KMKG 270300Z 05005KT 10SM OVC049 17/14 A2985 700 83 1100 050/05 RMK AO2
14840KMKG MKG20020926220509509/26/02 22:05:31  5-MIN KMKG 270305Z 05005KT 9SM BKN049 17/14 A2985 700 83 1100 050/05 RMK AO2
14840KMKG MKG20020926221009509/26/02 22:10:31  5-MIN KMKG 270310Z 04004KT 9SM BKN049 16/14 A2985 700 86 1000 040/04 RMK AO2
14840KMKG MKG20020926221509509/26/02 22:15:31  5-MIN KMKG 270315Z 05003KT 9SM SCT049 17/14 A2984 700 83 1100 050/03 RMK AO2
14840KMKG MKG20020926222009509/26/02 22:20:31  5-MIN KMKG 270320Z 05005KT 9SM SCT049 16/14 A2984 700 86 1000 050/05 RMK AO2
14840KMKG MKG20020926222509509/26/02 22:25:31  5-MIN KMKG 270325Z 04004KT 9SM FEW049 16/14 A2984 700 86 1000 040/04 RMK AO2
14840KMKG MKG20020926223009209/26/02 22:30:31  5-MIN KMKG 270330Z 04004KT 9SM CLR 16/14 A2984 700 86 1000 050/04 RMK AO2
14840KMKG MKG20020926223509509/26/02 22:35:31  5-MIN KMKG 270335Z 05003KT 8SM FEW050 16/14 A2984 700 86 1000 050/03 RMK AO2
14840KMKG MKG20020926224009509/26/02 22:40:31  5-MIN KMKG 270340Z 05003KT 8SM BKN050 16/14 A2984 700 86 1000 050/03 RMK AO2
14840KMKG MKG20020926224509509/26/02 22:45:31  5-MIN KMKG 270345Z 00000KT 8SM BKN050 16/14 A2984 700 86 1000 000/00 RMK AO2
14840KMKG MKG20020926225011209/26/02 22:50:31  5-MIN KMKG 270350Z 06003KT 8SM BKN050 16/14 A2984 700 86 1000 070/03 RMK AO2 SLP104 T01610139
14840KMKG MKG20020926225511209/26/02 22:55:31  5-MIN KMKG 270355Z 06003KT 8SM BKN050 16/14 A2984 700 86 1000 060/03 RMK AO2 SLP104 T01610139
14840KMKG MKG20020926230009509/26/02 23:00:31  5-MIN KMKG 270400Z 00000KT 7SM BKN050 16/14 A2984 700 86 1000 000/00 RMK AO2
14840KMKG MKG20020926230509509/26/02 23:05:31  5-MIN KMKG 270405Z 05003KT 7SM BKN050 16/14 A2984 710 86 1000 060/03 RMK AO2
14840KMKG MKG20020926231009509/26/02 23:10:31  5-MIN KMKG 270410Z 00000KT 7SM SCT050 16/14 A2984 710 86 1000 000/00 RMK AO2
14840KMKG MKG20020926231509509/26/02 23:15:31  5-MIN KMKG 270415Z 00000KT 7SM SCT050 16/14 A2983 710 90 1000 000/00 RMK AO2
14840KMKG MKG20020926232009509/26/02 23:20:31  5-MIN KMKG 270420Z 00000KT 7SM FEW050 16/13 A2983 710 86 1000 000/00 RMK AO2
14840KMKG MKG20020926232509209/26/02 23:25:31  5-MIN KMKG 270425Z 00000KT 7SM CLR 16/13 A2983 710 86 1000 000/00 RMK AO2
14840KMKG MKG20020926233009209/26/02 23:30:31  5-MIN KMKG 270430Z 00000KT 7SM CLR 16/13 A2983 710 86 1000 000/00 RMK AO2
14840KMKG MKG20020926233509209/26/02 23:35:31  5-MIN KMKG 270435Z 05003KT 7SM CLR 16/13 A2983 720 86 1000 050/03 RMK AO2
14840KMKG MKG20020926234009209/26/02 23:40:31  5-MIN KMKG 270440Z 05003KT 7SM CLR 16/13 A2983 720 86 1000 050/03 RMK AO2
14840KMKG MKG20020926234509509/26/02 23:45:31  5-MIN KMKG 270445Z 00000KT 6SM BR CLR 16/13 A2983 720 86 1000 000/00 RMK AO2
14840KMKG MKG20020926235012209/26/02 23:50:31  5-MIN KMKG 270450Z 06003KT 6SM BR CLR 16/13 A2982 720 86 1000 070/03 RMK AO2 SLP097 T01560133 402330078
14840KMKG MKG20020926235512209/26/02 23:55:31  5-MIN KMKG 270455Z 07004KT 6SM BR CLR 16/13 A2982 720 86 1000 070/04 RMK AO2 SLP096 T01560133 402330078
14840KMKG MKG20020927000009409/27/02 00:00:31  5-MIN KMKG 270500Z 06004KT 6SM BR CLR 15/13 A2982 720 90 900 060/04 RMK AO2
14840KMKG MKG20020927000509409/27/02 00:05:31  5-MIN KMKG 270505Z 05003KT 6SM BR CLR 15/13 A2982 720 90 900 060/03 RMK AO2
14840KMKG MKG20020927001009409/27/02 00:10:31  5-MIN KMKG 270510Z 06003KT 6SM BR CLR 15/13 A2982 720 90 900 070/03 RMK AO2
14840KMKG MKG20020927001509509/27/02 00:15:31  5-MIN KMKG 270515Z 07004KT 6SM BR CLR 16/13 A2982 720 86 1000 070/04 RMK AO2
14840KMKG MKG20020927002009709/27/02 00:20:31  5-MIN KMKG 270520Z 07004KT 6SM BR FEW050 15/13 A2982 720 90 900 070/04 RMK AO2
14840KMKG MKG20020927002509709/27/02 00:25:31  5-MIN KMKG 270525Z 08004KT 6SM BR FEW050 15/13 A2982 720 90 900 090/04 RMK AO2
14840KMKG MKG20020927003009709/27/02 00:30:31  5-MIN KMKG 270530Z 11004KT 6SM BR FEW050 15/13 A2982 720 90 900 110/04 RMK AO2
14840KMKG MKG20020927003509709/27/02 00:35:31  5-MIN KMKG 270535Z 11005KT 6SM BR FEW050 15/13 A2982 730 90 900 110/05 RMK AO2
14840KMKG MKG20020927004009709/27/02 00:40:31  5-MIN KMKG 270540Z 10004KT 5SM BR FEW050 14/13 A2982 730 93 900 110/04 RMK AO2
14840KMKG MKG20020927004509709/27/02 00:45:31  5-MIN KMKG 270545Z 10005KT 5SM BR FEW050 14/13 A2981 730 93 900 110/05 RMK AO2
14840KMKG MKG20020927005012909/27/02 00:50:31  5-MIN KMKG 270550Z 10005KT 5SM BR CLR 14/13 A2981 730 93 900 110/05 RMK AO2 SLP093 T01440133 10178 20144 58007
14840KMKG MKG20020927005512909/27/02 00:55:31  5-MIN KMKG 270555Z 10005KT 5SM BR CLR 14/13 A2981 730 93 900 110/05 RMK AO2 SLP093 T01440133 10178 20144 56014
14840KMKG MKG20020927010009409/27/02 01:00:31  5-MIN KMKG 270600Z 10004KT 5SM BR CLR 14/13 A2981 730 93 900 110/04 RMK AO2
14840KMKG MKG20020927010509409/27/02 01:05:31  5-MIN KMKG 270605Z 10004KT 4SM BR CLR 14/13 A2981 740 93 900 100/04 RMK AO2
14840KMKG MKG20020927011009409/27/02 01:10:31  5-MIN KMKG 270610Z 00000KT 4SM BR CLR 14/13 A2981 740 96 800 000/00 RMK AO2
14840KMKG MKG20020927011509409/27/02 01:15:31  5-MIN KMKG 270615Z 00000KT 4SM BR CLR 14/13 A2980 740 93 900 000/00 RMK AO2
14840KMKG MKG20020927012009409/27/02 01:20:31  5-MIN KMKG 270620Z 00000KT 4SM BR CLR 14/13 A2980 740 93 900 000/00 RMK AO2
14840KMKG MKG20020927012509409/27/02 01:25:31  5-MIN KMKG 270625Z 00000KT 4SM BR CLR 14/13 A2980 740 93 900 000/00 RMK AO2
14840KMKG MKG20020927013009409/27/02 01:30:31  5-MIN KMKG 270630Z 11003KT 5SM BR CLR 14/13 A2980 740 93 900 110/03 RMK AO2
14840KMKG MKG20020927013509409/27/02 01:35:31  5-MIN KMKG 270635Z 11004KT 4SM BR CLR 14/13 A2980 740 96 800 120/04 RMK AO2
14840KMKG MKG20020927014009409/27/02 01:40:31  5-MIN KMKG 270640Z 11004KT 4SM BR CLR 14/13 A2980 740 96 800 120/04 RMK AO2
14840KMKG MKG20020927014509409/27/02 01:45:31  5-MIN KMKG 270645Z 11004KT 4SM BR CLR 14/13 A2980 750 96 800 120/04 RMK AO2
14840KMKG MKG20020927015011109/27/02 01:50:31  5-MIN KMKG 270650Z 11003KT 4SM BR CLR 14/13 A2979 750 96 800 120/03 RMK AO2 SLP088 T01390133
14840KMKG MKG20020927015511109/27/02 01:55:31  5-MIN KMKG 270655Z 00000KT 4SM BR CLR 14/13 A2979 750 93 800 000/00 RMK AO2 SLP087 T01390128
14840KMKG MKG20020927020009409/27/02 02:00:31  5-MIN KMKG 270700Z 00000KT 4SM BR CLR 14/13 A2979 750 96 800 000/00 RMK AO2
14840KMKG MKG20020927020509409/27/02 02:05:31  5-MIN KMKG 270705Z 00000KT 4SM BR CLR 14/13 A2979 750 93 900 000/00 RMK AO2
14840KMKG MKG20020927021009409/27/02 02:10:31  5-MIN KMKG 270710Z 00000KT 4SM BR CLR 14/13 A2979 750 93 900 000/00 RMK AO2
14840KMKG MKG20020927021509409/27/02 02:15:31  5-MIN KMKG 270715Z 00000KT 4SM BR CLR 14/13 A2979 750 93 900 000/00 RMK AO2
14840KMKG MKG20020927022009409/27/02 02:20:31  5-MIN KMKG 270720Z 00000KT 4SM BR CLR 14/13 A2978 760 90 900 000/00 RMK AO2
14840KMKG MKG20020927022509409/27/02 02:25:31  5-MIN KMKG 270725Z 00000KT 4SM BR CLR 14/13 A2978 760 90 900 000/00 RMK AO2
14840KMKG MKG20020927023009409/27/02 02:30:31  5-MIN KMKG 270730Z 00000KT 5SM BR CLR 14/13 A2978 760 93 900 000/00 RMK AO2
14840KMKG MKG20020927023509409/27/02 02:35:31  5-MIN KMKG 270735Z 05003KT 5SM BR CLR 14/13 A2978 760 93 900 050/03 RMK AO2
14840KMKG MKG20020927024009409/27/02 02:40:31  5-MIN KMKG 270740Z 05003KT 4SM BR CLR 14/13 A2978 760 93 900 060/03 RMK AO2
14840KMKG MKG20020927024509409/27/02 02:45:31  5-MIN KMKG 270745Z 00000KT 4SM BR CLR 14/13 A2977 770 93 900 000/00 RMK AO2
14840KMKG MKG20020927025011109/27/02 02:50:31  5-MIN KMKG 270750Z 02003KT 4SM BR CLR 14/13 A2977 770 93 900 030/03 RMK AO2 SLP081 T01390128
14840KMKG MKG20020927025511109/27/02 02:55:31  5-MIN KMKG 270755Z 03003KT 4SM BR CLR 14/13 A2977 770 93 900 040/03 RMK AO2 SLP080 T01390128
14840KMKG MKG20020927030009409/27/02 03:00:31  5-MIN KMKG 270800Z 03003KT 4SM BR CLR 14/13 A2977 770 93 900 040/03 RMK AO2
14840KMKG MKG20020927030509409/27/02 03:05:31  5-MIN KMKG 270805Z 05003KT 5SM BR CLR 14/13 A2977 770 93 900 050/03 RMK AO2
14840KMKG MKG20020927031009409/27/02 03:10:31  5-MIN KMKG 270810Z 07003KT 4SM BR CLR 14/13 A2977 770 93 900 070/03 RMK AO2
14840KMKG MKG20020927031509409/27/02 03:15:31  5-MIN KMKG 270815Z 06003KT 4SM BR CLR 13/13 A2977 770 96 800 070/03 RMK AO2
14840KMKG MKG20020927032009409/27/02 03:20:31  5-MIN KMKG 270820Z 04003KT 4SM BR CLR 14/13 A2977 770 93 900 050/03 RMK AO2
14840KMKG MKG20020927032509409/27/02 03:25:31  5-MIN KMKG 270825Z 04003KT 4SM BR CLR 14/13 A2976 780 93 900 040/03 RMK AO2
14840KMKG MKG20020927033009409/27/02 03:30:31  5-MIN KMKG 270830Z 00000KT 4SM BR CLR 14/13 A2976 780 93 900 000/00 RMK AO2
14840KMKG MKG20020927033509409/27/02 03:35:31  5-MIN KMKG 270835Z 00000KT 4SM BR CLR 14/13 A2976 780 93 900 000/00 RMK AO2
14840KMKG MKG20020927034009409/27/02 03:40:31  5-MIN KMKG 270840Z 03003KT 4SM BR CLR 14/13 A2976 780 93 900 040/03 RMK AO2
14840KMKG MKG20020927034509409/27/02 03:45:31  5-MIN KMKG 270845Z 02003KT 4SM BR CLR 14/13 A2976 780 93 900 020/03 RMK AO2
14840KMKG MKG20020927035011709/27/02 03:50:31  5-MIN KMKG 270850Z 02003KT 4SM BR CLR 14/13 A2976 780 93 900 030/03 RMK AO2 SLP077 T01390128 56014
14840KMKG MKG20020927035511709/27/02 03:55:31  5-MIN KMKG 270855Z 01003KT 4SM BR CLR 14/13 A2976 780 93 900 010/03 RMK AO2 SLP077 T01390128 56015
14840KMKG MKG20020927040009409/27/02 04:00:31  5-MIN KMKG 270900Z 00000KT 4SM BR CLR 14/13 A2976 770 93 900 000/00 RMK AO2
14840KMKG MKG20020927040509409/27/02 04:05:31  5-MIN KMKG 270905Z 00000KT 4SM BR CLR 14/13 A2976 770 93 900 000/00 RMK AO2
14840KMKG MKG20020927041009409/27/02 04:10:31  5-MIN KMKG 270910Z 00000KT 4SM BR CLR 13/13 A2976 780 96 800 000/00 RMK AO2
14840KMKG MKG20020927041509409/27/02 04:15:31  5-MIN KMKG 270915Z VRB03KT 4SM BR CLR 13/13 A2976 780 96 800 VRB/03 RMK AO2
14840KMKG MKG20020927042009409/27/02 04:20:31  5-MIN KMKG 270920Z VRB03KT 4SM BR CLR 13/13 A2977 770 96 800 VRB/03 RMK AO2
14840KMKG MKG20020927042509709/27/02 04:25:31  5-MIN KMKG 270925Z 36004KT 4SM BR SCT050 14/13 A2976 780 96 900 010/04 RMK AO2
14840KMKG MKG20020927043009709/27/02 04:30:31  5-MIN KMKG 270930Z 35003KT 4SM BR SCT050 14/13 A2976 780 96 900 350/03 RMK AO2
14840KMKG MKG20020927043509809/27/02 04:35:31  5-MIN KMKG 270935Z 36003KT 3SM BR FEW050 13/13 A2976 770 100 800 360/03 RMK AO2
14840KMKG MKG20020927044009809/27/02 04:40:31  5-MIN KMKG 270940Z 00000KT 3SM BR SCT050 13/13 A2977 770 100 800 000/00 RMK AO2
14840KMKG MKG20020927044509709/27/02 04:45:31  5-MIN KMKG 270945Z 00000KT 3SM BR BKN050 14/13 A2976 770 96 900 000/00 RMK AO2
14840KMKG MKG20020927045011509/27/02 04:50:31  5-MIN KMKG 270950Z 00000KT 3SM BR BKN050 13/13 A2976 770 100 800 000/00 RMK AO2 SLP077 T01330133
14840KMKG MKG20020927045511409/27/02 04:55:31  5-MIN KMKG 270955Z 35005KT 3SM BR BKN050 14/13 A2977 770 96 900 350/05 RMK AO2 SLP078 T01390133
14840KMKG MKG20020927050009709/27/02 05:00:31  5-MIN KMKG 271000Z 35005KT 3SM BR OVC050 14/13 A2977 770 96 900 360/05 RMK AO2
14840KMKG MKG20020927050509709/27/02 05:05:31  5-MIN KMKG 271005Z 36003KT 3SM BR OVC050 14/13 A2977 770 96 900 010/03 RMK AO2
14840KMKG MKG20020927051009709/27/02 05:10:31  5-MIN KMKG 271010Z 36004KT 3SM BR OVC050 14/13 A2977 770 96 900 360/04 RMK AO2
14840KMKG MKG20020927051509709/27/02 05:15:31  5-MIN KMKG 271015Z 36003KT 3SM BR OVC050 14/13 A2977 770 96 900 360/03 RMK AO2
14840KMKG MKG20020927052009709/27/02 05:20:31  5-MIN KMKG 271020Z 04004KT 3SM BR BKN055 14/13 A2977 770 96 900 050/04 RMK AO2
14840KMKG MKG20020927052509709/27/02 05:25:31  5-MIN KMKG 271025Z 03004KT 3SM BR BKN055 14/13 A2977 770 96 900 040/04 RMK AO2
14840KMKG MKG20020927053009709/27/02 05:30:31  5-MIN KMKG 271030Z 04003KT 4SM BR BKN055 14/13 A2977 770 96 900 040/03 RMK AO2
14840KMKG MKG20020927053509709/27/02 05:35:31  5-MIN KMKG 271035Z 06004KT 4SM BR SCT055 14/13 A2977 770 96 900 060/04 RMK AO2
14840KMKG MKG20020927054009809/27/02 05:40:31  5-MIN KMKG 271040Z 04005KT 3SM BR FEW055 13/13 A2977 770 100 800 040/05 RMK AO2
14840KMKG MKG20020927054509809/27/02 05:45:31  5-MIN KMKG 271045Z 03005KT 3SM BR FEW050 13/13 A2977 770 100 800 030/05 RMK AO2
14840KMKG MKG20020927055011409/27/02 05:50:31  5-MIN KMKG 271050Z 03005KT 4SM BR FEW050 14/13 A2977 770 96 900 040/05 RMK AO2 SLP080 T01390133
14840KMKG MKG20020927055511409/27/02 05:55:31  5-MIN KMKG 271055Z 02004KT 4SM BR SCT050 14/13 A2977 770 96 900 020/04 RMK AO2 SLP080 T01390133
14840KMKG MKG20020927060009709/27/02 06:00:31  5-MIN KMKG 271100Z 01004KT 4SM BR SCT050 14/13 A2977 770 96 900 020/04 RMK AO2
14840KMKG MKG20020927060509709/27/02 06:05:31  5-MIN KMKG 271105Z 01003KT 3SM BR SCT050 14/13 A2977 770 96 900 010/03 RMK AO2
14840KMKG MKG20020927061009709/27/02 06:10:31  5-MIN KMKG 271110Z 36003KT 3SM BR SCT050 14/13 A2977 770 96 900 010/03 RMK AO2
14840KMKG MKG20020927061509709/27/02 06:15:31  5-MIN KMKG 271115Z VRB03KT 3SM BR SCT050 14/13 A2976 770 93 900 VRB/03 RMK AO2
14840KMKG MKG20020927062010709/27/02 06:20:31  5-MIN KMKG 271120Z 08003KT 2SM BR FEW050 13/13 A2977 770 96 800 090/03 RMK AO2 SFC VIS 3
14840KMKG MKG20020927062510709/27/02 06:25:31  5-MIN KMKG 271125Z 08003KT 2SM BR FEW050 13/13 A2977 770 96 800 090/03 RMK AO2 SFC VIS 3
14840KMKG MKG20020927063010709/27/02 06:30:31  5-MIN KMKG 271130Z 08003KT 2SM BR FEW050 13/13 A2977 770 96 800 090/03 RMK AO2 SFC VIS 3
14840KMKG MKG20020927063510709/27/02 06:35:31  5-MIN KMKG 271135Z 00000KT 2SM BR SCT050 13/13 A2977 770 96 800 000/00 RMK AO2 SFC VIS 3
14840KMKG MKG20020927064010709/27/02 06:40:31  5-MIN KMKG 271140Z 06003KT 2SM BR SCT050 13/13 A2977 770 96 800 060/03 RMK AO2 SFC VIS 3
14840KMKG MKG20020927064511109/27/02 06:45:31  5-MIN KMKG 271145Z 04003KT 2 1/2SM BR BKN050 13/13 A2977 770 96 800 040/03 RMK AO2 SFC VIS 3
14840KMKG MKG20020927065013609/27/02 06:50:31  5-MIN KMKG 271150Z 06003KT 2 1/2SM BR BKN050 13/13 A2977 770 96 800 060/03 RMK AO2 SLP079 T01330128 10144 20133 56015
14840KMKG MKG20020927065514609/27/02 06:55:31  5-MIN KMKG 271155Z 05003KT 2SM BR BKN050 13/13 A2976 780 96 800 050/03 RMK AO2 TWR VIS 2 1/2 SLP078 T01330128 10144 20133 50000
14840KMKG MKG20020927070011509/27/02 07:00:31  5-MIN KMKG 271200Z 35004KT 1 3/4SM BR BKN050 13/13 A2977 770 96 800 350/04 RMK AO2 TWR VIS 2 1/2
14840KMKG MKG20020927070511609/27/02 07:05:31  5-MIN KMKG 271205Z VRB03KT 1 3/4SM BR SCT050 13/13 A2977 770 100 800 VRB/03 RMK AO2 TWR VIS 2 1/2
14840KMKG MKG20020927071011609/27/02 07:10:31  5-MIN KMKG 271210Z VRB03KT 1 3/4SM BR SCT050 13/13 A2976 780 100 800 VRB/03 RMK AO2 TWR VIS 2 1/2
14840KMKG MKG20020927071511509/27/02 07:15:31  5-MIN KMKG 271215Z 34003KT 1 3/4SM BR FEW050 13/13 A2977 770 96 800 340/03 RMK AO2 TWR VIS 2 1/2
14840KMKG MKG20020927072011309/27/02 07:20:31  5-MIN KMKG 271220Z 36003KT 1 3/4SM BR CLR 13/13 A2977 770 100 800 360/03 RMK AO2 TWR VIS 2 1/2
14840KMKG MKG20020927072511309/27/02 07:25:31  5-MIN KMKG 271225Z VRB03KT 1 3/4SM BR CLR 13/13 A2977 770 100 800 VRB/03 RMK AO2 TWR VIS 2 1/2
14840KMKG MKG20020927073011309/27/02 07:30:31  5-MIN KMKG 271230Z 02003KT 1 3/4SM BR CLR 13/13 A2976 780 100 800 030/03 RMK AO2 TWR VIS 2 1/2
14840KMKG MKG20020927073511309/27/02 07:35:31  5-MIN KMKG 271235Z 36004KT 1 1/2SM BR CLR 13/13 A2976 780 100 800 360/04 RMK AO2 TWR VIS 2 1/2
14840KMKG MKG20020927074011309/27/02 07:40:31  5-MIN KMKG 271240Z 01004KT 1 1/2SM BR CLR 13/13 A2977 770 100 800 010/04 RMK AO2 TWR VIS 2 1/2
14840KMKG MKG20020927074511309/27/02 07:45:31  5-MIN KMKG 271245Z 36004KT 1 1/2SM BR CLR 13/13 A2976 770 100 800 360/04 RMK AO2 TWR VIS 2 1/2
14840KMKG MKG20020927075012909/27/02 07:50:31  5-MIN KMKG 271250Z 35004KT 1 1/2SM BR CLR 13/13 A2977 770 96 800 360/04 RMK AO2 TWR VIS 2 1/2 SLP079 T01330128
14840KMKG MKG20020927075512909/27/02 07:55:31  5-MIN KMKG 271255Z 35005KT 1 1/2SM BR CLR 13/13 A2977 770 96 800 350/05 RMK AO2 TWR VIS 2 1/2 SLP079 T01330128
14840KMKG MKG20020927080011309/27/02 08:00:31  5-MIN KMKG 271300Z 36005KT 1 1/2SM BR CLR 13/13 A2977 770 100 700 360/05 RMK AO2 TWR VIS 2 1/2
14840KMKG MKG20020927080511209/27/02 08:05:31  5-MIN KMKG 271305Z 36005KT 1 1/2SM BR CLR 13/13 A2977 770 96 800 010/05 RMK AO2 TWR VIS 2 1/2
14840KMKG MKG20020927081011209/27/02 08:10:31  5-MIN KMKG 271310Z 36005KT 1 1/2SM BR CLR 13/13 A2977 770 96 800 360/05 RMK AO2 TWR VIS 2 1/2
14840KMKG MKG20020927081511609/27/02 08:15:31  5-MIN KMKG 271315Z 36005KT 1 1/2SM BR SCT050 13/13 A2977 770 100 800 010/05 RMK AO2 TWR VIS 2 1/2
14840KMKG MKG20020927082011509/27/02 08:20:31  5-MIN KMKG 271320Z 01005KT 1 1/2SM BR BKN050 14/13 A2977 770 96 900 010/05 RMK AO2 TWR VIS 2 1/2
14840KMKG MKG20020927082511509/27/02 08:25:31  5-MIN KMKG 271325Z 36008KT 1 3/4SM BR BKN050 14/13 A2978 760 96 900 360/08 RMK AO2 TWR VIS 2 1/2
14840KMKG MKG20020927083011509/27/02 08:30:31  5-MIN KMKG 271330Z 34008KT 1 3/4SM BR BKN050 14/13 A2978 760 96 900 350/08 RMK AO2 TWR VIS 2 1/2
14840KMKG MKG20020927083511809/27/02 08:35:31  5-MIN KMKG 271335Z 35007KT 2SM BR BKN050 BKN060 14/13 A2978 760 96 900 360/07 RMK AO2 TWR VIS 2 1/2
14840KMKG MKG20020927084011109/27/02 08:40:31  5-MIN KMKG 271340Z 36008KT 2SM BR BKN050 14/13 A2978 760 93 900 360/08 RMK AO2 TWR VIS 2 1/2
14840KMKG MKG20020927084510109/27/02 08:45:31  5-MIN KMKG 271345Z 02007KT 2 1/2SM BR SCT050 14/13 A2978 760 93 900 020/07 RMK AO2
14840KMKG MKG20020927085012809/27/02 08:50:31  5-MIN KMKG 271350Z 02006KT 2 1/2SM BR FEW050 14/13 A2978 760 93 900 020/06 RMK AO2 TWR VIS 3 SLP082 T01440133
14840KMKG MKG20020927085512809/27/02 08:55:31  5-MIN KMKG 271355Z 01008KT 2 1/2SM BR SCT050 14/13 A2977 770 93 900 020/08 RMK AO2 TWR VIS 3 SLP081 T01440133
14840KMKG MKG20020927090009409/27/02 09:00:31  5-MIN KMKG 271400Z 02007KT 3SM BR CLR 14/13 A2977 770 93 900 020/07 RMK AO2
14840KMKG MKG20020927090509809/27/02 09:05:31  5-MIN KMKG 271405Z 01009KT 3SM BR SCT050 15/13 A2977 770 90 1000 010/09 RMK AO2
14840KMKG MKG20020927091010809/27/02 09:10:31  5-MIN KMKG 271410Z 36008KT 3SM BR SCT050 16/14 A2978 760 90 1000 360/08 RMK AO2 SFC VIS 3
14840KMKG MKG20020927091510809/27/02 09:15:31  5-MIN KMKG 271415Z 36009KT 3SM BR SCT050 16/14 A2978 760 90 1000 010/09 RMK AO2 SFC VIS 4
14840KMKG MKG20020927092009809/27/02 09:20:31  5-MIN KMKG 271420Z 02007KT 4SM BR SCT050 16/14 A2977 770 86 1100 020/07 RMK AO2
14840KMKG MKG20020927092509809/27/02 09:25:31  5-MIN KMKG 271425Z 02010KT 4SM BR SCT050 16/14 A2977 770 86 1100 020/10 RMK AO2
14840KMKG MKG20020927093009809/27/02 09:30:31  5-MIN KMKG 271430Z 04010KT 4SM BR FEW050 16/14 A2977 770 86 1100 040/10 RMK AO2
14840KMKG MKG20020927093509809/27/02 09:35:31  5-MIN KMKG 271435Z 03008KT 5SM BR FEW050 16/14 A2977 770 86 1100 030/08 RMK AO2
14840KMKG MKG20020927094009809/27/02 09:40:31  5-MIN KMKG 271440Z 03007KT 5SM HZ FEW050 17/14 A2977 770 83 1200 030/07 RMK AO2
14840KMKG MKG20020927094509809/27/02 09:45:31  5-MIN KMKG 271445Z 04006KT 5SM HZ FEW050 17/14 A2977 770 83 1200 040/06 RMK AO2
14840KMKG MKG20020927095011809/27/02 09:50:31  5-MIN KMKG 271450Z 01008KT 5SM HZ CLR 17/14 A2977 770 80 1300 010/08 RMK AO2 SLP079 T01720139 50000
14840KMKG MKG20020927095511809/27/02 09:55:31  5-MIN KMKG 271455Z 02006KT 5SM HZ CLR 17/14 A2977 770 83 1200 020/06 RMK AO2 SLP080 T01670139 50002
14840KMKG MKG20020927100009509/27/02 10:00:31  5-MIN KMKG 271500Z 02008KT 6SM HZ CLR 17/14 A2977 770 83 1300 020/08 RMK AO2
14840KMKG MKG20020927100509509/27/02 10:05:31  5-MIN KMKG 271505Z 03008KT 6SM HZ CLR 17/14 A2977 770 83 1300 030/08 RMK AO2
14840KMKG MKG20020927101009809/27/02 10:10:31  5-MIN KMKG 271510Z 01008KT 6SM HZ FEW048 18/14 A2977 770 81 1300 020/08 RMK AO2
14840KMKG MKG20020927101509809/27/02 10:15:31  5-MIN KMKG 271515Z 01007KT 6SM HZ FEW048 18/14 A2977 770 81 1300 020/07 RMK AO2
14840KMKG MKG20020927102009809/27/02 10:20:31  5-MIN KMKG 271520Z 01008KT 6SM HZ FEW048 18/14 A2978 760 78 1400 010/08 RMK AO2
14840KMKG MKG20020927102509809/27/02 10:25:31  5-MIN KMKG 271525Z 01011KT 6SM HZ FEW048 18/14 A2978 760 78 1400 010/11 RMK AO2
14840KMKG MKG20020927103009809/27/02 10:30:31  5-MIN KMKG 271530Z 02010KT 6SM HZ FEW048 18/14 A2978 760 81 1300 030/10 RMK AO2
14840KMKG MKG20020927103509809/27/02 10:35:31  5-MIN KMKG 271535Z 02009KT 6SM HZ FEW048 18/14 A2978 760 81 1300 030/09 RMK AO2
14840KMKG MKG20020927104009809/27/02 10:40:31  5-MIN KMKG 271540Z 01010KT 6SM HZ FEW048 18/14 A2978 760 78 1400 020/10 RMK AO2
14840KMKG MKG20020927104509809/27/02 10:45:31  5-MIN KMKG 271545Z 01010KT 6SM HZ FEW048 18/14 A2978 760 78 1400 010/10 RMK AO2
14840KMKG MKG20020927105011209/27/02 10:50:31  5-MIN KMKG 271550Z 34010KT 7SM FEW048 18/14 A2978 760 78 1400 350/10 RMK AO2 SLP083 T01830144
14840KMKG MKG20020927105511909/27/02 10:55:31  5-MIN KMKG 271555Z 35010KT 7SM FEW050 SCT060 18/14 A2978 760 81 1300 350/10 RMK AO2 SLP082 T01780144
14840KMKG MKG20020927110009509/27/02 11:00:31  5-MIN KMKG 271600Z 34007KT 7SM SCT055 18/14 A2978 760 81 1300 350/07 RMK AO2
14840KMKG MKG20020927110509509/27/02 11:05:31  5-MIN KMKG 271605Z 34010KT 7SM SCT055 18/14 A2978 760 81 1300 340/10 RMK AO2
14840KMKG MKG20020927111010209/27/02 11:10:31  5-MIN KMKG 271610Z 36008KT 7SM SCT050 SCT060 18/14 A2978 760 81 1300 360/08 RMK AO2
14840KMKG MKG20020927111509509/27/02 11:15:31  5-MIN KMKG 271615Z 01010KT 7SM SCT055 18/14 A2978 760 81 1300 020/10 RMK AO2
14840KMKG MKG20020927112009509/27/02 11:20:31  5-MIN KMKG 271620Z 01010KT 7SM FEW050 18/14 A2978 760 78 1400 020/10 RMK AO2
14840KMKG MKG20020927112509509/27/02 11:25:31  5-MIN KMKG 271625Z 36009KT 8SM FEW055 19/14 A2978 760 75 1400 360/09 RMK AO2
14840KMKG MKG20020927113009509/27/02 11:30:31  5-MIN KMKG 271630Z 35007KT 8SM FEW050 18/14 A2978 760 78 1400 360/07 RMK AO2
14840KMKG MKG20020927113509209/27/02 11:35:31  5-MIN KMKG 271635Z 03010KT 8SM CLR 18/14 A2978 760 78 1400 030/10 RMK AO2
14840KMKG MKG20020927114009209/27/02 11:40:31  5-MIN KMKG 271640Z 03008KT 8SM CLR 19/14 A2978 760 75 1400 030/08 RMK AO2
14840KMKG MKG20020927114509209/27/02 11:45:31  5-MIN KMKG 271645Z 02008KT 8SM CLR 19/14 A2978 760 75 1400 020/08 RMK AO2
14840KMKG MKG20020927115010909/27/02 11:50:31  5-MIN KMKG 271650Z 36009KT 8SM CLR 19/14 A2978 760 72 1500 360/09 RMK AO2 SLP081 T01940144
14840KMKG MKG20020927115510909/27/02 11:55:31  5-MIN KMKG 271655Z 34009KT 8SM CLR 19/14 A2978 760 72 1500 340/09 RMK AO2 SLP081 T01940144
14840KMKG MKG20020927120009209/27/02 12:00:31  5-MIN KMKG 271700Z 36010KT 9SM CLR 19/14 A2977 770 72 1500 010/10 RMK AO2
14840KMKG MKG20020927120509209/27/02 12:05:31  5-MIN KMKG 271705Z 01010KT 9SM CLR 19/14 A2978 760 72 1500 010/10 RMK AO2
14840KMKG MKG20020927121009209/27/02 12:10:31  5-MIN KMKG 271710Z 36007KT 9SM CLR 19/14 A2978 760 72 1500 360/07 RMK AO2
14840KMKG MKG20020927121509209/27/02 12:15:31  5-MIN KMKG 271715Z 34008KT 9SM CLR 21/15 A2977 770 70 1600 340/08 RMK AO2
14840KMKG MKG20020927122009909/27/02 12:20:31  5-MIN KMKG 271720Z 01011G15KT 10SM CLR 20/14 A2977 770 70 1600 010/11G15 RMK AO2
14840KMKG MKG20020927122511509/27/02 12:25:31  5-MIN KMKG 271725Z 01007G15KT 330V030 10SM CLR 20/14 A2978 760 70 1600 010/07G15 330V030 RMK AO2
14840KMKG MKG20020927123009309/27/02 12:30:31  5-MIN KMKG 271730Z 35009KT 10SM CLR 21/14 A2978 760 67 1600 360/09 RMK AO2
14840KMKG MKG20020927123509309/27/02 12:35:31  5-MIN KMKG 271735Z 35009KT 10SM CLR 21/14 A2978 760 67 1600 350/09 RMK AO2
14840KMKG MKG20020927124009309/27/02 12:40:31  5-MIN KMKG 271740Z 36008KT 10SM CLR 21/15 A2978 760 70 1600 360/08 RMK AO2
14840KMKG MKG20020927124509309/27/02 12:45:31  5-MIN KMKG 271745Z 35010KT 10SM CLR 21/15 A2978 760 68 1700 350/10 RMK AO2
14840KMKG MKG20020927125013409/27/02 12:50:31  5-MIN KMKG 271750Z 36010G16KT 10SM CLR 21/14 A2978 770 65 1700 360/10G16 RMK AO2 SLP081 T02110144 10211 20128 50002
14840KMKG MKG20020927125513409/27/02 12:55:31  5-MIN KMKG 271755Z 34007G16KT 10SM CLR 21/14 A2977 770 67 1600 340/07G16 RMK AO2 SLP080 T02060144 10211 20128 50002
14840KMKG MKG20020927130009309/27/02 13:00:31  5-MIN KMKG 271800Z 35007KT 10SM CLR 21/15 A2977 770 68 1700 350/07 RMK AO2
14840KMKG MKG20020927130509309/27/02 13:05:31  5-MIN KMKG 271805Z 34008KT 10SM CLR 21/15 A2977 770 68 1700 350/08 RMK AO2
14840KMKG MKG20020927131009309/27/02 13:10:31  5-MIN KMKG 271810Z 34008KT 10SM CLR 21/14 A2977 770 65 1700 340/08 RMK AO2
14840KMKG MKG20020927131509309/27/02 13:15:31  5-MIN KMKG 271815Z 36010KT 10SM CLR 21/14 A2977 770 65 1700 010/10 RMK AO2
14840KMKG MKG20020927132009309/27/02 13:20:31  5-MIN KMKG 271820Z 35010KT 10SM CLR 22/14 A2977 770 63 1800 350/10 RMK AO2
14840KMKG MKG20020927132510909/27/02 13:25:31  5-MIN KMKG 271825Z 36008KT 330V030 10SM CLR 22/14 A2977 770 63 1800 360/08 330V030 RMK AO2
14840KMKG MKG20020927133009309/27/02 13:30:31  5-MIN KMKG 271830Z 36006KT 10SM CLR 22/15 A2977 770 65 1800 010/06 RMK AO2
14840KMKG MKG20020927133509309/27/02 13:35:31  5-MIN KMKG 271835Z 03008KT 10SM CLR 22/15 A2977 770 65 1800 030/08 RMK AO2
14840KMKG MKG20020927134009309/27/02 13:40:31  5-MIN KMKG 271840Z 02007KT 10SM CLR 22/14 A2977 770 63 1800 020/07 RMK AO2
14840KMKG MKG20020927134509309/27/02 13:45:31  5-MIN KMKG 271845Z 36009KT 10SM CLR 22/14 A2977 770 63 1800 360/09 RMK AO2
14840KMKG MKG20020927135011009/27/02 13:50:31  5-MIN KMKG 271850Z 36009KT 10SM CLR 22/14 A2977 770 61 1800 360/09 RMK AO2 SLP081 T02220144
14840KMKG MKG20020927135511009/27/02 13:55:31  5-MIN KMKG 271855Z 35008KT 10SM CLR 22/14 A2978 760 59 1800 350/08 RMK AO2 SLP081 T02220139
14840KMKG MKG20020927140010909/27/02 14:00:31  5-MIN KMKG 271900Z 35009KT 330V030 10SM CLR 22/14 A2978 760 61 1800 350/09 330V030 RMK AO2
14840KMKG MKG20020927140509309/27/02 14:05:31  5-MIN KMKG 271905Z 34010KT 10SM CLR 22/14 A2978 760 63 1800 340/10 RMK AO2
14840KMKG MKG20020927141009309/27/02 14:10:31  5-MIN KMKG 271910Z 35009KT 10SM CLR 22/14 A2978 760 63 1800 350/09 RMK AO2
14840KMKG MKG20020927141509309/27/02 14:15:31  5-MIN KMKG 271915Z 33009KT 10SM CLR 22/14 A2978 760 61 1800 340/09 RMK AO2
14840KMKG MKG20020927142009609/27/02 14:20:31  5-MIN KMKG 271920Z 33010KT 10SM FEW032 22/14 A2978 760 61 1800 340/10 RMK AO2
14840KMKG MKG20020927142509609/27/02 14:25:31  5-MIN KMKG 271925Z 33010KT 10SM FEW032 22/15 A2978 760 63 1800 330/10 RMK AO2
14840KMKG MKG20020927143009609/27/02 14:30:31  5-MIN KMKG 271930Z 32011KT 10SM FEW032 22/15 A2978 760 63 1800 330/11 RMK AO2
14840KMKG MKG20020927143509609/27/02 14:35:31  5-MIN KMKG 271935Z 35010KT 10SM FEW032 22/14 A2978 760 63 1700 360/10 RMK AO2
14840KMKG MKG20020927144009609/27/02 14:40:31  5-MIN KMKG 271940Z 36011KT 10SM FEW032 22/14 A2978 760 63 1700 010/11 RMK AO2
14840KMKG MKG20020927144509609/27/02 14:45:31  5-MIN KMKG 271945Z 35009KT 10SM FEW032 22/14 A2978 760 63 1700 350/09 RMK AO2
14840KMKG MKG20020927145011309/27/02 14:50:31  5-MIN KMKG 271950Z 32009KT 10SM FEW032 22/14 A2978 760 63 1700 320/09 RMK AO2 SLP084 T02170144
14840KMKG MKG20020927145511309/27/02 14:55:31  5-MIN KMKG 271955Z 33010KT 10SM FEW032 22/15 A2979 750 63 1800 340/10 RMK AO2 SLP085 T02220150
14840KMKG MKG20020927150009609/27/02 15:00:31  5-MIN KMKG 272000Z 33010KT 10SM FEW032 22/14 A2979 750 61 1800 330/10 RMK AO2
14840KMKG MKG20020927150509609/27/02 15:05:31  5-MIN KMKG 272005Z 33009KT 10SM FEW032 22/14 A2979 750 63 1700 330/09 RMK AO2
14840KMKG MKG20020927151009609/27/02 15:10:31  5-MIN KMKG 272010Z 35010KT 10SM FEW032 22/14 A2979 750 63 1700 350/10 RMK AO2
14840KMKG MKG20020927151509609/27/02 15:15:31  5-MIN KMKG 272015Z 33009KT 10SM FEW032 22/14 A2979 750 61 1800 330/09 RMK AO2
14840KMKG MKG20020927152009609/27/02 15:20:31  5-MIN KMKG 272020Z 35008KT 10SM FEW032 22/14 A2979 750 63 1700 360/08 RMK AO2
14840KMKG MKG20020927152509609/27/02 15:25:31  5-MIN KMKG 272025Z 34010KT 10SM FEW032 22/14 A2980 750 61 1800 350/10 RMK AO2
14840KMKG MKG20020927153009609/27/02 15:30:31  5-MIN KMKG 272030Z 34008KT 10SM FEW032 22/14 A2980 740 61 1800 340/08 RMK AO2
14840KMKG MKG20020927153509609/27/02 15:35:31  5-MIN KMKG 272035Z 34008KT 10SM FEW032 22/14 A2980 740 61 1800 340/08 RMK AO2
14840KMKG MKG20020927154009609/27/02 15:40:31  5-MIN KMKG 272040Z 01008KT 10SM FEW032 22/14 A2980 740 61 1800 020/08 RMK AO2
14840KMKG MKG20020927154509609/27/02 15:45:31  5-MIN KMKG 272045Z 01007KT 10SM FEW032 22/14 A2981 740 61 1700 020/07 RMK AO2
14840KMKG MKG20020927155011909/27/02 15:50:31  5-MIN KMKG 272050Z 35009KT 10SM FEW100 22/14 A2981 740 63 1700 350/09 RMK AO2 SLP092 T02170144 50002
14840KMKG MKG20020927155511909/27/02 15:55:31  5-MIN KMKG 272055Z 35007KT 10SM SCT100 21/14 A2981 730 65 1700 360/07 RMK AO2 SLP092 T02110144 53012
14840KMKG MKG20020927160010309/27/02 16:00:31  5-MIN KMKG 272100Z 36008KT 10SM FEW037 BKN100 21/14 A2981 730 65 1700 360/08 RMK AO2
14840KMKG MKG20020927160511009/27/02 16:05:31  5-MIN KMKG 272105Z 01010KT 10SM FEW035 SCT042 BKN100 21/14 A2982 730 65 1600 010/10 RMK AO2
14840KMKG MKG20020927161010309/27/02 16:10:31  5-MIN KMKG 272110Z 01010KT 10SM FEW035 BKN100 21/14 A2982 720 63 1600 020/10 RMK AO2
14840KMKG MKG20020927161510309/27/02 16:15:31  5-MIN KMKG 272115Z 01009KT 10SM FEW035 OVC100 21/14 A2982 720 63 1600 020/09 RMK AO2
14840KMKG MKG20020927162010309/27/02 16:20:31  5-MIN KMKG 272120Z 35011KT 10SM FEW037 OVC100 21/14 A2982 720 63 1600 360/11 RMK AO2
14840KMKG MKG20020927162510309/27/02 16:25:31  5-MIN KMKG 272125Z 34009KT 10SM FEW035 BKN100 21/14 A2983 720 65 1600 350/09 RMK AO2
14840KMKG MKG20020927163010309/27/02 16:30:31  5-MIN KMKG 272130Z 36011KT 10SM FEW035 BKN100 21/14 A2983 720 65 1600 010/11 RMK AO2
14840KMKG MKG20020927163509609/27/02 16:35:31  5-MIN KMKG 272135Z 35008KT 10SM BKN100 21/13 A2983 710 63 1600 360/08 RMK AO2
14840KMKG MKG20020927164009609/27/02 16:40:31  5-MIN KMKG 272140Z 35007KT 10SM BKN100 21/14 A2983 710 65 1600 350/07 RMK AO2
14840KMKG MKG20020927164509609/27/02 16:45:31  5-MIN KMKG 272145Z 33009KT 10SM SCT095 20/15 A2983 710 72 1500 330/09 RMK AO2
14840KMKG MKG20020927165012009/27/02 16:50:31  5-MIN KMKG 272150Z 33011KT 10SM FEW032 SCT090 21/15 A2984 710 70 1600 330/11 RMK AO2 SLP102 T02060150
14840KMKG MKG20020927165512009/27/02 16:55:31  5-MIN KMKG 272155Z 33012KT 10SM FEW032 SCT090 19/14 A2984 710 72 1400 330/12 RMK AO2 SLP103 T01940144
14840KMKG MKG20020927170009609/27/02 17:00:31  5-MIN KMKG 272200Z 34014KT 10SM FEW090 19/14 A2984 700 72 1400 340/14 RMK AO2
14840KMKG MKG20020927170509609/27/02 17:05:31  5-MIN KMKG 272205Z 35011KT 10SM FEW100 19/14 A2985 700 72 1400 360/11 RMK AO2
14840KMKG MKG20020927171009609/27/02 17:10:31  5-MIN KMKG 272210Z 35010KT 10SM SCT100 19/14 A2985 690 72 1400 350/10 RMK AO2
14840KMKG MKG20020927171509609/27/02 17:15:31  5-MIN KMKG 272215Z 01009KT 10SM BKN110 19/14 A2986 690 72 1400 010/09 RMK AO2
14840KMKG MKG20020927172009609/27/02 17:20:31  5-MIN KMKG 272220Z 01011KT 10SM BKN110 19/14 A2986 690 72 1400 010/11 RMK AO2
14840KMKG MKG20020927172509609/27/02 17:25:31  5-MIN KMKG 272225Z 36011KT 10SM BKN110 19/14 A2986 680 70 1400 360/11 RMK AO2
14840KMKG MKG20020927173009609/27/02 17:30:31  5-MIN KMKG 272230Z 35011KT 10SM BKN100 19/14 A2987 680 72 1300 360/11 RMK AO2
14840KMKG MKG20020927173509609/27/02 17:35:31  5-MIN KMKG 272235Z 35009KT 10SM SCT110 19/14 A2987 680 72 1300 360/09 RMK AO2
14840KMKG MKG20020927174009609/27/02 17:40:31  5-MIN KMKG 272240Z 33010KT 10SM SCT100 19/14 A2987 680 75 1300 340/10 RMK AO2
14840KMKG MKG20020927174509609/27/02 17:45:31  5-MIN KMKG 272245Z 36010KT 10SM SCT100 18/14 A2987 670 75 1300 010/10 RMK AO2
14840KMKG MKG20020927175011909/27/02 17:50:31  5-MIN KMKG 272250Z 35011G18KT 10SM FEW100 18/14 A2988 670 75 1300 350/11G18 RMK AO2 SLP117 T01830139
14840KMKG MKG20020927175511909/27/02 17:55:31  5-MIN KMKG 272255Z 35010G18KT 10SM FEW100 18/14 A2988 670 78 1200 350/10G18 RMK AO2 SLP118 T01780139
14840KMKG MKG20020927180009609/27/02 18:00:31  5-MIN KMKG 272300Z 35009KT 10SM FEW080 18/14 A2988 670 78 1200 360/09 RMK AO2
14840KMKG MKG20020927180509609/27/02 18:05:31  5-MIN KMKG 272305Z 35007KT 10SM SCT080 18/14 A2989 660 78 1200 360/07 RMK AO2
14840KMKG MKG20020927181009609/27/02 18:10:31  5-MIN KMKG 272310Z 36009KT 10SM SCT080 18/14 A2989 660 78 1200 360/09 RMK AO2
14840KMKG MKG20020927181509609/27/02 18:15:31  5-MIN KMKG 272315Z 34011KT 10SM SCT080 17/14 A2989 660 80 1100 350/11 RMK AO2
14840KMKG MKG20020927182009609/27/02 18:20:31  5-MIN KMKG 272320Z 35009KT 10SM SCT080 17/14 A2989 660 80 1100 350/09 RMK AO2
14840KMKG MKG20020927182509609/27/02 18:25:31  5-MIN KMKG 272325Z 35010KT 10SM SCT080 17/13 A2990 650 78 1100 360/10 RMK AO2
14840KMKG MKG20020927183009609/27/02 18:30:31  5-MIN KMKG 272330Z 35011KT 10SM FEW080 17/13 A2990 650 78 1100 350/11 RMK AO2
14840KMKG MKG20020927183509609/27/02 18:35:31  5-MIN KMKG 272335Z 35010KT 10SM FEW080 17/13 A2990 650 78 1100 350/10 RMK AO2
14840KMKG MKG20020927184009609/27/02 18:40:31  5-MIN KMKG 272340Z 35012KT 10SM FEW080 17/13 A2991 640 80 1000 350/12 RMK AO2
14840KMKG MKG20020927184509609/27/02 18:45:31  5-MIN KMKG 272345Z 35010KT 10SM FEW080 17/13 A2991 640 80 1000 350/10 RMK AO2
14840KMKG MKG20020927185013109/27/02 18:50:31  5-MIN KMKG 272350Z 35010KT 10SM FEW080 17/13 A2991 640 80 1000 360/10 RMK AO2 SLP129 T01670133 10222 20167 53012
14840KMKG MKG20020927185513109/27/02 18:55:31  5-MIN KMKG 272355Z 36008KT 10SM FEW080 17/13 A2992 630 80 1000 360/08 RMK AO2 SLP130 T01670133 10222 20167 53036
14840KMKG MKG20020927190009609/27/02 19:00:31  5-MIN KMKG 280000Z 36009KT 10SM SCT075 17/13 A2992 630 80 1000 010/09 RMK AO2
14840KMKG MKG20020927190509509/27/02 19:05:31  5-MIN KMKG 280005Z 01009KT 10SM SCT075 16/13 A2992 630 83 900 010/09 RMK AO2
14840KMKG MKG20020927191009509/27/02 19:10:31  5-MIN KMKG 280010Z 02009KT 10SM FEW075 16/13 A2993 630 80 900 020/09 RMK AO2
14840KMKG MKG20020927191509509/27/02 19:15:31  5-MIN KMKG 280015Z 36011KT 10SM FEW075 16/13 A2993 620 80 900 010/11 RMK AO2
14840KMKG MKG20020927192009509/27/02 19:20:31  5-MIN KMKG 280020Z 01009KT 10SM FEW075 16/13 A2993 620 80 900 010/09 RMK AO2
14840KMKG MKG20020927192509509/27/02 19:25:31  5-MIN KMKG 280025Z 01010KT 10SM FEW075 16/12 A2994 610 77 900 010/10 RMK AO2
14840KMKG MKG20020927193009509/27/02 19:30:31  5-MIN KMKG 280030Z 01008KT 10SM FEW090 16/12 A2994 610 80 900 010/08 RMK AO2
14840KMKG MKG20020927193509509/27/02 19:35:31  5-MIN KMKG 280035Z 01010KT 10SM SCT090 16/12 A2994 610 80 900 010/10 RMK AO2
14840KMKG MKG20020927194009509/27/02 19:40:31  5-MIN KMKG 280040Z 36008KT 10SM BKN090 16/12 A2995 610 80 900 010/08 RMK AO2
14840KMKG MKG20020927194509509/27/02 19:45:31  5-MIN KMKG 280045Z 01008KT 10SM BKN095 16/12 A2995 610 80 900 010/08 RMK AO2
14840KMKG MKG20020927195011209/27/02 19:50:31  5-MIN KMKG 280050Z 01008KT 10SM BKN095 16/12 A2995 600 80 800 010/08 RMK AO2 SLP142 T01560122
14840KMKG MKG20020927195511209/27/02 19:55:31  5-MIN KMKG 280055Z 01009KT 10SM BKN095 16/12 A2995 600 80 800 020/09 RMK AO2 SLP143 T01560122
14840KMKG MKG20020927200009509/27/02 20:00:31  5-MIN KMKG 280100Z 36008KT 10SM BKN095 16/12 A2995 600 80 800 360/08 RMK AO2
14840KMKG MKG20020927200509509/27/02 20:05:31  5-MIN KMKG 280105Z 36007KT 10SM SCT095 16/12 A2996 600 80 800 360/07 RMK AO2
14840KMKG MKG20020927201009509/27/02 20:10:31  5-MIN KMKG 280110Z 01009KT 10SM SCT100 15/12 A2996 600 83 800 010/09 RMK AO2
14840KMKG MKG20020927201509509/27/02 20:15:31  5-MIN KMKG 280115Z 01009KT 10SM SCT100 15/12 A2996 600 83 800 020/09 RMK AO2
14840KMKG MKG20020927202009509/27/02 20:20:31  5-MIN KMKG 280120Z 02007KT 10SM SCT100 15/12 A2996 590 80 800 020/07 RMK AO2
14840KMKG MKG20020927202509509/27/02 20:25:31  5-MIN KMKG 280125Z 01007KT 10SM FEW100 15/12 A2997 590 80 800 010/07 RMK AO2
14840KMKG MKG20020927203009509/27/02 20:30:31  5-MIN KMKG 280130Z 01007KT 10SM SCT100 16/12 A2997 580 75 900 010/07 RMK AO2
14840KMKG MKG20020927203509509/27/02 20:35:31  5-MIN KMKG 280135Z 02007KT 10SM BKN100 15/11 A2997 580 77 800 020/07 RMK AO2
14840KMKG MKG20020927204009509/27/02 20:40:31  5-MIN KMKG 280140Z 02007KT 10SM BKN100 14/11 A2997 580 80 700 020/07 RMK AO2
14840KMKG MKG20020927204509509/27/02 20:45:31  5-MIN KMKG 280145Z 02007KT 10SM BKN100 14/11 A2997 580 80 700 020/07 RMK AO2
14840KMKG MKG20020927205012809/27/02 20:50:31  5-MIN KMKG 280150Z 01007KT 350V060 10SM BKN100 14/11 A2997 580 77 700 010/07 350V060 RMK AO2 SLP151 T01440106
14840KMKG MKG20020927205511209/27/02 20:55:31  5-MIN KMKG 280155Z 01008KT 10SM BKN100 14/10 A2998 580 74 700 010/08 RMK AO2 SLP152 T01440100
14840KMKG MKG20020927210009509/27/02 21:00:31  5-MIN KMKG 280200Z 01007KT 10SM SCT100 14/09 A2998 580 72 700 020/07 RMK AO2
14840KMKG MKG20020927210509509/27/02 21:05:31  5-MIN KMKG 280205Z 01007KT 10SM SCT100 14/09 A2998 570 72 700 010/07 RMK AO2
14840KMKG MKG20020927211009509/27/02 21:10:31  5-MIN KMKG 280210Z 01006KT 10SM FEW100 14/09 A2998 570 72 700 020/06 RMK AO2
14840KMKG MKG20020927211509209/27/02 21:15:31  5-MIN KMKG 280215Z 03006KT 10SM CLR 14/09 A2998 570 72 700 030/06 RMK AO2
14840KMKG MKG20020927212009209/27/02 21:20:31  5-MIN KMKG 280220Z 02007KT 10SM CLR 14/09 A2998 570 74 600 020/07 RMK AO2
14840KMKG MKG20020927212509209/27/02 21:25:31  5-MIN KMKG 280225Z 01007KT 10SM CLR 14/09 A2999 570 74 600 010/07 RMK AO2
14840KMKG MKG20020927213009209/27/02 21:30:31  5-MIN KMKG 280230Z 01007KT 10SM CLR 14/09 A2999 570 71 600 010/07 RMK AO2
14840KMKG MKG20020927213509209/27/02 21:35:31  5-MIN KMKG 280235Z 02005KT 10SM CLR 14/09 A2999 570 71 600 020/05 RMK AO2
14840KMKG MKG20020927214009209/27/02 21:40:31  5-MIN KMKG 280240Z 01007KT 10SM CLR 14/09 A2999 560 71 600 010/07 RMK AO2
14840KMKG MKG20020927214509209/27/02 21:45:31  5-MIN KMKG 280245Z 01008KT 10SM CLR 14/09 A2999 560 71 600 010/08 RMK AO2
14840KMKG MKG20020927215011509/27/02 21:50:31  5-MIN KMKG 280250Z 36006KT 10SM CLR 13/09 A3000 560 74 500 010/06 RMK AO2 SLP157 T01330089 53036
14840KMKG MKG20020927215511509/27/02 21:55:31  5-MIN KMKG 280255Z 36007KT 10SM CLR 13/09 A3000 560 74 500 010/07 RMK AO2 SLP157 T01330089 51026
14840KMKG MKG20020927220009209/27/02 22:00:31  5-MIN KMKG 280300Z 36006KT 10SM CLR 13/09 A3000 560 74 500 010/06 RMK AO2
14840KMKG MKG20020927220509209/27/02 22:05:31  5-MIN KMKG 280305Z 36008KT 10SM CLR 13/09 A3000 560 74 500 010/08 RMK AO2
14840KMKG MKG20020927221009209/27/02 22:10:31  5-MIN KMKG 280310Z 01006KT 10SM CLR 13/08 A3000 550 71 500 010/06 RMK AO2
14840KMKG MKG20020927221509209/27/02 22:15:31  5-MIN KMKG 280315Z 01006KT 10SM CLR 13/08 A3001 550 71 500 010/06 RMK AO2
14840KMKG MKG20020927222009209/27/02 22:20:31  5-MIN KMKG 280320Z 01005KT 10SM CLR 13/08 A3001 550 74 500 010/05 RMK AO2
14840KMKG MKG20020927222509209/27/02 22:25:31  5-MIN KMKG 280325Z 01005KT 10SM CLR 13/08 A3001 550 74 500 010/05 RMK AO2
14840KMKG MKG20020927223009209/27/02 22:30:31  5-MIN KMKG 280330Z 02004KT 10SM CLR 13/08 A3001 550 74 500 020/04 RMK AO2
14840KMKG MKG20020927223509209/27/02 22:35:31  5-MIN KMKG 280335Z 01005KT 10SM CLR 13/08 A3001 550 74 500 020/05 RMK AO2
14840KMKG MKG20020927224009209/27/02 22:40:31  5-MIN KMKG 280340Z 01005KT 10SM CLR 13/08 A3001 540 74 400 020/05 RMK AO2
14840KMKG MKG20020927224509209/27/02 22:45:31  5-MIN KMKG 280345Z 01005KT 10SM CLR 13/08 A3001 540 74 400 010/05 RMK AO2
14840KMKG MKG20020927225010909/27/02 22:50:31  5-MIN KMKG 280350Z 01004KT 10SM CLR 12/08 A3002 540 77 400 010/04 RMK AO2 SLP164 T01220083
14840KMKG MKG20020927225510909/27/02 22:55:31  5-MIN KMKG 280355Z 01005KT 10SM CLR 12/08 A3002 540 77 400 010/05 RMK AO2 SLP165 T01220083
14840KMKG MKG20020927230009209/27/02 23:00:31  5-MIN KMKG 280400Z 01006KT 10SM CLR 12/08 A3002 540 77 400 020/06 RMK AO2
14840KMKG MKG20020927230509209/27/02 23:05:31  5-MIN KMKG 280405Z 01005KT 10SM CLR 12/08 A3002 530 77 400 010/05 RMK AO2
14840KMKG MKG20020927231009209/27/02 23:10:31  5-MIN KMKG 280410Z 02006KT 10SM CLR 12/08 A3003 530 77 400 020/06 RMK AO2
14840KMKG MKG20020927231509209/27/02 23:15:31  5-MIN KMKG 280415Z 01005KT 10SM CLR 12/08 A3003 530 74 400 020/05 RMK AO2
14840KMKG MKG20020927232009209/27/02 23:20:31  5-MIN KMKG 280420Z 01005KT 10SM CLR 12/08 A3003 530 74 400 010/05 RMK AO2
14840KMKG MKG20020927232509209/27/02 23:25:31  5-MIN KMKG 280425Z 36005KT 10SM CLR 12/08 A3003 530 74 400 010/05 RMK AO2
14840KMKG MKG20020927233009209/27/02 23:30:31  5-MIN KMKG 280430Z 01006KT 10SM CLR 12/08 A3003 530 74 400 010/06 RMK AO2
14840KMKG MKG20020927233509209/27/02 23:35:31  5-MIN KMKG 280435Z 36005KT 10SM CLR 12/08 A3003 530 77 300 010/05 RMK AO2
14840KMKG MKG20020927234009209/27/02 23:40:31  5-MIN KMKG 280440Z 01005KT 10SM CLR 12/08 A3003 530 77 300 010/05 RMK AO2
14840KMKG MKG20020927234509209/27/02 23:45:31  5-MIN KMKG 280445Z 01006KT 10SM CLR 12/08 A3004 520 77 300 010/06 RMK AO2
14840KMKG MKG20020927235011909/27/02 23:50:31  5-MIN KMKG 280450Z 01005KT 10SM CLR 12/08 A3004 520 77 300 010/05 RMK AO2 SLP171 T01170078 402220117
14840KMKG MKG20020927235511909/27/02 23:55:31  5-MIN KMKG 280455Z 01006KT 10SM CLR 12/08 A3004 520 77 300 010/06 RMK AO2 SLP171 T01170078 402220111
14840KMKG MKG20020928000009209/28/02 00:00:31  5-MIN KMKG 280500Z 01004KT 10SM CLR 11/08 A3004 520 80 200 020/04 RMK AO2
14840KMKG MKG20020928000509209/28/02 00:05:31  5-MIN KMKG 280505Z 02005KT 10SM CLR 11/08 A3004 520 80 200 020/05 RMK AO2
14840KMKG MKG20020928001009209/28/02 00:10:31  5-MIN KMKG 280510Z 01005KT 10SM CLR 11/08 A3004 520 80 200 020/05 RMK AO2
14840KMKG MKG20020928001509209/28/02 00:15:31  5-MIN KMKG 280515Z 01005KT 10SM CLR 11/08 A3004 520 80 200 010/05 RMK AO2
14840KMKG MKG20020928002009209/28/02 00:20:31  5-MIN KMKG 280520Z 01006KT 10SM CLR 11/08 A3004 520 80 200 020/06 RMK AO2
14840KMKG MKG20020928002509209/28/02 00:25:31  5-MIN KMKG 280525Z 02005KT 10SM CLR 11/08 A3004 520 80 200 020/05 RMK AO2
14840KMKG MKG20020928003009209/28/02 00:30:31  5-MIN KMKG 280530Z 02005KT 10SM CLR 11/08 A3004 520 80 200 020/05 RMK AO2
14840KMKG MKG20020928003509209/28/02 00:35:31  5-MIN KMKG 280535Z 02005KT 10SM CLR 11/08 A3004 520 80 200 020/05 RMK AO2
14840KMKG MKG20020928004009209/28/02 00:40:31  5-MIN KMKG 280540Z 02006KT 10SM CLR 11/08 A3005 510 83 100 030/06 RMK AO2
14840KMKG MKG20020928004509209/28/02 00:45:31  5-MIN KMKG 280545Z 01004KT 10SM CLR 11/08 A3005 510 83 100 020/04 RMK AO2
14840KMKG MKG20020928005012709/28/02 00:50:31  5-MIN KMKG 280550Z 02005KT 10SM CLR 11/08 A3005 510 83 100 020/05 RMK AO2 SLP176 T01060078 10167 20106 51026
14840KMKG MKG20020928005512709/28/02 00:55:31  5-MIN KMKG 280555Z 02005KT 10SM CLR 11/08 A3005 510 83 100 020/05 RMK AO2 SLP176 T01060078 10167 20106 51019
14840KMKG MKG20020928010009209/28/02 01:00:31  5-MIN KMKG 280600Z 01005KT 10SM CLR 11/07 A3006 510 80 100 020/05 RMK AO2
14840KMKG MKG20020928010509209/28/02 01:05:31  5-MIN KMKG 280605Z 02005KT 10SM CLR 11/07 A3006 500 80 100 020/05 RMK AO2
14840KMKG MKG20020928011009209/28/02 01:10:31  5-MIN KMKG 280610Z 02005KT 10SM CLR 11/07 A3006 500 80 100 020/05 RMK AO2
14840KMKG MKG20020928011509209/28/02 01:15:31  5-MIN KMKG 280615Z 01005KT 10SM CLR 11/07 A3006 500 80 100 020/05 RMK AO2
14840KMKG MKG20020928012009209/28/02 01:20:31  5-MIN KMKG 280620Z 02005KT 10SM CLR 11/07 A3007 500 80 100 020/05 RMK AO2
14840KMKG MKG20020928012509209/28/02 01:25:31  5-MIN KMKG 280625Z 02005KT 10SM CLR 10/07 A3007 490 83 100 020/05 RMK AO2
14840KMKG MKG20020928013009009/28/02 01:30:31  5-MIN KMKG 280630Z 02005KT 10SM CLR 10/07 A3007 490 83 0 020/05 RMK AO2
14840KMKG MKG20020928013509009/28/02 01:35:31  5-MIN KMKG 280635Z 01005KT 10SM CLR 10/07 A3008 490 83 0 010/05 RMK AO2
14840KMKG MKG20020928014009009/28/02 01:40:31  5-MIN KMKG 280640Z 04003KT 10SM CLR 10/07 A3008 490 83 0 040/03 RMK AO2
14840KMKG MKG20020928014509009/28/02 01:45:31  5-MIN KMKG 280645Z 03004KT 10SM CLR 10/07 A3008 490 83 0 030/04 RMK AO2
14840KMKG MKG20020928015010709/28/02 01:50:31  5-MIN KMKG 280650Z 02005KT 10SM CLR 09/07 A3008 480 86 0 020/05 RMK AO2 SLP186 T00940072
14840KMKG MKG20020928015510709/28/02 01:55:31  5-MIN KMKG 280655Z 02005KT 10SM CLR 10/07 A3008 480 83 0 030/05 RMK AO2 SLP186 T01000072
14840KMKG MKG20020928020009009/28/02 02:00:31  5-MIN KMKG 280700Z 02005KT 10SM CLR 10/07 A3008 480 83 0 020/05 RMK AO2
14840KMKG MKG20020928020509009/28/02 02:05:31  5-MIN KMKG 280705Z 01005KT 10SM CLR 09/07 A3009 480 86 0 020/05 RMK AO2
14840KMKG MKG20020928021009009/28/02 02:10:31  5-MIN KMKG 280710Z 02004KT 10SM CLR 09/07 A3009 470 86 0 030/04 RMK AO2
14840KMKG MKG20020928021509009/28/02 02:15:31  5-MIN KMKG 280715Z 03004KT 10SM CLR 09/07 A3009 470 86 0 040/04 RMK AO2
14840KMKG MKG20020928022009009/28/02 02:20:31  5-MIN KMKG 280720Z 02004KT 10SM CLR 09/07 A3009 470 86 0 030/04 RMK AO2
14840KMKG MKG20020928022509009/28/02 02:25:31  5-MIN KMKG 280725Z 02004KT 10SM CLR 09/07 A3009 470 86 0 020/04 RMK AO2
14840KMKG MKG20020928023009309/28/02 02:30:31  5-MIN KMKG 280730Z 02005KT 10SM CLR 09/07 A3010 470 89 -100 020/05 RMK AO2
14840KMKG MKG20020928023509309/28/02 02:35:31  5-MIN KMKG 280735Z 02005KT 10SM CLR 09/07 A3010 470 89 -100 030/05 RMK AO2
14840KMKG MKG20020928024009309/28/02 02:40:31  5-MIN KMKG 280740Z 03005KT 10SM CLR 09/07 A3010 470 89 -100 030/05 RMK AO2
14840KMKG MKG20020928024509309/28/02 02:45:31  5-MIN KMKG 280745Z 03005KT 10SM CLR 09/07 A3010 470 89 -100 030/05 RMK AO2
14840KMKG MKG20020928025011009/28/02 02:50:31  5-MIN KMKG 280750Z 02005KT 10SM CLR 09/07 A3010 460 86 -100 030/05 RMK AO2 SLP193 T00890067
14840KMKG MKG20020928025511009/28/02 02:55:31  5-MIN KMKG 280755Z 04004KT 10SM CLR 09/07 A3010 460 86 -100 040/04 RMK AO2 SLP193 T00890067
14840KMKG MKG20020928030009309/28/02 03:00:31  5-MIN KMKG 280800Z 05004KT 10SM CLR 09/07 A3010 460 86 -100 050/04 RMK AO2
14840KMKG MKG20020928030509309/28/02 03:05:31  5-MIN KMKG 280805Z 04004KT 10SM CLR 08/07 A3010 460 89 -100 040/04 RMK AO2
14840KMKG MKG20020928031009309/28/02 03:10:31  5-MIN KMKG 280810Z 03004KT 10SM CLR 08/07 A3011 460 89 -100 030/04 RMK AO2
14840KMKG MKG20020928031509309/28/02 03:15:31  5-MIN KMKG 280815Z 03005KT 10SM CLR 08/07 A3011 460 89 -100 030/05 RMK AO2
14840KMKG MKG20020928032009309/28/02 03:20:31  5-MIN KMKG 280820Z 02005KT 10SM CLR 08/07 A3011 460 89 -100 030/05 RMK AO2
14840KMKG MKG20020928032509309/28/02 03:25:31  5-MIN KMKG 280825Z 02005KT 10SM CLR 08/07 A3011 460 89 -100 020/05 RMK AO2
14840KMKG MKG20020928033009309/28/02 03:30:31  5-MIN KMKG 280830Z 03005KT 10SM CLR 08/07 A3011 450 93 -100 040/05 RMK AO2
14840KMKG MKG20020928033509309/28/02 03:35:31  5-MIN KMKG 280835Z 04005KT 10SM CLR 08/07 A3011 450 89 -100 040/05 RMK AO2
14840KMKG MKG20020928034009309/28/02 03:40:31  5-MIN KMKG 280840Z 04004KT 10SM CLR 08/07 A3011 450 89 -200 050/04 RMK AO2
14840KMKG MKG20020928034509309/28/02 03:45:31  5-MIN KMKG 280845Z 05003KT 10SM CLR 08/07 A3012 450 93 -200 050/03 RMK AO2
14840KMKG MKG20020928035011609/28/02 03:50:31  5-MIN KMKG 280850Z 05003KT 10SM CLR 08/07 A3012 450 93 -200 050/03 RMK AO2 SLP199 T00780067 51019
14840KMKG MKG20020928035511609/28/02 03:55:31  5-MIN KMKG 280855Z 05004KT 10SM CLR 08/06 A3012 450 89 -200 060/04 RMK AO2 SLP200 T00780061 51022
14840KMKG MKG20020928040009309/28/02 04:00:31  5-MIN KMKG 280900Z 05003KT 10SM CLR 08/06 A3012 450 89 -200 060/03 RMK AO2
14840KMKG MKG20020928040509309/28/02 04:05:31  5-MIN KMKG 280905Z 06005KT 10SM CLR 07/06 A3012 440 93 -300 070/05 RMK AO2
14840KMKG MKG20020928041009309/28/02 04:10:31  5-MIN KMKG 280910Z 07004KT 10SM CLR 07/06 A3012 440 93 -300 080/04 RMK AO2
14840KMKG MKG20020928041509309/28/02 04:15:31  5-MIN KMKG 280915Z 07005KT 10SM CLR 07/06 A3012 450 93 -300 070/05 RMK AO2
14840KMKG MKG20020928042009309/28/02 04:20:31  5-MIN KMKG 280920Z 07005KT 10SM CLR 07/06 A3012 450 93 -300 070/05 RMK AO2
14840KMKG MKG20020928042509309/28/02 04:25:31  5-MIN KMKG 280925Z 06005KT 10SM CLR 07/06 A3012 440 93 -300 070/05 RMK AO2
14840KMKG MKG20020928043009309/28/02 04:30:31  5-MIN KMKG 280930Z 06005KT 10SM CLR 07/06 A3012 440 93 -300 070/05 RMK AO2
14840KMKG MKG20020928043509309/28/02 04:35:31  5-MIN KMKG 280935Z 06005KT 10SM CLR 07/06 A3012 440 93 -300 060/05 RMK AO2
14840KMKG MKG20020928044009309/28/02 04:40:31  5-MIN KMKG 280940Z 06005KT 10SM CLR 08/06 A3013 440 89 -200 060/05 RMK AO2
14840KMKG MKG20020928044509309/28/02 04:45:31  5-MIN KMKG 280945Z 06004KT 10SM CLR 07/06 A3013 440 93 -300 070/04 RMK AO2
14840KMKG MKG20020928045011009/28/02 04:50:31  5-MIN KMKG 280950Z 06004KT 10SM CLR 07/06 A3013 440 93 -300 070/04 RMK AO2 SLP204 T00720061
14840KMKG MKG20020928045511009/28/02 04:55:31  5-MIN KMKG 280955Z 06005KT 10SM CLR 07/06 A3013 440 93 -300 060/05 RMK AO2 SLP204 T00720061
14840KMKG MKG20020928050009309/28/02 05:00:31  5-MIN KMKG 281000Z 06005KT 10SM CLR 07/06 A3013 440 93 -300 060/05 RMK AO2
14840KMKG MKG20020928050509309/28/02 05:05:31  5-MIN KMKG 281005Z 06005KT 10SM CLR 07/06 A3013 430 93 -300 070/05 RMK AO2
14840KMKG MKG20020928051009309/28/02 05:10:31  5-MIN KMKG 281010Z 06004KT 10SM CLR 07/06 A3014 430 93 -300 070/04 RMK AO2
14840KMKG MKG20020928051509309/28/02 05:15:31  5-MIN KMKG 281015Z 07004KT 10SM CLR 07/06 A3014 430 96 -400 070/04 RMK AO2
14840KMKG MKG20020928052009309/28/02 05:20:31  5-MIN KMKG 281020Z 07004KT 10SM CLR 07/06 A3014 430 93 -300 070/04 RMK AO2
14840KMKG MKG20020928052509309/28/02 05:25:31  5-MIN KMKG 281025Z 07003KT 10SM CLR 07/06 A3015 420 93 -400 080/03 RMK AO2
14840KMKG MKG20020928053009309/28/02 05:30:31  5-MIN KMKG 281030Z 09003KT 10SM CLR 06/06 A3015 420 96 -500 090/03 RMK AO2
14840KMKG MKG20020928053509309/28/02 05:35:31  5-MIN KMKG 281035Z 00000KT 10SM CLR 06/06 A3015 420 96 -500 000/00 RMK AO2
14840KMKG MKG20020928054009309/28/02 05:40:31  5-MIN KMKG 281040Z 06003KT 10SM CLR 06/06 A3016 410 96 -500 060/03 RMK AO2
14840KMKG MKG20020928054509309/28/02 05:45:31  5-MIN KMKG 281045Z 00000KT 10SM CLR 07/06 A3016 410 93 -400 000/00 RMK AO2
14840KMKG MKG20020928055011009/28/02 05:50:31  5-MIN KMKG 281050Z 00000KT 10SM CLR 07/06 A3017 400 96 -400 000/00 RMK AO2 SLP217 T00670061
14840KMKG MKG20020928055511009/28/02 05:55:31  5-MIN KMKG 281055Z 05003KT 10SM CLR 06/06 A3017 400 96 -500 060/03 RMK AO2 SLP218 T00610056
14840KMKG MKG20020928060009309/28/02 06:00:31  5-MIN KMKG 281100Z 05003KT 10SM CLR 06/06 A3017 400 96 -500 060/03 RMK AO2
14840KMKG MKG20020928060509309/28/02 06:05:31  5-MIN KMKG 281105Z 00000KT 10SM CLR 06/06 A3018 390 96 -500 000/00 RMK AO2
14840KMKG MKG20020928061009409/28/02 06:10:31  5-MIN KMKG 281110Z 05003KT 10SM CLR 06/06 A3018 390 100 -600 050/03 RMK AO2
14840KMKG MKG20020928061509409/28/02 06:15:31  5-MIN KMKG 281115Z 05003KT 10SM CLR 06/06 A3018 390 100 -600 060/03 RMK AO2
14840KMKG MKG20020928062009409/28/02 06:20:31  5-MIN KMKG 281120Z 06004KT 10SM CLR 06/06 A3018 390 100 -600 060/04 RMK AO2
14840KMKG MKG20020928062509409/28/02 06:25:31  5-MIN KMKG 281125Z 07004KT 10SM CLR 05/05 A3018 390 100 -600 070/04 RMK AO2
14840KMKG MKG20020928063009409/28/02 06:30:31  5-MIN KMKG 281130Z 00000KT 10SM CLR 06/06 A3018 390 100 -600 000/00 RMK AO2
14840KMKG MKG20020928063509409/28/02 06:35:31  5-MIN KMKG 281135Z 09003KT 10SM CLR 06/06 A3018 390 100 -600 090/03 RMK AO2
14840KMKG MKG20020928064009409/28/02 06:40:31  5-MIN KMKG 281140Z 00000KT 10SM CLR 06/06 A3018 390 100 -600 000/00 RMK AO2
14840KMKG MKG20020928064509409/28/02 06:45:31  5-MIN KMKG 281145Z 00000KT 10SM CLR 05/05 A3018 390 100 -600 000/00 RMK AO2
14840KMKG MKG20020928065012909/28/02 06:50:31  5-MIN KMKG 281150Z 00000KT 10SM CLR 05/05 A3018 390 100 -600 000/00 RMK AO2 SLP221 T00500050 10111 20050 51022
14840KMKG MKG20020928065512909/28/02 06:55:31  5-MIN KMKG 281155Z 00000KT 10SM CLR 06/06 A3018 390 100 -600 000/00 RMK AO2 SLP222 T00560056 10111 20050 51020
14840KMKG MKG20020928070009309/28/02 07:00:31  5-MIN KMKG 281200Z 00000KT 10SM CLR 06/05 A3018 390 96 -600 000/00 RMK AO2
14840KMKG MKG20020928070509409/28/02 07:05:31  5-MIN KMKG 281205Z 00000KT 10SM CLR 06/06 A3018 390 100 -600 000/00 RMK AO2
14840KMKG MKG20020928071009409/28/02 07:10:31  5-MIN KMKG 281210Z 00000KT 10SM CLR 06/06 A3018 390 100 -600 000/00 RMK AO2
14840KMKG MKG20020928071509409/28/02 07:15:31  5-MIN KMKG 281215Z 05003KT 10SM CLR 06/06 A3018 390 100 -600 060/03 RMK AO2
14840KMKG MKG20020928072009409/28/02 07:20:31  5-MIN KMKG 281220Z 06004KT 10SM CLR 06/06 A3019 390 100 -500 070/04 RMK AO2
14840KMKG MKG20020928072509309/28/02 07:25:31  5-MIN KMKG 281225Z 06003KT 10SM CLR 07/06 A3019 380 93 -400 060/03 RMK AO2
14840KMKG MKG20020928073009309/28/02 07:30:31  5-MIN KMKG 281230Z 07003KT 10SM CLR 07/07 A3019 380 96 -400 080/03 RMK AO2
14840KMKG MKG20020928073509309/28/02 07:35:31  5-MIN KMKG 281235Z 08004KT 10SM CLR 07/07 A3019 380 96 -400 080/04 RMK AO2
14840KMKG MKG20020928074009309/28/02 07:40:31  5-MIN KMKG 281240Z 09004KT 10SM CLR 08/07 A3019 380 93 -300 090/04 RMK AO2
14840KMKG MKG20020928074509309/28/02 07:45:31  5-MIN KMKG 281245Z 09005KT 10SM CLR 08/07 A3020 380 96 -300 100/05 RMK AO2
14840KMKG MKG20020928075011009/28/02 07:50:31  5-MIN KMKG 281250Z 09005KT 10SM CLR 08/07 A3020 370 93 -200 100/05 RMK AO2 SLP228 T00830072
14840KMKG MKG20020928075511009/28/02 07:55:31  5-MIN KMKG 281255Z 09005KT 10SM CLR 08/07 A3020 370 93 -300 090/05 RMK AO2 SLP229 T00830072
14840KMKG MKG20020928080009309/28/02 08:00:31  5-MIN KMKG 281300Z 08005KT 10SM CLR 09/07 A3020 370 89 -200 080/05 RMK AO2
14840KMKG MKG20020928080509309/28/02 08:05:31  5-MIN KMKG 281305Z 08006KT 10SM CLR 09/08 A3020 370 93 -200 090/06 RMK AO2
14840KMKG MKG20020928081009309/28/02 08:10:31  5-MIN KMKG 281310Z 08006KT 10SM CLR 09/08 A3020 370 89 -100 090/06 RMK AO2
14840KMKG MKG20020928081509309/28/02 08:15:31  5-MIN KMKG 281315Z 08007KT 10SM CLR 09/08 A3020 370 89 -100 090/07 RMK AO2
14840KMKG MKG20020928082009309/28/02 08:20:31  5-MIN KMKG 281320Z 08006KT 10SM CLR 10/08 A3021 370 86 -100 080/06 RMK AO2
14840KMKG MKG20020928082509309/28/02 08:25:31  5-MIN KMKG 281325Z 07008KT 10SM CLR 10/08 A3021 370 86 -100 080/08 RMK AO2
14840KMKG MKG20020928083009009/28/02 08:30:31  5-MIN KMKG 281330Z 08008KT 10SM CLR 11/08 A3021 360 83 0 080/08 RMK AO2
14840KMKG MKG20020928083509009/28/02 08:35:31  5-MIN KMKG 281335Z 08007KT 10SM CLR 11/08 A3021 360 83 0 090/07 RMK AO2
14840KMKG MKG20020928084009009/28/02 08:40:31  5-MIN KMKG 281340Z 08008KT 10SM CLR 11/08 A3021 360 80 0 080/08 RMK AO2
14840KMKG MKG20020928084509009/28/02 08:45:31  5-MIN KMKG 281345Z 07009KT 10SM CLR 11/08 A3021 370 80 0 080/09 RMK AO2
14840KMKG MKG20020928085010909/28/02 08:50:31  5-MIN KMKG 281350Z 08009KT 10SM CLR 12/08 A3021 370 77 100 080/09 RMK AO2 SLP230 T01170078
14840KMKG MKG20020928085510909/28/02 08:55:31  5-MIN KMKG 281355Z 08008KT 10SM CLR 12/08 A3021 370 77 100 090/08 RMK AO2 SLP230 T01170078
14840KMKG MKG20020928090009209/28/02 09:00:31  5-MIN KMKG 281400Z 09009KT 10SM CLR 12/08 A3021 370 74 200 090/09 RMK AO2
14840KMKG MKG20020928090509209/28/02 09:05:31  5-MIN KMKG 281405Z 09009KT 10SM CLR 12/08 A3021 370 74 200 100/09 RMK AO2
14840KMKG MKG20020928091009209/28/02 09:10:31  5-MIN KMKG 281410Z 10009KT 10SM CLR 13/08 A3020 370 71 200 100/09 RMK AO2
14840KMKG MKG20020928091509209/28/02 09:15:31  5-MIN KMKG 281415Z 09007KT 10SM CLR 13/07 A3020 370 66 300 100/07 RMK AO2
14840KMKG MKG20020928092009209/28/02 09:20:31  5-MIN KMKG 281420Z 09009KT 10SM CLR 13/07 A3020 370 64 300 100/09 RMK AO2
14840KMKG MKG20020928092509209/28/02 09:25:31  5-MIN KMKG 281425Z 09010KT 10SM CLR 13/06 A3020 370 61 300 090/10 RMK AO2
14840KMKG MKG20020928093009209/28/02 09:30:31  5-MIN KMKG 281430Z 09009KT 10SM CLR 14/06 A3021 370 59 400 090/09 RMK AO2
14840KMKG MKG20020928093509209/28/02 09:35:31  5-MIN KMKG 281435Z 09008KT 10SM CLR 14/06 A3021 370 57 400 100/08 RMK AO2
14840KMKG MKG20020928094009209/28/02 09:40:31  5-MIN KMKG 281440Z 10008KT 10SM CLR 14/06 A3020 370 59 400 100/08 RMK AO2
14840KMKG MKG20020928094509209/28/02 09:45:31  5-MIN KMKG 281445Z 10011KT 10SM CLR 14/06 A3020 370 55 400 100/11 RMK AO2
14840KMKG MKG20020928095011509/28/02 09:50:31  5-MIN KMKG 281450Z 09010KT 10SM CLR 15/05 A3020 370 51 500 090/10 RMK AO2 SLP228 T01500050 51020
14840KMKG MKG20020928095511509/28/02 09:55:31  5-MIN KMKG 281455Z 10011KT 10SM CLR 15/04 A3020 370 49 500 100/11 RMK AO2 SLP228 T01500044 50007
14840KMKG MKG20020928100009209/28/02 10:00:31  5-MIN KMKG 281500Z 09010KT 10SM CLR 16/04 A3020 370 47 600 090/10 RMK AO2
14840KMKG MKG20020928100509209/28/02 10:05:31  5-MIN KMKG 281505Z 09010KT 10SM CLR 15/04 A3020 370 49 500 090/10 RMK AO2
14840KMKG MKG20020928101009209/28/02 10:10:31  5-MIN KMKG 281510Z 09009KT 10SM CLR 16/04 A3020 370 47 600 090/09 RMK AO2
14840KMKG MKG20020928101509209/28/02 10:15:31  5-MIN KMKG 281515Z 08008KT 10SM CLR 16/05 A3020 370 49 600 090/08 RMK AO2
14840KMKG MKG20020928102009209/28/02 10:20:31  5-MIN KMKG 281520Z 08009KT 10SM CLR 16/05 A3020 370 47 600 080/09 RMK AO2
14840KMKG MKG20020928102509209/28/02 10:25:31  5-MIN KMKG 281525Z 09008KT 10SM CLR 16/05 A3020 380 47 600 090/08 RMK AO2
14840KMKG MKG20020928103009209/28/02 10:30:31  5-MIN KMKG 281530Z 10007KT 10SM CLR 16/05 A3020 380 47 600 100/07 RMK AO2
14840KMKG MKG20020928103509209/28/02 10:35:31  5-MIN KMKG 281535Z 11008KT 10SM CLR 16/04 A3019 380 45 600 110/08 RMK AO2
14840KMKG MKG20020928104009209/28/02 10:40:31  5-MIN KMKG 281540Z 12010KT 10SM CLR 17/04 A3020 380 44 700 120/10 RMK AO2
14840KMKG MKG20020928104509209/28/02 10:45:31  5-MIN KMKG 281545Z 12009KT 10SM CLR 17/04 A3019 380 44 700 130/09 RMK AO2
14840KMKG MKG20020928105010909/28/02 10:50:31  5-MIN KMKG 281550Z 11010KT 10SM CLR 17/05 A3019 380 44 800 120/10 RMK AO2 SLP223 T01720050
14840KMKG MKG20020928105510909/28/02 10:55:31  5-MIN KMKG 281555Z 11009KT 10SM CLR 17/05 A3019 380 45 700 120/09 RMK AO2 SLP223 T01670050
14840KMKG MKG20020928110009209/28/02 11:00:31  5-MIN KMKG 281600Z 11009KT 10SM CLR 17/06 A3019 380 46 800 120/09 RMK AO2
14840KMKG MKG20020928110509209/28/02 11:05:31  5-MIN KMKG 281605Z 13010KT 10SM CLR 18/06 A3019 380 44 800 140/10 RMK AO2
14840KMKG MKG20020928111009209/28/02 11:10:31  5-MIN KMKG 281610Z 12009KT 10SM CLR 18/06 A3019 380 46 800 130/09 RMK AO2
14840KMKG MKG20020928111509209/28/02 11:15:31  5-MIN KMKG 281615Z 12009KT 10SM CLR 18/06 A3019 380 46 800 120/09 RMK AO2
14840KMKG MKG20020928112009209/28/02 11:20:31  5-MIN KMKG 281620Z 10008KT 10SM CLR 18/07 A3019 380 46 900 100/08 RMK AO2
14840KMKG MKG20020928112509209/28/02 11:25:31  5-MIN KMKG 281625Z 10007KT 10SM CLR 18/06 A3019 380 46 800 110/07 RMK AO2
14840KMKG MKG20020928113009209/28/02 11:30:31  5-MIN KMKG 281630Z 11009KT 10SM CLR 18/07 A3018 390 46 900 120/09 RMK AO2
14840KMKG MKG20020928113509209/28/02 11:35:31  5-MIN KMKG 281635Z 13011KT 10SM CLR 18/06 A3018 390 44 900 140/11 RMK AO2
14840KMKG MKG20020928114009209/28/02 11:40:31  5-MIN KMKG 281640Z 11010KT 10SM CLR 18/06 A3018 390 44 900 120/10 RMK AO2
14840KMKG MKG20020928114509209/28/02 11:45:31  5-MIN KMKG 281645Z 14010KT 10SM CLR 18/06 A3018 390 44 900 140/10 RMK AO2
14840KMKG MKG20020928115010909/28/02 11:50:31  5-MIN KMKG 281650Z 13010KT 10SM CLR 18/07 A3018 390 46 900 130/10 RMK AO2 SLP221 T01830067
14840KMKG MKG20020928115510909/28/02 11:55:31  5-MIN KMKG 281655Z 12007KT 10SM CLR 18/07 A3018 390 46 900 130/07 RMK AO2 SLP221 T01830067
14840KMKG MKG20020928120009209/28/02 12:00:31  5-MIN KMKG 281700Z 10008KT 10SM CLR 18/07 A3018 390 46 900 100/08 RMK AO2
14840KMKG MKG20020928120509309/28/02 12:05:31  5-MIN KMKG 281705Z 10008KT 10SM CLR 19/07 A3018 390 44 1000 100/08 RMK AO2
14840KMKG MKG20020928121010909/28/02 12:10:31  5-MIN KMKG 281710Z 11007KT 080V150 10SM CLR 19/07 A3018 390 46 1000 120/07 080V150 RMK AO2
14840KMKG MKG20020928121509309/28/02 12:15:31  5-MIN KMKG 281715Z 13007KT 10SM CLR 19/07 A3018 390 44 1000 140/07 RMK AO2
14840KMKG MKG20020928122009309/28/02 12:20:31  5-MIN KMKG 281720Z 12009KT 10SM CLR 19/06 A3018 390 41 1000 120/09 RMK AO2
14840KMKG MKG20020928122509309/28/02 12:25:31  5-MIN KMKG 281725Z 13008KT 10SM CLR 19/07 A3018 390 44 1000 130/08 RMK AO2
14840KMKG MKG20020928123009309/28/02 12:30:31  5-MIN KMKG 281730Z 14009KT 10SM CLR 19/07 A3018 390 43 1000 140/09 RMK AO2
14840KMKG MKG20020928123509309/28/02 12:35:31  5-MIN KMKG 281735Z 11008KT 10SM CLR 19/07 A3017 400 44 1100 120/08 RMK AO2
14840KMKG MKG20020928124009309/28/02 12:40:31  5-MIN KMKG 281740Z 12008KT 10SM CLR 19/07 A3017 400 44 1100 120/08 RMK AO2
14840KMKG MKG20020928124509309/28/02 12:45:31  5-MIN KMKG 281745Z 16008KT 10SM CLR 20/07 A3017 400 43 1100 160/08 RMK AO2
14840KMKG MKG20020928125012809/28/02 12:50:31  5-MIN KMKG 281750Z 16007KT 10SM CLR 19/07 A3016 410 44 1100 160/07 RMK AO2 SLP214 T01940072 10200 20056 50007
14840KMKG MKG20020928125512809/28/02 12:55:31  5-MIN KMKG 281755Z 14009KT 10SM CLR 20/07 A3016 410 43 1100 150/09 RMK AO2 SLP214 T02000072 10200 20056 58013
14840KMKG MKG20020928130011209/28/02 13:00:31  5-MIN KMKG 281800Z 16007KT 130V190 10SM FEW039 20/07 A3016 410 43 1100 170/07 130V190 RMK AO2
14840KMKG MKG20020928130509609/28/02 13:05:31  5-MIN KMKG 281805Z 16009KT 10SM SCT039 20/08 A3016 410 46 1100 170/09 RMK AO2
14840KMKG MKG20020928131009609/28/02 13:10:31  5-MIN KMKG 281810Z 13007KT 10SM BKN039 19/08 A3016 410 46 1100 140/07 RMK AO2
14840KMKG MKG20020928131509609/28/02 13:15:31  5-MIN KMKG 281815Z 17008KT 10SM BKN039 19/08 A3016 410 48 1100 180/08 RMK AO2
14840KMKG MKG20020928132009609/28/02 13:20:31  5-MIN KMKG 281820Z 14006KT 10SM BKN039 19/08 A3016 410 48 1100 150/06 RMK AO2
14840KMKG MKG20020928132509609/28/02 13:25:31  5-MIN KMKG 281825Z 15008KT 10SM OVC039 19/08 A3016 410 48 1100 150/08 RMK AO2
14840KMKG MKG20020928133009609/28/02 13:30:31  5-MIN KMKG 281830Z 17005KT 10SM OVC039 19/09 A3015 420 50 1100 170/05 RMK AO2
14840KMKG MKG20020928133509609/28/02 13:35:31  5-MIN KMKG 281835Z 22008KT 10SM OVC039 19/09 A3015 420 52 1100 220/08 RMK AO2
14840KMKG MKG20020928134009609/28/02 13:40:31  5-MIN KMKG 281840Z VRB03KT 10SM OVC039 20/10 A3015 420 52 1100 VRB/03 RMK AO2
14840KMKG MKG20020928134509609/28/02 13:45:31  5-MIN KMKG 281845Z 20007KT 10SM OVC039 19/10 A3014 420 54 1100 200/07 RMK AO2
14840KMKG MKG20020928135011309/28/02 13:50:31  5-MIN KMKG 281850Z 19006KT 10SM OVC039 19/10 A3014 420 54 1100 190/06 RMK AO2 SLP208 T01940100
14840KMKG MKG20020928135511309/28/02 13:55:31  5-MIN KMKG 281855Z 18004KT 10SM OVC037 19/10 A3014 430 54 1100 190/04 RMK AO2 SLP207 T01940100
14840KMKG MKG20020928140009609/28/02 14:00:31  5-MIN KMKG 281900Z 17004KT 10SM OVC037 19/10 A3015 420 54 1100 180/04 RMK AO2
14840KMKG MKG20020928140509609/28/02 14:05:31  5-MIN KMKG 281905Z 14006KT 10SM OVC037 19/11 A3014 420 56 1100 140/06 RMK AO2
14840KMKG MKG20020928141009609/28/02 14:10:31  5-MIN KMKG 281910Z 15006KT 10SM OVC037 19/11 A3014 430 56 1100 160/06 RMK AO2
14840KMKG MKG20020928141509609/28/02 14:15:31  5-MIN KMKG 281915Z 14005KT 10SM OVC037 19/11 A3014 430 56 1100 150/05 RMK AO2
14840KMKG MKG20020928142009609/28/02 14:20:31  5-MIN KMKG 281920Z 17005KT 10SM OVC037 19/11 A3014 430 56 1100 180/05 RMK AO2
14840KMKG MKG20020928142509609/28/02 14:25:31  5-MIN KMKG 281925Z 16008KT 10SM OVC037 19/11 A3014 430 58 1100 170/08 RMK AO2
14840KMKG MKG20020928143009609/28/02 14:30:31  5-MIN KMKG 281930Z VRB04KT 10SM OVC037 19/11 A3014 430 58 1100 VRB/04 RMK AO2
14840KMKG MKG20020928143509609/28/02 14:35:31  5-MIN KMKG 281935Z 15006KT 10SM OVC037 19/11 A3013 430 58 1100 150/06 RMK AO2
14840KMKG MKG20020928144009609/28/02 14:40:31  5-MIN KMKG 281940Z 15006KT 10SM OVC037 19/11 A3013 440 58 1100 150/06 RMK AO2
14840KMKG MKG20020928144509609/28/02 14:45:31  5-MIN KMKG 281945Z 13007KT 10SM OVC035 19/11 A3013 440 58 1100 130/07 RMK AO2
14840KMKG MKG20020928145011309/28/02 14:50:31  5-MIN KMKG 281950Z 13007KT 10SM OVC035 20/11 A3013 440 56 1200 130/07 RMK AO2 SLP202 T02000111
14840KMKG MKG20020928145511309/28/02 14:55:31  5-MIN KMKG 281955Z 15006KT 10SM OVC035 20/11 A3013 440 56 1200 150/06 RMK AO2 SLP202 T02000111
14840KMKG MKG20020928150009609/28/02 15:00:31  5-MIN KMKG 282000Z 12007KT 10SM BKN035 20/11 A3012 440 56 1200 120/07 RMK AO2
14840KMKG MKG20020928150509609/28/02 15:05:31  5-MIN KMKG 282005Z 15008KT 10SM BKN035 20/12 A3012 440 58 1200 160/08 RMK AO2
14840KMKG MKG20020928151009609/28/02 15:10:31  5-MIN KMKG 282010Z 14007KT 10SM BKN035 20/12 A3012 450 58 1200 150/07 RMK AO2
14840KMKG MKG20020928151509609/28/02 15:15:31  5-MIN KMKG 282015Z 16007KT 10SM BKN035 20/12 A3012 450 58 1200 160/07 RMK AO2
14840KMKG MKG20020928152009609/28/02 15:20:31  5-MIN KMKG 282020Z 16006KT 10SM SCT035 20/12 A3011 450 58 1200 160/06 RMK AO2
14840KMKG MKG20020928152509609/28/02 15:25:31  5-MIN KMKG 282025Z 14007KT 10SM SCT035 20/12 A3011 460 58 1200 140/07 RMK AO2
14840KMKG MKG20020928153009609/28/02 15:30:31  5-MIN KMKG 282030Z 14007KT 10SM FEW035 21/12 A3011 460 56 1300 140/07 RMK AO2
14840KMKG MKG20020928153509609/28/02 15:35:31  5-MIN KMKG 282035Z 16009KT 10SM FEW035 21/12 A3011 460 58 1300 160/09 RMK AO2
14840KMKG MKG20020928154011209/28/02 15:40:31  5-MIN KMKG 282040Z 16008KT 100V210 10SM FEW035 21/12 A3011 460 58 1300 160/08 100V210 RMK AO2
14840KMKG MKG20020928154509609/28/02 15:45:31  5-MIN KMKG 282045Z 13009KT 10SM FEW035 21/12 A3011 460 58 1300 140/09 RMK AO2
14840KMKG MKG20020928155011909/28/02 15:50:31  5-MIN KMKG 282050Z 12006KT 10SM FEW035 21/12 A3011 460 58 1300 120/06 RMK AO2 SLP196 T02060122 58013
14840KMKG MKG20020928155511909/28/02 15:55:31  5-MIN KMKG 282055Z VRB05KT 10SM SCT036 21/12 A3010 460 56 1300 VRB/05 RMK AO2 SLP195 T02110122 57020
14840KMKG MKG20020928160009609/28/02 16:00:31  5-MIN KMKG 282100Z VRB05KT 10SM SCT036 21/12 A3010 460 58 1300 VRB/05 RMK AO2
14840KMKG MKG20020928160509609/28/02 16:05:31  5-MIN KMKG 282105Z VRB05KT 10SM SCT036 21/13 A3010 460 58 1300 VRB/05 RMK AO2
14840KMKG MKG20020928161009609/28/02 16:10:31  5-MIN KMKG 282110Z VRB06KT 10SM SCT036 21/13 A3010 460 61 1300 VRB/06 RMK AO2
14840KMKG MKG20020928161509609/28/02 16:15:31  5-MIN KMKG 282115Z 19007KT 10SM SCT036 21/13 A3010 460 63 1300 200/07 RMK AO2
14840KMKG MKG20020928162009609/28/02 16:20:31  5-MIN KMKG 282120Z 19007KT 10SM FEW036 21/13 A3010 460 63 1300 190/07 RMK AO2
14840KMKG MKG20020928162509609/28/02 16:25:31  5-MIN KMKG 282125Z 19006KT 10SM FEW036 21/13 A3010 460 63 1300 200/06 RMK AO2
14840KMKG MKG20020928163009609/28/02 16:30:31  5-MIN KMKG 282130Z 21006KT 10SM FEW036 20/13 A3010 460 65 1200 210/06 RMK AO2
14840KMKG MKG20020928163509309/28/02 16:35:31  5-MIN KMKG 282135Z 20008KT 10SM CLR 20/13 A3010 460 65 1200 210/08 RMK AO2
14840KMKG MKG20020928164009609/28/02 16:40:31  5-MIN KMKG 282140Z 20006KT 10SM FEW036 20/13 A3010 460 65 1200 200/06 RMK AO2
14840KMKG MKG20020928164509609/28/02 16:45:31  5-MIN KMKG 282145Z 21007KT 10SM FEW036 20/13 A3010 460 65 1200 210/07 RMK AO2
14840KMKG MKG20020928165011309/28/02 16:50:31  5-MIN KMKG 282150Z 21006KT 10SM FEW036 20/13 A3010 460 65 1200 210/06 RMK AO2 SLP194 T02000133
14840KMKG MKG20020928165511309/28/02 16:55:31  5-MIN KMKG 282155Z 21005KT 10SM FEW036 19/13 A3010 460 67 1100 210/05 RMK AO2 SLP195 T01940133
14840KMKG MKG20020928170009609/28/02 17:00:31  5-MIN KMKG 282200Z 22003KT 10SM FEW037 19/13 A3010 460 67 1100 230/03 RMK AO2
14840KMKG MKG20020928170509609/28/02 17:05:31  5-MIN KMKG 282205Z 22004KT 10SM FEW037 19/13 A3010 460 67 1100 230/04 RMK AO2
14840KMKG MKG20020928171009609/28/02 17:10:31  5-MIN KMKG 282210Z 20005KT 10SM FEW037 20/13 A3010 460 65 1200 200/05 RMK AO2
14840KMKG MKG20020928171509609/28/02 17:15:31  5-MIN KMKG 282215Z 22005KT 10SM FEW037 19/13 A3010 460 67 1100 220/05 RMK AO2
14840KMKG MKG20020928172009609/28/02 17:20:31  5-MIN KMKG 282220Z 23004KT 10SM FEW037 19/13 A3010 460 70 1100 230/04 RMK AO2
14840KMKG MKG20020928172509509/28/02 17:25:31  5-MIN KMKG 282225Z 24003KT 9SM FEW037 19/13 A3010 460 70 1100 240/03 RMK AO2
14840KMKG MKG20020928173009509/28/02 17:30:31  5-MIN KMKG 282230Z 24003KT 9SM FEW037 19/13 A3010 460 70 1100 240/03 RMK AO2
14840KMKG MKG20020928173509509/28/02 17:35:31  5-MIN KMKG 282235Z 00000KT 8SM FEW037 18/14 A3010 460 75 1000 000/00 RMK AO2
14840KMKG MKG20020928174009509/28/02 17:40:31  5-MIN KMKG 282240Z 00000KT 8SM FEW037 18/13 A3010 460 72 1000 000/00 RMK AO2
14840KMKG MKG20020928174509509/28/02 17:45:31  5-MIN KMKG 282245Z 00000KT 8SM FEW037 18/14 A3010 460 75 1000 000/00 RMK AO2
14840KMKG MKG20020928175011209/28/02 17:50:31  5-MIN KMKG 282250Z 00000KT 8SM FEW037 18/14 A3011 460 75 1000 000/00 RMK AO2 SLP196 T01830139
14840KMKG MKG20020928175511209/28/02 17:55:31  5-MIN KMKG 282255Z 00000KT 8SM FEW037 18/14 A3011 460 75 1000 000/00 RMK AO2 SLP197 T01830139
14840KMKG MKG20020928180009209/28/02 18:00:31  5-MIN KMKG 282300Z 00000KT 8SM CLR 18/14 A3010 460 75 1000 000/00 RMK AO2
14840KMKG MKG20020928180509109/28/02 18:05:31  5-MIN KMKG 282305Z 00000KT 8SM CLR 18/14 A3010 460 78 900 000/00 RMK AO2
14840KMKG MKG20020928181009109/28/02 18:10:31  5-MIN KMKG 282310Z 33003KT 7SM CLR 17/14 A3011 460 80 900 340/03 RMK AO2
14840KMKG MKG20020928181509109/28/02 18:15:31  5-MIN KMKG 282315Z 03004KT 7SM CLR 17/14 A3011 460 80 900 040/04 RMK AO2
14840KMKG MKG20020928182009409/28/02 18:20:31  5-MIN KMKG 282320Z 02004KT 7SM FEW070 17/14 A3011 460 80 900 020/04 RMK AO2
14840KMKG MKG20020928182509409/28/02 18:25:31  5-MIN KMKG 282325Z 01003KT 7SM SCT070 17/14 A3011 460 80 900 020/03 RMK AO2
14840KMKG MKG20020928183009409/28/02 18:30:31  5-MIN KMKG 282330Z 01003KT 7SM BKN070 17/14 A3011 460 83 900 010/03 RMK AO2
14840KMKG MKG20020928183509409/28/02 18:35:31  5-MIN KMKG 282335Z 36003KT 7SM BKN070 17/14 A3011 460 80 900 010/03 RMK AO2
14840KMKG MKG20020928184009409/28/02 18:40:31  5-MIN KMKG 282340Z 00000KT 7SM BKN070 17/14 A3011 460 80 900 000/00 RMK AO2
14840KMKG MKG20020928184509409/28/02 18:45:31  5-MIN KMKG 282345Z 00000KT 8SM BKN070 17/14 A3011 460 80 900 000/00 RMK AO2
14840KMKG MKG20020928185012909/28/02 18:50:31  5-MIN KMKG 282350Z 00000KT 8SM BKN070 17/14 A3011 460 80 900 000/00 RMK AO2 SLP197 T01720139 10211 20172 57020
14840KMKG MKG20020928185512909/28/02 18:55:31  5-MIN KMKG 282355Z 02004KT 8SM BKN070 17/14 A3011 460 80 900 030/04 RMK AO2 SLP196 T01720139 10211 20172 52000
14840KMKG MKG20020928190009409/28/02 19:00:31  5-MIN KMKG 290000Z 02005KT 8SM BKN070 17/14 A3011 460 80 900 020/05 RMK AO2
14840KMKG MKG20020928190509409/28/02 19:05:31  5-MIN KMKG 290005Z 02005KT 8SM BKN070 17/14 A3011 460 80 900 030/05 RMK AO2
14840KMKG MKG20020928191009409/28/02 19:10:31  5-MIN KMKG 290010Z 02004KT 7SM BKN070 17/14 A3011 460 80 900 020/04 RMK AO2
14840KMKG MKG20020928191509409/28/02 19:15:31  5-MIN KMKG 290015Z 00000KT 7SM BKN070 17/14 A3011 450 83 800 000/00 RMK AO2
14840KMKG MKG20020928192009409/28/02 19:20:31  5-MIN KMKG 290020Z 00000KT 7SM BKN070 16/14 A3011 450 86 700 000/00 RMK AO2
14840KMKG MKG20020928192509409/28/02 19:25:31  5-MIN KMKG 290025Z 00000KT 7SM BKN070 17/14 A3011 450 83 800 000/00 RMK AO2
14840KMKG MKG20020928193009409/28/02 19:30:31  5-MIN KMKG 290030Z 00000KT 7SM BKN075 17/14 A3012 450 80 900 000/00 RMK AO2
14840KMKG MKG20020928193510109/28/02 19:35:31  5-MIN KMKG 290035Z 00000KT 7SM FEW044 OVC075 17/14 A3012 450 80 900 000/00 RMK AO2
14840KMKG MKG20020928194010109/28/02 19:40:31  5-MIN KMKG 290040Z 00000KT 7SM FEW044 BKN075 17/14 A3012 450 80 900 000/00 RMK AO2
14840KMKG MKG20020928194510109/28/02 19:45:31  5-MIN KMKG 290045Z 00000KT 7SM FEW044 BKN075 18/14 A3012 450 78 900 000/00 RMK AO2
14840KMKG MKG20020928195011809/28/02 19:50:31  5-MIN KMKG 290050Z 00000KT 7SM FEW044 BKN075 17/14 A3012 450 80 900 000/00 RMK AO2 SLP202 T01720139
14840KMKG MKG20020928195511809/28/02 19:55:31  5-MIN KMKG 290055Z 00000KT 7SM FEW044 BKN075 17/14 A3012 450 80 900 000/00 RMK AO2 SLP202 T01720139
14840KMKG MKG20020928200010809/28/02 20:00:31  5-MIN KMKG 290100Z 00000KT 7SM SCT044 BKN065 OVC080 17/14 A3012 450 80 900 000/00 RMK AO2
14840KMKG MKG20020928200510809/28/02 20:05:31  5-MIN KMKG 290105Z 00000KT 7SM SCT044 BKN065 OVC080 17/14 A3012 450 80 900 000/00 RMK AO2
14840KMKG MKG20020928201010809/28/02 20:10:31  5-MIN KMKG 290110Z 00000KT 7SM BKN044 BKN065 OVC080 17/14 A3012 440 80 800 000/00 RMK AO2
14840KMKG MKG20020928201510809/28/02 20:15:31  5-MIN KMKG 290115Z 00000KT 7SM BKN044 BKN065 BKN080 17/14 A3013 440 83 800 000/00 RMK AO2
14840KMKG MKG20020928202010809/28/02 20:20:31  5-MIN KMKG 290120Z 00000KT 7SM BKN044 BKN065 BKN080 17/14 A3013 440 83 800 000/00 RMK AO2
14840KMKG MKG20020928202512309/28/02 20:25:31  5-MIN KMKG 290125Z 00000KT 7SM SCT044 BKN065 BKN080 17/14 A3013 440 83 800 000/00 RMK AO2 CIG 043 RWY 14
14840KMKG MKG20020928203012309/28/02 20:30:31  5-MIN KMKG 290130Z 00000KT 7SM SCT044 BKN065 BKN080 18/14 A3013 440 78 900 000/00 RMK AO2 CIG 043 RWY 14
14840KMKG MKG20020928203512309/28/02 20:35:31  5-MIN KMKG 290135Z 00000KT 7SM SCT044 BKN065 BKN080 17/14 A3013 440 83 800 000/00 RMK AO2 CIG 043 RWY 14
14840KMKG MKG20020928204010809/28/02 20:40:31  5-MIN KMKG 290140Z 00000KT 7SM SCT044 BKN060 BKN080 17/14 A3013 440 83 800 000/00 RMK AO2
14840KMKG MKG20020928204510809/28/02 20:45:31  5-MIN KMKG 290145Z 00000KT 7SM FEW042 BKN060 OVC080 17/14 A3013 440 83 800 000/00 RMK AO2
14840KMKG MKG20020928205012509/28/02 20:50:31  5-MIN KMKG 290150Z 00000KT 7SM FEW042 BKN060 OVC085 17/14 A3013 440 83 800 000/00 RMK AO2 SLP202 T01670139
14840KMKG MKG20020928205512509/28/02 20:55:31  5-MIN KMKG 290155Z 00000KT 7SM FEW042 BKN060 OVC085 17/14 A3012 440 83 800 000/00 RMK AO2 SLP202 T01670139
14840KMKG MKG20020928210010809/28/02 21:00:31  5-MIN KMKG 290200Z 00000KT 7SM FEW042 BKN060 OVC085 17/14 A3012 440 83 800 000/00 RMK AO2
14840KMKG MKG20020928210510109/28/02 21:05:31  5-MIN KMKG 290205Z 00000KT 7SM BKN065 OVC085 17/14 A3012 440 83 800 000/00 RMK AO2
14840KMKG MKG20020928211010409/28/02 21:10:31  5-MIN KMKG 290210Z 00000KT 6SM BR BKN065 OVC085 17/14 A3012 440 86 800 000/00 RMK AO2
14840KMKG MKG20020928211510409/28/02 21:15:31  5-MIN KMKG 290215Z 00000KT 6SM HZ BKN065 BKN085 17/14 A3012 450 83 800 000/00 RMK AO2
14840KMKG MKG20020928212010409/28/02 21:20:31  5-MIN KMKG 290220Z 00000KT 6SM HZ SCT065 BKN085 17/14 A3012 450 83 800 000/00 RMK AO2
14840KMKG MKG20020928212510409/28/02 21:25:31  5-MIN KMKG 290225Z 00000KT 6SM BR FEW065 SCT085 16/14 A3011 450 86 700 000/00 RMK AO2
14840KMKG MKG20020928213010409/28/02 21:30:31  5-MIN KMKG 290230Z 00000KT 6SM BR FEW065 SCT090 16/14 A3011 450 86 700 000/00 RMK AO2
14840KMKG MKG20020928213509709/28/02 21:35:31  5-MIN KMKG 290235Z 00000KT 6SM BR FEW065 16/14 A3011 460 90 700 000/00 RMK AO2
14840KMKG MKG20020928214009409/28/02 21:40:31  5-MIN KMKG 290240Z 00000KT 6SM BR CLR 16/14 A3011 460 90 700 000/00 RMK AO2
14840KMKG MKG20020928214509409/28/02 21:45:31  5-MIN KMKG 290245Z 00000KT 5SM BR CLR 15/13 A3011 460 90 600 000/00 RMK AO2
14840KMKG MKG20020928215011709/28/02 21:50:31  5-MIN KMKG 290250Z 07004KT 5SM BR CLR 16/14 A3011 460 90 700 070/04 RMK AO2 SLP195 T01560139 52000
14840KMKG MKG20020928215511709/28/02 21:55:31  5-MIN KMKG 290255Z 08004KT 5SM BR CLR 16/13 A3010 460 86 700 090/04 RMK AO2 SLP194 T01560133 50000
14840KMKG MKG20020928220009409/28/02 22:00:31  5-MIN KMKG 290300Z 10004KT 5SM BR CLR 15/13 A3011 460 90 600 110/04 RMK AO2
14840KMKG MKG20020928220509409/28/02 22:05:31  5-MIN KMKG 290305Z 11004KT 5SM BR CLR 15/13 A3011 450 90 600 110/04 RMK AO2
14840KMKG MKG20020928221009409/28/02 22:10:31  5-MIN KMKG 290310Z 11004KT 5SM BR CLR 14/13 A3011 450 93 500 110/04 RMK AO2
14840KMKG MKG20020928221509409/28/02 22:15:31  5-MIN KMKG 290315Z 11003KT 5SM BR CLR 14/13 A3011 450 93 500 120/03 RMK AO2
14840KMKG MKG20020928222009709/28/02 22:20:31  5-MIN KMKG 290320Z 12003KT 5SM BR FEW075 14/13 A3011 450 93 500 120/03 RMK AO2
14840KMKG MKG20020928222509709/28/02 22:25:31  5-MIN KMKG 290325Z 13004KT 5SM BR SCT075 14/13 A3011 460 93 500 130/04 RMK AO2
14840KMKG MKG20020928223009709/28/02 22:30:31  5-MIN KMKG 290330Z 12005KT 5SM BR BKN075 14/13 A3011 460 93 500 120/05 RMK AO2
14840KMKG MKG20020928223509709/28/02 22:35:31  5-MIN KMKG 290335Z 12005KT 5SM BR SCT080 15/13 A3011 460 90 600 120/05 RMK AO2
14840KMKG MKG20020928224009709/28/02 22:40:31  5-MIN KMKG 290340Z 12004KT 5SM BR SCT080 14/13 A3011 460 93 500 120/04 RMK AO2
14840KMKG MKG20020928224509709/28/02 22:45:31  5-MIN KMKG 290345Z 11004KT 5SM BR SCT080 14/13 A3011 460 93 500 110/04 RMK AO2
14840KMKG MKG20020928225011409/28/02 22:50:31  5-MIN KMKG 290350Z 10003KT 5SM BR SCT075 14/13 A3011 460 93 500 100/03 RMK AO2 SLP194 T01440133
14840KMKG MKG20020928225511409/28/02 22:55:31  5-MIN KMKG 290355Z 00000KT 5SM BR SCT075 14/13 A3010 460 90 500 000/00 RMK AO2 SLP193 T01440128
14840KMKG MKG20020928230010409/28/02 23:00:31  5-MIN KMKG 290400Z 10004KT 5SM BR FEW070 SCT080 14/13 A3010 470 90 600 100/04 RMK AO2
14840KMKG MKG20020928230510409/28/02 23:05:31  5-MIN KMKG 290405Z 10004KT 5SM BR FEW070 SCT080 14/13 A3010 470 90 600 100/04 RMK AO2
14840KMKG MKG20020928231009709/28/02 23:10:31  5-MIN KMKG 290410Z 10005KT 5SM BR FEW065 14/13 A3010 470 90 600 100/05 RMK AO2
14840KMKG MKG20020928231509709/28/02 23:15:31  5-MIN KMKG 290415Z 10005KT 5SM BR FEW065 14/13 A3010 470 90 500 110/05 RMK AO2
14840KMKG MKG20020928232009409/28/02 23:20:31  5-MIN KMKG 290420Z 10003KT 5SM BR CLR 14/13 A3010 470 90 500 100/03 RMK AO2
14840KMKG MKG20020928232509409/28/02 23:25:31  5-MIN KMKG 290425Z 10003KT 5SM BR CLR 14/13 A3010 460 90 500 100/03 RMK AO2
14840KMKG MKG20020928233009409/28/02 23:30:31  5-MIN KMKG 290430Z 10003KT 5SM BR CLR 14/12 A3010 460 90 500 100/03 RMK AO2
14840KMKG MKG20020928233509409/28/02 23:35:31  5-MIN KMKG 290435Z 10003KT 5SM BR CLR 14/13 A3010 460 93 500 100/03 RMK AO2
14840KMKG MKG20020928234010409/28/02 23:40:31  5-MIN KMKG 290440Z 10003KT 5SM BR FEW075 SCT110 14/12 A3010 460 90 500 100/03 RMK AO2
14840KMKG MKG20020928234510409/28/02 23:45:31  5-MIN KMKG 290445Z 11003KT 5SM BR SCT075 BKN110 14/13 A3010 460 93 500 110/03 RMK AO2
14840KMKG MKG20020928235013809/28/02 23:50:31  5-MIN KMKG 290450Z 10003KT 5SM BR FEW070 SCT085 BKN110 14/13 A3010 460 90 500 100/03 RMK AO2 SLP194 T01440128 402110050
14840KMKG MKG20020928235513109/28/02 23:55:31  5-MIN KMKG 290455Z 09003KT 5SM BR BKN080 BKN110 14/13 A3010 460 90 500 090/03 RMK AO2 SLP193 T01440128 402110050
14840KMKG MKG20020929000012609/29/02 00:00:31  5-MIN KMKG 290500Z 10003KT 5SM BR SCT070 BKN085 OVC110 15/13 A3010 460 90 600 100/03 RMK AO2 CIG 070 RWY 14
14840KMKG MKG20020929000511109/29/02 00:05:31  5-MIN KMKG 290505Z 11003KT 5SM BR BKN075 BKN085 OVC110 15/13 A3010 460 90 600 120/03 RMK AO2
14840KMKG MKG20020929001012609/29/02 00:10:31  5-MIN KMKG 290510Z 00000KT 5SM BR SCT070 BKN085 OVC110 15/13 A3010 460 90 600 000/00 RMK AO2 CIG 070 RWY 14
14840KMKG MKG20020929001511109/29/02 00:15:31  5-MIN KMKG 290515Z 11003KT 5SM BR SCT070 BKN085 OVC110 15/13 A3010 460 90 600 120/03 RMK AO2
14840KMKG MKG20020929002010409/29/02 00:20:31  5-MIN KMKG 290520Z 11004KT 5SM BR FEW070 BKN085 14/13 A3010 470 93 600 110/04 RMK AO2
14840KMKG MKG20020929002510409/29/02 00:25:31  5-MIN KMKG 290525Z 11004KT 5SM BR FEW070 BKN085 14/13 A3009 470 93 600 110/04 RMK AO2
14840KMKG MKG20020929003010409/29/02 00:30:31  5-MIN KMKG 290530Z 11004KT 5SM BR FEW070 SCT085 14/13 A3009 470 93 600 120/04 RMK AO2
14840KMKG MKG20020929003509709/29/02 00:35:31  5-MIN KMKG 290535Z 11004KT 5SM BR FEW085 14/13 A3009 470 93 600 120/04 RMK AO2
14840KMKG MKG20020929004009709/29/02 00:40:31  5-MIN KMKG 290540Z 11003KT 5SM BR FEW090 14/13 A3009 470 93 600 120/03 RMK AO2
14840KMKG MKG20020929004509409/29/02 00:45:31  5-MIN KMKG 290545Z 00000KT 5SM BR CLR 14/13 A3009 470 93 600 000/00 RMK AO2
14840KMKG MKG20020929005012909/29/02 00:50:31  5-MIN KMKG 290550Z 00000KT 5SM BR CLR 14/13 A3010 470 93 600 000/00 RMK AO2 SLP190 T01440133 10178 20139 50000
14840KMKG MKG20020929005513209/29/02 00:55:31  5-MIN KMKG 290555Z 00000KT 5SM BR FEW080 14/13 A3010 470 93 600 000/00 RMK AO2 SLP191 T01440133 10178 20139 58002
14840KMKG MKG20020929010010409/29/02 01:00:31  5-MIN KMKG 290600Z 00000KT 5SM BR SCT070 SCT085 15/13 A3010 470 90 600 000/00 RMK AO2
14840KMKG MKG20020929010510409/29/02 01:05:31  5-MIN KMKG 290605Z 00000KT 5SM BR BKN075 BKN090 15/13 A3010 460 90 600 000/00 RMK AO2
14840KMKG MKG20020929011010409/29/02 01:10:31  5-MIN KMKG 290610Z 11003KT 5SM BR SCT075 BKN090 15/13 A3010 470 90 600 120/03 RMK AO2
14840KMKG MKG20020929011510409/29/02 01:15:31  5-MIN KMKG 290615Z 12003KT 5SM BR SCT075 BKN090 15/13 A3010 470 90 600 120/03 RMK AO2
14840KMKG MKG20020929012010409/29/02 01:20:31  5-MIN KMKG 290620Z 13004KT 5SM BR SCT075 OVC090 15/13 A3010 460 90 600 130/04 RMK AO2
14840KMKG MKG20020929012511909/29/02 01:25:31  5-MIN KMKG 290625Z 13004KT 5SM BR SCT075 OVC090 15/13 A3010 460 90 600 130/04 RMK AO2 CIG 075 RWY 14
14840KMKG MKG20020929013009709/29/02 01:30:31  5-MIN KMKG 290630Z 13003KT 5SM BR OVC085 15/13 A3010 460 90 600 130/03 RMK AO2
14840KMKG MKG20020929013510409/29/02 01:35:31  5-MIN KMKG 290635Z 00000KT 5SM BR BKN075 OVC090 16/14 A3010 460 90 700 000/00 RMK AO2
14840KMKG MKG20020929014010409/29/02 01:40:31  5-MIN KMKG 290640Z 12003KT 5SM BR BKN075 OVC090 16/14 A3010 460 90 700 120/03 RMK AO2
14840KMKG MKG20020929014510409/29/02 01:45:31  5-MIN KMKG 290645Z 13003KT 5SM BR BKN075 OVC090 16/14 A3010 460 90 700 140/03 RMK AO2
14840KMKG MKG20020929015011409/29/02 01:50:31  5-MIN KMKG 290650Z 16003KT 5SM BR OVC075 16/14 A3010 460 90 700 160/03 RMK AO2 SLP193 T01560139
14840KMKG MKG20020929015511409/29/02 01:55:31  5-MIN KMKG 290655Z 17005KT 5SM BR OVC070 16/14 A3010 460 86 700 180/05 RMK AO2 SLP193 T01610139
14840KMKG MKG20020929020009709/29/02 02:00:31  5-MIN KMKG 290700Z 16006KT 5SM BR OVC070 16/14 A3010 460 86 700 170/06 RMK AO2
14840KMKG MKG20020929020509709/29/02 02:05:31  5-MIN KMKG 290705Z 16006KT 5SM BR OVC070 16/14 A3010 470 86 700 170/06 RMK AO2
14840KMKG MKG20020929021009709/29/02 02:10:31  5-MIN KMKG 290710Z 17006KT 4SM BR OVC070 16/14 A3010 470 86 700 170/06 RMK AO2
14840KMKG MKG20020929021509709/29/02 02:15:31  5-MIN KMKG 290715Z 18006KT 4SM BR OVC070 16/14 A3010 470 86 700 180/06 RMK AO2
14840KMKG MKG20020929022009709/29/02 02:20:31  5-MIN KMKG 290720Z 17006KT 4SM BR OVC070 16/14 A3009 470 86 800 180/06 RMK AO2
14840KMKG MKG20020929022512709/29/02 02:25:31  5-MIN KMKG 290725Z 17007KT 4SM -RA BR FEW049 SCT060 OVC075 16/14 A3009 480 86 800 170/07 RMK AO2 RAB23 P0000
14840KMKG MKG20020929023012009/29/02 02:30:31  5-MIN KMKG 290730Z 17007KT 4SM -RA BR SCT046 OVC080 16/14 A3008 480 90 800 170/07 RMK AO2 RAB23 P0000
14840KMKG MKG20020929023512009/29/02 02:35:31  5-MIN KMKG 290735Z 16007KT 4SM -RA BR BKN043 OVC075 16/14 A3008 480 93 700 170/07 RMK AO2 RAB23 P0000
14840KMKG MKG20020929024012009/29/02 02:40:31  5-MIN KMKG 290740Z 16007KT 4SM -RA BR BKN043 BKN075 16/14 A3007 490 93 700 170/07 RMK AO2 RAB23 P0000
14840KMKG MKG20020929024512009/29/02 02:45:31  5-MIN KMKG 290745Z 16008KT 4SM -RA BR SCT049 BKN075 16/14 A3007 490 93 700 170/08 RMK AO2 RAB23 P0000
14840KMKG MKG20020929025013609/29/02 02:50:31  5-MIN KMKG 290750Z 16009KT 4SM BR SCT055 BKN085 16/14 A3007 500 93 700 170/09 RMK AO2 RAB23E47 SLP180 P0000 T01560144
14840KMKG MKG20020929025512909/29/02 02:55:31  5-MIN KMKG 290755Z 16008KT 3SM BR SCT050 16/14 A3007 500 90 800 160/08 RMK AO2 RAB23E47 SLP180 P0000 T01610144
14840KMKG MKG20020929030009709/29/02 03:00:31  5-MIN KMKG 290800Z 16005KT 3SM BR FEW060 16/14 A3007 490 90 800 160/05 RMK AO2
14840KMKG MKG20020929030510409/29/02 03:05:31  5-MIN KMKG 290805Z 16004KT 3SM BR FEW090 SCT120 16/14 A3007 490 90 800 170/04 RMK AO2
14840KMKG MKG20020929031009709/29/02 03:10:31  5-MIN KMKG 290810Z 15004KT 3SM BR FEW100 16/15 A3007 500 93 800 150/04 RMK AO2
14840KMKG MKG20020929031509709/29/02 03:15:31  5-MIN KMKG 290815Z 15006KT 3SM BR FEW120 16/15 A3007 500 96 700 160/06 RMK AO2
14840KMKG MKG20020929032009709/29/02 03:20:31  5-MIN KMKG 290820Z 15005KT 3SM BR FEW110 16/15 A3007 500 96 700 160/05 RMK AO2
14840KMKG MKG20020929032509709/29/02 03:25:31  5-MIN KMKG 290825Z 16005KT 3SM BR FEW110 16/15 A3007 490 93 800 160/05 RMK AO2
14840KMKG MKG20020929033009709/29/02 03:30:31  5-MIN KMKG 290830Z 14005KT 3SM BR FEW120 16/15 A3007 490 93 800 140/05 RMK AO2
14840KMKG MKG20020929033509409/29/02 03:35:31  5-MIN KMKG 290835Z 13004KT 3SM BR CLR 16/15 A3007 490 93 800 140/04 RMK AO2
14840KMKG MKG20020929034009409/29/02 03:40:31  5-MIN KMKG 290840Z 00000KT 3SM BR CLR 16/15 A3008 480 93 800 000/00 RMK AO2
14840KMKG MKG20020929034510709/29/02 03:45:31  5-MIN KMKG 290845Z 00000KT 3SM BR CLR 16/15 A3009 470 93 800 000/00 RMK AO2 VIS 2 RWY 14
14840KMKG MKG20020929035013609/29/02 03:50:31  5-MIN KMKG 290850Z 00000KT 3SM BR CLR 16/15 A3009 470 96 700 000/00 RMK AO2 VIS 2 RWY 14 SLP188 60000 T01560150 58002
14840KMKG MKG20020929035513609/29/02 03:55:31  5-MIN KMKG 290855Z 00000KT 3SM BR CLR 16/15 A3009 470 93 800 000/00 RMK AO2 VIS 2 RWY 14 SLP188 60000 T01610150 55002
14840KMKG MKG20020929040010709/29/02 04:00:31  5-MIN KMKG 290900Z 00000KT 3SM BR CLR 16/15 A3009 470 93 800 000/00 RMK AO2 VIS 2 RWY 14
14840KMKG MKG20020929040510109/29/02 04:05:31  5-MIN KMKG 290905Z 00000KT 2 1/2SM BR FEW110 16/15 A3009 470 96 700 000/00 RMK AO2
14840KMKG MKG20020929041011809/29/02 04:10:31  5-MIN KMKG 290910Z 14003KT 2 1/2SM BR FEW110 16/15 A3010 470 96 700 150/03 RMK AO2 VIS 1 3/4 RWY 14
14840KMKG MKG20020929041513409/29/02 04:15:31  5-MIN KMKG 290915Z 00000KT 2 1/2SM -RA BR SCT095 16/15 A3010 470 96 700 000/00 RMK AO2 VIS 1 3/4 RWY 14 RAB15 P0000
14840KMKG MKG20020929042011709/29/02 04:20:31  5-MIN KMKG 290920Z 00000KT 2 1/2SM -RA BR SCT060 16/15 A3010 470 96 700 000/00 RMK AO2 RAB15 P0000
14840KMKG MKG20020929042511709/29/02 04:25:31  5-MIN KMKG 290925Z 00000KT 2 1/2SM -RA BR BKN065 16/15 A3010 460 93 700 000/00 RMK AO2 RAB15 P0000
14840KMKG MKG20020929043013309/29/02 04:30:31  5-MIN KMKG 290930Z 00000KT 3SM -RA BR BKN060 BKN100 16/15 A3011 460 96 700 000/00 RMK AO2 VIS 2 RWY 14 RAB15 P0000
14840KMKG MKG20020929043513409/29/02 04:35:31  5-MIN KMKG 290935Z 00000KT 2 1/2SM -RA BR BKN043 16/15 A3011 460 96 700 000/00 RMK AO2 VIS 1 3/4 RWY 14 RAB15 P0000
14840KMKG MKG20020929044013409/29/02 04:40:31  5-MIN KMKG 290940Z 00000KT 2 1/2SM -RA BR BKN034 16/15 A3011 460 96 700 000/00 RMK AO2 VIS 1 3/4 RWY 14 RAB15 P0000
14840KMKG MKG20020929044511409/29/02 04:45:31  5-MIN KMKG 290945Z 00000KT 2SM -RA BR BKN032 16/16 A3011 460 100 700 000/00 RMK AO2 RAB15 P0001
14840KMKG MKG20020929045013109/29/02 04:50:31  5-MIN KMKG 290950Z 17003KT 2SM -RA BR BKN030 16/16 A3011 460 100 700 180/03 RMK AO2 RAB15 SLP195 P0001 T01560156
14840KMKG MKG20020929045513509/29/02 04:55:31  5-MIN KMKG 290955Z 17003KT 1 3/4SM -RA BR OVC028 16/16 A3011 460 100 700 170/03 RMK AO2 RAB15 SLP195 P0002 T01560156
14840KMKG MKG20020929050011209/29/02 05:00:31  5-MIN KMKG 291000Z 17003KT 1 3/4SM -RA BR OVC028 16/16 A3011 460 100 700 170/03 RMK AO2 P0000
14840KMKG MKG20020929050510709/29/02 05:05:31  5-MIN KMKG 291005Z 17005KT 2SM -RA BR OVC034 16/16 A3010 460 96 700 170/05 RMK AO2 P0001
14840KMKG MKG20020929051010809/29/02 05:10:31  5-MIN KMKG 291010Z 16006KT 2SM -RA BR OVC041 16/16 A3010 460 100 700 170/06 RMK AO2 P0001
14840KMKG MKG20020929051512909/29/02 05:15:31  5-MIN KMKG 291015Z 17006KT 2 1/2SM -RA BR BKN041 16/16 A3010 460 100 700 170/06 RMK AO2 VIS 1 3/4 RWY 14 P0001
14840KMKG MKG20020929052010809/29/02 05:20:31  5-MIN KMKG 291020Z 17006KT 2SM -RA BR BKN046 16/16 A3011 460 100 700 170/06 RMK AO2 P0001
14840KMKG MKG20020929052510809/29/02 05:25:31  5-MIN KMKG 291025Z 18006KT 2SM -RA BR BKN040 16/16 A3011 450 100 700 180/06 RMK AO2 P0001
14840KMKG MKG20020929053011209/29/02 05:30:31  5-MIN KMKG 291030Z 19005KT 1 3/4SM -RA BR BKN035 16/16 A3011 450 100 700 190/05 RMK AO2 P0001
14840KMKG MKG20020929053511209/29/02 05:35:31  5-MIN KMKG 291035Z 20004KT 1 3/4SM -RA BR BKN033 16/16 A3012 450 100 700 210/04 RMK AO2 P0001
14840KMKG MKG20020929054011909/29/02 05:40:31  5-MIN KMKG 291040Z 20006KT 1 3/4SM -RA BR BKN039 BKN110 17/17 A3011 450 100 800 200/06 RMK AO2 P0001
14840KMKG MKG20020929054511909/29/02 05:45:31  5-MIN KMKG 291045Z 19006KT 1 3/4SM -RA BR BKN049 OVC090 17/17 A3011 460 100 800 190/06 RMK AO2 P0002
14840KMKG MKG20020929055013609/29/02 05:50:31  5-MIN KMKG 291050Z 21005KT 1 3/4SM -RA BR BKN047 OVC090 17/17 A3011 450 100 900 210/05 RMK AO2 SLP196 P0002 T01720172
14840KMKG MKG20020929055513209/29/02 05:55:31  5-MIN KMKG 291055Z 20003KT 2SM -RA BR BKN042 OVC090 17/17 A3011 450 100 900 210/03 RMK AO2 SLP195 P0002 T01720172
14840KMKG MKG20020929060011509/29/02 06:00:31  5-MIN KMKG 291100Z 19003KT 2SM -RA BR BKN038 BKN090 17/17 A3011 450 100 900 190/03 RMK AO2 P0000
14840KMKG MKG20020929060511509/29/02 06:05:31  5-MIN KMKG 291105Z 20004KT 2SM -RA BR FEW009 BKN041 17/17 A3012 450 100 900 210/04 RMK AO2 P0000
14840KMKG MKG20020929061011509/29/02 06:10:31  5-MIN KMKG 291110Z 20003KT 2SM -RA BR FEW009 OVC030 17/17 A3012 440 100 800 210/03 RMK AO2 P0001
14840KMKG MKG20020929061511909/29/02 06:15:31  5-MIN KMKG 291115Z 00000KT 1 3/4SM -RA BR FEW009 OVC022 17/17 A3012 440 100 800 000/00 RMK AO2 P0001
14840KMKG MKG20020929062011909/29/02 06:20:31  5-MIN KMKG 291120Z 00000KT 1 3/4SM -RA BR FEW009 OVC016 17/17 A3012 440 100 800 000/00 RMK AO2 P0001
14840KMKG MKG20020929062511909/29/02 06:25:31  5-MIN KMKG 291125Z 00000KT 1 3/4SM -RA BR SCT009 OVC016 17/17 A3013 440 100 800 000/00 RMK AO2 P0002
14840KMKG MKG20020929063011909/29/02 06:30:31  5-MIN KMKG 291130Z 00000KT 1 3/4SM -RA BR BKN009 OVC014 17/17 A3013 440 100 800 000/00 RMK AO2 P0002
14840KMKG MKG20020929063511909/29/02 06:35:31  5-MIN KMKG 291135Z 18003KT 1 3/4SM -RA BR SCT009 OVC014 17/17 A3013 440 100 800 190/03 RMK AO2 P0002
14840KMKG MKG20020929064011909/29/02 06:40:31  5-MIN KMKG 291140Z 16005KT 1 3/4SM -RA BR FEW009 OVC016 17/17 A3012 440 100 800 160/05 RMK AO2 P0003
14840KMKG MKG20020929064511909/29/02 06:45:31  5-MIN KMKG 291145Z 15007KT 1 1/2SM -RA BR FEW009 OVC016 17/17 A3012 450 100 900 150/07 RMK AO2 P0003
14840KMKG MKG20020929065016609/29/02 06:50:31  5-MIN KMKG 291150Z 16006KT 1 1/2SM -RA BR FEW007 BKN016 17/17 A3012 450 100 900 160/06 RMK AO2 SLP198 P0003 60007 70007 T01720172 10172 20150 55002
14840KMKG MKG20020929065517909/29/02 06:55:31  5-MIN KMKG 291155Z 17006KT 1 3/4SM -RA BR FEW007 BKN034 17/17 A3012 450 100 900 170/06 RMK AO2 VIS 1 RWY 14 SLP198 P0003 60007 70007 T01720172 10172 20150 51009
14840KMKG MKG20020929070011209/29/02 07:00:31  5-MIN KMKG 291200Z 18006KT 2 1/2SM -RA BR BKN045 17/17 A3012 450 100 900 180/06 RMK AO2 P0000
14840KMKG MKG20020929070511909/29/02 07:05:31  5-MIN KMKG 291205Z 19006KT 2 1/2SM -RA BR BKN040 BKN100 17/17 A3012 450 100 900 190/06 RMK AO2 P0000
14840KMKG MKG20020929071012209/29/02 07:10:31  5-MIN KMKG 291210Z 19008KT 3SM -RA BR FEW010 BKN034 BKN100 17/17 A3011 450 100 900 200/08 RMK AO2 P0000
14840KMKG MKG20020929071512209/29/02 07:15:31  5-MIN KMKG 291215Z 18009KT 2SM -RA BR FEW010 BKN037 BKN100 17/17 A3011 460 100 900 180/09 RMK AO2 P0001
14840KMKG MKG20020929072012609/29/02 07:20:31  5-MIN KMKG 291220Z 18010KT 1 3/4SM -RA BR FEW013 BKN033 BKN100 17/17 A3011 460 100 900 180/10 RMK AO2 P0001
14840KMKG MKG20020929072512209/29/02 07:25:31  5-MIN KMKG 291225Z 17010KT 2SM -RA BR FEW013 BKN026 BKN100 17/17 A3011 460 100 900 180/10 RMK AO2 P0001
14840KMKG MKG20020929073011509/29/02 07:30:31  5-MIN KMKG 291230Z 16009KT 2SM -RA BR BKN018 BKN100 17/17 A3010 460 100 900 170/09 RMK AO2 P0001
14840KMKG MKG20020929073512209/29/02 07:35:31  5-MIN KMKG 291235Z 16011KT 2SM -RA BR FEW013 BKN020 BKN100 17/17 A3010 470 100 900 160/11 RMK AO2 P0002
14840KMKG MKG20020929074012609/29/02 07:40:31  5-MIN KMKG 291240Z 16015KT 1 3/4SM -RA BR BKN026 BKN110 17/17 A3009 480 100 900 160/15 RMK AO2 PRESFR P0002
14840KMKG MKG20020929074512209/29/02 07:45:31  5-MIN KMKG 291245Z 16014KT 2SM -RA BR BKN033 OVC100 17/17 A3008 480 100 900 170/14 RMK AO2 PRESFR P0002
14840KMKG MKG20020929075013209/29/02 07:50:31  5-MIN KMKG 291250Z 18010KT 2SM -RA BR BKN032 OVC100 17/17 A3009 480 100 900 180/10 RMK AO2 SLP188 P0002 T01720172
14840KMKG MKG20020929075513609/29/02 07:55:31  5-MIN KMKG 291255Z 18008KT 1 3/4SM -RA BR BKN027 OVC100 17/17 A3010 470 100 900 190/08 RMK AO2 SLP191 P0003 T01720172
14840KMKG MKG20020929080011409/29/02 08:00:31  5-MIN KMKG 291300Z 19006KT 2SM -RA BR BKN025 OVC110 18/17 A3010 460 96 900 190/06 RMK AO2 P0000
14840KMKG MKG20020929080512909/29/02 08:05:31  5-MIN KMKG 291305Z VRB04KT 2SM -RA BR FEW006 BKN025 OVC110 18/18 A3011 450 100 900 VRB/04 RMK AO2 PRESRR P0000
14840KMKG MKG20020929081016109/29/02 08:10:31  5-MIN KMKG 291310Z 35007KT 2SM -RA BR SCT006 BKN022 OVC100 18/18 A3012 440 100 900 350/07 RMK AO2 VIS 1 1/4 RWY 14 CIG 007 RWY 14 PRESRR P0000
14840KMKG MKG20020929081512809/29/02 08:15:31  5-MIN KMKG 291315Z 35007KT 2SM -RA BR BKN008 OVC020 18/18 A3012 440 100 900 350/07 RMK AO2 VIS 1 RWY 14 P0000
14840KMKG MKG20020929082012809/29/02 08:20:31  5-MIN KMKG 291320Z 35005KT 2SM -RA BR BKN008 OVC015 18/18 A3013 440 100 900 350/05 RMK AO2 VIS 1 RWY 14 P0000
14840KMKG MKG20020929082513709/29/02 08:25:31  5-MIN KMKG 291325Z 35004KT 2 1/2SM BR BKN008 OVC015 18/17 A3013 440 96 900 360/04 RMK AO2 VIS 1 1/4 RWY 14 RAE23 P0000
14840KMKG MKG20020929083012609/29/02 08:30:31  5-MIN KMKG 291330Z 31003KT 2 1/2SM BR OVC008 18/17 A3013 440 96 900 310/03 RMK AO2 VIS 1 RWY 14 RAE23 P0000
14840KMKG MKG20020929083514309/29/02 08:35:31  5-MIN KMKG 291335Z 00000KT 2 1/2SM BR OVC008 18/18 A3013 430 100 900 000/00 RMK AO2 VIS 1 1/4 RWY 14 RAE23 CIG 006V013 P0000
14840KMKG MKG20020929084014309/29/02 08:40:31  5-MIN KMKG 291340Z VRB03KT 2 1/2SM BR OVC008 18/18 A3014 430 100 900 VRB/03 RMK AO2 VIS 1 3/4 RWY 14 RAE23 CIG 006V013 P0000
14840KMKG MKG20020929084512609/29/02 08:45:31  5-MIN KMKG 291345Z VRB04KT 2 1/2SM BR OVC008 18/18 A3014 430 96 1000 VRB/04 RMK AO2 RAE23 CIG 007V013 P0000
14840KMKG MKG20020929085014309/29/02 08:50:31  5-MIN KMKG 291350Z 19005KT 2 1/2SM BR OVC008 18/18 A3014 430 96 1000 200/05 RMK AO2 RAE23 CIG 007V013 SLP204 P0000 T01830178
14840KMKG MKG20020929085514309/29/02 08:55:31  5-MIN KMKG 291355Z 18007KT 2 1/2SM BR OVC008 18/18 A3014 430 96 1000 190/07 RMK AO2 RAE23 CIG 007V012 SLP205 P0000 T01830178
14840KMKG MKG20020929090011409/29/02 09:00:31  5-MIN KMKG 291400Z 15006KT 2 1/2SM BR OVC008 18/18 A3013 440 96 1000 150/06 RMK AO2 CIG 007V013
14840KMKG MKG20020929090512109/29/02 09:05:31  5-MIN KMKG 291405Z 15006KT 2 1/2SM BR BKN008 OVC012 18/18 A3012 450 96 1000 150/06 RMK AO2 CIG 007V011
14840KMKG MKG20020929091011209/29/02 09:10:31  5-MIN KMKG 291410Z 15007KT 2SM BR BKN008 BKN012 18/18 A3011 450 96 1000 150/07 RMK AO2 PRESFR
14840KMKG MKG20020929091511009/29/02 09:15:31  5-MIN KMKG 291415Z VRB03KT 2SM BR BKN010 18/18 A3012 440 96 1000 VRB/03 RMK AO2 CIG 007V014
14840KMKG MKG20020929092013009/29/02 09:20:31  5-MIN KMKG 291420Z 15003KT 2 1/2SM -RA BR BKN010 18/18 A3013 440 96 1000 150/03 RMK AO2 RAB17 CIG 007V014 P0000
14840KMKG MKG20020929092513909/29/02 09:25:31  5-MIN KMKG 291425Z 12004KT 3SM -RA BR BKN010 18/18 A3013 440 96 1000 120/04 RMK AO2 VIS 2 RWY 14 RAB17 CIG 008V013 P0000
14840KMKG MKG20020929093013909/29/02 09:30:31  5-MIN KMKG 291430Z 14005KT 3SM -RA BR BKN010 18/18 A3012 440 96 1000 140/05 RMK AO2 VIS 2 RWY 14 RAB17 CIG 008V013 P0000
14840KMKG MKG20020929093513809/29/02 09:35:31  5-MIN KMKG 291435Z 14006KT 3SM BR OVC008 18/18 A3012 450 96 1000 140/06 RMK AO2 VIS 2 RWY 14 RAB17E34 CIG 007V013 P0000
14840KMKG MKG20020929094012909/29/02 09:40:31  5-MIN KMKG 291440Z 15008KT 2 1/2SM BR OVC008 18/18 A3012 450 96 1000 150/08 RMK AO2 RAB17E34 CIG 007V010 P0000
14840KMKG MKG20020929094512909/29/02 09:45:31  5-MIN KMKG 291445Z 14006KT 2 1/2SM BR OVC008 18/18 A3012 440 96 1000 140/06 RMK AO2 RAB17E34 CIG 007V013 P0000
14840KMKG MKG20020929095015809/29/02 09:50:31  5-MIN KMKG 291450Z 13006KT 2 1/2SM BR OVC008 18/18 A3012 450 96 1000 130/06 RMK AO2 RAB17E34 CIG 007V012 SLP198 P0000 60003 T01830178 51009
14840KMKG MKG20020929095515809/29/02 09:55:31  5-MIN KMKG 291455Z 13007KT 2 1/2SM BR OVC008 18/18 A3012 450 96 1000 130/07 RMK AO2 RAB17E34 CIG 007V012 SLP198 P0000 60003 T01830178 52000
14840KMKG MKG20020929100013109/29/02 10:00:31  5-MIN KMKG 291500Z 13008KT 2 1/2SM BR OVC008 18/18 A3011 450 96 1000 130/08 RMK AO2 VIS 1 3/4 RWY 14 CIG 007V011
14840KMKG MKG20020929100511009/29/02 10:05:31  5-MIN KMKG 291505Z 13006KT 2SM BR OVC008 18/18 A3011 460 96 1000 130/06 RMK AO2 CIG 006V012
14840KMKG MKG20020929101011709/29/02 10:10:31  5-MIN KMKG 291510Z 11007KT 2SM BR BKN008 OVC014 19/18 A3011 460 97 1100 120/07 RMK AO2 CIG 006V012
14840KMKG MKG20020929101511709/29/02 10:15:31  5-MIN KMKG 291515Z 11006KT 2SM BR BKN008 OVC013 19/18 A3011 460 97 1100 110/06 RMK AO2 CIG 006V011
14840KMKG MKG20020929102011709/29/02 10:20:31  5-MIN KMKG 291520Z 09006KT 2SM BR BKN008 OVC013 19/18 A3010 460 93 1100 100/06 RMK AO2 CIG 006V011
14840KMKG MKG20020929102511709/29/02 10:25:31  5-MIN KMKG 291525Z 10005KT 2SM BR BKN008 OVC013 19/18 A3011 460 97 1100 110/05 RMK AO2 CIG 006V012
14840KMKG MKG20020929103011709/29/02 10:30:31  5-MIN KMKG 291530Z 12004KT 2SM BR BKN008 OVC013 19/18 A3011 450 93 1100 130/04 RMK AO2 CIG 006V012
14840KMKG MKG20020929103511709/29/02 10:35:31  5-MIN KMKG 291535Z 12005KT 2SM BR BKN008 OVC013 19/18 A3011 450 93 1100 120/05 RMK AO2 CIG 006V012
14840KMKG MKG20020929104012109/29/02 10:40:31  5-MIN KMKG 291540Z 11006KT 2 1/2SM BR BKN008 OVC013 19/18 A3011 460 93 1100 120/06 RMK AO2 CIG 006V012
14840KMKG MKG20020929104512609/29/02 10:45:31  5-MIN KMKG 291545Z 16007KT 130V190 3SM BR OVC010 19/18 A3011 460 93 1100 170/07 130V190 RMK AO2 CIG 006V015
14840KMKG MKG20020929105013709/29/02 10:50:31  5-MIN KMKG 291550Z 15006KT 3SM BR SCT008 BKN013 20/18 A3011 460 90 1200 150/06 RMK AO2 CIG 009 RWY 14 SLP194 T02000183
14840KMKG MKG20020929105512909/29/02 10:55:31  5-MIN KMKG 291555Z 16006KT 4SM BR SCT008 BKN014 BKN019 20/18 A3011 460 90 1200 160/06 RMK AO2 SLP194 T02000183
14840KMKG MKG20020929110011509/29/02 11:00:31  5-MIN KMKG 291600Z 17010KT 3SM BR BKN011 BKN017 20/18 A3011 460 90 1200 170/10 RMK AO2 SFC VIS 4
14840KMKG MKG20020929110511509/29/02 11:05:31  5-MIN KMKG 291605Z 16011KT 3SM BR BKN014 BKN020 21/18 A3011 460 87 1300 160/11 RMK AO2 SFC VIS 4
14840KMKG MKG20020929111010809/29/02 11:10:31  5-MIN KMKG 291610Z 18011KT 3SM BR BKN015 21/18 A3011 460 87 1300 180/11 RMK AO2 SFC VIS 4
14840KMKG MKG20020929111511409/29/02 11:15:31  5-MIN KMKG 291615Z 17010G18KT 3SM HZ BKN015 21/18 A3011 460 84 1300 180/10G18 RMK AO2 SFC VIS 5
14840KMKG MKG20020929112011409/29/02 11:20:31  5-MIN KMKG 291620Z 18011G18KT 3SM HZ BKN015 21/18 A3010 460 84 1300 180/11G18 RMK AO2 SFC VIS 5
14840KMKG MKG20020929112509809/29/02 11:25:31  5-MIN KMKG 291625Z 16016KT 5SM HZ BKN015 21/18 A3010 460 84 1300 170/16 RMK AO2
14840KMKG MKG20020929113010409/29/02 11:30:31  5-MIN KMKG 291630Z 18014G18KT 5SM BR SCT015 21/18 A3010 460 87 1300 180/14G18 RMK AO2
14840KMKG MKG20020929113510409/29/02 11:35:31  5-MIN KMKG 291635Z 17010G18KT 6SM HZ SCT015 21/18 A3010 470 81 1300 180/10G18 RMK AO2
14840KMKG MKG20020929114010409/29/02 11:40:31  5-MIN KMKG 291640Z 16015G21KT 6SM HZ FEW015 21/18 A3010 460 81 1300 160/15G21 RMK AO2
14840KMKG MKG20020929114510109/29/02 11:45:31  5-MIN KMKG 291645Z 18012G21KT 7SM FEW015 21/18 A3010 470 81 1300 180/12G21 RMK AO2
14840KMKG MKG20020929115011509/29/02 11:50:31  5-MIN KMKG 291650Z 16015G20KT 7SM CLR 21/18 A3010 470 81 1300 160/15G20 RMK AO2 SLP191 T02110178
14840KMKG MKG20020929115511509/29/02 11:55:31  5-MIN KMKG 291655Z 16015G20KT 7SM CLR 21/18 A3010 470 81 1300 160/15G20 RMK AO2 SLP190 T02110178
14840KMKG MKG20020929120010109/29/02 12:00:31  5-MIN KMKG 291700Z 17011G19KT 7SM FEW018 22/18 A3009 470 78 1400 180/11G19 RMK AO2
14840KMKG MKG20020929120510109/29/02 12:05:31  5-MIN KMKG 291705Z 16014G19KT 8SM FEW018 22/18 A3009 470 81 1400 160/14G19 RMK AO2
14840KMKG MKG20020929121009809/29/02 12:10:31  5-MIN KMKG 291710Z 16014G19KT 8SM CLR 22/18 A3009 480 78 1400 160/14G19 RMK AO2
14840KMKG MKG20020929121509209/29/02 12:15:31  5-MIN KMKG 291715Z 16010KT 8SM CLR 22/18 A3008 480 78 1400 160/10 RMK AO2
14840KMKG MKG20020929122009509/29/02 12:20:31  5-MIN KMKG 291720Z 16013KT 9SM FEW090 22/18 A3008 480 75 1500 160/13 RMK AO2
14840KMKG MKG20020929122510209/29/02 12:25:31  5-MIN KMKG 291725Z 16015G19KT 10SM FEW090 23/18 A3008 480 73 1500 170/15G19 RMK AO2
14840KMKG MKG20020929123009909/29/02 12:30:31  5-MIN KMKG 291730Z 17011G19KT 10SM CLR 22/18 A3008 490 75 1500 170/11G19 RMK AO2
14840KMKG MKG20020929123509309/29/02 12:35:31  5-MIN KMKG 291735Z 17011KT 10SM CLR 23/18 A3008 480 70 1600 180/11 RMK AO2
14840KMKG MKG20020929124009909/29/02 12:40:31  5-MIN KMKG 291740Z 18013G18KT 10SM CLR 23/17 A3008 480 70 1500 180/13G18 RMK AO2
14840KMKG MKG20020929124509909/29/02 12:45:31  5-MIN KMKG 291745Z 17016G24KT 10SM CLR 22/17 A3008 490 73 1500 180/16G24 RMK AO2
14840KMKG MKG20020929125014009/29/02 12:50:31  5-MIN KMKG 291750Z 18014G24KT 10SM CLR 22/17 A3008 490 73 1500 180/14G24 RMK AO2 SLP184 60003 T02220172 10233 20172 52000
14840KMKG MKG20020929125514009/29/02 12:55:31  5-MIN KMKG 291755Z 18016G20KT 10SM CLR 22/17 A3008 490 73 1500 180/16G20 RMK AO2 SLP183 60003 T02220172 10233 20172 58015
14840KMKG MKG20020929130010209/29/02 13:00:31  5-MIN KMKG 291800Z 18014G20KT 10SM SCT075 22/17 A3008 490 73 1400 180/14G20 RMK AO2
14840KMKG MKG20020929130510209/29/02 13:05:31  5-MIN KMKG 291805Z 18013G23KT 10SM BKN075 22/17 A3008 490 73 1400 190/13G23 RMK AO2
14840KMKG MKG20020929131010209/29/02 13:10:31  5-MIN KMKG 291810Z 18012G23KT 10SM BKN075 22/17 A3008 490 75 1400 180/12G23 RMK AO2
14840KMKG MKG20020929131510209/29/02 13:15:31  5-MIN KMKG 291815Z 17013G18KT 10SM BKN075 21/17 A3007 500 75 1400 180/13G18 RMK AO2
14840KMKG MKG20020929132009609/29/02 13:20:31  5-MIN KMKG 291820Z 17013KT 10SM BKN075 21/17 A3006 500 75 1400 170/13 RMK AO2
14840KMKG MKG20020929132509509/29/02 13:25:31  5-MIN KMKG 291825Z 16015KT 9SM BKN075 21/17 A3006 500 75 1400 170/15 RMK AO2
14840KMKG MKG20020929133009509/29/02 13:30:31  5-MIN KMKG 291830Z 17012KT 9SM SCT075 21/17 A3006 500 78 1400 180/12 RMK AO2
14840KMKG MKG20020929133510109/29/02 13:35:31  5-MIN KMKG 291835Z 16013G18KT 9SM SCT075 21/17 A3005 510 78 1400 160/13G18 RMK AO2
14840KMKG MKG20020929134011109/29/02 13:40:31  5-MIN KMKG 291840Z 16013KT 8SM -RA FEW080 21/17 A3004 520 78 1400 160/13 RMK AO2 RAB40 P0000
14840KMKG MKG20020929134510809/29/02 13:45:31  5-MIN KMKG 291845Z 16013KT 9SM -RA CLR 22/18 A3005 510 75 1500 170/13 RMK AO2 RAB40 P0000
14840KMKG MKG20020929135013209/29/02 13:50:31  5-MIN KMKG 291850Z 16012G18KT 10SM -RA CLR 23/18 A3005 510 70 1600 170/12G18 RMK AO2 RAB40 SLP173 P0000 T02330178
14840KMKG MKG20020929135512509/29/02 13:55:31  5-MIN KMKG 291855Z 17013KT 10SM CLR 23/18 A3005 510 70 1600 180/13 RMK AO2 RAB40E51 SLP173 P0000 T02330178
14840KMKG MKG20020929140009509/29/02 14:00:31  5-MIN KMKG 291900Z 18012KT 9SM FEW065 23/17 A3005 510 70 1600 190/12 RMK AO2
14840KMKG MKG20020929140509509/29/02 14:05:31  5-MIN KMKG 291905Z 18011KT 9SM SCT065 22/17 A3005 510 73 1500 190/11 RMK AO2
14840KMKG MKG20020929141009509/29/02 14:10:31  5-MIN KMKG 291910Z 17013KT 9SM BKN065 22/17 A3005 510 73 1500 170/13 RMK AO2
14840KMKG MKG20020929141510109/29/02 14:15:31  5-MIN KMKG 291915Z 17012G18KT 9SM BKN065 22/17 A3004 520 75 1500 170/12G18 RMK AO2
14840KMKG MKG20020929142009509/29/02 14:20:31  5-MIN KMKG 291920Z 17010KT 9SM BKN065 22/17 A3004 520 73 1500 170/10 RMK AO2
14840KMKG MKG20020929142509509/29/02 14:25:31  5-MIN KMKG 291925Z 17012KT 8SM SCT065 22/17 A3004 520 73 1500 180/12 RMK AO2
14840KMKG MKG20020929143010109/29/02 14:30:31  5-MIN KMKG 291930Z 17011G18KT 8SM SCT065 22/17 A3004 520 73 1500 180/11G18 RMK AO2
14840KMKG MKG20020929143509509/29/02 14:35:31  5-MIN KMKG 291935Z 18013KT 9SM FEW065 23/17 A3004 520 70 1600 180/13 RMK AO2
14840KMKG MKG20020929144009509/29/02 14:40:31  5-MIN KMKG 291940Z 17012KT 9SM FEW065 23/17 A3004 520 70 1600 180/12 RMK AO2
14840KMKG MKG20020929144509209/29/02 14:45:31  5-MIN KMKG 291945Z 18013KT 9SM CLR 23/17 A3003 530 70 1600 180/13 RMK AO2
14840KMKG MKG20020929145011509/29/02 14:50:31  5-MIN KMKG 291950Z 18012G20KT 9SM CLR 23/17 A3003 530 68 1700 190/12G20 RMK AO2 SLP166 T02330172
14840KMKG MKG20020929145511809/29/02 14:55:31  5-MIN KMKG 291955Z 18013G20KT 9SM FEW065 23/17 A3003 530 68 1700 190/13G20 RMK AO2 SLP165 T02330172
14840KMKG MKG20020929150009509/29/02 15:00:31  5-MIN KMKG 292000Z 19012KT 9SM FEW065 23/17 A3003 530 68 1700 190/12 RMK AO2
14840KMKG MKG20020929150510109/29/02 15:05:31  5-MIN KMKG 292005Z 19013G18KT 9SM FEW065 24/17 A3003 530 66 1700 200/13G18 RMK AO2
14840KMKG MKG20020929151010209/29/02 15:10:31  5-MIN KMKG 292010Z 18013G19KT 10SM FEW065 24/17 A3002 540 66 1700 190/13G19 RMK AO2
14840KMKG MKG20020929151510209/29/02 15:15:31  5-MIN KMKG 292015Z 18016G21KT 10SM FEW065 24/17 A3002 540 63 1800 180/16G21 RMK AO2
14840KMKG MKG20020929152010209/29/02 15:20:31  5-MIN KMKG 292020Z 19016G21KT 10SM FEW065 24/17 A3002 540 63 1800 190/16G21 RMK AO2
14840KMKG MKG20020929152510209/29/02 15:25:31  5-MIN KMKG 292025Z 18013G22KT 10SM FEW065 24/17 A3002 540 63 1800 180/13G22 RMK AO2
14840KMKG MKG20020929153009909/29/02 15:30:31  5-MIN KMKG 292030Z 18014G22KT 10SM CLR 24/17 A3002 540 66 1700 190/14G22 RMK AO2
14840KMKG MKG20020929153509909/29/02 15:35:31  5-MIN KMKG 292035Z 18014G19KT 10SM CLR 23/17 A3002 540 68 1700 180/14G19 RMK AO2
14840KMKG MKG20020929154009609/29/02 15:40:31  5-MIN KMKG 292040Z 17014KT 10SM FEW070 24/17 A3002 540 66 1700 180/14 RMK AO2
14840KMKG MKG20020929154509609/29/02 15:45:31  5-MIN KMKG 292045Z 18012KT 10SM FEW070 23/17 A3002 540 68 1700 180/12 RMK AO2
14840KMKG MKG20020929155012509/29/02 15:50:31  5-MIN KMKG 292050Z 17012KT 10SM FEW070 23/17 A3002 540 68 1700 180/12 RMK AO2 SLP163 60000 T02330172 58015
14840KMKG MKG20020929155512509/29/02 15:55:31  5-MIN KMKG 292055Z 17013KT 10SM FEW070 24/17 A3002 540 63 1800 180/13 RMK AO2 SLP163 60000 T02440172 56019
14840KMKG MKG20020929160009609/29/02 16:00:31  5-MIN KMKG 292100Z 18012KT 10SM FEW075 24/17 A3002 540 63 1800 180/12 RMK AO2
14840KMKG MKG20020929160509609/29/02 16:05:31  5-MIN KMKG 292105Z 17013KT 10SM FEW075 24/17 A3002 540 63 1800 180/13 RMK AO2
14840KMKG MKG20020929161010209/29/02 16:10:31  5-MIN KMKG 292110Z 17013G20KT 10SM FEW075 24/17 A3002 540 63 1800 180/13G20 RMK AO2
14840KMKG MKG20020929161510209/29/02 16:15:31  5-MIN KMKG 292115Z 18014G20KT 10SM FEW075 24/17 A3002 540 63 1800 180/14G20 RMK AO2
14840KMKG MKG20020929162009909/29/02 16:20:31  5-MIN KMKG 292120Z 17012G18KT 10SM CLR 24/17 A3001 540 63 1800 180/12G18 RMK AO2
14840KMKG MKG20020929162509309/29/02 16:25:31  5-MIN KMKG 292125Z 18015KT 10SM CLR 24/17 A3001 540 66 1700 180/15 RMK AO2
14840KMKG MKG20020929163009309/29/02 16:30:31  5-MIN KMKG 292130Z 18011KT 10SM CLR 24/17 A3001 550 66 1700 180/11 RMK AO2
14840KMKG MKG20020929163509309/29/02 16:35:31  5-MIN KMKG 292135Z 18010KT 10SM CLR 24/17 A3001 550 63 1800 180/10 RMK AO2
14840KMKG MKG20020929164009609/29/02 16:40:31  5-MIN KMKG 292140Z 18011KT 10SM FEW090 24/17 A3001 550 66 1700 180/11 RMK AO2
14840KMKG MKG20020929164509609/29/02 16:45:31  5-MIN KMKG 292145Z 17009KT 10SM FEW090 24/17 A3001 550 66 1700 180/09 RMK AO2
14840KMKG MKG20020929165011309/29/02 16:50:31  5-MIN KMKG 292150Z 16010KT 10SM FEW090 24/17 A3001 550 66 1700 160/10 RMK AO2 SLP160 T02390172
14840KMKG MKG20020929165511009/29/02 16:55:31  5-MIN KMKG 292155Z 17009KT 10SM CLR 24/17 A3001 550 66 1700 170/09 RMK AO2 SLP159 T02390172
14840KMKG MKG20020929170009309/29/02 17:00:31  5-MIN KMKG 292200Z 17010KT 10SM CLR 24/17 A3001 550 63 1800 170/10 RMK AO2
14840KMKG MKG20020929170509309/29/02 17:05:31  5-MIN KMKG 292205Z 17009KT 10SM CLR 24/17 A3001 550 63 1800 180/09 RMK AO2
14840KMKG MKG20020929171009309/29/02 17:10:31  5-MIN KMKG 292210Z 17007KT 10SM CLR 24/18 A3001 550 66 1800 170/07 RMK AO2
14840KMKG MKG20020929171509309/29/02 17:15:31  5-MIN KMKG 292215Z 17010KT 10SM CLR 24/17 A3001 550 63 1800 180/10 RMK AO2
14840KMKG MKG20020929172009309/29/02 17:20:31  5-MIN KMKG 292220Z 17010KT 10SM CLR 24/17 A3000 550 63 1800 180/10 RMK AO2
14840KMKG MKG20020929172509309/29/02 17:25:31  5-MIN KMKG 292225Z 17011KT 10SM CLR 24/18 A3000 550 66 1800 170/11 RMK AO2
14840KMKG MKG20020929173009309/29/02 17:30:31  5-MIN KMKG 292230Z 17009KT 10SM CLR 24/18 A3000 550 66 1800 180/09 RMK AO2
14840KMKG MKG20020929173509209/29/02 17:35:31  5-MIN KMKG 292235Z 17009KT 9SM CLR 24/18 A3000 550 66 1800 180/09 RMK AO2
14840KMKG MKG20020929174009209/29/02 17:40:31  5-MIN KMKG 292240Z 16009KT 9SM CLR 24/18 A3000 550 66 1800 160/09 RMK AO2
14840KMKG MKG20020929174509309/29/02 17:45:31  5-MIN KMKG 292245Z 16012KT 10SM CLR 24/18 A3000 550 66 1800 170/12 RMK AO2
14840KMKG MKG20020929175011009/29/02 17:50:31  5-MIN KMKG 292250Z 16008KT 10SM CLR 24/18 A3000 550 66 1800 160/08 RMK AO2 SLP158 T02440178
14840KMKG MKG20020929175511009/29/02 17:55:31  5-MIN KMKG 292255Z 16007KT 10SM CLR 24/18 A3000 550 68 1700 160/07 RMK AO2 SLP158 T02390178
14840KMKG MKG20020929180009209/29/02 18:00:31  5-MIN KMKG 292300Z 16009KT 9SM CLR 24/18 A3000 550 68 1800 160/09 RMK AO2
14840KMKG MKG20020929180509209/29/02 18:05:31  5-MIN KMKG 292305Z 15008KT 9SM CLR 24/18 A3000 550 68 1800 160/08 RMK AO2
14840KMKG MKG20020929181009209/29/02 18:10:31  5-MIN KMKG 292310Z 15008KT 9SM CLR 24/18 A3000 550 68 1800 150/08 RMK AO2
14840KMKG MKG20020929181509209/29/02 18:15:31  5-MIN KMKG 292315Z 14008KT 9SM CLR 24/18 A3000 550 68 1800 140/08 RMK AO2
14840KMKG MKG20020929182009209/29/02 18:20:31  5-MIN KMKG 292320Z 14008KT 9SM CLR 23/18 A3000 550 70 1700 150/08 RMK AO2
14840KMKG MKG20020929182509209/29/02 18:25:31  5-MIN KMKG 292325Z 14007KT 9SM CLR 23/18 A3000 550 70 1700 140/07 RMK AO2
14840KMKG MKG20020929183009209/29/02 18:30:31  5-MIN KMKG 292330Z 15008KT 8SM CLR 23/18 A3000 550 70 1700 150/08 RMK AO2
14840KMKG MKG20020929183509209/29/02 18:35:31  5-MIN KMKG 292335Z 14009KT 8SM CLR 23/18 A3000 560 73 1600 140/09 RMK AO2
14840KMKG MKG20020929184009209/29/02 18:40:31  5-MIN KMKG 292340Z 14007KT 8SM CLR 23/18 A3000 560 73 1600 150/07 RMK AO2
14840KMKG MKG20020929184509209/29/02 18:45:31  5-MIN KMKG 292345Z 15007KT 9SM CLR 23/18 A3000 560 73 1600 150/07 RMK AO2
14840KMKG MKG20020929185013309/29/02 18:50:31  5-MIN KMKG 292350Z 14007KT 9SM CLR 23/18 A3000 560 73 1600 150/07 RMK AO2 SLP156 60000 T02280178 10244 20211 56019
14840KMKG MKG20020929185513309/29/02 18:55:31  5-MIN KMKG 292355Z 14008KT 9SM CLR 23/18 A3000 560 73 1600 150/08 RMK AO2 SLP157 60000 T02280178 10244 20211 56006
14840KMKG MKG20020929190009209/29/02 19:00:31  5-MIN KMKG 300000Z 14007KT 9SM CLR 23/18 A3000 560 73 1600 150/07 RMK AO2
14840KMKG MKG20020929190509209/29/02 19:05:31  5-MIN KMKG 300005Z 14006KT 9SM CLR 22/18 A3000 560 75 1600 140/06 RMK AO2
14840KMKG MKG20020929191009209/29/02 19:10:31  5-MIN KMKG 300010Z 14006KT 8SM CLR 22/18 A3000 550 75 1600 140/06 RMK AO2
14840KMKG MKG20020929191509209/29/02 19:15:31  5-MIN KMKG 300015Z 14006KT 8SM CLR 22/18 A3000 550 75 1600 140/06 RMK AO2
14840KMKG MKG20020929192009209/29/02 19:20:31  5-MIN KMKG 300020Z 14007KT 8SM CLR 22/18 A3000 550 78 1500 140/07 RMK AO2
14840KMKG MKG20020929192509209/29/02 19:25:31  5-MIN KMKG 300025Z 14007KT 8SM CLR 22/18 A3000 560 78 1500 140/07 RMK AO2
14840KMKG MKG20020929193009209/29/02 19:30:31  5-MIN KMKG 300030Z 14008KT 8SM CLR 22/18 A3000 560 75 1600 140/08 RMK AO2
14840KMKG MKG20020929193509209/29/02 19:35:31  5-MIN KMKG 300035Z 13007KT 8SM CLR 22/18 A3000 560 78 1500 140/07 RMK AO2
14840KMKG MKG20020929194009209/29/02 19:40:31  5-MIN KMKG 300040Z 13008KT 8SM CLR 22/18 A3000 560 78 1500 140/08 RMK AO2
14840KMKG MKG20020929194509209/29/02 19:45:31  5-MIN KMKG 300045Z 14008KT 8SM CLR 22/18 A3000 560 78 1500 150/08 RMK AO2
14840KMKG MKG20020929195010909/29/02 19:50:31  5-MIN KMKG 300050Z 13007KT 7SM CLR 22/18 A3000 560 78 1500 140/07 RMK AO2 SLP156 T02170178
14840KMKG MKG20020929195510909/29/02 19:55:31  5-MIN KMKG 300055Z 13008KT 7SM CLR 22/18 A3000 560 78 1500 140/08 RMK AO2 SLP156 T02170178
14840KMKG MKG20020929200009209/29/02 20:00:31  5-MIN KMKG 300100Z 14008KT 7SM CLR 22/18 A3000 560 78 1500 140/08 RMK AO2
14840KMKG MKG20020929200509209/29/02 20:05:31  5-MIN KMKG 300105Z 14008KT 7SM CLR 22/18 A3000 560 78 1500 140/08 RMK AO2
14840KMKG MKG20020929201009209/29/02 20:10:31  5-MIN KMKG 300110Z 14008KT 7SM CLR 21/18 A3000 560 81 1400 140/08 RMK AO2
14840KMKG MKG20020929201509209/29/02 20:15:31  5-MIN KMKG 300115Z 14009KT 7SM CLR 22/18 A2999 560 78 1500 150/09 RMK AO2
14840KMKG MKG20020929202009209/29/02 20:20:31  5-MIN KMKG 300120Z 14008KT 7SM CLR 22/18 A3000 560 78 1500 150/08 RMK AO2
14840KMKG MKG20020929202509209/29/02 20:25:31  5-MIN KMKG 300125Z 14008KT 7SM CLR 22/18 A3000 560 78 1500 150/08 RMK AO2
14840KMKG MKG20020929203009209/29/02 20:30:31  5-MIN KMKG 300130Z 15008KT 7SM CLR 21/18 A3000 560 84 1400 150/08 RMK AO2
14840KMKG MKG20020929203509209/29/02 20:35:31  5-MIN KMKG 300135Z 15008KT 7SM CLR 22/17 A3000 560 75 1500 150/08 RMK AO2
14840KMKG MKG20020929204009209/29/02 20:40:31  5-MIN KMKG 300140Z 15008KT 8SM CLR 22/17 A3000 560 75 1500 160/08 RMK AO2
14840KMKG MKG20020929204509209/29/02 20:45:31  5-MIN KMKG 300145Z 15009KT 8SM CLR 22/17 A2999 560 75 1500 160/09 RMK AO2
14840KMKG MKG20020929205010909/29/02 20:50:31  5-MIN KMKG 300150Z 15010KT 8SM CLR 22/17 A2999 560 75 1500 150/10 RMK AO2 SLP154 T02170172
14840KMKG MKG20020929205510909/29/02 20:55:31  5-MIN KMKG 300155Z 16010KT 8SM CLR 22/17 A2999 560 73 1600 160/10 RMK AO2 SLP154 T02220172
14840KMKG MKG20020929210009209/29/02 21:00:31  5-MIN KMKG 300200Z 16011KT 8SM CLR 22/17 A2999 560 73 1600 160/11 RMK AO2
14840KMKG MKG20020929210509209/29/02 21:05:31  5-MIN KMKG 300205Z 16011KT 8SM CLR 22/17 A2999 560 73 1600 160/11 RMK AO2
14840KMKG MKG20020929211009209/29/02 21:10:31  5-MIN KMKG 300210Z 16011KT 9SM CLR 22/17 A2999 560 73 1600 160/11 RMK AO2
14840KMKG MKG20020929211509209/29/02 21:15:31  5-MIN KMKG 300215Z 16012KT 9SM CLR 22/17 A2999 560 73 1600 170/12 RMK AO2
14840KMKG MKG20020929212009209/29/02 21:20:31  5-MIN KMKG 300220Z 16011KT 9SM CLR 23/17 A2999 560 70 1600 160/11 RMK AO2
14840KMKG MKG20020929212509209/29/02 21:25:31  5-MIN KMKG 300225Z 16011KT 9SM CLR 23/17 A3000 560 70 1600 170/11 RMK AO2
14840KMKG MKG20020929213009209/29/02 21:30:31  5-MIN KMKG 300230Z 16012KT 9SM CLR 23/17 A3000 560 68 1600 170/12 RMK AO2
14840KMKG MKG20020929213509209/29/02 21:35:31  5-MIN KMKG 300235Z 17010KT 9SM CLR 23/17 A3000 560 68 1600 170/10 RMK AO2
14840KMKG MKG20020929214009309/29/02 21:40:31  5-MIN KMKG 300240Z 16011KT 10SM CLR 23/17 A2999 560 68 1600 170/11 RMK AO2
14840KMKG MKG20020929214509309/29/02 21:45:31  5-MIN KMKG 300245Z 16012KT 10SM CLR 23/17 A2999 570 68 1600 170/12 RMK AO2
14840KMKG MKG20020929215011609/29/02 21:50:31  5-MIN KMKG 300250Z 17013KT 10SM CLR 23/17 A2999 570 66 1700 170/13 RMK AO2 SLP153 T02330167 56006
14840KMKG MKG20020929215512209/29/02 21:55:31  5-MIN KMKG 300255Z 17013G20KT 10SM CLR 23/16 A2999 570 63 1700 170/13G20 RMK AO2 SLP153 T02330161 58003
14840KMKG MKG20020929220009909/29/02 22:00:31  5-MIN KMKG 300300Z 17012G20KT 10SM CLR 23/16 A2999 560 63 1700 180/12G20 RMK AO2
14840KMKG MKG20020929220509309/29/02 22:05:31  5-MIN KMKG 300305Z 18013KT 10SM CLR 24/16 A2999 560 61 1800 180/13 RMK AO2
14840KMKG MKG20020929221009909/29/02 22:10:31  5-MIN KMKG 300310Z 18014G21KT 10SM CLR 24/16 A3000 560 61 1800 180/14G21 RMK AO2
14840KMKG MKG20020929221509909/29/02 22:15:31  5-MIN KMKG 300315Z 18014G21KT 10SM CLR 24/16 A3000 560 61 1800 180/14G21 RMK AO2
14840KMKG MKG20020929222009909/29/02 22:20:31  5-MIN KMKG 300320Z 18015G22KT 10SM CLR 24/16 A2999 560 61 1800 180/15G22 RMK AO2
14840KMKG MKG20020929222509909/29/02 22:25:31  5-MIN KMKG 300325Z 18016G22KT 10SM CLR 24/16 A3000 560 61 1800 180/16G22 RMK AO2
14840KMKG MKG20020929223009309/29/02 22:30:31  5-MIN KMKG 300330Z 17015KT 10SM CLR 23/16 A2999 560 63 1700 180/15 RMK AO2
14840KMKG MKG20020929223509309/29/02 22:35:31  5-MIN KMKG 300335Z 18017KT 10SM CLR 23/16 A2999 570 63 1700 180/17 RMK AO2
14840KMKG MKG20020929224009909/29/02 22:40:31  5-MIN KMKG 300340Z 17015G20KT 10SM CLR 23/16 A2999 560 63 1700 180/15G20 RMK AO2
14840KMKG MKG20020929224509909/29/02 22:45:31  5-MIN KMKG 300345Z 18015G22KT 10SM CLR 23/16 A2999 570 63 1700 180/15G22 RMK AO2
14840KMKG MKG20020929225011609/29/02 22:50:31  5-MIN KMKG 300350Z 18015G22KT 10SM CLR 23/16 A2999 560 63 1700 180/15G22 RMK AO2 SLP153 T02330161
14840KMKG MKG20020929225511609/29/02 22:55:31  5-MIN KMKG 300355Z 18016G23KT 10SM CLR 23/16 A2999 570 63 1700 180/16G23 RMK AO2 SLP152 T02330161
14840KMKG MKG20020929230009909/29/02 23:00:31  5-MIN KMKG 300400Z 18017G23KT 10SM CLR 23/16 A2999 570 63 1700 180/17G23 RMK AO2
14840KMKG MKG20020929230509309/29/02 23:05:31  5-MIN KMKG 300405Z 18016KT 10SM CLR 23/16 A2999 560 63 1700 180/16 RMK AO2
14840KMKG MKG20020929231009909/29/02 23:10:31  5-MIN KMKG 300410Z 18017G24KT 10SM CLR 23/16 A2999 570 63 1700 190/17G24 RMK AO2
14840KMKG MKG20020929231509909/29/02 23:15:31  5-MIN KMKG 300415Z 18016G25KT 10SM CLR 23/16 A2999 570 65 1600 180/16G25 RMK AO2
14840KMKG MKG20020929232009909/29/02 23:20:31  5-MIN KMKG 300420Z 18019G25KT 10SM CLR 23/16 A2999 570 65 1600 180/19G25 RMK AO2
14840KMKG MKG20020929232509909/29/02 23:25:31  5-MIN KMKG 300425Z 18017G23KT 10SM CLR 23/16 A2999 570 65 1600 180/17G23 RMK AO2
14840KMKG MKG20020929233009909/29/02 23:30:31  5-MIN KMKG 300430Z 18017G23KT 10SM CLR 23/16 A2999 570 65 1600 180/17G23 RMK AO2
14840KMKG MKG20020929233509909/29/02 23:35:31  5-MIN KMKG 300435Z 18016G22KT 10SM CLR 23/16 A2999 570 65 1600 180/16G22 RMK AO2
14840KMKG MKG20020929234009909/29/02 23:40:31  5-MIN KMKG 300440Z 18016G22KT 10SM CLR 23/16 A2999 570 65 1600 180/16G22 RMK AO2
14840KMKG MKG20020929234509909/29/02 23:45:31  5-MIN KMKG 300445Z 18017G23KT 10SM CLR 22/16 A2999 570 68 1600 180/17G23 RMK AO2
14840KMKG MKG20020929235012609/29/02 23:50:31  5-MIN KMKG 300450Z 18015G23KT 10SM CLR 22/16 A2999 570 68 1600 190/15G23 RMK AO2 SLP151 T02220161 402440144
14840KMKG MKG20020929235512609/29/02 23:55:31  5-MIN KMKG 300455Z 18015G23KT 10SM CLR 22/17 A2999 570 70 1600 180/15G23 RMK AO2 SLP151 T02220167 402440144
14840KMKG MKG20020930000009909/30/02 00:00:31  5-MIN KMKG 300500Z 18017G22KT 10SM CLR 22/17 A2998 570 70 1600 180/17G22 RMK AO2
14840KMKG MKG20020930000509909/30/02 00:05:31  5-MIN KMKG 300505Z 18017G22KT 10SM CLR 22/17 A2998 570 70 1600 180/17G22 RMK AO2
14840KMKG MKG20020930001009909/30/02 00:10:31  5-MIN KMKG 300510Z 18016G23KT 10SM CLR 22/17 A2998 570 70 1600 180/16G23 RMK AO2
14840KMKG MKG20020930001509909/30/02 00:15:31  5-MIN KMKG 300515Z 17016G23KT 10SM CLR 22/17 A2998 570 70 1600 180/16G23 RMK AO2
14840KMKG MKG20020930002009909/30/02 00:20:31  5-MIN KMKG 300520Z 17018G23KT 10SM CLR 22/17 A2998 570 70 1600 180/18G23 RMK AO2
14840KMKG MKG20020930002509909/30/02 00:25:31  5-MIN KMKG 300525Z 18014G23KT 10SM CLR 22/17 A2998 580 70 1600 180/14G23 RMK AO2
14840KMKG MKG20020930003009909/30/02 00:30:31  5-MIN KMKG 300530Z 18014G23KT 10SM CLR 22/17 A2998 580 70 1600 180/14G23 RMK AO2
14840KMKG MKG20020930003509909/30/02 00:35:31  5-MIN KMKG 300535Z 18016G22KT 10SM CLR 22/17 A2998 580 70 1600 180/16G22 RMK AO2
14840KMKG MKG20020930004009909/30/02 00:40:31  5-MIN KMKG 300540Z 18015G22KT 10SM CLR 22/17 A2998 580 73 1500 180/15G22 RMK AO2
14840KMKG MKG20020930004509909/30/02 00:45:31  5-MIN KMKG 300545Z 18017G24KT 10SM CLR 22/17 A2997 580 73 1500 180/17G24 RMK AO2
14840KMKG MKG20020930005013409/30/02 00:50:31  5-MIN KMKG 300550Z 18016G24KT 10SM CLR 22/16 A2997 580 68 1600 180/16G24 RMK AO2 SLP146 T02220161 10239 20206 58003
14840KMKG MKG20020930005513409/30/02 00:55:31  5-MIN KMKG 300555Z 18017G24KT 10SM CLR 22/16 A2997 580 68 1600 180/17G24 RMK AO2 SLP146 T02220161 10239 20206 58006
14840KMKG MKG20020930010009909/30/02 01:00:31  5-MIN KMKG 300600Z 18017G22KT 10SM CLR 22/16 A2997 580 68 1600 180/17G22 RMK AO2
14840KMKG MKG20020930010509909/30/02 01:05:31  5-MIN KMKG 300605Z 18017G23KT 10SM CLR 22/16 A2998 580 68 1600 190/17G23 RMK AO2
14840KMKG MKG20020930011009909/30/02 01:10:31  5-MIN KMKG 300610Z 18017G23KT 10SM CLR 22/16 A2998 580 68 1600 180/17G23 RMK AO2
14840KMKG MKG20020930011509909/30/02 01:15:31  5-MIN KMKG 300615Z 18016G22KT 10SM CLR 22/17 A2998 580 73 1500 180/16G22 RMK AO2
14840KMKG MKG20020930012009909/30/02 01:20:31  5-MIN KMKG 300620Z 18014G21KT 10SM CLR 22/17 A2998 580 73 1500 180/14G21 RMK AO2
14840KMKG MKG20020930012509909/30/02 01:25:31  5-MIN KMKG 300625Z 18017G22KT 10SM CLR 22/17 A2998 580 73 1500 180/17G22 RMK AO2
14840KMKG MKG20020930013009909/30/02 01:30:31  5-MIN KMKG 300630Z 18016G22KT 10SM CLR 22/17 A2998 570 73 1500 180/16G22 RMK AO2
14840KMKG MKG20020930013509309/30/02 01:35:31  5-MIN KMKG 300635Z 18015KT 10SM CLR 22/17 A2998 570 73 1500 190/15 RMK AO2
14840KMKG MKG20020930014009809/30/02 01:40:31  5-MIN KMKG 300640Z 18016G22KT 9SM CLR 22/17 A2998 570 73 1500 180/16G22 RMK AO2
14840KMKG MKG20020930014509809/30/02 01:45:31  5-MIN KMKG 300645Z 18013G23KT 9SM CLR 22/17 A2998 570 73 1500 180/13G23 RMK AO2
14840KMKG MKG20020930015011509/30/02 01:50:31  5-MIN KMKG 300650Z 18014G23KT 9SM CLR 22/17 A2998 580 73 1500 180/14G23 RMK AO2 SLP148 T02170167
14840KMKG MKG20020930015511509/30/02 01:55:31  5-MIN KMKG 300655Z 18015G23KT 9SM CLR 22/17 A2998 570 73 1500 180/15G23 RMK AO2 SLP149 T02170167
14840KMKG MKG20020930020009809/30/02 02:00:31  5-MIN KMKG 300700Z 18016G23KT 9SM CLR 22/17 A2998 580 73 1500 190/16G23 RMK AO2
14840KMKG MKG20020930020509809/30/02 02:05:31  5-MIN KMKG 300705Z 19015G21KT 9SM CLR 22/17 A2998 570 73 1500 190/15G21 RMK AO2
14840KMKG MKG20020930021009809/30/02 02:10:31  5-MIN KMKG 300710Z 18017G21KT 9SM CLR 22/17 A2998 580 73 1500 190/17G21 RMK AO2
14840KMKG MKG20020930021509809/30/02 02:15:31  5-MIN KMKG 300715Z 18019G25KT 9SM CLR 21/17 A2998 580 75 1500 180/19G25 RMK AO2
14840KMKG MKG20020930022009809/30/02 02:20:31  5-MIN KMKG 300720Z 18019G25KT 9SM CLR 21/17 A2998 580 75 1500 190/19G25 RMK AO2
14840KMKG MKG20020930022509809/30/02 02:25:31  5-MIN KMKG 300725Z 18016G23KT 9SM CLR 22/17 A2998 580 73 1500 190/16G23 RMK AO2
14840KMKG MKG20020930023009809/30/02 02:30:31  5-MIN KMKG 300730Z 18015G22KT 9SM CLR 21/17 A2998 580 75 1500 190/15G22 RMK AO2
14840KMKG MKG20020930023509209/30/02 02:35:31  5-MIN KMKG 300735Z 19013KT 9SM CLR 21/17 A2998 570 78 1500 190/13 RMK AO2
14840KMKG MKG20020930024009809/30/02 02:40:31  5-MIN KMKG 300740Z 18015G19KT 9SM CLR 21/17 A2998 570 78 1500 180/15G19 RMK AO2
14840KMKG MKG20020930024509809/30/02 02:45:31  5-MIN KMKG 300745Z 18014G19KT 9SM CLR 21/17 A2998 570 78 1500 190/14G19 RMK AO2
14840KMKG MKG20020930025011509/30/02 02:50:31  5-MIN KMKG 300750Z 18011G19KT 9SM CLR 21/17 A2998 570 78 1500 180/11G19 RMK AO2 SLP150 T02110172
14840KMKG MKG20020930025511509/30/02 02:55:31  5-MIN KMKG 300755Z 18015G19KT 9SM CLR 21/17 A2999 570 78 1500 180/15G19 RMK AO2 SLP151 T02110172
14840KMKG MKG20020930030009209/30/02 03:00:31  5-MIN KMKG 300800Z 19014KT 9SM CLR 21/17 A2999 570 78 1400 190/14 RMK AO2
14840KMKG MKG20020930030509209/30/02 03:05:31  5-MIN KMKG 300805Z 18015KT 9SM CLR 21/17 A2999 570 78 1400 190/15 RMK AO2
14840KMKG MKG20020930031009209/30/02 03:10:31  5-MIN KMKG 300810Z 19014KT 9SM CLR 21/17 A2999 570 78 1400 190/14 RMK AO2
14840KMKG MKG20020930031509209/30/02 03:15:31  5-MIN KMKG 300815Z 18011KT 8SM CLR 21/17 A2999 570 78 1400 190/11 RMK AO2
14840KMKG MKG20020930032009209/30/02 03:20:31  5-MIN KMKG 300820Z 19010KT 8SM CLR 21/17 A2999 560 78 1400 190/10 RMK AO2
14840KMKG MKG20020930032509209/30/02 03:25:31  5-MIN KMKG 300825Z 19012KT 8SM CLR 21/17 A2999 570 78 1400 190/12 RMK AO2
14840KMKG MKG20020930033009809/30/02 03:30:31  5-MIN KMKG 300830Z 18013G17KT 8SM CLR 21/17 A2999 570 78 1500 180/13G17 RMK AO2
14840KMKG MKG20020930033509209/30/02 03:35:31  5-MIN KMKG 300835Z 19009KT 8SM CLR 21/17 A2999 570 81 1400 190/09 RMK AO2
14840KMKG MKG20020930034009209/30/02 03:40:31  5-MIN KMKG 300840Z 18014KT 8SM CLR 21/17 A2998 570 78 1500 190/14 RMK AO2
14840KMKG MKG20020930034509209/30/02 03:45:31  5-MIN KMKG 300845Z 18012KT 8SM CLR 21/17 A2998 570 78 1500 180/12 RMK AO2
14840KMKG MKG20020930035011509/30/02 03:50:31  5-MIN KMKG 300850Z 18013KT 8SM CLR 21/17 A2998 570 78 1500 180/13 RMK AO2 SLP150 T02110172 58006
14840KMKG MKG20020930035511509/30/02 03:55:31  5-MIN KMKG 300855Z 17011KT 8SM CLR 21/17 A2998 580 81 1400 180/11 RMK AO2 SLP149 T02060172 50002
14840KMKG MKG20020930040009209/30/02 04:00:31  5-MIN KMKG 300900Z 18013KT 8SM CLR 21/17 A2998 580 81 1400 180/13 RMK AO2
14840KMKG MKG20020930040509209/30/02 04:05:31  5-MIN KMKG 300905Z 18013KT 8SM CLR 21/17 A2998 580 81 1400 180/13 RMK AO2
14840KMKG MKG20020930041009809/30/02 04:10:31  5-MIN KMKG 300910Z 18014G20KT 8SM CLR 21/17 A2997 580 78 1500 180/14G20 RMK AO2
14840KMKG MKG20020930041509809/30/02 04:15:31  5-MIN KMKG 300915Z 18014G20KT 8SM CLR 21/17 A2998 580 78 1500 190/14G20 RMK AO2
14840KMKG MKG20020930042009209/30/02 04:20:31  5-MIN KMKG 300920Z 19010KT 8SM CLR 21/17 A2999 570 81 1400 190/10 RMK AO2
14840KMKG MKG20020930042509209/30/02 04:25:31  5-MIN KMKG 300925Z 18013KT 8SM CLR 21/17 A2998 570 81 1400 180/13 RMK AO2
14840KMKG MKG20020930043009209/30/02 04:30:31  5-MIN KMKG 300930Z 18014KT 8SM CLR 21/17 A2998 570 81 1400 180/14 RMK AO2
14840KMKG MKG20020930043509209/30/02 04:35:31  5-MIN KMKG 300935Z 18013KT 8SM CLR 21/17 A2999 570 81 1400 180/13 RMK AO2
14840KMKG MKG20020930044009809/30/02 04:40:31  5-MIN KMKG 300940Z 18011G17KT 8SM CLR 21/17 A2998 570 81 1400 190/11G17 RMK AO2
14840KMKG MKG20020930044509809/30/02 04:45:31  5-MIN KMKG 300945Z 19010G17KT 8SM CLR 21/17 A2998 570 81 1400 190/10G17 RMK AO2
14840KMKG MKG20020930045011509/30/02 04:50:31  5-MIN KMKG 300950Z 19009G17KT 8SM CLR 21/17 A2999 570 81 1400 200/09G17 RMK AO2 SLP152 T02060172
14840KMKG MKG20020930045510909/30/02 04:55:31  5-MIN KMKG 300955Z 18010KT 8SM CLR 21/17 A2999 570 81 1400 180/10 RMK AO2 SLP151 T02060172
14840KMKG MKG20020930050009909/30/02 05:00:31  5-MIN KMKG 301000Z 25005KT 8SM CLR 21/17 A3001 550 81 1400 250/05 RMK AO2 PRESRR
14840KMKG MKG20020930050509209/30/02 05:05:31  5-MIN KMKG 301005Z VRB06KT 8SM CLR 21/17 A3001 550 81 1400 VRB/06 RMK AO2
14840KMKG MKG20020930051009209/30/02 05:10:31  5-MIN KMKG 301010Z 20006KT 8SM CLR 21/17 A3001 550 81 1400 200/06 RMK AO2
14840KMKG MKG20020930051509209/30/02 05:15:31  5-MIN KMKG 301015Z 18011KT 8SM CLR 21/17 A3001 550 81 1400 190/11 RMK AO2
14840KMKG MKG20020930052009209/30/02 05:20:31  5-MIN KMKG 301020Z 18012KT 8SM CLR 21/17 A3000 560 81 1400 180/12 RMK AO2
14840KMKG MKG20020930052509209/30/02 05:25:31  5-MIN KMKG 301025Z 18010KT 8SM CLR 21/17 A3000 560 81 1400 180/10 RMK AO2
14840KMKG MKG20020930053009209/30/02 05:30:31  5-MIN KMKG 301030Z 19009KT 8SM CLR 21/17 A3001 550 81 1400 190/09 RMK AO2
14840KMKG MKG20020930053509209/30/02 05:35:31  5-MIN KMKG 301035Z 20009KT 8SM CLR 21/17 A3001 540 81 1400 200/09 RMK AO2
14840KMKG MKG20020930054009209/30/02 05:40:31  5-MIN KMKG 301040Z 19010KT 8SM CLR 21/17 A3001 540 81 1400 190/10 RMK AO2
14840KMKG MKG20020930054509209/30/02 05:45:31  5-MIN KMKG 301045Z 18010KT 8SM CLR 21/17 A3001 550 81 1400 180/10 RMK AO2
14840KMKG MKG20020930055010909/30/02 05:50:31  5-MIN KMKG 301050Z 20007KT 8SM CLR 20/17 A3001 540 84 1300 200/07 RMK AO2 SLP160 T02000172
14840KMKG MKG20020930055511509/30/02 05:55:31  5-MIN KMKG 301055Z 21006G14KT 8SM CLR 20/17 A3002 540 84 1300 220/06G14 RMK AO2 SLP162 T02000172
14840KMKG MKG20020930060009209/30/02 06:00:31  5-MIN KMKG 301100Z 18009KT 8SM CLR 20/17 A3001 540 84 1300 190/09 RMK AO2
14840KMKG MKG20020930060509209/30/02 06:05:31  5-MIN KMKG 301105Z 19010KT 8SM CLR 20/17 A3001 540 84 1300 190/10 RMK AO2
14840KMKG MKG20020930061009209/30/02 06:10:31  5-MIN KMKG 301110Z 22007KT 8SM CLR 20/17 A3002 540 84 1300 220/07 RMK AO2
14840KMKG MKG20020930061509209/30/02 06:15:31  5-MIN KMKG 301115Z 19009KT 8SM CLR 20/17 A3002 540 84 1300 190/09 RMK AO2
14840KMKG MKG20020930062009209/30/02 06:20:31  5-MIN KMKG 301120Z 19006KT 7SM CLR 20/17 A3002 540 84 1300 200/06 RMK AO2
14840KMKG MKG20020930062509209/30/02 06:25:31  5-MIN KMKG 301125Z 20007KT 7SM CLR 20/17 A3002 530 84 1300 200/07 RMK AO2
14840KMKG MKG20020930063009209/30/02 06:30:31  5-MIN KMKG 301130Z 18008KT 7SM CLR 20/17 A3002 540 84 1300 190/08 RMK AO2
14840KMKG MKG20020930063509209/30/02 06:35:31  5-MIN KMKG 301135Z 21005KT 7SM CLR 20/17 A3003 530 84 1300 210/05 RMK AO2
14840KMKG MKG20020930064009209/30/02 06:40:31  5-MIN KMKG 301140Z 20008KT 7SM CLR 20/17 A3003 530 84 1300 200/08 RMK AO2
14840KMKG MKG20020930064509509/30/02 06:45:31  5-MIN KMKG 301145Z 18009KT 7SM SCT075 20/17 A3002 540 84 1300 190/09 RMK AO2
14840KMKG MKG20020930065013609/30/02 06:50:31  5-MIN KMKG 301150Z 19007KT 7SM SCT075 20/17 A3003 530 84 1300 200/07 RMK AO2 SLP164 70003 T02000172 10222 20194 50002
14840KMKG MKG20020930065513909/30/02 06:55:31  5-MIN KMKG 301155Z 20007KT 6SM HZ SCT075 20/17 A3003 530 84 1300 210/07 RMK AO2 SLP165 70003 T02000172 10222 20194 53016
14840KMKG MKG20020930070009509/30/02 07:00:31  5-MIN KMKG 301200Z 20007KT 6SM HZ CLR 20/17 A3003 530 84 1300 200/07 RMK AO2
14840KMKG MKG20020930070509509/30/02 07:05:31  5-MIN KMKG 301205Z 18009KT 6SM HZ CLR 20/17 A3003 530 84 1300 190/09 RMK AO2
14840KMKG MKG20020930071009509/30/02 07:10:31  5-MIN KMKG 301210Z 19006KT 6SM HZ CLR 20/17 A3003 530 84 1300 190/06 RMK AO2
14840KMKG MKG20020930071509509/30/02 07:15:31  5-MIN KMKG 301215Z 18008KT 6SM HZ CLR 20/17 A3004 520 84 1300 180/08 RMK AO2
14840KMKG MKG20020930072009509/30/02 07:20:31  5-MIN KMKG 301220Z 17012KT 6SM HZ CLR 20/17 A3003 530 84 1300 180/12 RMK AO2
14840KMKG MKG20020930072509509/30/02 07:25:31  5-MIN KMKG 301225Z 18011KT 6SM HZ CLR 20/17 A3003 530 84 1300 180/11 RMK AO2
14840KMKG MKG20020930073009509/30/02 07:30:31  5-MIN KMKG 301230Z 19009KT 6SM HZ CLR 20/17 A3003 520 84 1300 190/09 RMK AO2
14840KMKG MKG20020930073509209/30/02 07:35:31  5-MIN KMKG 301235Z 19009KT 7SM CLR 21/17 A3004 520 81 1300 190/09 RMK AO2
14840KMKG MKG20020930074009209/30/02 07:40:31  5-MIN KMKG 301240Z 18011KT 7SM CLR 21/17 A3003 530 81 1300 190/11 RMK AO2
14840KMKG MKG20020930074509209/30/02 07:45:31  5-MIN KMKG 301245Z 18009KT 7SM CLR 21/17 A3003 530 81 1300 190/09 RMK AO2
14840KMKG MKG20020930075011409/30/02 07:50:31  5-MIN KMKG 301250Z AUTO 18010KT 7SM CLR 21/17 A3003 530 81 1300 180/10 RMK AO2 SLP168 T02060172
14840KMKG MKG20020930075511209/30/02 07:55:31  5-MIN KMKG 301255Z 18011KT 7SM FEW080 21/17 A3003 530 81 1300 180/11 RMK AO2 SLP168 T02060172
14840KMKG MKG20020930080009209/30/02 08:00:31  5-MIN KMKG 301300Z 18010KT 7SM CLR 21/17 A3003 530 81 1300 190/10 RMK AO2
14840KMKG MKG20020930080509209/30/02 08:05:31  5-MIN KMKG 301305Z 18009KT 7SM CLR 21/17 A3003 530 81 1300 190/09 RMK AO2
14840KMKG MKG20020930081009209/30/02 08:10:31  5-MIN KMKG 301310Z 18010KT 7SM CLR 21/17 A3003 530 81 1300 180/10 RMK AO2
14840KMKG MKG20020930081509209/30/02 08:15:31  5-MIN KMKG 301315Z 17010KT 7SM CLR 21/17 A3002 530 78 1400 180/10 RMK AO2
14840KMKG MKG20020930082009209/30/02 08:20:31  5-MIN KMKG 301320Z 18011KT 7SM CLR 22/17 A3002 540 75 1500 180/11 RMK AO2
14840KMKG MKG20020930082509209/30/02 08:25:31  5-MIN KMKG 301325Z 18011KT 8SM CLR 22/17 A3002 540 75 1500 180/11 RMK AO2
14840KMKG MKG20020930083009209/30/02 08:30:31  5-MIN KMKG 301330Z 18012KT 8SM CLR 22/17 A3002 540 75 1500 180/12 RMK AO2
14840KMKG MKG20020930083509209/30/02 08:35:31  5-MIN KMKG 301335Z 18012KT 8SM CLR 21/17 A3002 540 78 1400 180/12 RMK AO2
14840KMKG MKG20020930084009209/30/02 08:40:31  5-MIN KMKG 301340Z 18011KT 8SM CLR 21/17 A3002 540 78 1400 180/11 RMK AO2
14840KMKG MKG20020930084509209/30/02 08:45:31  5-MIN KMKG 301345Z 19012KT 8SM CLR 22/17 A3002 540 75 1500 190/12 RMK AO2
14840KMKG MKG20020930085011209/30/02 08:50:31  5-MIN KMKG 301350Z 18013KT 8SM FEW080 22/17 A3002 540 75 1500 180/13 RMK AO2 SLP162 T02170172
14840KMKG MKG20020930085511209/30/02 08:55:31  5-MIN KMKG 301355Z 18012KT 8SM FEW080 22/18 A3002 540 78 1500 180/12 RMK AO2 SLP162 T02170178
14840KMKG MKG20020930090009809/30/02 09:00:31  5-MIN KMKG 301400Z 18013G18KT 8SM CLR 22/18 A3002 540 75 1500 180/13G18 RMK AO2
14840KMKG MKG20020930090510809/30/02 09:05:31  5-MIN KMKG 301405Z AUTO 18013G18KT 8SM CLR 22/17 A3002 540 75 1500 180/13G18 RMK AO2 TSNO
14840KMKG MKG20020930091010209/30/02 09:10:31  5-MIN KMKG 301410Z AUTO 17013KT 8SM CLR 22/17 A3001 550 75 1500 180/13 RMK AO2 TSNO
14840KMKG MKG20020930091509209/30/02 09:15:31  5-MIN KMKG 301415Z 18013KT 8SM CLR 22/17 A3001 540 75 1500 180/13 RMK AO2
14840KMKG MKG20020930092009209/30/02 09:20:31  5-MIN KMKG 301420Z 17013KT 8SM CLR 21/17 A3001 540 78 1400 180/13 RMK AO2
14840KMKG MKG20020930092509809/30/02 09:25:31  5-MIN KMKG 301425Z 18013G18KT 8SM CLR 21/17 A3001 550 78 1400 180/13G18 RMK AO2
14840KMKG MKG20020930093009209/30/02 09:30:31  5-MIN KMKG 301430Z 18013KT 8SM CLR 21/17 A3001 550 78 1400 180/13 RMK AO2
14840KMKG MKG20020930093509809/30/02 09:35:31  5-MIN KMKG 301435Z 17014G19KT 8SM CLR 22/17 A3001 550 75 1500 180/14G19 RMK AO2
14840KMKG MKG20020930094010109/30/02 09:40:31  5-MIN KMKG 301440Z 17014G19KT 8SM FEW090 22/17 A3001 550 75 1500 170/14G19 RMK AO2
14840KMKG MKG20020930094510109/30/02 09:45:31  5-MIN KMKG 301445Z 17014G19KT 8SM FEW090 22/17 A3000 560 75 1500 180/14G19 RMK AO2
14840KMKG MKG20020930095012409/30/02 09:50:31  5-MIN KMKG 301450Z 17014G19KT 8SM FEW090 22/17 A3000 560 75 1500 180/14G19 RMK AO2 SLP155 T02170172 53016
14840KMKG MKG20020930095512409/30/02 09:55:31  5-MIN KMKG 301455Z 17016G19KT 8SM FEW090 22/17 A3000 550 73 1600 180/16G19 RMK AO2 SLP157 T02220172 58008
14840KMKG MKG20020930100009809/30/02 10:00:31  5-MIN KMKG 301500Z 18016G19KT 8SM CLR 23/17 A3001 550 70 1600 190/16G19 RMK AO2
14840KMKG MKG20020930100509809/30/02 10:05:31  5-MIN KMKG 301505Z 18015G19KT 9SM CLR 22/17 A3000 550 73 1600 180/15G19 RMK AO2
14840KMKG MKG20020930101009209/30/02 10:10:31  5-MIN KMKG 301510Z 18018KT 9SM CLR 22/17 A3000 560 73 1600 180/18 RMK AO2
14840KMKG MKG20020930101509809/30/02 10:15:31  5-MIN KMKG 301515Z 18018G21KT 9SM CLR 22/17 A3000 560 73 1600 180/18G21 RMK AO2
14840KMKG MKG20020930102009809/30/02 10:20:31  5-MIN KMKG 301520Z 18013G21KT 9SM CLR 23/17 A3000 560 70 1600 180/13G21 RMK AO2
14840KMKG MKG20020930102509809/30/02 10:25:31  5-MIN KMKG 301525Z 18015G23KT 9SM CLR 23/17 A3000 560 70 1600 180/15G23 RMK AO2
14840KMKG MKG20020930103009809/30/02 10:30:31  5-MIN KMKG 301530Z 18016G23KT 9SM CLR 23/17 A3000 560 68 1600 180/16G23 RMK AO2
14840KMKG MKG20020930103509809/30/02 10:35:31  5-MIN KMKG 301535Z 18016G22KT 9SM CLR 23/17 A3000 560 68 1600 190/16G22 RMK AO2
14840KMKG MKG20020930104009809/30/02 10:40:31  5-MIN KMKG 301540Z 17015G22KT 9SM CLR 23/17 A3000 560 70 1600 180/15G22 RMK AO2
14840KMKG MKG20020930104509809/30/02 10:45:31  5-MIN KMKG 301545Z 18015G19KT 9SM CLR 23/17 A3000 560 66 1700 190/15G19 RMK AO2
14840KMKG MKG20020930105011609/30/02 10:50:31  5-MIN KMKG 301550Z 18014G19KT 10SM CLR 23/17 A3000 560 66 1700 180/14G19 RMK AO2 SLP155 T02330167
14840KMKG MKG20020930105511009/30/02 10:55:31  5-MIN KMKG 301555Z 17016KT 10SM CLR 24/17 A3000 560 63 1800 180/16 RMK AO2 SLP154 T02390167
14840KMKG MKG20020930110009909/30/02 11:00:31  5-MIN KMKG 301600Z 18016G23KT 10SM CLR 23/17 A3000 560 66 1700 190/16G23 RMK AO2
14840KMKG MKG20020930110509909/30/02 11:05:31  5-MIN KMKG 301605Z 18014G23KT 10SM CLR 23/17 A3000 560 66 1700 190/14G23 RMK AO2
14840KMKG MKG20020930111009909/30/02 11:10:31  5-MIN KMKG 301610Z 19016G23KT 10SM CLR 23/17 A3000 560 66 1700 190/16G23 RMK AO2
14840KMKG MKG20020930111509809/30/02 11:15:31  5-MIN KMKG 301615Z 18019G23KT 9SM CLR 23/16 A2999 560 63 1700 180/19G23 RMK AO2
14840KMKG MKG20020930112009809/30/02 11:20:31  5-MIN KMKG 301620Z 18016G24KT 9SM CLR 23/16 A2999 560 65 1600 180/16G24 RMK AO2
14840KMKG MKG20020930112509909/30/02 11:25:31  5-MIN KMKG 301625Z 17016G24KT 10SM CLR 23/17 A2999 560 66 1700 180/16G24 RMK AO2
14840KMKG MKG20020930113009909/30/02 11:30:31  5-MIN KMKG 301630Z 17016G21KT 10SM CLR 23/17 A2999 560 66 1700 180/16G21 RMK AO2
14840KMKG MKG20020930113509909/30/02 11:35:31  5-MIN KMKG 301635Z 19017G23KT 10SM CLR 23/17 A2999 560 66 1700 190/17G23 RMK AO2
14840KMKG MKG20020930114009909/30/02 11:40:31  5-MIN KMKG 301640Z 18015G23KT 10SM CLR 23/17 A2999 560 66 1700 190/15G23 RMK AO2
14840KMKG MKG20020930114509909/30/02 11:45:31  5-MIN KMKG 301645Z 19019G23KT 10SM CLR 24/17 A2999 560 63 1800 190/19G23 RMK AO2
14840KMKG MKG20020930115011609/30/02 11:50:31  5-MIN KMKG 301650Z 19017G23KT 10SM CLR 24/16 A2999 560 61 1800 200/17G23 RMK AO2 SLP153 T02390161
14840KMKG MKG20020930115511609/30/02 11:55:31  5-MIN KMKG 301655Z 19017G23KT 10SM CLR 24/16 A2999 560 61 1800 190/17G23 RMK AO2 SLP153 T02390161
14840KMKG MKG20020930120009909/30/02 12:00:31  5-MIN KMKG 301700Z 17014G23KT 10SM CLR 24/16 A2999 570 61 1800 180/14G23 RMK AO2
14840KMKG MKG20020930120509909/30/02 12:05:31  5-MIN KMKG 301705Z 19017G21KT 10SM CLR 24/16 A2999 570 61 1800 190/17G21 RMK AO2
14840KMKG MKG20020930121009909/30/02 12:10:31  5-MIN KMKG 301710Z 18016G21KT 10SM CLR 24/16 A2999 570 61 1800 180/16G21 RMK AO2
14840KMKG MKG20020930121509909/30/02 12:15:31  5-MIN KMKG 301715Z 19016G22KT 10SM CLR 24/17 A2999 570 63 1800 190/16G22 RMK AO2
14840KMKG MKG20020930122009909/30/02 12:20:31  5-MIN KMKG 301720Z 19016G23KT 10SM CLR 24/17 A2999 570 63 1800 190/16G23 RMK AO2
14840KMKG MKG20020930122509909/30/02 12:25:31  5-MIN KMKG 301725Z 19016G23KT 10SM CLR 24/16 A2999 570 61 1800 190/16G23 RMK AO2
14840KMKG MKG20020930123009309/30/02 12:30:31  5-MIN KMKG 301730Z 18017KT 10SM CLR 24/16 A2999 570 61 1800 180/17 RMK AO2
14840KMKG MKG20020930123509909/30/02 12:35:31  5-MIN KMKG 301735Z 18018G22KT 10SM CLR 24/16 A2999 570 61 1800 180/18G22 RMK AO2
14840KMKG MKG20020930124009909/30/02 12:40:31  5-MIN KMKG 301740Z 18016G22KT 10SM CLR 24/17 A2998 570 61 1800 180/16G22 RMK AO2
14840KMKG MKG20020930124509309/30/02 12:45:31  5-MIN KMKG 301745Z 18016KT 10SM CLR 24/17 A2998 570 61 1800 180/16 RMK AO2
14840KMKG MKG20020930125013409/30/02 12:50:31  5-MIN KMKG 301750Z 18016G22KT 10SM CLR 24/16 A2998 570 59 1800 180/16G22 RMK AO2 SLP150 T02440161 10244 20200 58008
14840KMKG MKG20020930125513409/30/02 12:55:31  5-MIN KMKG 301755Z 18019G23KT 10SM CLR 24/16 A2998 580 59 1800 180/19G23 RMK AO2 SLP149 T02440161 10244 20200 58008
14840KMKG MKG20020930130009909/30/02 13:00:31  5-MIN KMKG 301800Z 18019G25KT 10SM CLR 24/16 A2998 580 59 1800 180/19G25 RMK AO2
14840KMKG MKG20020930130509909/30/02 13:05:31  5-MIN KMKG 301805Z 18019G25KT 10SM CLR 24/16 A2997 580 59 1800 180/19G25 RMK AO2
14840KMKG MKG20020930131009909/30/02 13:10:31  5-MIN KMKG 301810Z 18016G24KT 10SM CLR 24/17 A2997 580 61 1800 180/16G24 RMK AO2
14840KMKG MKG20020930131509909/30/02 13:15:31  5-MIN KMKG 301815Z 17018G22KT 10SM CLR 24/17 A2997 580 61 1800 180/18G22 RMK AO2
14840KMKG MKG20020930132009909/30/02 13:20:31  5-MIN KMKG 301820Z 18019G24KT 10SM CLR 24/17 A2997 580 61 1900 190/19G24 RMK AO2
14840KMKG MKG20020930132509909/30/02 13:25:31  5-MIN KMKG 301825Z 18017G24KT 10SM CLR 24/17 A2997 590 61 1900 180/17G24 RMK AO2
14840KMKG MKG20020930133009909/30/02 13:30:31  5-MIN KMKG 301830Z 18018G25KT 10SM CLR 24/17 A2997 590 61 1900 190/18G25 RMK AO2
14840KMKG MKG20020930133511709/30/02 13:35:31  5-MIN KMKG 301835Z 18016G26KT 10SM CLR 24/17 A2996 590 61 1900 180/16G26 RMK AO2 PK WND 17026/1832
14840KMKG MKG20020930134011709/30/02 13:40:31  5-MIN KMKG 301840Z 18016G26KT 10SM CLR 24/17 A2996 590 61 1900 190/16G26 RMK AO2 PK WND 17026/1832
14840KMKG MKG20020930134511709/30/02 13:45:31  5-MIN KMKG 301845Z 17018G23KT 10SM CLR 25/17 A2996 590 61 1900 180/18G23 RMK AO2 PK WND 17026/1832
14840KMKG MKG20020930135013409/30/02 13:50:31  5-MIN KMKG 301850Z 18016G23KT 10SM CLR 24/17 A2996 600 63 1900 180/16G23 RMK AO2 PK WND 17026/1832 SLP140 T02440172
14840KMKG MKG20020930135513409/30/02 13:55:31  5-MIN KMKG 301855Z 17015G23KT 10SM CLR 25/17 A2995 600 61 1900 180/15G23 RMK AO2 PK WND 17026/1832 SLP139 T02500172
14840KMKG MKG20020930140009909/30/02 14:00:31  5-MIN KMKG 301900Z 18016G24KT 10SM CLR 25/17 A2995 600 61 1900 180/16G24 RMK AO2
14840KMKG MKG20020930140509909/30/02 14:05:31  5-MIN KMKG 301905Z 18014G24KT 10SM CLR 25/17 A2995 600 61 1900 190/14G24 RMK AO2
14840KMKG MKG20020930141009909/30/02 14:10:31  5-MIN KMKG 301910Z 18018G24KT 10SM CLR 25/17 A2995 600 61 1900 190/18G24 RMK AO2
14840KMKG MKG20020930141509909/30/02 14:15:31  5-MIN KMKG 301915Z 18019G24KT 10SM CLR 25/17 A2995 600 59 1900 190/19G24 RMK AO2
14840KMKG MKG20020930142009909/30/02 14:20:31  5-MIN KMKG 301920Z 18015G24KT 10SM CLR 25/17 A2995 600 61 1900 190/15G24 RMK AO2
14840KMKG MKG20020930142509909/30/02 14:25:31  5-MIN KMKG 301925Z 18017G25KT 10SM CLR 25/17 A2995 600 61 1900 190/17G25 RMK AO2
14840KMKG MKG20020930143009909/30/02 14:30:31  5-MIN KMKG 301930Z 18016G25KT 10SM CLR 26/17 A2995 610 57 2000 180/16G25 RMK AO2
14840KMKG MKG20020930143509909/30/02 14:35:31  5-MIN KMKG 301935Z 18016G23KT 10SM CLR 25/17 A2994 610 59 1900 180/16G23 RMK AO2
14840KMKG MKG20020930144009909/30/02 14:40:31  5-MIN KMKG 301940Z 18016G23KT 10SM CLR 26/17 A2994 610 57 2000 190/16G23 RMK AO2
14840KMKG MKG20020930144509909/30/02 14:45:31  5-MIN KMKG 301945Z 18017G21KT 10SM CLR 26/17 A2994 610 57 2000 180/17G21 RMK AO2
14840KMKG MKG20020930145011609/30/02 14:50:31  5-MIN KMKG 301950Z 18019G23KT 10SM CLR 26/16 A2994 610 55 2000 180/19G23 RMK AO2 SLP135 T02560161
14840KMKG MKG20020930145511609/30/02 14:55:31  5-MIN KMKG 301955Z 19017G23KT 10SM CLR 26/16 A2994 610 55 2000 190/17G23 RMK AO2 SLP134 T02560161
14840KMKG MKG20020930150009309/30/02 15:00:31  5-MIN KMKG 302000Z 18017KT 10SM CLR 26/16 A2994 620 55 2000 180/17 RMK AO2
14840KMKG MKG20020930150509909/30/02 15:05:31  5-MIN KMKG 302005Z 18016G21KT 10SM CLR 26/16 A2994 620 55 2000 180/16G21 RMK AO2
14840KMKG MKG20020930151009909/30/02 15:10:31  5-MIN KMKG 302010Z 18014G20KT 10SM CLR 26/16 A2993 620 55 2000 180/14G20 RMK AO2
14840KMKG MKG20020930151509309/30/02 15:15:31  5-MIN KMKG 302015Z 18014KT 10SM CLR 26/17 A2993 620 57 2000 190/14 RMK AO2
14840KMKG MKG20020930152009909/30/02 15:20:31  5-MIN KMKG 302020Z 18016G21KT 10SM CLR 26/16 A2993 620 55 2000 180/16G21 RMK AO2
14840KMKG MKG20020930152509909/30/02 15:25:31  5-MIN KMKG 302025Z 18016G21KT 10SM CLR 26/16 A2993 620 55 2000 180/16G21 RMK AO2
14840KMKG MKG20020930153009309/30/02 15:30:31  5-MIN KMKG 302030Z 18016KT 10SM CLR 26/16 A2992 630 55 2000 190/16 RMK AO2
14840KMKG MKG20020930153509309/30/02 15:35:31  5-MIN KMKG 302035Z 18015KT 10SM CLR 26/16 A2992 630 55 2000 190/15 RMK AO2
14840KMKG MKG20020930154009909/30/02 15:40:31  5-MIN KMKG 302040Z 18012G18KT 10SM CLR 26/16 A2992 630 55 2000 190/12G18 RMK AO2
14840KMKG MKG20020930154509909/30/02 15:45:31  5-MIN KMKG 302045Z 18015G18KT 10SM CLR 26/16 A2992 630 53 2000 190/15G18 RMK AO2
14840KMKG MKG20020930155011609/30/02 15:50:31  5-MIN KMKG 302050Z 19013KT 10SM CLR 26/16 A2992 630 53 2000 190/13 RMK AO2 SLP128 T02560156 58008
14840KMKG MKG20020930155511609/30/02 15:55:31  5-MIN KMKG 302055Z 19013KT 10SM CLR 26/16 A2991 640 53 2000 190/13 RMK AO2 SLP127 T02560156 56021
14840KMKG MKG20020930160009309/30/02 16:00:31  5-MIN KMKG 302100Z 18012KT 10SM CLR 26/16 A2991 640 53 2000 190/12 RMK AO2
14840KMKG MKG20020930160509309/30/02 16:05:31  5-MIN KMKG 302105Z 18013KT 10SM CLR 26/16 A2991 640 53 2000 180/13 RMK AO2
14840KMKG MKG20020930161009909/30/02 16:10:31  5-MIN KMKG 302110Z 18015G22KT 10SM CLR 26/15 A2991 640 51 2000 190/15G22 RMK AO2
14840KMKG MKG20020930161509909/30/02 16:15:31  5-MIN KMKG 302115Z 18014G22KT 10SM CLR 25/15 A2991 640 53 2000 190/14G22 RMK AO2
14840KMKG MKG20020930162007609/30/02 16:20:31  5-MIN KMKG 302120Z 26/15 A2991 640 51 2000 M /M RMK AO2 $
14840KMKG MKG20020930162509209/30/02 16:25:31  5-MIN KMKG 302125Z 18012G19KT 26/15 A2991 640 51 2000 190/12G19 RMK AO2 $
14840KMKG MKG20020930163009109/30/02 16:30:31  5-MIN KMKG 302130Z 18014KT 10SM 26/15 A2991 640 51 2000 190/14 RMK AO2 $
14840KMKG MKG20020930163509109/30/02 16:35:31  5-MIN KMKG 302135Z 18014KT 10SM 26/16 A2990 640 53 2100 190/14 RMK AO2 $
14840KMKG MKG20020930164009109/30/02 16:40:31  5-MIN KMKG 302140Z 18012KT 10SM 26/16 A2990 650 53 2100 180/12 RMK AO2 $
14840KMKG MKG20020930164510109/30/02 16:45:31  5-MIN KMKG 302145Z 17014G19KT 10SM CLR 26/16 A2990 650 53 2100 170/14G19 RMK AO2 $
14840KMKG MKG20020930165011209/30/02 16:50:31  5-MIN KMKG 302150Z 18015KT 10SM CLR 26/16 A2990 650 53 2100 180/15 RMK AO2 SLP120 T02560156 $
14840KMKG MKG20020930165511209/30/02 16:55:31  5-MIN KMKG 302155Z 18015KT 10SM CLR 26/16 A2989 650 53 2100 180/15 RMK AO2 SLP120 T02560156 $
14840KMKG MKG20020930170009509/30/02 17:00:31  5-MIN KMKG 302200Z 18012KT 10SM CLR 26/16 A2989 660 53 2100 180/12 RMK AO2 $
14840KMKG MKG20020930170510109/30/02 17:05:31  5-MIN KMKG 302205Z 18013G18KT 10SM CLR 26/16 A2989 660 53 2100 180/13G18 RMK AO2 $
14840KMKG MKG20020930171010109/30/02 17:10:31  5-MIN KMKG 302210Z 17014G18KT 10SM CLR 26/16 A2989 660 53 2100 180/14G18 RMK AO2 $
14840KMKG MKG20020930171510109/30/02 17:15:31  5-MIN KMKG 302215Z 17012G18KT 10SM CLR 26/16 A2989 660 53 2100 180/12G18 RMK AO2 $
14840KMKG MKG20020930172009509/30/02 17:20:31  5-MIN KMKG 302220Z 17012KT 10SM CLR 26/14 A2989 660 49 2100 180/12 RMK AO2 $
14840KMKG MKG20020930172510109/30/02 17:25:31  5-MIN KMKG 302225Z 18012G17KT 10SM CLR 26/14 A2988 660 48 2100 180/12G17 RMK AO2 $
14840KMKG MKG20020930173010109/30/02 17:30:31  5-MIN KMKG 302230Z 17014G17KT 10SM CLR 26/14 A2988 670 48 2100 180/14G17 RMK AO2 $
14840KMKG MKG20020930173509509/30/02 17:35:31  5-MIN KMKG 302235Z 17013KT 10SM CLR 26/13 A2988 670 46 2100 180/13 RMK AO2 $
14840KMKG MKG20020930174009509/30/02 17:40:31  5-MIN KMKG 302240Z 18011KT 10SM CLR 26/13 A2988 670 46 2100 180/11 RMK AO2 $
14840KMKG MKG20020930174509509/30/02 17:45:31  5-MIN KMKG 302245Z 18013KT 10SM CLR 26/13 A2988 670 46 2100 180/13 RMK AO2 $
14840KMKG MKG20020930175011209/30/02 17:50:31  5-MIN KMKG 302250Z 18013KT 10SM CLR 26/13 A2988 670 46 2100 180/13 RMK AO2 SLP115 T02560133 $
14840KMKG MKG20020930175511209/30/02 17:55:31  5-MIN KMKG 302255Z 18011KT 10SM CLR 26/13 A2988 670 46 2100 180/11 RMK AO2 SLP115 T02560133 $
14840KMKG MKG20020930180010109/30/02 18:00:31  5-MIN KMKG 302300Z 18012G19KT 10SM CLR 26/13 A2988 670 46 2100 180/12G19 RMK AO2 $
14840KMKG MKG20020930180510109/30/02 18:05:31  5-MIN KMKG 302305Z 18014G19KT 10SM CLR 26/13 A2988 670 44 2100 180/14G19 RMK AO2 $
14840KMKG MKG20020930181009509/30/02 18:10:31  5-MIN KMKG 302310Z 18012KT 10SM CLR 26/13 A2988 670 44 2100 180/12 RMK AO2 $
14840KMKG MKG20020930181509509/30/02 18:15:31  5-MIN KMKG 302315Z 18014KT 10SM CLR 26/13 A2988 670 44 2100 180/14 RMK AO2 $
14840KMKG MKG20020930182012709/30/02 18:20:31  5-MIN KMKG 302320Z 18015G20KT 10SM CLR 26/13 A2988 670 44 2100 180/15G20 RMK AO2 CHINO RWY 14 VISNO RWY 14 $
14840KMKG MKG20020930182512709/30/02 18:25:31  5-MIN KMKG 302325Z 18013G20KT 10SM CLR 26/13 A2988 670 44 2100 180/13G20 RMK AO2 CHINO RWY 14 VISNO RWY 14 $
14840KMKG MKG20020930183010809/30/02 18:30:31  5-MIN KMKG 302330Z 18013KT 10SM CLR 25/13 A2988 670 46 2000 190/13 RMK AO2 CHINO RWY 14 $
14840KMKG MKG20020930183511409/30/02 18:35:31  5-MIN KMKG 302335Z 18013G20KT 10SM CLR 25/13 A2988 670 46 2000 180/13G20 RMK AO2 CHINO RWY 14 $
14840KMKG MKG20020930184011409/30/02 18:40:31  5-MIN KMKG 302340Z 18015G20KT 10SM CLR 26/13 A2988 670 46 2100 190/15G20 RMK AO2 CHINO RWY 14 $
14840KMKG MKG20020930184511409/30/02 18:45:31  5-MIN KMKG 302345Z 18014G19KT 10SM CLR 26/13 A2988 670 46 2100 190/14G19 RMK AO2 CHINO RWY 14 $
14840KMKG MKG20020930185014209/30/02 18:50:31  5-MIN KMKG 302350Z 18014G20KT 10SM CLR 26/13 A2988 670 46 2100 180/14G20 RMK AO2 SLP115 6//// T02560133 10261 20244 56021 $
14840KMKG MKG20020930185513609/30/02 18:55:31  5-MIN KMKG 302355Z 18012G21KT 10SM CLR 26/13 A2988 670 46 2100 190/12G21 RMK AO2 SLP113 T02560133 10261 20244 56013 $
14840KMKG MKG20020930190010109/30/02 19:00:31  5-MIN KMKG 010000Z 18011G21KT 10SM CLR 25/13 A2987 670 48 2000 180/11G21 RMK AO2 $
14840KMKG MKG20020930190510109/30/02 19:05:31  5-MIN KMKG 010005Z 18013G18KT 10SM CLR 25/14 A2987 670 49 2000 180/13G18 RMK AO2 $
14840KMKG MKG20020930191009509/30/02 19:10:31  5-MIN KMKG 010010Z 19012KT 10SM CLR 26/13 A2988 670 46 2100 190/12 RMK AO2 $
14840KMKG MKG20020930191509509/30/02 19:15:31  5-MIN KMKG 010015Z 18013KT 10SM CLR 26/13 A2988 670 46 2100 180/13 RMK AO2 $
14840KMKG MKG20020930192009509/30/02 19:20:31  5-MIN KMKG 010020Z 18012KT 10SM CLR 26/13 A2987 670 46 2100 180/12 RMK AO2 $
14840KMKG MKG20020930192509509/30/02 19:25:31  5-MIN KMKG 010025Z 18012KT 10SM CLR 26/13 A2988 670 46 2100 190/12 RMK AO2 $
14840KMKG MKG20020930193010109/30/02 19:30:31  5-MIN KMKG 010030Z 19014G19KT 10SM CLR 26/13 A2987 670 46 2100 190/14G19 RMK AO2 $
14840KMKG MKG20020930193510109/30/02 19:35:31  5-MIN KMKG 010035Z 19016G23KT 10SM CLR 26/13 A2987 670 46 2100 190/16G23 RMK AO2 $
14840KMKG MKG20020930194010109/30/02 19:40:31  5-MIN KMKG 010040Z 18015G23KT 10SM CLR 26/13 A2987 680 46 2100 190/15G23 RMK AO2 $
14840KMKG MKG20020930194509509/30/02 19:45:31  5-MIN KMKG 010045Z 18015KT 10SM CLR 26/13 A2987 680 46 2100 190/15 RMK AO2 $
14840KMKG MKG20020930195011809/30/02 19:50:31  5-MIN KMKG 010050Z 18017G21KT 10SM CLR 26/13 A2987 680 46 2100 190/17G21 RMK AO2 SLP112 T02560133 $
14840KMKG MKG20020930195511809/30/02 19:55:31  5-MIN KMKG 010055Z 18017G21KT 10SM CLR 26/13 A2987 680 46 2100 190/17G21 RMK AO2 SLP112 T02560133 $
14840KMKG MKG20020930200010109/30/02 20:00:31  5-MIN KMKG 010100Z 18015G21KT 10SM CLR 26/13 A2987 680 46 2100 190/15G21 RMK AO2 $
14840KMKG MKG20020930200510109/30/02 20:05:31  5-MIN KMKG 010105Z 18016G22KT 10SM CLR 26/13 A2987 680 46 2100 190/16G22 RMK AO2 $
14840KMKG MKG20020930201010109/30/02 20:10:31  5-MIN KMKG 010110Z 18018G22KT 10SM CLR 26/13 A2987 680 46 2100 180/18G22 RMK AO2 $
14840KMKG MKG20020930201509509/30/02 20:15:31  5-MIN KMKG 010115Z 18014KT 10SM CLR 26/14 A2987 670 48 2100 180/14 RMK AO2 $
14840KMKG MKG20020930202009509/30/02 20:20:31  5-MIN KMKG 010120Z 18014KT 10SM CLR 25/14 A2987 680 49 2000 180/14 RMK AO2 $
14840KMKG MKG20020930202510109/30/02 20:25:31  5-MIN KMKG 010125Z 18014G20KT 10SM CLR 25/14 A2987 680 49 2000 180/14G20 RMK AO2 $
14840KMKG MKG20020930203009509/30/02 20:30:31  5-MIN KMKG 010130Z 17014KT 10SM CLR 26/14 A2987 680 48 2100 170/14 RMK AO2 $
14840KMKG MKG20020930203509509/30/02 20:35:31  5-MIN KMKG 010135Z 18014KT 10SM CLR 24/14 A2987 680 53 2000 180/14 RMK AO2 $
14840KMKG MKG20020930204009509/30/02 20:40:31  5-MIN KMKG 010140Z 18013KT 10SM CLR 24/14 A2987 680 53 2000 180/13 RMK AO2 $
14840KMKG MKG20020930204509509/30/02 20:45:31  5-MIN KMKG 010145Z 17011KT 10SM CLR 24/14 A2987 670 53 2000 180/11 RMK AO2 $
14840KMKG MKG20020930205011209/30/02 20:50:31  5-MIN KMKG 010150Z 17012KT 10SM CLR 24/14 A2987 670 53 2000 180/12 RMK AO2 SLP112 T02440144 $
14840KMKG MKG20020930205511209/30/02 20:55:31  5-MIN KMKG 010155Z 18012KT 10SM CLR 25/14 A2987 670 51 2000 180/12 RMK AO2 SLP112 T02500144 $
14840KMKG MKG20020930210009509/30/02 21:00:31  5-MIN KMKG 010200Z 17014KT 10SM CLR 25/14 A2987 670 51 2000 180/14 RMK AO2 $
14840KMKG MKG20020930210509509/30/02 21:05:31  5-MIN KMKG 010205Z 17015KT 10SM CLR 25/14 A2987 680 51 2000 180/15 RMK AO2 $
14840KMKG MKG20020930211010109/30/02 21:10:31  5-MIN KMKG 010210Z 17017G23KT 10SM CLR 25/14 A2987 680 51 2000 180/17G23 RMK AO2 $
14840KMKG MKG20020930211510109/30/02 21:15:31  5-MIN KMKG 010215Z 18015G23KT 10SM CLR 25/15 A2987 680 53 2000 180/15G23 RMK AO2 $
14840KMKG MKG20020930212009509/30/02 21:20:31  5-MIN KMKG 010220Z 18016KT 10SM CLR 25/15 A2987 680 53 2000 180/16 RMK AO2 $
14840KMKG MKG20020930212511909/30/02 21:25:31  5-MIN KMKG 010225Z 18016G27KT 10SM CLR 25/15 A2987 680 53 2000 180/16G27 RMK AO2 PK WND 17027/0222 $
14840KMKG MKG20020930213011909/30/02 21:30:31  5-MIN KMKG 010230Z 18019G27KT 10SM CLR 24/16 A2986 680 57 2000 180/19G27 RMK AO2 PK WND 17027/0222 $
14840KMKG MKG20020930213511909/30/02 21:35:31  5-MIN KMKG 010235Z 18021G26KT 10SM CLR 24/16 A2986 680 57 2000 190/21G26 RMK AO2 PK WND 17027/0222 $
14840KMKG MKG20020930214011909/30/02 21:40:31  5-MIN KMKG 010240Z 18019G26KT 10SM CLR 24/16 A2987 680 57 2000 190/19G26 RMK AO2 PK WND 17027/0222 $
14840KMKG MKG20020930214511909/30/02 21:45:31  5-MIN KMKG 010245Z 18017G24KT 10SM CLR 24/16 A2987 680 57 2000 190/17G24 RMK AO2 PK WND 17027/0222 $
14840KMKG MKG20020930215014209/30/02 21:50:31  5-MIN KMKG 010250Z 18018G23KT 10SM CLR 24/16 A2987 680 57 2000 180/18G23 RMK AO2 PK WND 17027/0222 SLP110 T02440156 56013 $
14840KMKG MKG20020930215514209/30/02 21:55:31  5-MIN KMKG 010255Z 18019G24KT 10SM CLR 24/16 A2987 680 61 1900 180/19G24 RMK AO2 PK WND 17027/0222 SLP112 T02390161 56002 $
14840KMKG MKG20020930220010109/30/02 22:00:31  5-MIN KMKG 010300Z 18018G24KT 10SM CLR 24/16 A2987 670 61 1900 190/18G24 RMK AO2 $
14840KMKG MKG20020930220510109/30/02 22:05:31  5-MIN KMKG 010305Z 18019G24KT 10SM CLR 24/16 A2988 670 61 1900 180/19G24 RMK AO2 $
14840KMKG MKG20020930221011909/30/02 22:10:31  5-MIN KMKG 010310Z 18018G26KT 10SM CLR 24/16 A2988 670 61 1900 190/18G26 RMK AO2 PK WND 18026/0310 $
14840KMKG MKG20020930221511909/30/02 22:15:31  5-MIN KMKG 010315Z 18022G29KT 10SM CLR 24/17 A2988 670 63 1900 180/22G29 RMK AO2 PK WND 18029/0315 $
14840KMKG MKG20020930222011909/30/02 22:20:31  5-MIN KMKG 010320Z 18017G29KT 10SM CLR 23/17 A2988 670 66 1800 190/17G29 RMK AO2 PK WND 18029/0315 $
14840KMKG MKG20020930222511909/30/02 22:25:31  5-MIN KMKG 010325Z 18020G24KT 10SM CLR 23/17 A2988 670 66 1800 180/20G24 RMK AO2 PK WND 18029/0315 $
14840KMKG MKG20020930223011309/30/02 22:30:31  5-MIN KMKG 010330Z 18018KT 10SM CLR 23/17 A2988 670 68 1800 190/18 RMK AO2 PK WND 18029/0315 $
14840KMKG MKG20020930223511909/30/02 22:35:31  5-MIN KMKG 010335Z 18018G23KT 10SM CLR 23/17 A2988 660 68 1800 190/18G23 RMK AO2 PK WND 18029/0315 $
14840KMKG MKG20020930224011909/30/02 22:40:31  5-MIN KMKG 010340Z 18018G23KT 10SM CLR 23/17 A2988 660 70 1800 190/18G23 RMK AO2 PK WND 18029/0315 $
14840KMKG MKG20020930224511909/30/02 22:45:31  5-MIN KMKG 010345Z 18017G25KT 10SM CLR 23/17 A2988 660 70 1800 190/17G25 RMK AO2 PK WND 18029/0315 $
14840KMKG MKG20020930225013609/30/02 22:50:31  5-MIN KMKG 010350Z 18015G25KT 10SM CLR 23/17 A2989 660 70 1800 190/15G25 RMK AO2 PK WND 18029/0315 SLP117 T02280172 $
14840KMKG MKG20020930225513609/30/02 22:55:31  5-MIN KMKG 010355Z 19017G25KT 10SM CLR 23/17 A2989 660 70 1800 190/17G25 RMK AO2 PK WND 18029/0315 SLP117 T02280172 $
14840KMKG MKG20020930230010109/30/02 23:00:31  5-MIN KMKG 010400Z 18015G23KT 10SM CLR 23/17 A2989 660 70 1800 190/15G23 RMK AO2 $
14840KMKG MKG20020930230510109/30/02 23:05:31  5-MIN KMKG 010405Z 19014G23KT 10SM CLR 23/17 A2989 660 70 1800 190/14G23 RMK AO2 $
14840KMKG MKG20020930231010109/30/02 23:10:31  5-MIN KMKG 010410Z 18019G22KT 10SM CLR 23/17 A2989 660 70 1800 190/19G22 RMK AO2 $
14840KMKG MKG20020930231510109/30/02 23:15:31  5-MIN KMKG 010415Z 19016G22KT 10SM CLR 22/17 A2989 650 73 1700 190/16G22 RMK AO2 $
14840KMKG MKG20020930232010109/30/02 23:20:31  5-MIN KMKG 010420Z 18016G21KT 10SM CLR 22/18 A2990 650 75 1700 190/16G21 RMK AO2 $
14840KMKG MKG20020930232510109/30/02 23:25:31  5-MIN KMKG 010425Z 19015G21KT 10SM CLR 22/18 A2989 650 75 1700 190/15G21 RMK AO2 $
14840KMKG MKG20020930233010109/30/02 23:30:31  5-MIN KMKG 010430Z 18016G21KT 10SM CLR 22/18 A2989 650 75 1700 180/16G21 RMK AO2 $
14840KMKG MKG20020930233510109/30/02 23:35:31  5-MIN KMKG 010435Z 18015G23KT 10SM CLR 22/18 A2990 650 75 1700 180/15G23 RMK AO2 $
14840KMKG MKG20020930234010109/30/02 23:40:31  5-MIN KMKG 010440Z 18014G23KT 10SM CLR 22/18 A2989 650 75 1700 190/14G23 RMK AO2 $
14840KMKG MKG20020930234510109/30/02 23:45:31  5-MIN KMKG 010445Z 18015G22KT 10SM CLR 22/18 A2990 650 75 1700 180/15G22 RMK AO2 $
14840KMKG MKG20020930235012809/30/02 23:50:31  5-MIN KMKG 010450Z 18016G22KT 10SM CLR 22/18 A2990 650 75 1700 190/16G22 RMK AO2 SLP120 T02220178 402610194 $
14840KMKG MKG20020930235512809/30/02 23:55:31  5-MIN KMKG 010455Z 18015G22KT 10SM CLR 22/18 A2990 650 78 1600 190/15G22 RMK AO2 SLP120 T02170178 402610194 $
